<?xml version="1.0" encoding="UTF-8" standalone="yes"?>
<gpx xmlns:gpxtpx1="http://www.garmin.com/xmlschemas/TrackPointExtension/v1" xmlns="http://www.topografix.com/GPX/1/1" xmlns:trp="http://www.garmin.com/xmlschemas/TripExtensions/v1" xmlns:gpxx="http://www.garmin.com/xmlschemas/GpxExtensions/v3" xmlns:gpxtpx="http://www.garmin.com/xmlschemas/TrackPointExtension/v2" version="1.1" creator="RouteConverter 2.27.2">
    <metadata>
        <name>2013-10-27 08:04</name>
        <desc></desc>
        <link href="http://www.oruxmaps.com">
            <text>OruxMaps</text>
        </link>
        <time>2013-10-27T07:04:20Z</time>
        <bounds minlat="47.483586072920374" minlon="11.06645107269255" maxlat="47.598749399183795" maxlon="11.196656227111491"/>
    </metadata>
    <trk>
        <name>2013-10-27 08:04</name>
        <desc>&lt;h1&gt;OruxMaps&lt;/h1&gt;&lt;br /&gt;&lt;hr align="center" width="480" style="height: 2px; width: 517px"/&gt;&lt;h2&gt;Name: 2013-10-27 08:04&lt;/h2&gt;&lt;br /&gt;&lt;p&gt;Startzeit: 10/27/2013 08:21&lt;/p&gt;&lt;p&gt;Zielzeit: 10/27/2013 12:32&lt;/p&gt;&lt;p&gt;Strecke: 34,
3 km (04:10)&lt;/p&gt;&lt;p&gt;Bewegungszeit: 01:33&lt;/p&gt;&lt;p&gt;Ø-Geschwindigkeit: 8,
2 km/h&lt;/p&gt;&lt;p&gt;Netto Geschwindigkeit: 22 km/h&lt;/p&gt;&lt;p&gt;Max. Geschwindigkeit: 89 km/h&lt;/p&gt;&lt;p&gt;Minimale Höhe: 681 m&lt;/p&gt;&lt;p&gt;Maximale Höhe: 1406 m&lt;/p&gt;&lt;p&gt;Steig-Geschw.: 209,
9 m/h&lt;/p&gt;&lt;p&gt;Sink-Geschw.: -831,
8 m/h&lt;/p&gt;&lt;p&gt;Aufstieg: 570 m&lt;/p&gt;&lt;p&gt;Abstieg: -760 m&lt;/p&gt;&lt;p&gt;Steigzeit: 02:43&lt;/p&gt;&lt;p&gt;Sinkzeit: 00:54&lt;/p&gt;&lt;hr align="center" width="480" style="height: 2px; width: 517px"/&gt;</desc>
        <type>Unbestimmt</type>
        <trkseg>
            <trkpt lat="47.5974838" lon="11.0856557">
                <ele>1056.9</ele>
                <time>2013-10-27T07:21:56.000Z</time>
                <name>Position 1</name>
            </trkpt>
            <trkpt lat="47.5965957" lon="11.088574">
                <ele>1056.9</ele>
                <time>2013-10-27T07:22:09.000Z</time>
                <name>Position 2</name>
            </trkpt>
            <trkpt lat="47.5960832" lon="11.0930371">
                <ele>1057.9</ele>
                <time>2013-10-27T07:22:23.000Z</time>
                <name>Position 3</name>
            </trkpt>
            <trkpt lat="47.5968361" lon="11.0955692">
                <ele>1057.9</ele>
                <time>2013-10-27T07:22:38.000Z</time>
                <name>Position 4</name>
            </trkpt>
            <trkpt lat="47.5963247" lon="11.0970926">
                <ele>1047.7</ele>
                <time>2013-10-27T07:25:17.000Z</time>
                <name>Position 5</name>
            </trkpt>
            <trkpt lat="47.5961423" lon="11.0971999">
                <ele>1046.9</ele>
                <time>2013-10-27T07:25:44.000Z</time>
                <name>Position 6</name>
            </trkpt>
            <trkpt lat="47.5959706" lon="11.0973501">
                <ele>1046.9</ele>
                <time>2013-10-27T07:26:07.000Z</time>
                <name>Position 7</name>
            </trkpt>
            <trkpt lat="47.5958312" lon="11.0975218">
                <ele>1048.4</ele>
                <time>2013-10-27T07:26:26.000Z</time>
                <name>Position 8</name>
            </trkpt>
            <trkpt lat="47.5957024" lon="11.0977149">
                <ele>1053.4</ele>
                <time>2013-10-27T07:26:56.000Z</time>
                <name>Position 9</name>
            </trkpt>
            <trkpt lat="47.5955951" lon="11.0979509">
                <ele>1072.9</ele>
                <time>2013-10-27T07:27:58.000Z</time>
                <name>Position 10</name>
            </trkpt>
            <trkpt lat="47.5954342" lon="11.0981011">
                <ele>1075.9</ele>
                <time>2013-10-27T07:28:39.000Z</time>
                <name>Position 11</name>
            </trkpt>
            <trkpt lat="47.5952733" lon="11.0982513">
                <ele>1079.9</ele>
                <time>2013-10-27T07:29:15.000Z</time>
                <name>Position 12</name>
            </trkpt>
            <trkpt lat="47.5951231" lon="11.0984015">
                <ele>1082.9</ele>
                <time>2013-10-27T07:30:35.000Z</time>
                <name>Position 13</name>
            </trkpt>
            <trkpt lat="47.5949407" lon="11.0983372">
                <ele>1088.2</ele>
                <time>2013-10-27T07:31:24.000Z</time>
                <name>Position 14</name>
            </trkpt>
            <trkpt lat="47.5947583" lon="11.0983586">
                <ele>1094.2</ele>
                <time>2013-10-27T07:31:57.000Z</time>
                <name>Position 15</name>
            </trkpt>
            <trkpt lat="47.5946403" lon="11.0985732">
                <ele>1102.4</ele>
                <time>2013-10-27T07:32:52.000Z</time>
                <name>Position 16</name>
            </trkpt>
            <trkpt lat="47.5945115" lon="11.0987663">
                <ele>1114.0</ele>
                <time>2013-10-27T07:33:38.000Z</time>
                <name>Position 17</name>
            </trkpt>
            <trkpt lat="47.5945222" lon="11.0990024">
                <ele>1148.6</ele>
                <time>2013-10-27T07:36:34.000Z</time>
                <name>Position 18</name>
            </trkpt>
            <trkpt lat="47.5946081" lon="11.0992384">
                <ele>1150.3</ele>
                <time>2013-10-27T07:37:13.000Z</time>
                <name>Position 19</name>
            </trkpt>
            <trkpt lat="47.5932992" lon="11.1000752">
                <ele>1127.9</ele>
                <time>2013-10-27T07:57:13.000Z</time>
                <name>Position 20</name>
            </trkpt>
            <trkpt lat="47.5934494" lon="11.1002254">
                <ele>1128.5</ele>
                <time>2013-10-27T07:57:19.000Z</time>
                <name>Position 21</name>
            </trkpt>
            <trkpt lat="47.5935888" lon="11.1003971">
                <ele>1130.7</ele>
                <time>2013-10-27T07:57:32.000Z</time>
                <name>Position 22</name>
            </trkpt>
            <trkpt lat="47.5937712" lon="11.1003757">
                <ele>1146.4</ele>
                <time>2013-10-27T07:59:01.000Z</time>
                <name>Position 23</name>
            </trkpt>
            <trkpt lat="47.5939643" lon="11.1010408">
                <ele>1298.9</ele>
                <time>2013-10-27T08:55:53.000Z</time>
                <name>Position 24</name>
            </trkpt>
            <trkpt lat="47.5940073" lon="11.1013198">
                <ele>1293.7</ele>
                <time>2013-10-27T08:58:14.000Z</time>
                <name>Position 25</name>
            </trkpt>
            <trkpt lat="47.5938678" lon="11.1011481">
                <ele>1290.9</ele>
                <time>2013-10-27T08:59:33.000Z</time>
                <name>Position 26</name>
            </trkpt>
            <trkpt lat="47.5936425" lon="11.1013627">
                <ele>1332.9</ele>
                <time>2013-10-27T09:10:46.000Z</time>
                <name>Position 27</name>
            </trkpt>
            <trkpt lat="47.5936532" lon="11.1016417">
                <ele>1337.9</ele>
                <time>2013-10-27T09:12:39.000Z</time>
                <name>Position 28</name>
            </trkpt>
            <trkpt lat="47.5935137" lon="11.1018133">
                <ele>1358.8</ele>
                <time>2013-10-27T09:20:10.000Z</time>
                <name>Position 29</name>
            </trkpt>
            <trkpt lat="47.5933313" lon="11.1018777">
                <ele>1371.9</ele>
                <time>2013-10-27T09:30:44.000Z</time>
                <name>Position 30</name>
            </trkpt>
            <trkpt lat="47.5931489" lon="11.1018991">
                <ele>1370.9</ele>
                <time>2013-10-27T09:31:22.000Z</time>
                <name>Position 31</name>
            </trkpt>
            <trkpt lat="47.5930095" lon="11.1020708">
                <ele>1382.9</ele>
                <time>2013-10-27T09:34:44.000Z</time>
                <name>Position 32</name>
            </trkpt>
            <trkpt lat="47.5928271" lon="11.1020708">
                <ele>1398.0</ele>
                <time>2013-10-27T09:42:52.000Z</time>
                <name>Position 33</name>
            </trkpt>
            <trkpt lat="47.5926554" lon="11.1021566">
                <ele>1391.9</ele>
                <time>2013-10-27T09:57:39.000Z</time>
                <name>Position 34</name>
            </trkpt>
            <trkpt lat="47.5925159" lon="11.101985">
                <ele>1397.6</ele>
                <time>2013-10-27T09:58:35.000Z</time>
                <name>Position 35</name>
            </trkpt>
            <trkpt lat="47.5923336" lon="11.1019635">
                <ele>1400.7</ele>
                <time>2013-10-27T09:59:05.000Z</time>
                <name>Position 36</name>
            </trkpt>
            <trkpt lat="47.5921834" lon="11.1021352">
                <ele>1401.9</ele>
                <time>2013-10-27T09:59:33.000Z</time>
                <name>Position 37</name>
            </trkpt>
            <trkpt lat="47.5920439" lon="11.1023068">
                <ele>1402.9</ele>
                <time>2013-10-27T09:59:59.000Z</time>
                <name>Position 38</name>
            </trkpt>
            <trkpt lat="47.5921297" lon="11.1020708">
                <ele>1402.9</ele>
                <time>2013-10-27T10:01:39.000Z</time>
                <name>Position 39</name>
            </trkpt>
            <trkpt lat="47.5920761" lon="11.1023283">
                <ele>1405.9</ele>
                <time>2013-10-27T10:02:49.000Z</time>
                <name>Position 40</name>
            </trkpt>
            <trkpt lat="47.5918937" lon="11.1023283">
                <ele>1405.9</ele>
                <time>2013-10-27T10:03:20.000Z</time>
                <name>Position 41</name>
            </trkpt>
            <trkpt lat="47.5917113" lon="11.1023283">
                <ele>1405.0</ele>
                <time>2013-10-27T10:03:46.000Z</time>
                <name>Position 42</name>
            </trkpt>
            <trkpt lat="47.5915396" lon="11.1024141">
                <ele>1404.9</ele>
                <time>2013-10-27T10:04:06.000Z</time>
                <name>Position 43</name>
            </trkpt>
            <trkpt lat="47.5913572" lon="11.1024785">
                <ele>1404.9</ele>
                <time>2013-10-27T10:04:29.000Z</time>
                <name>Position 44</name>
            </trkpt>
            <trkpt lat="47.5911748" lon="11.1025214">
                <ele>1403.9</ele>
                <time>2013-10-27T10:04:53.000Z</time>
                <name>Position 45</name>
            </trkpt>
            <trkpt lat="47.5910139" lon="11.1026502">
                <ele>1404.2</ele>
                <time>2013-10-27T10:05:29.000Z</time>
                <name>Position 46</name>
            </trkpt>
            <trkpt lat="47.5908315" lon="11.1026502">
                <ele>1405.9</ele>
                <time>2013-10-27T10:05:46.000Z</time>
                <name>Position 47</name>
            </trkpt>
            <trkpt lat="47.5906813" lon="11.1024785">
                <ele>1405.9</ele>
                <time>2013-10-27T10:06:02.000Z</time>
                <name>Position 48</name>
            </trkpt>
            <trkpt lat="47.590574" lon="11.1022639">
                <ele>1405.9</ele>
                <time>2013-10-27T10:06:19.000Z</time>
                <name>Position 49</name>
            </trkpt>
            <trkpt lat="47.5904346" lon="11.1020923">
                <ele>1405.0</ele>
                <time>2013-10-27T10:06:47.000Z</time>
                <name>Position 50</name>
            </trkpt>
            <trkpt lat="47.5903702" lon="11.1018348">
                <ele>1405.9</ele>
                <time>2013-10-27T10:07:21.000Z</time>
                <name>Position 51</name>
            </trkpt>
            <trkpt lat="47.5904775" lon="11.1020494">
                <ele>1405.9</ele>
                <time>2013-10-27T10:07:44.000Z</time>
                <name>Position 52</name>
            </trkpt>
            <trkpt lat="47.5903702" lon="11.1018348">
                <ele>1406.9</ele>
                <time>2013-10-27T10:08:38.000Z</time>
                <name>Position 53</name>
            </trkpt>
            <trkpt lat="47.5903594" lon="11.1015558">
                <ele>1406.9</ele>
                <time>2013-10-27T10:08:56.000Z</time>
                <name>Position 54</name>
            </trkpt>
            <trkpt lat="47.5904346" lon="11.1012983">
                <ele>1406.9</ele>
                <time>2013-10-27T10:09:12.000Z</time>
                <name>Position 55</name>
            </trkpt>
            <trkpt lat="47.5904882" lon="11.1010408">
                <ele>1405.9</ele>
                <time>2013-10-27T10:09:38.000Z</time>
                <name>Position 56</name>
            </trkpt>
            <trkpt lat="47.5905526" lon="11.1007833">
                <ele>1404.0</ele>
                <time>2013-10-27T10:09:58.000Z</time>
                <name>Position 57</name>
            </trkpt>
            <trkpt lat="47.590574" lon="11.1005044">
                <ele>1401.5</ele>
                <time>2013-10-27T10:10:21.000Z</time>
                <name>Position 58</name>
            </trkpt>
            <trkpt lat="47.5907135" lon="11.1003113">
                <ele>1398.5</ele>
                <time>2013-10-27T10:10:45.000Z</time>
                <name>Position 59</name>
            </trkpt>
            <trkpt lat="47.5907993" lon="11.1000752">
                <ele>1395.6</ele>
                <time>2013-10-27T10:11:05.000Z</time>
                <name>Position 60</name>
            </trkpt>
            <trkpt lat="47.5908852" lon="11.0998392">
                <ele>1391.9</ele>
                <time>2013-10-27T10:11:27.000Z</time>
                <name>Position 61</name>
            </trkpt>
            <trkpt lat="47.5909817" lon="11.0996032">
                <ele>1387.5</ele>
                <time>2013-10-27T10:11:48.000Z</time>
                <name>Position 62</name>
            </trkpt>
            <trkpt lat="47.5910676" lon="11.0993671">
                <ele>1382.8</ele>
                <time>2013-10-27T10:12:09.000Z</time>
                <name>Position 63</name>
            </trkpt>
            <trkpt lat="47.5911319" lon="11.0991096">
                <ele>1369.2</ele>
                <time>2013-10-27T10:12:58.000Z</time>
                <name>Position 64</name>
            </trkpt>
            <trkpt lat="47.5912178" lon="11.0988736">
                <ele>1357.7</ele>
                <time>2013-10-27T10:13:34.000Z</time>
                <name>Position 65</name>
            </trkpt>
            <trkpt lat="47.5912821" lon="11.0986161">
                <ele>1346.4</ele>
                <time>2013-10-27T10:14:07.000Z</time>
                <name>Position 66</name>
            </trkpt>
            <trkpt lat="47.5913358" lon="11.0983586">
                <ele>1339.6</ele>
                <time>2013-10-27T10:14:32.000Z</time>
                <name>Position 67</name>
            </trkpt>
            <trkpt lat="47.5915074" lon="11.0982513">
                <ele>1335.4</ele>
                <time>2013-10-27T10:14:50.000Z</time>
                <name>Position 68</name>
            </trkpt>
            <trkpt lat="47.5915933" lon="11.0980153">
                <ele>1330.5</ele>
                <time>2013-10-27T10:15:11.000Z</time>
                <name>Position 69</name>
            </trkpt>
            <trkpt lat="47.5916898" lon="11.0977793">
                <ele>1326.1</ele>
                <time>2013-10-27T10:15:31.000Z</time>
                <name>Position 70</name>
            </trkpt>
            <trkpt lat="47.5917542" lon="11.0975218">
                <ele>1316.8</ele>
                <time>2013-10-27T10:16:02.000Z</time>
                <name>Position 71</name>
            </trkpt>
            <trkpt lat="47.5918508" lon="11.0972857">
                <ele>1304.9</ele>
                <time>2013-10-27T10:16:34.000Z</time>
                <name>Position 72</name>
            </trkpt>
            <trkpt lat="47.5918937" lon="11.0970068">
                <ele>1293.6</ele>
                <time>2013-10-27T10:17:05.000Z</time>
                <name>Position 73</name>
            </trkpt>
            <trkpt lat="47.591722" lon="11.096921">
                <ele>1280.8</ele>
                <time>2013-10-27T10:17:39.000Z</time>
                <name>Position 74</name>
            </trkpt>
            <trkpt lat="47.5915396" lon="11.0969424">
                <ele>1275.1</ele>
                <time>2013-10-27T10:17:53.000Z</time>
                <name>Position 75</name>
            </trkpt>
            <trkpt lat="47.5913572" lon="11.0970068">
                <ele>1266.3</ele>
                <time>2013-10-27T10:18:12.000Z</time>
                <name>Position 76</name>
            </trkpt>
            <trkpt lat="47.5912714" lon="11.0967708">
                <ele>1261.6</ele>
                <time>2013-10-27T10:18:27.000Z</time>
                <name>Position 77</name>
            </trkpt>
            <trkpt lat="47.5914216" lon="11.0966206">
                <ele>1257.5</ele>
                <time>2013-10-27T10:18:46.000Z</time>
                <name>Position 78</name>
            </trkpt>
            <trkpt lat="47.5915289" lon="11.096406">
                <ele>1255.1</ele>
                <time>2013-10-27T10:19:02.000Z</time>
                <name>Position 79</name>
            </trkpt>
            <trkpt lat="47.5916684" lon="11.0962343">
                <ele>1252.5</ele>
                <time>2013-10-27T10:19:16.000Z</time>
                <name>Position 80</name>
            </trkpt>
            <trkpt lat="47.5918186" lon="11.0960627">
                <ele>1250.2</ele>
                <time>2013-10-27T10:19:29.000Z</time>
                <name>Position 81</name>
            </trkpt>
            <trkpt lat="47.5918829" lon="11.0958052">
                <ele>1247.2</ele>
                <time>2013-10-27T10:19:47.000Z</time>
                <name>Position 82</name>
            </trkpt>
            <trkpt lat="47.5918722" lon="11.0955262">
                <ele>1244.8</ele>
                <time>2013-10-27T10:20:04.000Z</time>
                <name>Position 83</name>
            </trkpt>
            <trkpt lat="47.5919366" lon="11.0952687">
                <ele>1242.6</ele>
                <time>2013-10-27T10:20:21.000Z</time>
                <name>Position 84</name>
            </trkpt>
            <trkpt lat="47.5921082" lon="11.0951829">
                <ele>1239.2</ele>
                <time>2013-10-27T10:20:49.000Z</time>
                <name>Position 85</name>
            </trkpt>
            <trkpt lat="47.5922906" lon="11.0952258">
                <ele>1234.5</ele>
                <time>2013-10-27T10:21:16.000Z</time>
                <name>Position 86</name>
            </trkpt>
            <trkpt lat="47.5924623" lon="11.09514">
                <ele>1228.4</ele>
                <time>2013-10-27T10:21:41.000Z</time>
                <name>Position 87</name>
            </trkpt>
            <trkpt lat="47.5926125" lon="11.0952902">
                <ele>1220.7</ele>
                <time>2013-10-27T10:22:04.000Z</time>
                <name>Position 88</name>
            </trkpt>
            <trkpt lat="47.5927413" lon="11.0950971">
                <ele>1210.9</ele>
                <time>2013-10-27T10:22:32.000Z</time>
                <name>Position 89</name>
            </trkpt>
            <trkpt lat="47.5928485" lon="11.0948825">
                <ele>1196.7</ele>
                <time>2013-10-27T10:23:07.000Z</time>
                <name>Position 90</name>
            </trkpt>
            <trkpt lat="47.5929666" lon="11.0946679">
                <ele>1181.5</ele>
                <time>2013-10-27T10:23:41.000Z</time>
                <name>Position 91</name>
            </trkpt>
            <trkpt lat="47.5931489" lon="11.0947108">
                <ele>1171.2</ele>
                <time>2013-10-27T10:24:12.000Z</time>
                <name>Position 92</name>
            </trkpt>
            <trkpt lat="47.5931811" lon="11.0944319">
                <ele>1164.9</ele>
                <time>2013-10-27T10:24:35.000Z</time>
                <name>Position 93</name>
            </trkpt>
            <trkpt lat="47.5931168" lon="11.0941744">
                <ele>1160.1</ele>
                <time>2013-10-27T10:24:52.000Z</time>
                <name>Position 94</name>
            </trkpt>
            <trkpt lat="47.593267" lon="11.0940242">
                <ele>1154.4</ele>
                <time>2013-10-27T10:25:16.000Z</time>
                <name>Position 95</name>
            </trkpt>
            <trkpt lat="47.5932992" lon="11.0937452">
                <ele>1147.9</ele>
                <time>2013-10-27T10:25:43.000Z</time>
                <name>Position 96</name>
            </trkpt>
            <trkpt lat="47.5932884" lon="11.0934663">
                <ele>1144.6</ele>
                <time>2013-10-27T10:25:58.000Z</time>
                <name>Position 97</name>
            </trkpt>
            <trkpt lat="47.5933635" lon="11.0932088">
                <ele>1138.6</ele>
                <time>2013-10-27T10:26:20.000Z</time>
                <name>Position 98</name>
            </trkpt>
            <trkpt lat="47.5935352" lon="11.093123">
                <ele>1133.0</ele>
                <time>2013-10-27T10:26:39.000Z</time>
                <name>Position 99</name>
            </trkpt>
            <trkpt lat="47.5936854" lon="11.0929728">
                <ele>1129.3</ele>
                <time>2013-10-27T10:26:56.000Z</time>
                <name>Position 100</name>
            </trkpt>
            <trkpt lat="47.593857" lon="11.0928869">
                <ele>1125.5</ele>
                <time>2013-10-27T10:27:16.000Z</time>
                <name>Position 101</name>
            </trkpt>
            <trkpt lat="47.594018" lon="11.0927582">
                <ele>1121.7</ele>
                <time>2013-10-27T10:27:34.000Z</time>
                <name>Position 102</name>
            </trkpt>
            <trkpt lat="47.5942004" lon="11.0927582">
                <ele>1117.6</ele>
                <time>2013-10-27T10:27:52.000Z</time>
                <name>Position 103</name>
            </trkpt>
            <trkpt lat="47.5943291" lon="11.0925651">
                <ele>1111.1</ele>
                <time>2013-10-27T10:28:16.000Z</time>
                <name>Position 104</name>
            </trkpt>
            <trkpt lat="47.5943613" lon="11.0922861">
                <ele>1105.7</ele>
                <time>2013-10-27T10:28:34.000Z</time>
                <name>Position 105</name>
            </trkpt>
            <trkpt lat="47.5945437" lon="11.0922217">
                <ele>1099.2</ele>
                <time>2013-10-27T10:28:53.000Z</time>
                <name>Position 106</name>
            </trkpt>
            <trkpt lat="47.5947261" lon="11.0922217">
                <ele>1095.2</ele>
                <time>2013-10-27T10:29:04.000Z</time>
                <name>Position 107</name>
            </trkpt>
            <trkpt lat="47.5949085" lon="11.0922861">
                <ele>1090.2</ele>
                <time>2013-10-27T10:29:18.000Z</time>
                <name>Position 108</name>
            </trkpt>
            <trkpt lat="47.5951338" lon="11.0922647">
                <ele>1064.7</ele>
                <time>2013-10-27T10:35:06.000Z</time>
                <name>Position 109</name>
            </trkpt>
            <trkpt lat="47.5953054" lon="11.0923505">
                <ele>1062.7</ele>
                <time>2013-10-27T10:35:34.000Z</time>
                <name>Position 110</name>
            </trkpt>
            <trkpt lat="47.5954878" lon="11.0923505">
                <ele>1061.4</ele>
                <time>2013-10-27T10:35:48.000Z</time>
                <name>Position 111</name>
            </trkpt>
            <trkpt lat="47.5956702" lon="11.092329">
                <ele>1060.4</ele>
                <time>2013-10-27T10:36:03.000Z</time>
                <name>Position 112</name>
            </trkpt>
            <trkpt lat="47.5958526" lon="11.092329">
                <ele>1056.7</ele>
                <time>2013-10-27T10:36:30.000Z</time>
                <name>Position 113</name>
            </trkpt>
            <trkpt lat="47.5960243" lon="11.0924149">
                <ele>1052.6</ele>
                <time>2013-10-27T10:36:52.000Z</time>
                <name>Position 114</name>
            </trkpt>
            <trkpt lat="47.5960994" lon="11.0926723">
                <ele>1047.5</ele>
                <time>2013-10-27T10:37:16.000Z</time>
                <name>Position 115</name>
            </trkpt>
            <trkpt lat="47.5961423" lon="11.0929513">
                <ele>1043.4</ele>
                <time>2013-10-27T10:37:33.000Z</time>
                <name>Position 116</name>
            </trkpt>
            <trkpt lat="47.5961316" lon="11.0926723">
                <ele>1036.1</ele>
                <time>2013-10-27T10:38:24.000Z</time>
                <name>Position 117</name>
            </trkpt>
            <trkpt lat="47.596153" lon="11.0923934">
                <ele>1034.4</ele>
                <time>2013-10-27T10:38:43.000Z</time>
                <name>Position 118</name>
            </trkpt>
            <trkpt lat="47.5961745" lon="11.0921144">
                <ele>1033.2</ele>
                <time>2013-10-27T10:39:00.000Z</time>
                <name>Position 119</name>
            </trkpt>
            <trkpt lat="47.5962067" lon="11.0918355">
                <ele>1032.5</ele>
                <time>2013-10-27T10:39:17.000Z</time>
                <name>Position 120</name>
            </trkpt>
            <trkpt lat="47.5961959" lon="11.0915565">
                <ele>1031.3</ele>
                <time>2013-10-27T10:39:36.000Z</time>
                <name>Position 121</name>
            </trkpt>
            <trkpt lat="47.5963032" lon="11.091342">
                <ele>1029.3</ele>
                <time>2013-10-27T10:40:03.000Z</time>
                <name>Position 122</name>
            </trkpt>
            <trkpt lat="47.5963998" lon="11.0911059">
                <ele>1028.1</ele>
                <time>2013-10-27T10:40:18.000Z</time>
                <name>Position 123</name>
            </trkpt>
            <trkpt lat="47.5964642" lon="11.0908484">
                <ele>1027.0</ele>
                <time>2013-10-27T10:40:34.000Z</time>
                <name>Position 124</name>
            </trkpt>
            <trkpt lat="47.5964534" lon="11.090548">
                <ele>1025.8</ele>
                <time>2013-10-27T10:40:46.000Z</time>
                <name>Position 125</name>
            </trkpt>
            <trkpt lat="47.5964856" lon="11.0902691">
                <ele>1023.7</ele>
                <time>2013-10-27T10:40:58.000Z</time>
                <name>Position 126</name>
            </trkpt>
            <trkpt lat="47.5965071" lon="11.0899901">
                <ele>1020.5</ele>
                <time>2013-10-27T10:41:12.000Z</time>
                <name>Position 127</name>
            </trkpt>
            <trkpt lat="47.5965393" lon="11.0897112">
                <ele>1017.3</ele>
                <time>2013-10-27T10:41:28.000Z</time>
                <name>Position 128</name>
            </trkpt>
            <trkpt lat="47.5964749" lon="11.0894537">
                <ele>1014.9</ele>
                <time>2013-10-27T10:41:42.000Z</time>
                <name>Position 129</name>
            </trkpt>
            <trkpt lat="47.5964856" lon="11.0891747">
                <ele>1012.8</ele>
                <time>2013-10-27T10:41:58.000Z</time>
                <name>Position 130</name>
            </trkpt>
            <trkpt lat="47.5966144" lon="11.0889602">
                <ele>1010.8</ele>
                <time>2013-10-27T10:42:12.000Z</time>
                <name>Position 131</name>
            </trkpt>
            <trkpt lat="47.5966358" lon="11.0886812">
                <ele>1004.1</ele>
                <time>2013-10-27T10:42:47.000Z</time>
                <name>Position 132</name>
            </trkpt>
            <trkpt lat="47.5966465" lon="11.0884023">
                <ele>999.5</ele>
                <time>2013-10-27T10:43:02.000Z</time>
                <name>Position 133</name>
            </trkpt>
            <trkpt lat="47.5967324" lon="11.0881662">
                <ele>994.2</ele>
                <time>2013-10-27T10:43:18.000Z</time>
                <name>Position 134</name>
            </trkpt>
            <trkpt lat="47.5968504" lon="11.0879517">
                <ele>984.5</ele>
                <time>2013-10-27T10:43:48.000Z</time>
                <name>Position 135</name>
            </trkpt>
            <trkpt lat="47.5969684" lon="11.0877371">
                <ele>979.1</ele>
                <time>2013-10-27T10:44:02.000Z</time>
                <name>Position 136</name>
            </trkpt>
            <trkpt lat="47.5969577" lon="11.0874581">
                <ele>970.9</ele>
                <time>2013-10-27T10:44:26.000Z</time>
                <name>Position 137</name>
            </trkpt>
            <trkpt lat="47.5969148" lon="11.0871792">
                <ele>965.3</ele>
                <time>2013-10-27T10:44:42.000Z</time>
                <name>Position 138</name>
            </trkpt>
            <trkpt lat="47.5969362" lon="11.0869002">
                <ele>960.7</ele>
                <time>2013-10-27T10:44:56.000Z</time>
                <name>Position 139</name>
            </trkpt>
            <trkpt lat="47.5969362" lon="11.0866213">
                <ele>955.7</ele>
                <time>2013-10-27T10:45:11.000Z</time>
                <name>Position 140</name>
            </trkpt>
            <trkpt lat="47.5970221" lon="11.0863853">
                <ele>951.2</ele>
                <time>2013-10-27T10:45:25.000Z</time>
                <name>Position 141</name>
            </trkpt>
            <trkpt lat="47.5971079" lon="11.0861492">
                <ele>947.1</ele>
                <time>2013-10-27T10:45:40.000Z</time>
                <name>Position 142</name>
            </trkpt>
            <trkpt lat="47.5972259" lon="11.0859132">
                <ele>943.8</ele>
                <time>2013-10-27T10:45:52.000Z</time>
                <name>Position 143</name>
            </trkpt>
            <trkpt lat="47.5973332" lon="11.0856986">
                <ele>939.9</ele>
                <time>2013-10-27T10:46:05.000Z</time>
                <name>Position 144</name>
            </trkpt>
            <trkpt lat="47.5975049" lon="11.0856128">
                <ele>932.6</ele>
                <time>2013-10-27T10:46:31.000Z</time>
                <name>Position 145</name>
            </trkpt>
        </trkseg>
    </trk>
</gpx>
