<?xml version="1.0" encoding="UTF-8" standalone="yes"?>
<gpx xmlns="http://www.topografix.com/GPX/1/1" creator="RouteConverter 2.27.2" version="1.1">
  <trk>
    <name>2021-07-11 17:24 (rev)</name>
    <desc>&lt;p&gt;Startzeit: 17:24 11.07.2021&lt;br/&gt;Zielzeit: 20:21 11.07.2021&lt;br/&gt;Strecke: 3,
3 km (02:56)&lt;br/&gt;Bewegungszeit: 01:02&lt;br/&gt;Ø-Geschwindigkeit: 1,
12 km/h&lt;br/&gt;Netto-Geschwindigkeit: 3,
13 km/h&lt;br/&gt;Max. Geschwindigkeit: 14,
85 km/h&lt;br/&gt;Minimale Höhe: 760 m&lt;br/&gt;Maximale Höhe: 1050 m&lt;br/&gt;Steig-Geschw.: 328,
3 m/h&lt;br/&gt;Sink-Geschw.: -142,
4 m/h&lt;br/&gt;Aufstieg: 288 m&lt;br/&gt;Abstieg: -293 m&lt;br/&gt;Steigzeit: 00:52&lt;br/&gt;Sinkzeit: 02:03&lt;br/&gt;&lt;/p&gt;&lt;hr align="center" width="480" style="height: 2px; width: 517px"/&gt;</desc>
    <type>Berg/ Bergsteigen</type>
    <trkseg>
      <trkpt lat="47.094197" lon="9.8690856">
        <ele>769.5</ele>
        <name>Position 1</name>
      </trkpt>
      <trkpt lat="47.0932569" lon="9.8674931">
        <ele>768.5</ele>
        <name>Position 2</name>
      </trkpt>
      <trkpt lat="47.0971828" lon="9.8637539">
        <ele>768.6</ele>
        <name>Position 3</name>
      </trkpt>
      <trkpt lat="47.0965679" lon="9.8614748">
        <ele>768.0</ele>
        <name>Position 4</name>
      </trkpt>
      <trkpt lat="47.0982757" lon="9.8556301">
        <ele>770.4</ele>
        <name>Position 5</name>
      </trkpt>
      <trkpt lat="47.0996961" lon="9.8520611">
        <ele>772.9</ele>
        <name>Position 6</name>
      </trkpt>
      <trkpt lat="47.1010046" lon="9.8507475">
        <ele>774.6</ele>
        <name>Position 7</name>
      </trkpt>
      <trkpt lat="47.1011535" lon="9.8505469">
        <ele>778.2</ele>
        <name>Position 8</name>
      </trkpt>
      <trkpt lat="47.1013395" lon="9.8503245">
        <ele>778.9</ele>
        <name>Position 9</name>
      </trkpt>
      <trkpt lat="47.1014752" lon="9.8501462">
        <ele>781.5</ele>
        <name>Position 10</name>
      </trkpt>
      <trkpt lat="47.1014591" lon="9.8498207">
        <ele>784.3</ele>
        <name>Position 11</name>
      </trkpt>
      <trkpt lat="47.1014697" lon="9.8495337">
        <ele>790.7</ele>
        <name>Position 12</name>
      </trkpt>
      <trkpt lat="47.1014492" lon="9.8492122">
        <ele>794.9</ele>
        <name>Position 13</name>
      </trkpt>
      <trkpt lat="47.1015209" lon="9.8489553">
        <ele>797.9</ele>
        <name>Position 14</name>
      </trkpt>
      <trkpt lat="47.1015872" lon="9.8486494">
        <ele>802.6</ele>
        <name>Position 15</name>
      </trkpt>
      <trkpt lat="47.1015916" lon="9.8483391">
        <ele>806.0</ele>
        <name>Position 16</name>
      </trkpt>
      <trkpt lat="47.1016183" lon="9.8480628">
        <ele>811.0</ele>
        <name>Position 17</name>
      </trkpt>
      <trkpt lat="47.1016272" lon="9.8477955">
        <ele>814.6</ele>
        <name>Position 18</name>
      </trkpt>
      <trkpt lat="47.1016249" lon="9.8474681">
        <ele>816.4</ele>
        <name>Position 19</name>
      </trkpt>
      <trkpt lat="47.1016325" lon="9.8471709">
        <ele>822.8</ele>
        <name>Position 20</name>
      </trkpt>
      <trkpt lat="47.1016386" lon="9.8468731">
        <ele>825.1</ele>
        <name>Position 21</name>
      </trkpt>
      <trkpt lat="47.1016696" lon="9.8465722">
        <ele>828.4</ele>
        <name>Position 22</name>
      </trkpt>
      <trkpt lat="47.1016064" lon="9.8462597">
        <ele>831.0</ele>
        <name>Position 23</name>
      </trkpt>
      <trkpt lat="47.101512" lon="9.8459624">
        <ele>834.1</ele>
        <name>Position 24</name>
      </trkpt>
      <trkpt lat="47.1013848" lon="9.8457703">
        <ele>838.4</ele>
        <name>Position 25</name>
      </trkpt>
      <trkpt lat="47.1013603" lon="9.845452">
        <ele>843.6</ele>
        <name>Position 26</name>
      </trkpt>
      <trkpt lat="47.1012942" lon="9.8451309">
        <ele>848.8</ele>
        <name>Position 27</name>
      </trkpt>
      <trkpt lat="47.1013201" lon="9.8448626">
        <ele>852.0</ele>
        <name>Position 28</name>
      </trkpt>
      <trkpt lat="47.1014042" lon="9.8446063">
        <ele>855.2</ele>
        <name>Position 29</name>
      </trkpt>
      <trkpt lat="47.1013562" lon="9.8443423">
        <ele>858.4</ele>
        <name>Position 30</name>
      </trkpt>
      <trkpt lat="47.101221" lon="9.8441197">
        <ele>860.4</ele>
        <name>Position 31</name>
      </trkpt>
      <trkpt lat="47.101097" lon="9.8438932">
        <ele>862.9</ele>
        <name>Position 32</name>
      </trkpt>
      <trkpt lat="47.1009776" lon="9.8435821">
        <ele>868.4</ele>
        <name>Position 33</name>
      </trkpt>
      <trkpt lat="47.1009326" lon="9.8432287">
        <ele>873.6</ele>
        <name>Position 34</name>
      </trkpt>
      <trkpt lat="47.1008619" lon="9.8429678">
        <ele>877.0</ele>
        <name>Position 35</name>
      </trkpt>
      <trkpt lat="47.1007338" lon="9.8427212">
        <ele>879.4</ele>
        <name>Position 36</name>
      </trkpt>
      <trkpt lat="47.100626" lon="9.8425086">
        <ele>881.0</ele>
        <name>Position 37</name>
      </trkpt>
      <trkpt lat="47.1005348" lon="9.8422274">
        <ele>884.5</ele>
        <name>Position 38</name>
      </trkpt>
      <trkpt lat="47.1003501" lon="9.8421817">
        <ele>881.8</ele>
        <name>Position 39</name>
      </trkpt>
      <trkpt lat="47.1001858" lon="9.8420496">
        <ele>880.7</ele>
        <name>Position 40</name>
      </trkpt>
      <trkpt lat="47.1003582" lon="9.8421295">
        <ele>883.1</ele>
        <name>Position 41</name>
      </trkpt>
      <trkpt lat="47.1005561" lon="9.8420721">
        <ele>888.5</ele>
        <name>Position 42</name>
      </trkpt>
      <trkpt lat="47.1007505" lon="9.8420819">
        <ele>890.1</ele>
        <name>Position 43</name>
      </trkpt>
      <trkpt lat="47.1009535" lon="9.8421952">
        <ele>895.3</ele>
        <name>Position 44</name>
      </trkpt>
      <trkpt lat="47.1008642" lon="9.8419638">
        <ele>899.3</ele>
        <name>Position 45</name>
      </trkpt>
      <trkpt lat="47.1007484" lon="9.8417386">
        <ele>904.5</ele>
        <name>Position 46</name>
      </trkpt>
      <trkpt lat="47.1005705" lon="9.8415827">
        <ele>908.6</ele>
        <name>Position 47</name>
      </trkpt>
      <trkpt lat="47.1004751" lon="9.8413216">
        <ele>912.6</ele>
        <name>Position 48</name>
      </trkpt>
      <trkpt lat="47.1004839" lon="9.8410521">
        <ele>916.2</ele>
        <name>Position 49</name>
      </trkpt>
      <trkpt lat="47.1004228" lon="9.8407865">
        <ele>920.4</ele>
        <name>Position 50</name>
      </trkpt>
      <trkpt lat="47.100369" lon="9.8405299">
        <ele>925.5</ele>
        <name>Position 51</name>
      </trkpt>
      <trkpt lat="47.1003689" lon="9.8402475">
        <ele>930.9</ele>
        <name>Position 52</name>
      </trkpt>
      <trkpt lat="47.1003773" lon="9.8399744">
        <ele>934.1</ele>
        <name>Position 53</name>
      </trkpt>
      <trkpt lat="47.1003551" lon="9.8396965">
        <ele>939.7</ele>
        <name>Position 54</name>
      </trkpt>
      <trkpt lat="47.1003005" lon="9.8394268">
        <ele>944.4</ele>
        <name>Position 55</name>
      </trkpt>
      <trkpt lat="47.1002811" lon="9.8391561">
        <ele>948.3</ele>
        <name>Position 56</name>
      </trkpt>
      <trkpt lat="47.1002647" lon="9.8388849">
        <ele>953.0</ele>
        <name>Position 57</name>
      </trkpt>
      <trkpt lat="47.1001632" lon="9.8386529">
        <ele>958.0</ele>
        <name>Position 58</name>
      </trkpt>
      <trkpt lat="47.1002415" lon="9.8384115">
        <ele>962.6</ele>
        <name>Position 59</name>
      </trkpt>
      <trkpt lat="47.1004269" lon="9.8383978">
        <ele>968.5</ele>
        <name>Position 60</name>
      </trkpt>
      <trkpt lat="47.1002658" lon="9.8382691">
        <ele>972.2</ele>
        <name>Position 61</name>
      </trkpt>
      <trkpt lat="47.1001401" lon="9.8380558">
        <ele>976.5</ele>
        <name>Position 62</name>
      </trkpt>
      <trkpt lat="47.100314" lon="9.8379753">
        <ele>980.1</ele>
        <name>Position 63</name>
      </trkpt>
      <trkpt lat="47.1004896" lon="9.8378884">
        <ele>984.6</ele>
        <name>Position 64</name>
      </trkpt>
      <trkpt lat="47.1003131" lon="9.8378255">
        <ele>985.0</ele>
        <name>Position 65</name>
      </trkpt>
      <trkpt lat="47.1001271" lon="9.8379206">
        <ele>982.1</ele>
        <name>Position 66</name>
      </trkpt>
      <trkpt lat="47.0999389" lon="9.8380392">
        <ele>979.9</ele>
        <name>Position 67</name>
      </trkpt>
      <trkpt lat="47.0998027" lon="9.8378489">
        <ele>981.1</ele>
        <name>Position 68</name>
      </trkpt>
      <trkpt lat="47.0997853" lon="9.8375744">
        <ele>986.6</ele>
        <name>Position 69</name>
      </trkpt>
      <trkpt lat="47.0998179" lon="9.8372888">
        <ele>992.6</ele>
        <name>Position 70</name>
      </trkpt>
      <trkpt lat="47.0997375" lon="9.8370263">
        <ele>995.8</ele>
        <name>Position 71</name>
      </trkpt>
      <trkpt lat="47.0995657" lon="9.8369031">
        <ele>997.4</ele>
        <name>Position 72</name>
      </trkpt>
      <trkpt lat="47.0993786" lon="9.8369305">
        <ele>1025.6</ele>
        <name>Position 73</name>
      </trkpt>
      <trkpt lat="47.0991983" lon="9.8370123">
        <ele>1032.6</ele>
        <name>Position 74</name>
      </trkpt>
      <trkpt lat="47.0990588" lon="9.8371891">
        <ele>1032.6</ele>
        <name>Position 75</name>
      </trkpt>
      <trkpt lat="47.0992395" lon="9.8372461">
        <ele>1038.2</ele>
        <name>Position 76</name>
      </trkpt>
      <trkpt lat="47.0993589" lon="9.8369856">
        <ele>1043.6</ele>
        <name>Position 77</name>
      </trkpt>
      <trkpt lat="47.0993258" lon="9.8372499">
        <ele>1049.1</ele>
        <name>Position 78</name>
      </trkpt>
      <trkpt lat="47.0995022" lon="9.8373127">
        <ele>1047.9</ele>
        <name>Position 79</name>
      </trkpt>
      <trkpt lat="47.0995964" lon="9.8375381">
        <ele>1025.9</ele>
        <name>Position 80</name>
      </trkpt>
      <trkpt lat="47.0996895" lon="9.8377717">
        <ele>1011.7</ele>
        <name>Position 81</name>
      </trkpt>
      <trkpt lat="47.0997852" lon="9.8380028">
        <ele>979.5</ele>
        <name>Position 82</name>
      </trkpt>
      <trkpt lat="47.0998163" lon="9.837742">
        <ele>985.1</ele>
        <name>Position 83</name>
      </trkpt>
      <trkpt lat="47.0998203" lon="9.8374646">
        <ele>986.9</ele>
        <name>Position 84</name>
      </trkpt>
      <trkpt lat="47.0997698" lon="9.8371982">
        <ele>1005.2</ele>
        <name>Position 85</name>
      </trkpt>
      <trkpt lat="47.0995878" lon="9.8372984">
        <ele>1026.2</ele>
        <name>Position 86</name>
      </trkpt>
      <trkpt lat="47.0994332" lon="9.8371546">
        <ele>1030.4</ele>
        <name>Position 87</name>
      </trkpt>
      <trkpt lat="47.0992469" lon="9.8370646">
        <ele>1044.0</ele>
        <name>Position 88</name>
      </trkpt>
      <trkpt lat="47.0992901" lon="9.8373368">
        <ele>1047.1</ele>
        <name>Position 89</name>
      </trkpt>
      <trkpt lat="47.0994329" lon="9.8375">
        <ele>1050.8</ele>
        <name>Position 90</name>
      </trkpt>
      <trkpt lat="47.0995111" lon="9.8377437">
        <ele>1049.3</ele>
        <name>Position 91</name>
      </trkpt>
      <trkpt lat="47.0995476" lon="9.8380154">
        <ele>1048.3</ele>
        <name>Position 92</name>
      </trkpt>
      <trkpt lat="47.0995524" lon="9.8383054">
        <ele>1048.1</ele>
        <name>Position 93</name>
      </trkpt>
      <trkpt lat="47.0996501" lon="9.8385276">
        <ele>1042.8</ele>
        <name>Position 94</name>
      </trkpt>
      <trkpt lat="47.0996794" lon="9.838794">
        <ele>1038.3</ele>
        <name>Position 95</name>
      </trkpt>
      <trkpt lat="47.0997589" lon="9.8390316">
        <ele>1018.2</ele>
        <name>Position 96</name>
      </trkpt>
      <trkpt lat="47.0998599" lon="9.8392622">
        <ele>997.0</ele>
        <name>Position 97</name>
      </trkpt>
      <trkpt lat="47.0998307" lon="9.8395254">
        <ele>969.5</ele>
        <name>Position 98</name>
      </trkpt>
      <trkpt lat="47.0998831" lon="9.8397849">
        <ele>949.5</ele>
        <name>Position 99</name>
      </trkpt>
      <trkpt lat="47.0998123" lon="9.8400308">
        <ele>930.8</ele>
        <name>Position 100</name>
      </trkpt>
      <trkpt lat="47.0999632" lon="9.8401833">
        <ele>915.8</ele>
        <name>Position 101</name>
      </trkpt>
      <trkpt lat="47.1001018" lon="9.8403805">
        <ele>910.0</ele>
        <name>Position 102</name>
      </trkpt>
      <trkpt lat="47.1000253" lon="9.8406331">
        <ele>904.9</ele>
        <name>Position 103</name>
      </trkpt>
      <trkpt lat="47.1000405" lon="9.8405645">
        <ele>902.9</ele>
        <name>Position 104</name>
      </trkpt>
      <trkpt lat="47.1001916" lon="9.8407187">
        <ele>900.3</ele>
        <name>Position 105</name>
      </trkpt>
      <trkpt lat="47.1002588" lon="9.8409707">
        <ele>899.4</ele>
        <name>Position 106</name>
      </trkpt>
      <trkpt lat="47.1003122" lon="9.8412427">
        <ele>895.2</ele>
        <name>Position 107</name>
      </trkpt>
      <trkpt lat="47.1003566" lon="9.8415019">
        <ele>890.3</ele>
        <name>Position 108</name>
      </trkpt>
      <trkpt lat="47.1004159" lon="9.8417645">
        <ele>885.8</ele>
        <name>Position 109</name>
      </trkpt>
      <trkpt lat="47.1004762" lon="9.8420176">
        <ele>882.2</ele>
        <name>Position 110</name>
      </trkpt>
      <trkpt lat="47.1005259" lon="9.8422827">
        <ele>877.8</ele>
        <name>Position 111</name>
      </trkpt>
      <trkpt lat="47.1006149" lon="9.8425208">
        <ele>873.0</ele>
        <name>Position 112</name>
      </trkpt>
      <trkpt lat="47.1007284" lon="9.8427352">
        <ele>868.6</ele>
        <name>Position 113</name>
      </trkpt>
      <trkpt lat="47.1008315" lon="9.8429765">
        <ele>866.2</ele>
        <name>Position 114</name>
      </trkpt>
      <trkpt lat="47.1009205" lon="9.8432224">
        <ele>863.0</ele>
        <name>Position 115</name>
      </trkpt>
      <trkpt lat="47.1009776" lon="9.8435009">
        <ele>860.6</ele>
        <name>Position 116</name>
      </trkpt>
      <trkpt lat="47.101046" lon="9.8437609">
        <ele>858.0</ele>
        <name>Position 117</name>
      </trkpt>
      <trkpt lat="47.1011464" lon="9.8440046">
        <ele>857.1</ele>
        <name>Position 118</name>
      </trkpt>
      <trkpt lat="47.1012816" lon="9.8441877">
        <ele>853.2</ele>
        <name>Position 119</name>
      </trkpt>
      <trkpt lat="47.1013894" lon="9.8444268">
        <ele>850.2</ele>
        <name>Position 120</name>
      </trkpt>
      <trkpt lat="47.1014146" lon="9.8447016">
        <ele>843.9</ele>
        <name>Position 121</name>
      </trkpt>
      <trkpt lat="47.1013347" lon="9.8449505">
        <ele>839.0</ele>
        <name>Position 122</name>
      </trkpt>
      <trkpt lat="47.1013351" lon="9.845227">
        <ele>836.4</ele>
        <name>Position 123</name>
      </trkpt>
      <trkpt lat="47.1013526" lon="9.8454994">
        <ele>832.7</ele>
        <name>Position 124</name>
      </trkpt>
      <trkpt lat="47.1013655" lon="9.845787">
        <ele>828.3</ele>
        <name>Position 125</name>
      </trkpt>
      <trkpt lat="47.1014918" lon="9.8459909">
        <ele>824.6</ele>
        <name>Position 126</name>
      </trkpt>
      <trkpt lat="47.1015865" lon="9.8462173">
        <ele>823.8</ele>
        <name>Position 127</name>
      </trkpt>
      <trkpt lat="47.1016923" lon="9.8464439">
        <ele>820.1</ele>
        <name>Position 128</name>
      </trkpt>
      <trkpt lat="47.101685" lon="9.8467192">
        <ele>819.0</ele>
        <name>Position 129</name>
      </trkpt>
      <trkpt lat="47.1016826" lon="9.8470067">
        <ele>816.5</ele>
        <name>Position 130</name>
      </trkpt>
      <trkpt lat="47.1016554" lon="9.8472946">
        <ele>812.0</ele>
        <name>Position 131</name>
      </trkpt>
      <trkpt lat="47.1016412" lon="9.8475768">
        <ele>809.0</ele>
        <name>Position 132</name>
      </trkpt>
      <trkpt lat="47.1016055" lon="9.8478513">
        <ele>807.4</ele>
        <name>Position 133</name>
      </trkpt>
      <trkpt lat="47.1015986" lon="9.8481348">
        <ele>802.9</ele>
        <name>Position 134</name>
      </trkpt>
      <trkpt lat="47.1016051" lon="9.8484249">
        <ele>798.2</ele>
        <name>Position 135</name>
      </trkpt>
      <trkpt lat="47.1015932" lon="9.8486975">
        <ele>793.6</ele>
        <name>Position 136</name>
      </trkpt>
      <trkpt lat="47.1015508" lon="9.848955">
        <ele>791.0</ele>
        <name>Position 137</name>
      </trkpt>
      <trkpt lat="47.101512" lon="9.8492371">
        <ele>784.8</ele>
        <name>Position 138</name>
      </trkpt>
      <trkpt lat="47.101465" lon="9.8495032">
        <ele>781.2</ele>
        <name>Position 139</name>
      </trkpt>
      <trkpt lat="47.1014804" lon="9.8497824">
        <ele>779.9</ele>
        <name>Position 140</name>
      </trkpt>
      <trkpt lat="47.1014989" lon="9.8500732">
        <ele>778.3</ele>
        <name>Position 141</name>
      </trkpt>
      <trkpt lat="47.1014015" lon="9.8503103">
        <ele>776.3</ele>
        <name>Position 142</name>
      </trkpt>
      <trkpt lat="47.1012701" lon="9.8504962">
        <ele>774.8</ele>
        <name>Position 143</name>
      </trkpt>
      <trkpt lat="47.1011367" lon="9.850681">
        <ele>770.0</ele>
        <name>Position 144</name>
      </trkpt>
      <trkpt lat="47.1009991" lon="9.8508926">
        <ele>769.7</ele>
        <name>Position 145</name>
      </trkpt>
      <trkpt lat="47.1008405" lon="9.8510598">
        <ele>765.5</ele>
        <name>Position 146</name>
      </trkpt>
      <trkpt lat="47.0997081" lon="9.852241">
        <ele>760.8</ele>
        <name>Position 147</name>
      </trkpt>
      <trkpt lat="47.0971179" lon="9.8585861">
        <ele>761.6</ele>
        <name>Position 148</name>
      </trkpt>
      <trkpt lat="47.0965924" lon="9.861461">
        <ele>761.2</ele>
        <name>Position 149</name>
      </trkpt>
      <trkpt lat="47.0970961" lon="9.8637843">
        <ele>760.0</ele>
        <name>Position 150</name>
      </trkpt>
      <trkpt lat="47.09332" lon="9.8675577">
        <ele>762.4</ele>
        <name>Position 151</name>
      </trkpt>
      <trkpt lat="47.0943126" lon="9.8690442">
        <ele>763.0</ele>
        <name>Position 152</name>
      </trkpt>
    </trkseg>
  </trk>
</gpx>