<?xml version="1.0" encoding="UTF-8" standalone="yes"?>
<gpx xmlns="http://www.topografix.com/GPX/1/1" creator="alpenkarte.eu">
    <metadata>
        <name>waehringer-steig</name>
        <link href="alpenkarte.eu">
            <text>Route von alpenkarte.eu</text>
        </link>
        <bounds minlat="47.855108000000001311491359956562519073486328125" minlon="16.08952000000000026602720026858150959014892578125" maxlat="47.858170000000001209627953357994556427001953125" maxlon="16.099622000000000099362296168692409992218017578125"/>
    </metadata>
    <trk>
        <name>waehringer-steig</name>
        <trkseg>
            <trkpt lat="47.8553390000000007376002031378448009490966796875" lon="16.0994630000000000791260390542447566986083984375">
                <ele>532.508258079995130174211226403713226318359375</ele>
            </trkpt>
            <trkpt lat="47.85537699999999716737875132821500301361083984375" lon="16.099216999999999444526110892184078693389892578125">
                <ele>531.4813249600227891278336755931377410888671875</ele>
            </trkpt>
            <trkpt lat="47.8554620000000028312570066191256046295166015625" lon="16.09803000000000139380063046701252460479736328125">
                <ele>528.8922015999791028662002645432949066162109375</ele>
            </trkpt>
            <trkpt lat="47.85521200000000163754521054215729236602783203125" lon="16.0970429999999993242454365827143192291259765625">
                <ele>525.304261119977354610455222427845001220703125</ele>
            </trkpt>
            <trkpt lat="47.85521200000000163754521054215729236602783203125" lon="16.0970429999999993242454365827143192291259765625">
                <ele>525.304261119977354610455222427845001220703125</ele>
            </trkpt>
            <trkpt lat="47.85513300000000214140527532435953617095947265625" lon="16.096731999999999374040271504782140254974365234375">
                <ele>524.17393791996937579824589192867279052734375</ele>
            </trkpt>
            <trkpt lat="47.855108000000001311491359956562519073486328125" lon="16.09649399999999985766407917253673076629638671875">
                <ele>524.2547468799838270570035092532634735107421875</ele>
            </trkpt>
            <trkpt lat="47.8551130000000028985596145503222942352294921875" lon="16.096298999999998358134689624421298503875732421875">
                <ele>524.38977327996326494030654430389404296875</ele>
            </trkpt>
            <trkpt lat="47.85517200000000315185388899408280849456787109375" lon="16.095887000000001165744833997450768947601318359375">
                <ele>523.97209215995508202468045055866241455078125</ele>
            </trkpt>
            <trkpt lat="47.85530800000000084537532529793679714202880859375" lon="16.09523899999999940746420179493725299835205078125">
                <ele>524.0183974399924409226514399051666259765625</ele>
            </trkpt>
            <trkpt lat="47.85540499999999752844814793206751346588134765625" lon="16.094908000000000214413375942967832088470458984375">
                <ele>523.965017600028659217059612274169921875</ele>
            </trkpt>
            <trkpt lat="47.85552200000000055979398894123733043670654296875" lon="16.094533999999999451802068506367504596710205078125">
                <ele>524.196331519998011572170071303844451904296875</ele>
            </trkpt>
            <trkpt lat="47.8559029999999978599589667282998561859130859375" lon="16.09364599999999967394614941440522670745849609375">
                <ele>526.5277667200244877676595933735370635986328125</ele>
            </trkpt>
            <trkpt lat="47.85603499999999854708221391774713993072509765625" lon="16.093389999999999417923390865325927734375">
                <ele>526.93045600001960337976925075054168701171875</ele>
            </trkpt>
            <trkpt lat="47.85634300000000251884557656012475490570068359375" lon="16.0926520000000010668372851796448230743408203125">
                <ele>527.901111679961786649073474109172821044921875</ele>
            </trkpt>
            <trkpt lat="47.85645000000000237605490838177502155303955078125" lon="16.092499000000000108911990537308156490325927734375">
                <ele>527.3714719999674116479582153260707855224609375</ele>
            </trkpt>
            <trkpt lat="47.856549999999998590283212251961231231689453125" lon="16.092431999999998737393980263732373714447021484375">
                <ele>526.7613440000328637324855662882328033447265625</ele>
            </trkpt>
            <trkpt lat="47.85673200000000093723429017700254917144775390625" lon="16.092369000000001477701516705565154552459716796875">
                <ele>525.443999999981542714522220194339752197265625</ele>
            </trkpt>
            <trkpt lat="47.856842999999997800841811113059520721435546875" lon="16.092252999999999474312062375247478485107421875">
                <ele>526.024800000015829937183298170566558837890625</ele>
            </trkpt>
            <trkpt lat="47.85692900000000093996277428232133388519287109375" lon="16.0920449999999988222043612040579319000244140625">
                <ele>527.608800000007022390491329133510589599609375</ele>
            </trkpt>
            <trkpt lat="47.857066000000003214154276065528392791748046875" lon="16.091587000000000529098542756401002407073974609375">
                <ele>532.805861759965637247660197317600250244140625</ele>
            </trkpt>
            <trkpt lat="47.8571639999999973724698065780103206634521484375" lon="16.09142800000000050886228564195334911346435546875">
                <ele>536.36731776001033722423017024993896484375</ele>
            </trkpt>
            <trkpt lat="47.857607999999999037754605524241924285888671875" lon="16.0909070000000014033503248356282711029052734375">
                <ele>543.52462655997669571661390364170074462890625</ele>
            </trkpt>
            <trkpt lat="47.85806699999999835881681065075099468231201171875" lon="16.090599999999998459543348872102797031402587890625">
                <ele>549.1607200000589728006161749362945556640625</ele>
            </trkpt>
            <trkpt lat="47.858170000000001209627953357994556427001953125" lon="16.090486999999999540023054578341543674468994140625">
                <ele>550.986663999997517748852260410785675048828125</ele>
            </trkpt>
            <trkpt lat="47.858034000000003516106517054140567779541015625" lon="16.090478999999998421799318748526275157928466796875">
                <ele>552.881377600001314931432716548442840576171875</ele>
            </trkpt>
            <trkpt lat="47.8579160000000030095179681666195392608642578125" lon="16.090500999999999720557752880267798900604248046875">
                <ele>553.677385599973376884008757770061492919921875</ele>
            </trkpt>
            <trkpt lat="47.857878999999996949554770253598690032958984375" lon="16.09040399999999948477125144563615322113037109375">
                <ele>557.1677056000600032348302192986011505126953125</ele>
            </trkpt>
            <trkpt lat="47.857878999999996949554770253598690032958984375" lon="16.09040399999999948477125144563615322113037109375">
                <ele>557.1677056000600032348302192986011505126953125</ele>
            </trkpt>
            <trkpt lat="47.8578059999999965157257975079119205474853515625" lon="16.090309000000001304897523368708789348602294921875">
                <ele>561.329166400014173632371239364147186279296875</ele>
            </trkpt>
            <trkpt lat="47.85775699999999943656803225167095661163330078125" lon="16.0901080000000007430571713484823703765869140625">
                <ele>568.9631295999873827895498834550380706787109375</ele>
            </trkpt>
            <trkpt lat="47.8576120000000031495801522396504878997802734375" lon="16.089977000000001083890310837887227535247802734375">
                <ele>576.851415039885750957182608544826507568359375</ele>
            </trkpt>
            <trkpt lat="47.857472999999998819475877098739147186279296875" lon="16.0900180000000005975380190648138523101806640625">
                <ele>578.2421996799970429492532275617122650146484375</ele>
            </trkpt>
            <trkpt lat="47.8575019999999966557879815809428691864013671875" lon="16.0899399999999985766407917253673076629638671875">
                <ele>580.9008448001380884306854568421840667724609375</ele>
            </trkpt>
            <trkpt lat="47.8575119999999998299244907684624195098876953125" lon="16.08983500000000077534423326142132282257080078125">
                <ele>584.9327391999739802486146800220012664794921875</ele>
            </trkpt>
            <trkpt lat="47.85764499999999799229044583626091480255126953125" lon="16.089684999999999348574419855140149593353271484375">
                <ele>587.4540520000806509415269829332828521728515625</ele>
            </trkpt>
            <trkpt lat="47.8572300000000012687451089732348918914794921875" lon="16.08952000000000026602720026858150959014892578125">
                <ele>600.380511999979944448568858206272125244140625</ele>
            </trkpt>
            <trkpt lat="47.85699000000000324916982208378612995147705078125" lon="16.089819999999999566853148280642926692962646484375">
                <ele>592.8256959999698665342293679714202880859375</ele>
            </trkpt>
            <trkpt lat="47.8569889999999986684997566044330596923828125" lon="16.089817000000000035697667044587433338165283203125">
                <ele>592.9352953600174487291951663792133331298828125</ele>
            </trkpt>
            <trkpt lat="47.85693599999999747751644463278353214263916015625" lon="16.08986300000000113641362986527383327484130859375">
                <ele>592.229608960001542072859592735767364501953125</ele>
            </trkpt>
            <trkpt lat="47.8571170000000023492248146794736385345458984375" lon="16.089876000000000288991941488347947597503662109375">
                <ele>589.1729382399561245620134286582469940185546875</ele>
            </trkpt>
            <trkpt lat="47.8570380000000028530848794616758823394775390625" lon="16.08998700000000070531314122490584850311279296875">
                <ele>586.6882163199301203349023126065731048583984375</ele>
            </trkpt>
            <trkpt lat="47.85719999999999885176293901167809963226318359375" lon="16.089974999999999027977537480182945728302001953125">
                <ele>584.4304000000539645043318159878253936767578125</ele>
            </trkpt>
            <trkpt lat="47.857123000000001411535777151584625244140625" lon="16.090050000000001517719283583573997020721435546875">
                <ele>582.90788799991833002422936260700225830078125</ele>
            </trkpt>
            <trkpt lat="47.85731799999999935835148789919912815093994140625" lon="16.09003200000000077807271736674010753631591796875">
                <ele>580.30717311998114382731728255748748779296875</ele>
            </trkpt>
            <trkpt lat="47.85731799999999935835148789919912815093994140625" lon="16.09003200000000077807271736674010753631591796875">
                <ele>580.30717311998114382731728255748748779296875</ele>
            </trkpt>
            <trkpt lat="47.857472999999998819475877098739147186279296875" lon="16.0900180000000005975380190648138523101806640625">
                <ele>578.2421996799970429492532275617122650146484375</ele>
            </trkpt>
            <trkpt lat="47.8576120000000031495801522396504878997802734375" lon="16.089977000000001083890310837887227535247802734375">
                <ele>576.851415039885750957182608544826507568359375</ele>
            </trkpt>
            <trkpt lat="47.85775699999999943656803225167095661163330078125" lon="16.0901080000000007430571713484823703765869140625">
                <ele>568.9631295999873827895498834550380706787109375</ele>
            </trkpt>
            <trkpt lat="47.8578059999999965157257975079119205474853515625" lon="16.090309000000001304897523368708789348602294921875">
                <ele>561.329166400014173632371239364147186279296875</ele>
            </trkpt>
            <trkpt lat="47.85786699999999882493284530937671661376953125" lon="16.090371999999998564589986926876008510589599609375">
                <ele>558.3501184000637067583738826215267181396484375</ele>
            </trkpt>
            <trkpt lat="47.8579160000000030095179681666195392608642578125" lon="16.090500999999999720557752880267798900604248046875">
                <ele>553.677385599973376884008757770061492919921875</ele>
            </trkpt>
            <trkpt lat="47.858034000000003516106517054140567779541015625" lon="16.090478999999998421799318748526275157928466796875">
                <ele>552.881377600001314931432716548442840576171875</ele>
            </trkpt>
            <trkpt lat="47.858170000000001209627953357994556427001953125" lon="16.090486999999999540023054578341543674468994140625">
                <ele>550.986663999997517748852260410785675048828125</ele>
            </trkpt>
            <trkpt lat="47.8581140000000004874891601502895355224609375" lon="16.090534999999999143938111956231296062469482421875">
                <ele>550.410184000017807193216867744922637939453125</ele>
            </trkpt>
            <trkpt lat="47.85806699999999835881681065075099468231201171875" lon="16.090599999999998459543348872102797031402587890625">
                <ele>549.1607200000589728006161749362945556640625</ele>
            </trkpt>
            <trkpt lat="47.857607999999999037754605524241924285888671875" lon="16.0909070000000014033503248356282711029052734375">
                <ele>543.52462655997669571661390364170074462890625</ele>
            </trkpt>
            <trkpt lat="47.8571639999999973724698065780103206634521484375" lon="16.09142800000000050886228564195334911346435546875">
                <ele>536.36731776001033722423017024993896484375</ele>
            </trkpt>
            <trkpt lat="47.857066000000003214154276065528392791748046875" lon="16.091587000000000529098542756401002407073974609375">
                <ele>532.805861759965637247660197317600250244140625</ele>
            </trkpt>
            <trkpt lat="47.85692900000000093996277428232133388519287109375" lon="16.0920449999999988222043612040579319000244140625">
                <ele>527.608800000007022390491329133510589599609375</ele>
            </trkpt>
            <trkpt lat="47.856842999999997800841811113059520721435546875" lon="16.092252999999999474312062375247478485107421875">
                <ele>526.024800000015829937183298170566558837890625</ele>
            </trkpt>
            <trkpt lat="47.85673200000000093723429017700254917144775390625" lon="16.092369000000001477701516705565154552459716796875">
                <ele>525.443999999981542714522220194339752197265625</ele>
            </trkpt>
            <trkpt lat="47.856549999999998590283212251961231231689453125" lon="16.092431999999998737393980263732373714447021484375">
                <ele>526.7613440000328637324855662882328033447265625</ele>
            </trkpt>
            <trkpt lat="47.85645000000000237605490838177502155303955078125" lon="16.092499000000000108911990537308156490325927734375">
                <ele>527.3714719999674116479582153260707855224609375</ele>
            </trkpt>
            <trkpt lat="47.85634300000000251884557656012475490570068359375" lon="16.0926520000000010668372851796448230743408203125">
                <ele>527.901111679961786649073474109172821044921875</ele>
            </trkpt>
            <trkpt lat="47.85603499999999854708221391774713993072509765625" lon="16.093389999999999417923390865325927734375">
                <ele>526.93045600001960337976925075054168701171875</ele>
            </trkpt>
            <trkpt lat="47.8559029999999978599589667282998561859130859375" lon="16.09364599999999967394614941440522670745849609375">
                <ele>526.5277667200244877676595933735370635986328125</ele>
            </trkpt>
            <trkpt lat="47.85552200000000055979398894123733043670654296875" lon="16.094533999999999451802068506367504596710205078125">
                <ele>524.196331519998011572170071303844451904296875</ele>
            </trkpt>
            <trkpt lat="47.85530800000000084537532529793679714202880859375" lon="16.09523899999999940746420179493725299835205078125">
                <ele>524.0183974399924409226514399051666259765625</ele>
            </trkpt>
            <trkpt lat="47.85517200000000315185388899408280849456787109375" lon="16.095887000000001165744833997450768947601318359375">
                <ele>523.97209215995508202468045055866241455078125</ele>
            </trkpt>
            <trkpt lat="47.8551130000000028985596145503222942352294921875" lon="16.096298999999998358134689624421298503875732421875">
                <ele>524.38977327996326494030654430389404296875</ele>
            </trkpt>
            <trkpt lat="47.855108000000001311491359956562519073486328125" lon="16.09649399999999985766407917253673076629638671875">
                <ele>524.2547468799838270570035092532634735107421875</ele>
            </trkpt>
            <trkpt lat="47.85513300000000214140527532435953617095947265625" lon="16.096731999999999374040271504782140254974365234375">
                <ele>524.17393791996937579824589192867279052734375</ele>
            </trkpt>
            <trkpt lat="47.8554620000000028312570066191256046295166015625" lon="16.09803000000000139380063046701252460479736328125">
                <ele>528.8922015999791028662002645432949066162109375</ele>
            </trkpt>
            <trkpt lat="47.85537699999999716737875132821500301361083984375" lon="16.099216999999999444526110892184078693389892578125">
                <ele>531.4813249600227891278336755931377410888671875</ele>
            </trkpt>
            <trkpt lat="47.85530899999999832061803317628800868988037109375" lon="16.099619000000000568206814932636916637420654296875">
                <ele>533.1912702400153420967399142682552337646484375</ele>
            </trkpt>
            <trkpt lat="47.8553610000000020363586372695863246917724609375" lon="16.099622000000000099362296168692409992218017578125">
                <ele>532.7971004799852607902721501886844635009765625</ele>
            </trkpt>
        </trkseg>
    </trk>
</gpx>
