<?xml version="1.0" encoding="UTF-8" standalone="yes"?>
<gpx xmlns="http://www.topografix.com/GPX/1/1" creator="alpenkarte.eu">
    <metadata>
        <name>seeben-klettersteig</name>
        <link href="alpenkarte.eu">
            <text>Route von alpenkarte.eu</text>
        </link>
        <bounds minlat="47.3698619999999976926119416020810604095458984375" minlon="10.9329680000000006856453182990662753582000732421875" maxlat="47.38798899999999747478796052746474742889404296875" maxlon="10.942643000000000341742634191177785396575927734375"/>
    </metadata>
    <trk>
        <name>seeben-klettersteig</name>
        <trkseg>
            <trkpt lat="47.38788000000000266709321294911205768585205078125" lon="10.938233000000000316731529892422258853912353515625">
                <ele>1106.05829760000460737501271069049835205078125</ele>
            </trkpt>
            <trkpt lat="47.3879730000000023437678464688360691070556640625" lon="10.9379930000000005207994036027230322360992431640625">
                <ele>1103.97699216000546584837138652801513671875</ele>
            </trkpt>
            <trkpt lat="47.38734500000000338104655384086072444915771484375" lon="10.937639000000000777390596340410411357879638671875">
                <ele>1102.248376799970401407335884869098663330078125</ele>
            </trkpt>
            <trkpt lat="47.387191999999998870407580398023128509521484375" lon="10.937521000000000270802047452889382839202880859375">
                <ele>1103.288574720014366903342306613922119140625</ele>
            </trkpt>
            <trkpt lat="47.38712799999999703004505136050283908843994140625" lon="10.9375009999999992515995472786016762256622314453125">
                <ele>1103.9675788800332156824879348278045654296875</ele>
            </trkpt>
            <trkpt lat="47.38692400000000048976289690472185611724853515625" lon="10.9375499999999998834709913353435695171356201171875">
                <ele>1106.458751999994774450897239148616790771484375</ele>
            </trkpt>
            <trkpt lat="47.38686400000000276122591458261013031005859375" lon="10.9375359999999997029362930334173142910003662109375">
                <ele>1107.137667839968571570352651178836822509765625</ele>
            </trkpt>
            <trkpt lat="47.3867520000000013169483281672000885009765625" lon="10.937732000000000454065229860134422779083251953125">
                <ele>1108.1757734399880064302124083042144775390625</ele>
            </trkpt>
            <trkpt lat="47.3866230000000001609805622138082981109619140625" lon="10.9378679999999999239435055642388761043548583984375">
                <ele>1110.154760959995883240480907261371612548828125</ele>
            </trkpt>
            <trkpt lat="47.3863199999999977762854541651904582977294921875" lon="10.938411999999999579813447780907154083251953125">
                <ele>1118.246521600065307211480103433132171630859375</ele>
            </trkpt>
            <trkpt lat="47.38614499999999907231540419161319732666015625" lon="10.938553999999999888359525357373058795928955078125">
                <ele>1122.413339200024211095296777784824371337890625</ele>
            </trkpt>
            <trkpt lat="47.38614499999999907231540419161319732666015625" lon="10.938641000000000502723196404986083507537841796875">
                <ele>1121.8760968000178763759322464466094970703125</ele>
            </trkpt>
            <trkpt lat="47.38622199999999651254256605170667171478271484375" lon="10.9386489999999998445900928345508873462677001953125">
                <ele>1120.159318720076726094703190028667449951171875</ele>
            </trkpt>
            <trkpt lat="47.3862189999999969813870848156511783599853515625" lon="10.93872400000000055797499953769147396087646484375">
                <ele>1119.928973440057006882852874696254730224609375</ele>
            </trkpt>
            <trkpt lat="47.3860939999999999372448655776679515838623046875" lon="10.9391020000000001033413354889489710330963134765625">
                <ele>1119.43506112000022767460905015468597412109375</ele>
            </trkpt>
            <trkpt lat="47.386043000000000802174326963722705841064453125" lon="10.9391370000000005546780812437646090984344482421875">
                <ele>1119.516703839989759217132814228534698486328125</ele>
            </trkpt>
            <trkpt lat="47.38583899999999715646481490693986415863037109375" lon="10.9393630000000001700755092315375804901123046875">
                <ele>1120.7128145600117932190187275409698486328125</ele>
            </trkpt>
            <trkpt lat="47.385762999999997191480360925197601318359375" lon="10.9394510000000000360387275577522814273834228515625">
                <ele>1121.4528299200246692635118961334228515625</ele>
            </trkpt>
            <trkpt lat="47.38570899999999852525434107519686222076416015625" lon="10.939424999999999954525264911353588104248046875">
                <ele>1121.94242800001347859506495296955108642578125</ele>
            </trkpt>
            <trkpt lat="47.38570899999999852525434107519686222076416015625" lon="10.939424999999999954525264911353588104248046875">
                <ele>1121.94242800001347859506495296955108642578125</ele>
            </trkpt>
            <trkpt lat="47.38558100000000194995664060115814208984375" lon="10.93942200000000042336978367529809474945068359375">
                <ele>1123.116642879981327496352605521678924560546875</ele>
            </trkpt>
            <trkpt lat="47.3852729999999979781932779587805271148681640625" lon="10.93952900000000028057911549694836139678955078125">
                <ele>1125.1152452800133687560446560382843017578125</ele>
            </trkpt>
            <trkpt lat="47.38436800000000204136085812933743000030517578125" lon="10.9397649999999995173993738717399537563323974609375">
                <ele>1127.66454399999793167808093130588531494140625</ele>
            </trkpt>
            <trkpt lat="47.3841850000000022191670723259449005126953125" lon="10.939654000000000877435013535432517528533935546875">
                <ele>1130.6163279999718724866397678852081298828125</ele>
            </trkpt>
            <trkpt lat="47.3839430000000021436790120787918567657470703125" lon="10.939617999999999398141881101764738559722900390625">
                <ele>1135.56969631997117176069878041744232177734375</ele>
            </trkpt>
            <trkpt lat="47.3838420000000013487806427292525768280029296875" lon="10.9396509999999995699226928991265594959259033203125">
                <ele>1136.915706559982709222822450101375579833984375</ele>
            </trkpt>
            <trkpt lat="47.38369999999999748752088635228574275970458984375" lon="10.93977399999999988722265698015689849853515625">
                <ele>1137.63238400005184303154237568378448486328125</ele>
            </trkpt>
            <trkpt lat="47.38360899999999986675902619026601314544677734375" lon="10.9399840000000008188862921088002622127532958984375">
                <ele>1136.125854079991086109657771885395050048828125</ele>
            </trkpt>
            <trkpt lat="47.38358699999999856800059205852448940277099609375" lon="10.94016500000000036152414395473897457122802734375">
                <ele>1136.420081600023650025832466781139373779296875</ele>
            </trkpt>
            <trkpt lat="47.383499999999997953636921010911464691162109375" lon="10.940279000000000309000824927352368831634521484375">
                <ele>1137.63128000002689077518880367279052734375</ele>
            </trkpt>
            <trkpt lat="47.38336100000000072896000347100198268890380859375" lon="10.940253999999999479086909559555351734161376953125">
                <ele>1139.5937484799933372414670884609222412109375</ele>
            </trkpt>
            <trkpt lat="47.38320900000000079899109550751745700836181640625" lon="10.940279000000000309000824927352368831634521484375">
                <ele>1143.05779135997772755217738449573516845703125</ele>
            </trkpt>
            <trkpt lat="47.3831119999999970104909152723848819732666015625" lon="10.9403769999999997963868736405856907367706298828125">
                <ele>1144.86617024007819054531864821910858154296875</ele>
            </trkpt>
            <trkpt lat="47.38305600000000339377947966568171977996826171875" lon="10.94040700000000043701220420189201831817626953125">
                <ele>1146.062241919911457443959079682826995849609375</ele>
            </trkpt>
            <trkpt lat="47.38301799999999985857357387430965900421142578125" lon="10.9403909999999999769215719425119459629058837890625">
                <ele>1147.147018880004225138691253960132598876953125</ele>
            </trkpt>
            <trkpt lat="47.3830150000000003274180926382541656494140625" lon="10.9403330000000007515836841776035726070404052734375">
                <ele>1147.677411199986408973927609622478485107421875</ele>
            </trkpt>
            <trkpt lat="47.38305799999999834426489542238414287567138671875" lon="10.940270999999999190777089097537100315093994140625">
                <ele>1147.04341568004974760697223246097564697265625</ele>
            </trkpt>
            <trkpt lat="47.38317299999999931969796307384967803955078125" lon="10.93999900000000025102053768932819366455078125">
                <ele>1145.938907360016173697658814489841461181640625</ele>
            </trkpt>
            <trkpt lat="47.383195999999998093699105083942413330078125" lon="10.9399010000000007636344889760948717594146728515625">
                <ele>1146.657265280042111044167540967464447021484375</ele>
            </trkpt>
            <trkpt lat="47.383184999999997444319888018071651458740234375" lon="10.93977100000000035606717574410140514373779296875">
                <ele>1148.744856800063871560269035398960113525390625</ele>
            </trkpt>
            <trkpt lat="47.3829649999999986675902619026601314544677734375" lon="10.93949500000000085719875642098486423492431640625">
                <ele>1158.134444000023677290300838649272918701171875</ele>
            </trkpt>
            <trkpt lat="47.38282000000000238060238189063966274261474609375" lon="10.939403999999999683723217458464205265045166015625">
                <ele>1162.9287103999449755065143108367919921875</ele>
            </trkpt>
            <trkpt lat="47.38276799999999866486177779734134674072265625" lon="10.9394539999999995671942087938077747821807861328125">
                <ele>1163.63213696003958830260671675205230712890625</ele>
            </trkpt>
            <trkpt lat="47.38267599999999646342985215596854686737060546875" lon="10.9399110000000003850573193631134927272796630859375">
                <ele>1160.6712684800922943395562469959259033203125</ele>
            </trkpt>
            <trkpt lat="47.38265100000000273894329438917338848114013671875" lon="10.94023299999999920828486210666596889495849609375">
                <ele>1158.018654079936595735489390790462493896484375</ele>
            </trkpt>
            <trkpt lat="47.38259099999999790497895446605980396270751953125" lon="10.9403559999999995255848261876963078975677490234375">
                <ele>1158.330200960059073622687719762325286865234375</ele>
            </trkpt>
            <trkpt lat="47.38235800000000352838469552807509899139404296875" lon="10.9406189999999998718749338877387344837188720703125">
                <ele>1160.755426879929700589855201542377471923828125</ele>
            </trkpt>
            <trkpt lat="47.382035000000001900843926705420017242431640625" lon="10.9408770000000004074536263942718505859375">
                <ele>1164.560721599959151717484928667545318603515625</ele>
            </trkpt>
            <trkpt lat="47.38185200000000207865014090202748775482177734375" lon="10.9408770000000004074536263942718505859375">
                <ele>1168.270907519955244424636475741863250732421875</ele>
            </trkpt>
            <trkpt lat="47.3816479999999984329406288452446460723876953125" lon="10.9408340000000006142499842098914086818695068359375">
                <ele>1172.761635840017333975993096828460693359375</ele>
            </trkpt>
            <trkpt lat="47.38150799999999662759364582598209381103515625" lon="10.940844999999999487272361875511705875396728515625">
                <ele>1174.66413120005518067046068608760833740234375</ele>
            </trkpt>
            <trkpt lat="47.38121799999999694819052820093929767608642578125" lon="10.940962999999999993860910763032734394073486328125">
                <ele>1177.72795008004641204024665057659149169921875</ele>
            </trkpt>
            <trkpt lat="47.38101300000000293266566586680710315704345703125" lon="10.940962999999999993860910763032734394073486328125">
                <ele>1180.75650527995776428724639117717742919921875</ele>
            </trkpt>
            <trkpt lat="47.380797999999998637576936744153499603271484375" lon="10.9408989999999999298552211257629096508026123046875">
                <ele>1184.33334112001602989039383828639984130859375</ele>
            </trkpt>
            <trkpt lat="47.38029300000000176851244759745895862579345703125" lon="10.9408989999999999298552211257629096508026123046875">
                <ele>1189.835093919982000443269498646259307861328125</ele>
            </trkpt>
            <trkpt lat="47.380076999999999998181010596454143524169921875" lon="10.940962999999999993860910763032734394073486328125">
                <ele>1191.720422560000542944180779159069061279296875</ele>
            </trkpt>
            <trkpt lat="47.379818999999997686245478689670562744140625" lon="10.94094199999999972305886331014335155487060546875">
                <ele>1194.134091520020547250169329345226287841796875</ele>
            </trkpt>
            <trkpt lat="47.37939999999999685087459511123597621917724609375" lon="10.9406079999999992224957168218679726123809814453125">
                <ele>1200.56726400003617527545429766178131103515625</ele>
            </trkpt>
            <trkpt lat="47.37918700000000171712599694728851318359375" lon="10.9405110000000007630660547874867916107177734375">
                <ele>1203.580086239976253636996261775493621826171875</ele>
            </trkpt>
            <trkpt lat="47.37889400000000250656739808619022369384765625" lon="10.94041299999999949932316667400300502777099609375">
                <ele>1209.95639999996274127624928951263427734375</ele>
            </trkpt>
            <trkpt lat="47.37848799999999727106114733032882213592529296875" lon="10.940735000000000098907548817805945873260498046875">
                <ele>1213.014000000049009031499736011028289794921875</ele>
            </trkpt>
            <trkpt lat="47.3784160000000014179022400639951229095458984375" lon="10.94081800000000015415935195051133632659912109375">
                <ele>1213.214399999973693411448039114475250244140625</ele>
            </trkpt>
            <trkpt lat="47.3783719999999988203853718005120754241943359375" lon="10.9409469999999995337702785036526620388031005859375">
                <ele>1213.2710579200238498742692172527313232421875</ele>
            </trkpt>
            <trkpt lat="47.3782709999999980254870024509727954864501953125" lon="10.9411509999999996267661117599345743656158447265625">
                <ele>1214.7026312000571124372072517871856689453125</ele>
            </trkpt>
            <trkpt lat="47.378073999999998022758518345654010772705078125" lon="10.94118399999999979854692355729639530181884765625">
                <ele>1219.94203520005612517707049846649169921875</ele>
            </trkpt>
            <trkpt lat="47.377938000000000329237082041800022125244140625" lon="10.9411679999999993384562912979163229465484619140625">
                <ele>1223.80100479999646267970092594623565673828125</ele>
            </trkpt>
            <trkpt lat="47.37763300000000299405655823647975921630859375" lon="10.9411970000000007274820745806209743022918701171875">
                <ele>1231.93064719991161837242543697357177734375</ele>
            </trkpt>
            <trkpt lat="47.37732700000000107820596895180642604827880859375" lon="10.941255999999999204419509624131023883819580078125">
                <ele>1243.23322111996048988658003509044647216796875</ele>
            </trkpt>
            <trkpt lat="47.3770669999999967103576636873185634613037109375" lon="10.94106599999999929195837466977536678314208984375">
                <ele>1258.2301107201737977447919547557830810546875</ele>
            </trkpt>
            <trkpt lat="47.37674799999999919464244158007204532623291015625" lon="10.9409410000000004714593160315416753292083740234375">
                <ele>1275.7716396800360598717816174030303955078125</ele>
            </trkpt>
            <trkpt lat="47.3766210000000000945874489843845367431640625" lon="10.940962999999999993860910763032734394073486328125">
                <ele>1282.376711839996687558596022427082061767578125</ele>
            </trkpt>
            <trkpt lat="47.37612299999999976307663018815219402313232421875" lon="10.940704000000000206682670977897942066192626953125">
                <ele>1320.0020851200124525348655879497528076171875</ele>
            </trkpt>
            <trkpt lat="47.37588000000000221234586206264793872833251953125" lon="10.941019000000000715999703970737755298614501953125">
                <ele>1328.107337599846914599766023457050323486328125</ele>
            </trkpt>
            <trkpt lat="47.37580200000000019144863472320139408111572265625" lon="10.9412369999999992131733961286954581737518310546875">
                <ele>1329.5002592000009826733730733394622802734375</ele>
            </trkpt>
            <trkpt lat="47.37566000000000343561623594723641872406005859375" lon="10.9412369999999992131733961286954581737518310546875">
                <ele>1346.21513599963145679794251918792724609375</ele>
            </trkpt>
            <trkpt lat="47.375190000000003465174813754856586456298828125" lon="10.94134999999999990905052982270717620849609375">
                <ele>1391.4991999996464073774404823780059814453125</ele>
            </trkpt>
            <trkpt lat="47.3746799999999979036147124134004116058349609375" lon="10.941159999999999996589394868351519107818603515625">
                <ele>1481.074016000331539544276893138885498046875</ele>
            </trkpt>
            <trkpt lat="47.3747800000000012232703738845884799957275390625" lon="10.9405400000000003757349986699409782886505126953125">
                <ele>1505.48572799985822712187655270099639892578125</ele>
            </trkpt>
            <trkpt lat="47.374809999999996534825186245143413543701171875" lon="10.940149999999999153033058973960578441619873046875">
                <ele>1518.384960000370710986317135393619537353515625</ele>
            </trkpt>
            <trkpt lat="47.3741500000000002046363078989088535308837890625" lon="10.9407300000000002881961336242966353893280029296875">
                <ele>1568.946639999990338765201158821582794189453125</ele>
            </trkpt>
            <trkpt lat="47.3739599999999967394614941440522670745849609375" lon="10.9412900000000004041567081003449857234954833984375">
                <ele>1564.490656000118860902148298919200897216796875</ele>
            </trkpt>
            <trkpt lat="47.373975999999998975908965803682804107666015625" lon="10.941295000000000214868123293854296207427978515625">
                <ele>1563.793772800037231718306429684162139892578125</ele>
            </trkpt>
            <trkpt lat="47.37395500000000225782059715129435062408447265625" lon="10.9414519999999999555484464508481323719024658203125">
                <ele>1561.872774399909530984587036073207855224609375</ele>
            </trkpt>
            <trkpt lat="47.3738799999999997680788510479032993316650390625" lon="10.941604999999999137116901692934334278106689453125">
                <ele>1562.54761600002575505641289055347442626953125</ele>
            </trkpt>
            <trkpt lat="47.3738910000000004174580681137740612030029296875" lon="10.9419740000000000890167939360253512859344482421875">
                <ele>1565.019215359984400492976419627666473388671875</ele>
            </trkpt>
            <trkpt lat="47.3737890000000021473169908858835697174072265625" lon="10.9421660000000002810338628478348255157470703125">
                <ele>1570.963880959929383607232011854648590087890625</ele>
            </trkpt>
            <trkpt lat="47.3737110000000001264197635464370250701904296875" lon="10.9424229999999997886561686755158007144927978515625">
                <ele>1575.85958911999432530137710273265838623046875</ele>
            </trkpt>
            <trkpt lat="47.37358100000000149520928971469402313232421875" lon="10.942643000000000341742634191177785396575927734375">
                <ele>1579.5301975999618662171997129917144775390625</ele>
            </trkpt>
            <trkpt lat="47.373569000000003370587364770472049713134765625" lon="10.942584000000000088448359747417271137237548828125">
                <ele>1580.01773119991366911563090980052947998046875</ele>
            </trkpt>
            <trkpt lat="47.3735140000000001236912794411182403564453125" lon="10.942527999999999366309566539712250232696533203125">
                <ele>1581.632422399999768458656035363674163818359375</ele>
            </trkpt>
            <trkpt lat="47.37345400000000239515429711900651454925537109375" lon="10.942536000000000484533302369527518749237060546875">
                <ele>1583.172876799936375391553156077861785888671875</ele>
            </trkpt>
            <trkpt lat="47.3733969999999970923454384319484233856201171875" lon="10.9424980000000005020410753786563873291015625">
                <ele>1584.816266240077993643353693187236785888671875</ele>
            </trkpt>
            <trkpt lat="47.37313100000000076761352829635143280029296875" lon="10.9420179999999991338199833990074694156646728515625">
                <ele>1594.37196447996984716155566275119781494140625</ele>
            </trkpt>
            <trkpt lat="47.37302600000000296631696983240544795989990234375" lon="10.9417770000000000862883098307065665721893310546875">
                <ele>1598.35042911988557534641586244106292724609375</ele>
            </trkpt>
            <trkpt lat="47.3727870000000024219843908213078975677490234375" lon="10.9409200000000002006572685786522924900054931640625">
                <ele>1607.538694399922633238020353019237518310546875</ele>
            </trkpt>
            <trkpt lat="47.37265099999999762303559691645205020904541015625" lon="10.9406920000000003057039066334255039691925048828125">
                <ele>1612.898594560070705483667552471160888671875</ele>
            </trkpt>
            <trkpt lat="47.37254599999999982173903845250606536865234375" lon="10.9405669999999997088480085949413478374481201171875">
                <ele>1617.035325760007935969042591750621795654296875</ele>
            </trkpt>
            <trkpt lat="47.37247599999999891906554694287478923797607421875" lon="10.9405629999999991497361406800337135791778564453125">
                <ele>1619.226315520042362550157122313976287841796875</ele>
            </trkpt>
            <trkpt lat="47.37242599999999725923771620728075504302978515625" lon="10.9406079999999992224957168218679726123809814453125">
                <ele>1620.57029632009698616457171738147735595703125</ele>
            </trkpt>
            <trkpt lat="47.37218899999999877081791055388748645782470703125" lon="10.94043500000000079808160080574452877044677734375">
                <ele>1628.9584936000364905339665710926055908203125</ele>
            </trkpt>
            <trkpt lat="47.3722709999999977981133270077407360076904296875" lon="10.9401600000000005508127287612296640872955322265625">
                <ele>1627.593654400058994724531657993793487548828125</ele>
            </trkpt>
            <trkpt lat="47.3722589999999996734914020635187625885009765625" lon="10.94010899999999963938535074703395366668701171875">
                <ele>1628.128846240011398549540899693965911865234375</ele>
            </trkpt>
            <trkpt lat="47.3722989999999981591827236115932464599609375" lon="10.940051000000000414047462982125580310821533203125">
                <ele>1627.330852960046968291862867772579193115234375</ele>
            </trkpt>
            <trkpt lat="47.3721639999999979409039951860904693603515625" lon="10.9399730000000001695070750429295003414154052734375">
                <ele>1630.927490560052319779060781002044677734375</ele>
            </trkpt>
            <trkpt lat="47.3721699999999970032149576582014560699462890625" lon="10.939902000000000015234036254696547985076904296875">
                <ele>1630.678643200072883701068349182605743408203125</ele>
            </trkpt>
            <trkpt lat="47.372107999999997218765201978385448455810546875" lon="10.939429000000000513637132826261222362518310546875">
                <ele>1631.170255360053488402627408504486083984375</ele>
            </trkpt>
            <trkpt lat="47.3720459999999974343154462985694408416748046875" lon="10.9394930000000005776428224635310471057891845703125">
                <ele>1632.505949440051836063503287732601165771484375</ele>
            </trkpt>
            <trkpt lat="47.3718939999999975043465383350849151611328125" lon="10.9393539999999998002522261231206357479095458984375">
                <ele>1634.811796480043767587631009519100189208984375</ele>
            </trkpt>
            <trkpt lat="47.37174900000000121735865832306444644927978515625" lon="10.93929299999999926740201772190630435943603515625">
                <ele>1637.00537535997500526718795299530029296875</ele>
            </trkpt>
            <trkpt lat="47.3715959999999967067196848802268505096435546875" lon="10.9391909999999992209041010937653481960296630859375">
                <ele>1639.563085440081749766250140964984893798828125</ele>
            </trkpt>
            <trkpt lat="47.3714709999999996625774656422436237335205078125" lon="10.939023999999999858800947549752891063690185546875">
                <ele>1642.3946246400082600302994251251220703125</ele>
            </trkpt>
            <trkpt lat="47.37139400000000222235030378215014934539794921875" lon="10.9388839999999998298108039307408034801483154296875">
                <ele>1643.81675135995101300068199634552001953125</ele>
            </trkpt>
            <trkpt lat="47.3713479999999975689206621609628200531005859375" lon="10.9387290000000003686864147312007844448089599609375">
                <ele>1644.228798720049098847084678709506988525390625</ele>
            </trkpt>
            <trkpt lat="47.37129900000000048976289690472185611724853515625" lon="10.93846500000000077079675975255668163299560546875">
                <ele>1643.96200559999624601914547383785247802734375</ele>
            </trkpt>
            <trkpt lat="47.3713139999999981455403030849993228912353515625" lon="10.938299000000000660293153487145900726318359375">
                <ele>1643.308892480021995652350597083568572998046875</ele>
            </trkpt>
            <trkpt lat="47.37134900000000214959072764031589031219482421875" lon="10.9381409999999998916564436512999236583709716796875">
                <ele>1643.583257119974632587400265038013458251953125</ele>
            </trkpt>
            <trkpt lat="47.37143900000000229510987992398440837860107421875" lon="10.937984000000000150976120494306087493896484375">
                <ele>1643.2576236799732214421965181827545166015625</ele>
            </trkpt>
            <trkpt lat="47.37149099999999890542312641628086566925048828125" lon="10.9378329999999994726067598094232380390167236328125">
                <ele>1643.4411070400155949755571782588958740234375</ele>
            </trkpt>
            <trkpt lat="47.3714889999999968495103530585765838623046875" lon="10.93756499999999931560523691587150096893310546875">
                <ele>1644.8654888000355640542693436145782470703125</ele>
            </trkpt>
            <trkpt lat="47.371363999999999805368133820593357086181640625" lon="10.9371039999999997149870978319086134433746337890625">
                <ele>1651.980266240006358202663250267505645751953125</ele>
            </trkpt>
            <trkpt lat="47.37129900000000048976289690472185611724853515625" lon="10.93692300000000017234924598596990108489990234375">
                <ele>1654.666218079997861423180438578128814697265625</ele>
            </trkpt>
            <trkpt lat="47.37123199999999911824488663114607334136962890625" lon="10.936792000000000513182385475374758243560791015625">
                <ele>1656.4284377599951767479069530963897705078125</ele>
            </trkpt>
            <trkpt lat="47.37100699999999875444700592197477817535400390625" lon="10.9366000000000003211653165635652840137481689453125">
                <ele>1658.785103999993452816852368414402008056640625</ele>
            </trkpt>
            <trkpt lat="47.3707490000000035479388316161930561065673828125" lon="10.936426000000000868794813868589699268341064453125">
                <ele>1660.774534399997492073453031480312347412109375</ele>
            </trkpt>
            <trkpt lat="47.37002799999999780311554786749184131622314453125" lon="10.9361920000000001351736500510014593601226806640625">
                <ele>1659.79698559998723794706165790557861328125</ele>
            </trkpt>
            <trkpt lat="47.36993600000000270711097982712090015411376953125" lon="10.93623099999999936926542432047426700592041015625">
                <ele>1659.388497920008148867054842412471771240234375</ele>
            </trkpt>
            <trkpt lat="47.3698619999999976926119416020810604095458984375" lon="10.936206999999999567307895631529390811920166015625">
                <ele>1659.25491007999517023563385009765625</ele>
            </trkpt>
            <trkpt lat="47.3698619999999976926119416020810604095458984375" lon="10.936206999999999567307895631529390811920166015625">
                <ele>1659.25491007999517023563385009765625</ele>
            </trkpt>
            <trkpt lat="47.36993600000000270711097982712090015411376953125" lon="10.93623099999999936926542432047426700592041015625">
                <ele>1659.388497920008148867054842412471771240234375</ele>
            </trkpt>
            <trkpt lat="47.37002799999999780311554786749184131622314453125" lon="10.9361920000000001351736500510014593601226806640625">
                <ele>1659.79698559998723794706165790557861328125</ele>
            </trkpt>
            <trkpt lat="47.370643999999998641214915551245212554931640625" lon="10.9364000000000007872813512221910059452056884765625">
                <ele>1660.8401599999879181268624961376190185546875</ele>
            </trkpt>
            <trkpt lat="47.37069199999999824512997292913496494293212890625" lon="10.9363609999999997768327375524677336215972900390625">
                <ele>1661.44910719999779757927171885967254638671875</ele>
            </trkpt>
            <trkpt lat="47.37079800000000062709659687243402004241943359375" lon="10.936322000000000542740963282994925975799560546875">
                <ele>1662.33023359999560852884314954280853271484375</ele>
            </trkpt>
            <trkpt lat="47.370901000000003477907739579677581787109375" lon="10.936353000000000434965841122902929782867431640625">
                <ele>1662.311945760009621153585612773895263671875</ele>
            </trkpt>
            <trkpt lat="47.371566000000001395164872519671916961669921875" lon="10.936246000000000577756509301252663135528564453125">
                <ele>1667.54354111999646192998625338077545166015625</ele>
            </trkpt>
            <trkpt lat="47.37176199999999681722329114563763141632080078125" lon="10.9361709999999998643716025981120765209197998046875">
                <ele>1669.6680841600091298460029065608978271484375</ele>
            </trkpt>
            <trkpt lat="47.37228499999999797864802530966699123382568359375" lon="10.9360359999999996460928741726092994213104248046875">
                <ele>1671.1743808000128410640172660350799560546875</ele>
            </trkpt>
            <trkpt lat="47.372377999999997655322658829391002655029296875" lon="10.9359690000000000509317032992839813232421875">
                <ele>1671.96516256000859357300214469432830810546875</ele>
            </trkpt>
            <trkpt lat="47.372478000000000974978320300579071044921875" lon="10.9358260000000004907860784442164003849029541015625">
                <ele>1673.7820646399850375019013881683349609375</ele>
            </trkpt>
            <trkpt lat="47.3725960000000014815668691881000995635986328125" lon="10.9357740000000003277591531514190137386322021484375">
                <ele>1676.52859776001832869951613247394561767578125</ele>
            </trkpt>
            <trkpt lat="47.37290699999999787905835546553134918212890625" lon="10.935888999999999526835381402634084224700927734375">
                <ele>1679.2097487999772056355141103267669677734375</ele>
            </trkpt>
            <trkpt lat="47.37322199999999838837538845837116241455078125" lon="10.9360510000000008545839591533876955509185791015625">
                <ele>1680.232163199958677068934775888919830322265625</ele>
            </trkpt>
            <trkpt lat="47.37328699999999770398062537424266338348388671875" lon="10.9360529999999993577830537105910480022430419921875">
                <ele>1681.068961599987005683942697942256927490234375</ele>
            </trkpt>
            <trkpt lat="47.37332500000000123918653116561472415924072265625" lon="10.936035000000000394493326894007623195648193359375">
                <ele>1682.060200000008762799552641808986663818359375</ele>
            </trkpt>
            <trkpt lat="47.37335900000000066256689024157822132110595703125" lon="10.9359839999999994830659488798119127750396728515625">
                <ele>1683.435568640013343610917218029499053955078125</ele>
            </trkpt>
            <trkpt lat="47.37339200000000261070454143919050693511962890625" lon="10.935978999999999672354533686302602291107177734375">
                <ele>1683.455505920001769482041709125041961669921875</ele>
            </trkpt>
            <trkpt lat="47.373525999999998248313204385340213775634765625" lon="10.936021000000000213958628592081367969512939453125">
                <ele>1681.904066240002066479064524173736572265625</ele>
            </trkpt>
            <trkpt lat="47.373592000000002144588506780564785003662109375" lon="10.9359979999999996636006471817381680011749267578125">
                <ele>1682.2829350400033945334143936634063720703125</ele>
            </trkpt>
            <trkpt lat="47.3736109999999968067641020752489566802978515625" lon="10.9359599999999996811084201908670365810394287109375">
                <ele>1683.207046400020999499247409403324127197265625</ele>
            </trkpt>
            <trkpt lat="47.3736310000000031550371204502880573272705078125" lon="10.93583699999999936380845610983669757843017578125">
                <ele>1686.33317168000712626962922513484954833984375</ele>
            </trkpt>
            <trkpt lat="47.3736310000000031550371204502880573272705078125" lon="10.93583699999999936380845610983669757843017578125">
                <ele>1686.33317168000712626962922513484954833984375</ele>
            </trkpt>
            <trkpt lat="47.37365799999999893543645157478749752044677734375" lon="10.935660999999999631882019457407295703887939453125">
                <ele>1690.74381568001308551174588501453399658203125</ele>
            </trkpt>
            <trkpt lat="47.3737009999999969522832543589174747467041015625" lon="10.935615999999999559122443315573036670684814453125">
                <ele>1691.821989760018141168984584510326385498046875</ele>
            </trkpt>
            <trkpt lat="47.37383700000000175123204826377332210540771484375" lon="10.9355639999999993960955180227756500244140625">
                <ele>1692.999652480015583932981826364994049072265625</ele>
            </trkpt>
            <trkpt lat="47.37401299999999793044480611570179462432861328125" lon="10.9355810000000008841425369610078632831573486328125">
                <ele>1692.288182079979151239967904984951019287109375</ele>
            </trkpt>
            <trkpt lat="47.37417099999999692272467655129730701446533203125" lon="10.935643999999999920191839919425547122955322265625">
                <ele>1690.17692160000615331227891147136688232421875</ele>
            </trkpt>
            <trkpt lat="47.3742840000000029476723284460604190826416015625" lon="10.9356279999999994601012076600454747676849365234375">
                <ele>1690.617196800018291469314135611057281494140625</ele>
            </trkpt>
            <trkpt lat="47.3744650000000007139533408917486667633056640625" lon="10.935686000000000461795934825204312801361083984375">
                <ele>1688.437415999984068548656068742275238037109375</ele>
            </trkpt>
            <trkpt lat="47.374583000000001220541889779269695281982421875" lon="10.935700000000000642330633127130568027496337890625">
                <ele>1687.700639999974782767822034657001495361328125</ele>
            </trkpt>
            <trkpt lat="47.3746579999999966048562782816588878631591796875" lon="10.93578600000000022873791749589145183563232421875">
                <ele>1684.063939200005961538408882915973663330078125</ele>
            </trkpt>
            <trkpt lat="47.37474900000000133104549604468047618865966796875" lon="10.9357889999999997598933987319469451904296875">
                <ele>1683.592442400007485048263333737850189208984375</ele>
            </trkpt>
            <trkpt lat="47.37506400000000184036252903752028942108154296875" lon="10.935688999999999992951416061259806156158447265625">
                <ele>1681.4436211198308228631503880023956298828125</ele>
            </trkpt>
            <trkpt lat="47.375146999999998342900653369724750518798828125" lon="10.935705999999999704641595599241554737091064453125">
                <ele>1672.8234470401730504818260669708251953125</ele>
            </trkpt>
            <trkpt lat="47.375214999999997189661371521651744842529296875" lon="10.93579199999999929104887996800243854522705078125">
                <ele>1661.99756160030710816499777138233184814453125</ele>
            </trkpt>
            <trkpt lat="47.3752989999999982728695613332092761993408203125" lon="10.935665000000000190993887372314929962158203125">
                <ele>1660.74573120015338645316660404205322265625</ele>
            </trkpt>
            <trkpt lat="47.37532900000000068985173129476606845855712890625" lon="10.9356939999999998036628312547691166400909423828125">
                <ele>1656.39612671994882475701160728931427001953125</ele>
            </trkpt>
            <trkpt lat="47.37534099999999881447365623898804187774658203125" lon="10.9355670000000007036078386590816080570220947265625">
                <ele>1662.1173638400732670561410486698150634765625</ele>
            </trkpt>
            <trkpt lat="47.37530799999999686633600504137575626373291015625" lon="10.9354150000000007736389306955970823764801025390625">
                <ele>1673.2384704002397484146058559417724609375</ele>
            </trkpt>
            <trkpt lat="47.375303999999999859937815926969051361083984375" lon="10.9352660000000003748255039681680500507354736328125">
                <ele>1681.52827007999485431355424225330352783203125</ele>
            </trkpt>
            <trkpt lat="47.37537400000000076261130743660032749176025390625" lon="10.9351520000000004273488229955546557903289794921875">
                <ele>1681.7032665599153915536589920520782470703125</ele>
            </trkpt>
            <trkpt lat="47.37545999999999679630491300486028194427490234375" lon="10.935264000000000095269570010714232921600341796875">
                <ele>1668.1935168002737555070780217647552490234375</ele>
            </trkpt>
            <trkpt lat="47.3754899999999992132870829664170742034912109375" lon="10.9353780000000000427462509833276271820068359375">
                <ele>1659.1713984000698474119417369365692138671875</ele>
            </trkpt>
            <trkpt lat="47.3755129999999979872882249765098094940185546875" lon="10.9353210000000000690079104970209300518035888671875">
                <ele>1660.385650560174553902470506727695465087890625</ele>
            </trkpt>
            <trkpt lat="47.37553299999999723013388575054705142974853515625" lon="10.9353940000000005028368832427076995372772216796875">
                <ele>1654.466365440219078664085827767848968505859375</ele>
            </trkpt>
            <trkpt lat="47.37561699999999831334207556210458278656005859375" lon="10.935202000000000310819814330898225307464599609375">
                <ele>1658.303124480128417417290620505809783935546875</ele>
            </trkpt>
            <trkpt lat="47.37563000000000101863406598567962646484375" lon="10.9350140000000006779146133339963853359222412109375">
                <ele>1668.267590399879964024876244366168975830078125</ele>
            </trkpt>
            <trkpt lat="47.375663000000002966771717183291912078857421875" lon="10.9350129999999996499582266551442444324493408203125">
                <ele>1665.626263679781231985543854534626007080078125</ele>
            </trkpt>
            <trkpt lat="47.37568300000000220961737795732915401458740234375" lon="10.9350989999999992363655110239051282405853271484375">
                <ele>1658.8467782398647614172659814357757568359375</ele>
            </trkpt>
            <trkpt lat="47.3757379999999983510861056856811046600341796875" lon="10.93500399999999928013494354672729969024658203125">
                <ele>1660.03618944018171532661654055118560791015625</ele>
            </trkpt>
            <trkpt lat="47.37577499999999730562194599770009517669677734375" lon="10.935033000000000669160726829431951045989990234375">
                <ele>1655.23406400018347994773648679256439208984375</ele>
            </trkpt>
            <trkpt lat="47.3757719999999977744664647616446018218994140625" lon="10.9350889999999996149426806368865072727203369140625">
                <ele>1652.045525760211830856860615313053131103515625</ele>
            </trkpt>
            <trkpt lat="47.37580299999999766669134260155260562896728515625" lon="10.935072999999999154852048377506434917449951171875">
                <ele>1650.4582636802488195826299488544464111328125</ele>
            </trkpt>
            <trkpt lat="47.37581999999999737838152213953435420989990234375" lon="10.9351529999999996789483702741563320159912109375">
                <ele>1644.076051200244137362460605800151824951171875</ele>
            </trkpt>
            <trkpt lat="47.37584600000000278896550298668444156646728515625" lon="10.9351059999999993266328601748682558536529541015625">
                <ele>1644.290402559696303796954452991485595703125</ele>
            </trkpt>
            <trkpt lat="47.37591400000000163572622113861143589019775390625" lon="10.9352169999999997429540599114261567592620849609375">
                <ele>1629.1097612798212139750830829143524169921875</ele>
            </trkpt>
            <trkpt lat="47.3759500000000031150193535722792148590087890625" lon="10.9351889999999993818846633075736463069915771484375">
                <ele>1626.34844799965821948717348277568817138671875</ele>
            </trkpt>
            <trkpt lat="47.37596599999999824603946763090789318084716796875" lon="10.9352800000000005553602022700943052768707275390625">
                <ele>1619.118188800183588682557456195354461669921875</ele>
            </trkpt>
            <trkpt lat="47.37602600000000308000380755402147769927978515625" lon="10.9352070000000001215312295244075357913970947265625">
                <ele>1615.991921919621518100029788911342620849609375</ele>
            </trkpt>
            <trkpt lat="47.3760809999999992214725352823734283447265625" lon="10.9350959999999997052100297878496348857879638671875">
                <ele>1615.233698560119592002592980861663818359375</ele>
            </trkpt>
            <trkpt lat="47.3762219999999985020622261799871921539306640625" lon="10.9352099999999996526867107604630291461944580078125">
                <ele>1591.845587200205272893072105944156646728515625</ele>
            </trkpt>
            <trkpt lat="47.37646699999999810870576766319572925567626953125" lon="10.935548000000000712361725163646042346954345703125">
                <ele>1548.182536960184734198264777660369873046875</ele>
            </trkpt>
            <trkpt lat="47.376564000000001897205947898328304290771484375" lon="10.935582000000000135742084239609539508819580078125">
                <ele>1536.185370879791435072547756135463714599609375</ele>
            </trkpt>
            <trkpt lat="47.376632000000000743966666050255298614501953125" lon="10.9356460000000001997477738768793642520904541015625">
                <ele>1526.51324031991725860279984772205352783203125</ele>
            </trkpt>
            <trkpt lat="47.376722999999998364728526212275028228759765625" lon="10.9356349999999995503685568110086023807525634765625">
                <ele>1518.280846400161181009025312960147857666015625</ele>
            </trkpt>
            <trkpt lat="47.37673600000000107002051663585007190704345703125" lon="10.935370999999999952478901832364499568939208984375">
                <ele>1525.444494079905098260496743023395538330078125</ele>
            </trkpt>
            <trkpt lat="47.37687700000000035061020753346383571624755859375" lon="10.9350749999999994344079823349602520465850830078125">
                <ele>1520.01615199998423122451640665531158447265625</ele>
            </trkpt>
            <trkpt lat="47.37699400000000338195604854263365268707275390625" lon="10.9348829999999992423909134231507778167724609375">
                <ele>1510.017149119646774124703370034694671630859375</ele>
            </trkpt>
            <trkpt lat="47.3770710000000008221832104027271270751953125" lon="10.9349100000000003518607627484016120433807373046875">
                <ele>1501.693601599915155020426027476787567138671875</ele>
            </trkpt>
            <trkpt lat="47.37709799999999660258254152722656726837158203125" lon="10.9351040000000008234337656176649034023284912109375">
                <ele>1496.360322560340364361763931810855865478515625</ele>
            </trkpt>
            <trkpt lat="47.3770990000000011832526070065796375274658203125" lon="10.9352830000000000865156835061497986316680908203125">
                <ele>1492.69405855988725306815467774868011474609375</ele>
            </trkpt>
            <trkpt lat="47.3771210000000024820110411383211612701416015625" lon="10.9353689999999996729229678749106824398040771484375">
                <ele>1488.889920319775001189555041491985321044921875</ele>
            </trkpt>
            <trkpt lat="47.3772110000000026275301934219896793365478515625" lon="10.9353210000000000690079104970209300518035888671875">
                <ele>1481.115078079749537209863774478435516357421875</ele>
            </trkpt>
            <trkpt lat="47.3772799999999989495336194522678852081298828125" lon="10.935342999999999591409505228511989116668701171875">
                <ele>1474.135827200110952617251314222812652587890625</ele>
            </trkpt>
            <trkpt lat="47.37731999999999743522494100034236907958984375" lon="10.9352900000000001767830326571129262447357177734375">
                <ele>1470.98230400025249764439649879932403564453125</ele>
            </trkpt>
            <trkpt lat="47.37727000000000288082446786575019359588623046875" lon="10.935190999999999661440597265027463436126708984375">
                <ele>1477.297097599719336358248256146907806396484375</ele>
            </trkpt>
            <trkpt lat="47.3772469999999970013959682546555995941162109375" lon="10.9350369999999994519157553440891206264495849609375">
                <ele>1481.95744352032988899736665189266204833984375</ele>
            </trkpt>
            <trkpt lat="47.3773240000000015470504877157509326934814453125" lon="10.935064000000000561385604669339954853057861328125">
                <ele>1473.479156479835410209489054977893829345703125</ele>
            </trkpt>
            <trkpt lat="47.37735599999999891451807343401014804840087890625" lon="10.93502600000000057889337767846882343292236328125">
                <ele>1470.573390080113085787161253392696380615234375</ele>
            </trkpt>
            <trkpt lat="47.3773860000000013315002433955669403076171875" lon="10.93504300000000029058355721645057201385498046875">
                <ele>1467.21030463986107861273922026157379150390625</ele>
            </trkpt>
            <trkpt lat="47.377487000000002126398612745106220245361328125" lon="10.93500099999999974897946231067180633544921875">
                <ele>1456.880788159779285706463269889354705810546875</ele>
            </trkpt>
            <trkpt lat="47.3775490000000019108483684249222278594970703125" lon="10.9349159999999994141717252205125987529754638671875">
                <ele>1452.15778111985719078802503645420074462890625</ele>
            </trkpt>
            <trkpt lat="47.3775959999999969340933603234589099884033203125" lon="10.9349170000000004421281118993647396564483642578125">
                <ele>1448.560021760232530141365714371204376220703125</ele>
            </trkpt>
            <trkpt lat="47.37767900000000054205884225666522979736328125" lon="10.9350229999999992713810570421628654003143310546875">
                <ele>1441.652413279962274827994406223297119140625</ele>
            </trkpt>
            <trkpt lat="47.37772199999999855890564504079520702362060546875" lon="10.9350240000000002993374437210150063037872314453125">
                <ele>1438.361995520109530843910761177539825439453125</ele>
            </trkpt>
            <trkpt lat="47.3777400000000028512658900581300258636474609375" lon="10.93507100000000065165295382030308246612548828125">
                <ele>1436.826713599782351593603380024433135986328125</ele>
            </trkpt>
            <trkpt lat="47.37781199999999870442479732446372509002685546875" lon="10.934962999999999766487235319800674915313720703125">
                <ele>1431.7658700801011946168728172779083251953125</ele>
            </trkpt>
            <trkpt lat="47.3778319999999979472704580985009670257568359375" lon="10.9350179999999994606696418486535549163818359375">
                <ele>1429.96745984015842623193748295307159423828125</ele>
            </trkpt>
            <trkpt lat="47.37791800000000108639142126776278018951416015625" lon="10.93491900000000072168404585681855678558349609375">
                <ele>1423.932666559912604498094879090785980224609375</ele>
            </trkpt>
            <trkpt lat="47.37802400000000346835804521106183528900146484375" lon="10.93491900000000072168404585681855678558349609375">
                <ele>1415.828958079730227836989797651767730712890625</ele>
            </trkpt>
            <trkpt lat="47.37806499999999942929207463748753070831298828125" lon="10.934976999999999947021933621726930141448974609375">
                <ele>1412.274538400044548325240612030029296875</ele>
            </trkpt>
            <trkpt lat="47.37812900000000126965460367500782012939453125" lon="10.93499800000000021782398107461631298065185546875">
                <ele>1407.207834559901357351918704807758331298828125</ele>
            </trkpt>
            <trkpt lat="47.37826400000000148793333210051059722900390625" lon="10.934931999999999874262357479892671108245849609375">
                <ele>1397.375632639887726327287964522838592529296875</ele>
            </trkpt>
            <trkpt lat="47.3784279999999995425241650082170963287353515625" lon="10.934718000000000159843693836592137813568115234375">
                <ele>1388.529600000025993722374550998210906982421875</ele>
            </trkpt>
            <trkpt lat="47.3785280000000028621798264794051647186279296875" lon="10.9347469999999997725126377190463244915008544921875">
                <ele>1382.64599999984193345881067216396331787109375</ele>
            </trkpt>
            <trkpt lat="47.378523999999998750354279763996601104736328125" lon="10.9348949999999991433696777676232159137725830078125">
                <ele>1381.62840000007918206392787396907806396484375</ele>
            </trkpt>
            <trkpt lat="47.37868499999999727378963143564760684967041015625" lon="10.935345999999999122564986464567482471466064453125">
                <ele>1372.3402848001642269082367420196533203125</ele>
            </trkpt>
            <trkpt lat="47.3789119999999996935002855025231838226318359375" lon="10.9352769999999992478478816337883472442626953125">
                <ele>1358.678651520019911913550458848476409912109375</ele>
            </trkpt>
            <trkpt lat="47.37899900000000030786395655013620853424072265625" lon="10.9352769999999992478478816337883472442626953125">
                <ele>1353.49423103998424267047084867954254150390625</ele>
            </trkpt>
            <trkpt lat="47.37914599999999865076460991986095905303955078125" lon="10.9354080000000006833715815446339547634124755859375">
                <ele>1344.293936640081710720551200211048126220703125</ele>
            </trkpt>
            <trkpt lat="47.379109999999997171471477486193180084228515625" lon="10.9356010000000001269881977350451052188873291015625">
                <ele>1345.924732800180208869278430938720703125</ele>
            </trkpt>
            <trkpt lat="47.3792260000000027275746106170117855072021484375" lon="10.935705999999999704641595599241554737091064453125">
                <ele>1339.6256031998955222661606967449188232421875</ele>
            </trkpt>
            <trkpt lat="47.37957099999999854844645597040653228759765625" lon="10.93549600000000054933479987084865570068359375">
                <ele>1326.20595520006054357509128749370574951171875</ele>
            </trkpt>
            <trkpt lat="47.37961899999999815236151334829628467559814453125" lon="10.935259999999999536157702095806598663330078125">
                <ele>1324.327168000080519050243310630321502685546875</ele>
            </trkpt>
            <trkpt lat="47.379762999999996964106685481965541839599609375" lon="10.9353669999999993933670339174568653106689453125">
                <ele>1318.27735120012812330969609320163726806640625</ele>
            </trkpt>
            <trkpt lat="47.37986000000000075260686571709811687469482421875" lon="10.9352560000000007534026735811494290828704833984375">
                <ele>1314.07235199997057861764915287494659423828125</ele>
            </trkpt>
            <trkpt lat="47.38014100000000183854353963397443294525146484375" lon="10.9352210000000003020659278263337910175323486328125">
                <ele>1301.859743679920256909099407494068145751953125</ele>
            </trkpt>
            <trkpt lat="47.3802510000000012269083526916801929473876953125" lon="10.935169999999999390638549812138080596923828125">
                <ele>1296.886489599944297879119403660297393798828125</ele>
            </trkpt>
            <trkpt lat="47.38039599999999751389623270370066165924072265625" lon="10.9348989999999997024815456825308501720428466796875">
                <ele>1290.9207481601106337620876729488372802734375</ele>
            </trkpt>
            <trkpt lat="47.3804080000000027439455152489244937896728515625" lon="10.934808000000000305362846120260655879974365234375">
                <ele>1291.32163455988256828277371823787689208984375</ele>
            </trkpt>
            <trkpt lat="47.38063799999999758938429295085370540618896484375" lon="10.9345990000000004016555976704694330692291259765625">
                <ele>1284.4132604800897752284072339534759521484375</ele>
            </trkpt>
            <trkpt lat="47.380707999999998492057784460484981536865234375" lon="10.9345750000000005996980689815245568752288818359375">
                <ele>1282.00446400005102987051941454410552978515625</ele>
            </trkpt>
            <trkpt lat="47.38089699999999737656253273598849773406982421875" lon="10.934335000000000803765942691825330257415771484375">
                <ele>1277.514692000128661675262264907360076904296875</ele>
            </trkpt>
            <trkpt lat="47.38102599999999853253029868938028812408447265625" lon="10.934357999999999577767084701918065547943115234375">
                <ele>1270.445052800083203692338429391384124755859375</ele>
            </trkpt>
            <trkpt lat="47.3813329999999979236235958524048328399658203125" lon="10.9337029999999995055759427486918866634368896484375">
                <ele>1257.098834880117692591738887131214141845703125</ele>
            </trkpt>
            <trkpt lat="47.3813540000000017471393221057951450347900390625" lon="10.93351799999999940382622298784554004669189453125">
                <ele>1256.663888639908464028849266469478607177734375</ele>
            </trkpt>
            <trkpt lat="47.3817379999999985784597811289131641387939453125" lon="10.933436000000000376530806533992290496826171875">
                <ele>1237.332508160053066603722982108592987060546875</ele>
            </trkpt>
            <trkpt lat="47.38186400000000020327206584624946117401123046875" lon="10.9333709999999992845687302178703248500823974609375">
                <ele>1232.956993279997959689353592693805694580078125</ele>
            </trkpt>
            <trkpt lat="47.38201099999999854617271921597421169281005859375" lon="10.9332279999999997244231053628027439117431640625">
                <ele>1229.246227840059646041481755673885345458984375</ele>
            </trkpt>
            <trkpt lat="47.3820400000000034879121812991797924041748046875" lon="10.9329680000000006856453182990662753582000732421875">
                <ele>1232.12882559987747299601323902606964111328125</ele>
            </trkpt>
            <trkpt lat="47.382170000000002119122655130922794342041015625" lon="10.9330990000000003448121788096614181995391845703125">
                <ele>1225.665558399924293553340248763561248779296875</ele>
            </trkpt>
            <trkpt lat="47.38210099999999869169187149964272975921630859375" lon="10.9333519999999992933226167224347591400146484375">
                <ele>1224.229850240054702226188965141773223876953125</ele>
            </trkpt>
            <trkpt lat="47.3821599999999989449861459434032440185546875" lon="10.9335000000000004405364961712621152400970458984375">
                <ele>1221.111200000038707003113813698291778564453125</ele>
            </trkpt>
            <trkpt lat="47.38275800000000259615262621082365512847900390625" lon="10.9335760000000004055209501530043780803680419921875">
                <ele>1204.374444799961793250986374914646148681640625</ele>
            </trkpt>
            <trkpt lat="47.383139999999997371560311876237392425537109375" lon="10.9336959999999994153085935977287590503692626953125">
                <ele>1197.4024640000488943769596517086029052734375</ele>
            </trkpt>
            <trkpt lat="47.38330700000000206273398362100124359130859375" lon="10.93392000000000052750692702829837799072265625">
                <ele>1190.7112639999531893408857285976409912109375</ele>
            </trkpt>
            <trkpt lat="47.3833369999999973742887959815561771392822265625" lon="10.9340899999999994207655618083663284778594970703125">
                <ele>1186.9091856000568441231735050678253173828125</ele>
            </trkpt>
            <trkpt lat="47.3833359999999998990460881032049655914306640625" lon="10.93432800000000071349859354086220264434814453125">
                <ele>1185.84116096000389006803743541240692138671875</ele>
            </trkpt>
            <trkpt lat="47.38332100000000224326868192292749881744384765625" lon="10.9344680000000007424887371598742902278900146484375">
                <ele>1186.53241343994568524067290127277374267578125</ele>
            </trkpt>
            <trkpt lat="47.38336000000000325371729559265077114105224609375" lon="10.934732000000000340378392138518393039703369140625">
                <ele>1186.3653823999411542899906635284423828125</ele>
            </trkpt>
            <trkpt lat="47.38342399999999798865246702916920185089111328125" lon="10.93545400000000000773070496506989002227783203125">
                <ele>1187.6420288000454092980362474918365478515625</ele>
            </trkpt>
            <trkpt lat="47.38351399999999813417161931283771991729736328125" lon="10.935646999999999451347321155481040477752685546875">
                <ele>1186.295182400042904191650450229644775390625</ele>
            </trkpt>
            <trkpt lat="47.3836840000000023565007722936570644378662109375" lon="10.9356629999999999114379534148611128330230712890625">
                <ele>1182.2756575999437700374983251094818115234375</ele>
            </trkpt>
            <trkpt lat="47.38370900000000318641468766145408153533935546875" lon="10.9357500000000005258016244624741375446319580078125">
                <ele>1181.85859999992317170836031436920166015625</ele>
            </trkpt>
            <trkpt lat="47.3837970000000012760210665874183177947998046875" lon="10.93590999999999979763742885552346706390380859375">
                <ele>1178.650732799973638975643552839756011962890625</ele>
            </trkpt>
            <trkpt lat="47.38392999999999943838702165521681308746337890625" lon="10.936477000000000003865352482534945011138916015625">
                <ele>1167.423830400012548125232569873332977294921875</ele>
            </trkpt>
            <trkpt lat="47.3839430000000021436790120787918567657470703125" lon="10.936963999999999685996954212896525859832763671875">
                <ele>1162.002139519968977765529416501522064208984375</ele>
            </trkpt>
            <trkpt lat="47.3839789999999965175447869114577770233154296875" lon="10.937222999999999473175193998031318187713623046875">
                <ele>1159.27102592005712722311727702617645263671875</ele>
            </trkpt>
            <trkpt lat="47.3838700000000017098500393331050872802734375" lon="10.937436999999999187593857641331851482391357421875">
                <ele>1158.9772543999852132401429116725921630859375</ele>
            </trkpt>
            <trkpt lat="47.38381799999999799410943523980677127838134765625" lon="10.9376329999999999387227944680489599704742431640625">
                <ele>1158.5568233600270104943774640560150146484375</ele>
            </trkpt>
            <trkpt lat="47.3837860000000006266418495215475559234619140625" lon="10.93792499999999989768184605054557323455810546875">
                <ele>1157.76183199999331918661482632160186767578125</ele>
            </trkpt>
            <trkpt lat="47.3836859999999973069861880503594875335693359375" lon="10.9382110000000007943299351609311997890472412109375">
                <ele>1157.793074240030136934365145862102508544921875</ele>
            </trkpt>
            <trkpt lat="47.38353000000000037061909097246825695037841796875" lon="10.93848200000000048248693929053843021392822265625">
                <ele>1157.544390399990561490994878113269805908203125</ele>
            </trkpt>
            <trkpt lat="47.3834710000000001173248165287077426910400390625" lon="10.93865699999999918645698926411569118499755859375">
                <ele>1156.4841452800073966500349342823028564453125</ele>
            </trkpt>
            <trkpt lat="47.3834710000000001173248165287077426910400390625" lon="10.93865699999999918645698926411569118499755859375">
                <ele>1156.4841452800073966500349342823028564453125</ele>
            </trkpt>
            <trkpt lat="47.38333300000000036789060686714947223663330078125" lon="10.9388190000000005142055670148693025112152099609375">
                <ele>1156.846601279985634391778148710727691650390625</ele>
            </trkpt>
            <trkpt lat="47.3830870000000032860043575055897235870361328125" lon="10.9393010000000003856257535517215728759765625">
                <ele>1157.620552159914723233669064939022064208984375</ele>
            </trkpt>
            <trkpt lat="47.3830659999999994624886312521994113922119140625" lon="10.9394580000000001263060767087154090404510498046875">
                <ele>1156.057255040012705649132840335369110107421875</ele>
            </trkpt>
            <trkpt lat="47.38307900000000216778062167577445507049560546875" lon="10.93965299999999984947862685658037662506103515625">
                <ele>1153.135144159946094077895395457744598388671875</ele>
            </trkpt>
            <trkpt lat="47.383184999999997444319888018071651458740234375" lon="10.93977100000000035606717574410140514373779296875">
                <ele>1148.744856800063871560269035398960113525390625</ele>
            </trkpt>
            <trkpt lat="47.383195999999998093699105083942413330078125" lon="10.9399010000000007636344889760948717594146728515625">
                <ele>1146.657265280042111044167540967464447021484375</ele>
            </trkpt>
            <trkpt lat="47.38317299999999931969796307384967803955078125" lon="10.93999900000000025102053768932819366455078125">
                <ele>1145.938907360016173697658814489841461181640625</ele>
            </trkpt>
            <trkpt lat="47.38305799999999834426489542238414287567138671875" lon="10.940270999999999190777089097537100315093994140625">
                <ele>1147.04341568004974760697223246097564697265625</ele>
            </trkpt>
            <trkpt lat="47.3830150000000003274180926382541656494140625" lon="10.9403330000000007515836841776035726070404052734375">
                <ele>1147.677411199986408973927609622478485107421875</ele>
            </trkpt>
            <trkpt lat="47.38301799999999985857357387430965900421142578125" lon="10.9403909999999999769215719425119459629058837890625">
                <ele>1147.147018880004225138691253960132598876953125</ele>
            </trkpt>
            <trkpt lat="47.38305600000000339377947966568171977996826171875" lon="10.94040700000000043701220420189201831817626953125">
                <ele>1146.062241919911457443959079682826995849609375</ele>
            </trkpt>
            <trkpt lat="47.3831119999999970104909152723848819732666015625" lon="10.9403769999999997963868736405856907367706298828125">
                <ele>1144.86617024007819054531864821910858154296875</ele>
            </trkpt>
            <trkpt lat="47.38320900000000079899109550751745700836181640625" lon="10.940279000000000309000824927352368831634521484375">
                <ele>1143.05779135997772755217738449573516845703125</ele>
            </trkpt>
            <trkpt lat="47.38336100000000072896000347100198268890380859375" lon="10.940253999999999479086909559555351734161376953125">
                <ele>1139.5937484799933372414670884609222412109375</ele>
            </trkpt>
            <trkpt lat="47.383499999999997953636921010911464691162109375" lon="10.940279000000000309000824927352368831634521484375">
                <ele>1137.63128000002689077518880367279052734375</ele>
            </trkpt>
            <trkpt lat="47.38358699999999856800059205852448940277099609375" lon="10.94016500000000036152414395473897457122802734375">
                <ele>1136.420081600023650025832466781139373779296875</ele>
            </trkpt>
            <trkpt lat="47.38360899999999986675902619026601314544677734375" lon="10.9399840000000008188862921088002622127532958984375">
                <ele>1136.125854079991086109657771885395050048828125</ele>
            </trkpt>
            <trkpt lat="47.38369999999999748752088635228574275970458984375" lon="10.93977399999999988722265698015689849853515625">
                <ele>1137.63238400005184303154237568378448486328125</ele>
            </trkpt>
            <trkpt lat="47.3838420000000013487806427292525768280029296875" lon="10.9396509999999995699226928991265594959259033203125">
                <ele>1136.915706559982709222822450101375579833984375</ele>
            </trkpt>
            <trkpt lat="47.3839430000000021436790120787918567657470703125" lon="10.939617999999999398141881101764738559722900390625">
                <ele>1135.56969631997117176069878041744232177734375</ele>
            </trkpt>
            <trkpt lat="47.3841850000000022191670723259449005126953125" lon="10.939654000000000877435013535432517528533935546875">
                <ele>1130.6163279999718724866397678852081298828125</ele>
            </trkpt>
            <trkpt lat="47.38436800000000204136085812933743000030517578125" lon="10.9397649999999995173993738717399537563323974609375">
                <ele>1127.66454399999793167808093130588531494140625</ele>
            </trkpt>
            <trkpt lat="47.3852729999999979781932779587805271148681640625" lon="10.93952900000000028057911549694836139678955078125">
                <ele>1125.1152452800133687560446560382843017578125</ele>
            </trkpt>
            <trkpt lat="47.38558100000000194995664060115814208984375" lon="10.93942200000000042336978367529809474945068359375">
                <ele>1123.116642879981327496352605521678924560546875</ele>
            </trkpt>
            <trkpt lat="47.38572599999999823694452061317861080169677734375" lon="10.939424999999999954525264911353588104248046875">
                <ele>1121.787592000016275051166303455829620361328125</ele>
            </trkpt>
            <trkpt lat="47.385762999999997191480360925197601318359375" lon="10.9394510000000000360387275577522814273834228515625">
                <ele>1121.4528299200246692635118961334228515625</ele>
            </trkpt>
            <trkpt lat="47.385806000000002313754521310329437255859375" lon="10.9394170000000006126583684817887842655181884765625">
                <ele>1121.052815679979175911284983158111572265625</ele>
            </trkpt>
            <trkpt lat="47.386043000000000802174326963722705841064453125" lon="10.9391370000000005546780812437646090984344482421875">
                <ele>1119.516703839989759217132814228534698486328125</ele>
            </trkpt>
            <trkpt lat="47.3860939999999999372448655776679515838623046875" lon="10.9391020000000001033413354889489710330963134765625">
                <ele>1119.43506112000022767460905015468597412109375</ele>
            </trkpt>
            <trkpt lat="47.3862189999999969813870848156511783599853515625" lon="10.93872400000000055797499953769147396087646484375">
                <ele>1119.928973440057006882852874696254730224609375</ele>
            </trkpt>
            <trkpt lat="47.38622199999999651254256605170667171478271484375" lon="10.9386489999999998445900928345508873462677001953125">
                <ele>1120.159318720076726094703190028667449951171875</ele>
            </trkpt>
            <trkpt lat="47.38614499999999907231540419161319732666015625" lon="10.938641000000000502723196404986083507537841796875">
                <ele>1121.8760968000178763759322464466094970703125</ele>
            </trkpt>
            <trkpt lat="47.38614499999999907231540419161319732666015625" lon="10.938553999999999888359525357373058795928955078125">
                <ele>1122.413339200024211095296777784824371337890625</ele>
            </trkpt>
            <trkpt lat="47.3863199999999977762854541651904582977294921875" lon="10.938411999999999579813447780907154083251953125">
                <ele>1118.246521600065307211480103433132171630859375</ele>
            </trkpt>
            <trkpt lat="47.3866230000000001609805622138082981109619140625" lon="10.9378679999999999239435055642388761043548583984375">
                <ele>1110.154760959995883240480907261371612548828125</ele>
            </trkpt>
            <trkpt lat="47.3867520000000013169483281672000885009765625" lon="10.937732000000000454065229860134422779083251953125">
                <ele>1108.1757734399880064302124083042144775390625</ele>
            </trkpt>
            <trkpt lat="47.38686400000000276122591458261013031005859375" lon="10.9375359999999997029362930334173142910003662109375">
                <ele>1107.137667839968571570352651178836822509765625</ele>
            </trkpt>
            <trkpt lat="47.38692400000000048976289690472185611724853515625" lon="10.9375499999999998834709913353435695171356201171875">
                <ele>1106.458751999994774450897239148616790771484375</ele>
            </trkpt>
            <trkpt lat="47.38712799999999703004505136050283908843994140625" lon="10.9375009999999992515995472786016762256622314453125">
                <ele>1103.9675788800332156824879348278045654296875</ele>
            </trkpt>
            <trkpt lat="47.3872089999999985820977599360048770904541015625" lon="10.93753099999999989222487783990800380706787109375">
                <ele>1103.135487840015912297531031072139739990234375</ele>
            </trkpt>
            <trkpt lat="47.38723399999999941201167530380189418792724609375" lon="10.9374009999999994846575646079145371913909912109375">
                <ele>1102.434251520007137514767237007617950439453125</ele>
            </trkpt>
            <trkpt lat="47.3873559999999969249984133057296276092529296875" lon="10.937421000000000503860064782202243804931640625">
                <ele>1100.85577728004363962099887430667877197265625</ele>
            </trkpt>
            <trkpt lat="47.3879239999999981591827236115932464599609375" lon="10.9376739999999994523705026949755847454071044921875">
                <ele>1101.06783743999358193832449615001678466796875</ele>
            </trkpt>
            <trkpt lat="47.38798899999999747478796052746474742889404296875" lon="10.937751999999999696910890634171664714813232421875">
                <ele>1101.794248319995176643715240061283111572265625</ele>
            </trkpt>
        </trkseg>
    </trk>
</gpx>
