<?xml version="1.0" encoding="UTF-8" standalone="yes"?>
<gpx xmlns:gpxtpx1="http://www.garmin.com/xmlschemas/TrackPointExtension/v1" xmlns="http://www.topografix.com/GPX/1/1" xmlns:trp="http://www.garmin.com/xmlschemas/TripExtensions/v1" xmlns:gpxx="http://www.garmin.com/xmlschemas/GpxExtensions/v3" xmlns:gpxtpx="http://www.garmin.com/xmlschemas/TrackPointExtension/v2" version="1.1" creator="Generated by Christian Pesch's RouteConverter. See http://www.routeconverter.com">
    <metadata>
        <name>stauberenkanzel</name>
        <link href="alpenkarte.eu">
            <text>Route von alpenkarte.eu</text>
        </link>
        <bounds minlat="47.260052999999999201463651843369007110595703125" minlon="9.45206400000000002137312549166381359100341796875" maxlat="47.2607229999999987057890393771231174468994140625" maxlon="9.4534819999999992745642884983681142330169677734375"/>
    </metadata>
    <trk>
        <name>stauberenkanzel</name>
        <trkseg>
            <trkpt lat="47.260616" lon="9.453399">
                <ele>1733.1</ele>
                <name>Position 1</name>
            </trkpt>
            <trkpt lat="47.260535" lon="9.453263">
                <ele>1734.4</ele>
                <name>Position 2</name>
            </trkpt>
            <trkpt lat="47.260557" lon="9.45317">
                <ele>1737.4</ele>
                <name>Position 3</name>
            </trkpt>
            <trkpt lat="47.260519" lon="9.453177">
                <ele>1736.5</ele>
                <name>Position 4</name>
            </trkpt>
            <trkpt lat="47.260312" lon="9.452922">
                <ele>1741.7</ele>
                <name>Position 5</name>
            </trkpt>
            <trkpt lat="47.260192" lon="9.452834">
                <ele>1743.8</ele>
                <name>Position 6</name>
            </trkpt>
            <trkpt lat="47.260153" lon="9.452748">
                <ele>1747.0</ele>
                <name>Position 7</name>
            </trkpt>
            <trkpt lat="47.260053" lon="9.452375">
                <ele>1763.1</ele>
                <name>Position 8</name>
            </trkpt>
            <trkpt lat="47.260115" lon="9.452241">
                <ele>1768.7</ele>
                <name>Position 9</name>
            </trkpt>
            <trkpt lat="47.2601562" lon="9.4522676">
                <ele>1767.9</ele>
                <name>Position 10</name>
            </trkpt>
            <trkpt lat="47.2602972" lon="9.4522463">
                <ele>1772.4</ele>
                <name>Position 11</name>
            </trkpt>
            <trkpt lat="47.2603261" lon="9.4520713">
                <ele>1766.4</ele>
                <name>Position 12</name>
            </trkpt>
            <trkpt lat="47.2604353" lon="9.4520391">
                <ele>1766.4</ele>
                <name>Position 13</name>
            </trkpt>
            <trkpt lat="47.2605484" lon="9.4521901">
                <ele>1770.6</ele>
                <name>Position 14</name>
            </trkpt>
            <trkpt lat="47.2606338" lon="9.4520907">
                <ele>1762.8</ele>
                <name>Position 15</name>
            </trkpt>
            <trkpt lat="47.2607229" lon="9.4522831">
                <ele>1754.4</ele>
                <name>Position 16</name>
            </trkpt>
            <trkpt lat="47.260708" lon="9.452754">
                <ele>1749.9</ele>
                <name>Position 17</name>
            </trkpt>
            <trkpt lat="47.260589" lon="9.453032">
                <ele>1741.8</ele>
                <name>Position 18</name>
            </trkpt>
            <trkpt lat="47.260535" lon="9.453263">
                <ele>1734.4</ele>
                <name>Position 19</name>
            </trkpt>
            <trkpt lat="47.260666" lon="9.453482">
                <ele>1733.1</ele>
                <name>Position 20</name>
            </trkpt>
        </trkseg>
    </trk>
</gpx>
