<?xml version="1.0" encoding="UTF-8" standalone="yes"?>
<gpx xmlns:gpxtpx1="http://www.garmin.com/xmlschemas/TrackPointExtension/v1" xmlns="http://www.topografix.com/GPX/1/1" xmlns:trp="http://www.garmin.com/xmlschemas/TripExtensions/v1" xmlns:gpxx="http://www.garmin.com/xmlschemas/GpxExtensions/v3" xmlns:gpxtpx="http://www.garmin.com/xmlschemas/TrackPointExtension/v2" version="1.1" creator="Generated by Christian Pesch's RouteConverter. See http://www.routeconverter.com">
    <metadata>
        <name>sykwalk klettersteig</name>
        <link href="alpenkarte.eu">
            <text>Route von alpenkarte.eu</text>
        </link>
        <bounds minlat="47.4670100000000019235812942497432231903076171875" minlon="13.625156000000000489080775878392159938812255859375" maxlat="47.46925800000000350564732798375189304351806640625" maxlon="13.6279990000000008620872904430143535137176513671875"/>
    </metadata>
    <trk>
        <name>sykwalk klettersteig</name>
        <trkseg>
            <trkpt lat="47.4677932" lon="13.6263764">
                <ele>2660.0</ele>
                <name>Position 1</name>
            </trkpt>
            <trkpt lat="47.468044" lon="13.626373">
                <ele>2660.5</ele>
                <name>Position 2</name>
            </trkpt>
            <trkpt lat="47.468219" lon="13.626187">
                <ele>2662.9</ele>
                <name>Position 3</name>
            </trkpt>
            <trkpt lat="47.468357" lon="13.625969">
                <ele>2666.3</ele>
                <name>Position 4</name>
            </trkpt>
            <trkpt lat="47.46851" lon="13.625771">
                <ele>2664.8</ele>
                <name>Position 5</name>
            </trkpt>
            <trkpt lat="47.46888" lon="13.625522">
                <ele>2660.9</ele>
                <name>Position 6</name>
            </trkpt>
            <trkpt lat="47.468868" lon="13.625479">
                <ele>2659.4</ele>
                <name>Position 7</name>
            </trkpt>
            <trkpt lat="47.469121" lon="13.625504">
                <ele>2666.9</ele>
                <name>Position 8</name>
            </trkpt>
            <trkpt lat="47.469258" lon="13.625465">
                <ele>2668.3</ele>
                <name>Position 9</name>
            </trkpt>
            <trkpt lat="47.469051" lon="13.626644">
                <ele>2659.0</ele>
                <name>Position 10</name>
            </trkpt>
            <trkpt lat="47.468376" lon="13.627056">
                <ele>2648.5</ele>
                <name>Position 11</name>
            </trkpt>
            <trkpt lat="47.46756" lon="13.627917">
                <ele>2625.3</ele>
                <name>Position 12</name>
            </trkpt>
            <trkpt lat="47.467392" lon="13.627924">
                <ele>2614.9</ele>
                <name>Position 13</name>
            </trkpt>
            <trkpt lat="47.4673" lon="13.627999">
                <ele>2606.8</ele>
                <name>Position 14</name>
            </trkpt>
            <trkpt lat="47.46709" lon="13.62757">
                <ele>2579.4</ele>
                <name>Position 15</name>
            </trkpt>
            <trkpt lat="47.46702" lon="13.62717">
                <ele>2568.4</ele>
                <name>Position 16</name>
            </trkpt>
            <trkpt lat="47.46709" lon="13.6268">
                <ele>2580.3</ele>
                <name>Position 17</name>
            </trkpt>
            <trkpt lat="47.46701" lon="13.62612">
                <ele>2554.7</ele>
                <name>Position 18</name>
            </trkpt>
            <trkpt lat="47.467309" lon="13.62592">
                <ele>2607.2</ele>
                <name>Position 19</name>
            </trkpt>
            <trkpt lat="47.4677804" lon="13.6263733">
                <ele>2616.0</ele>
                <name>20 8972 Oberösterreich, Österreich</name>
            </trkpt>
        </trkseg>
    </trk>
</gpx>
