<?xml version="1.0" encoding="UTF-8" standalone="yes"?>
<gpx xmlns="http://www.topografix.com/GPX/1/1" creator="alpenkarte.eu">
    <metadata>
        <name>heppke_vitale_track</name>
        <link href="alpenkarte.eu">
            <text>Route von alpenkarte.eu</text>
        </link>
        <bounds minlat="47.25587999999999766487235319800674915313720703125" minlon="10.6688799999999996970245774718932807445526123046875" maxlat="47.266649999999998499333742074668407440185546875" maxlon="10.677963999999999344936441048048436641693115234375"/>
    </metadata>
    <trk>
        <name>heppke_vitale_track</name>
        <trkseg>
            <trkpt lat="47.2558810000000022455424186773598194122314453125" lon="10.677395000000000635509422863833606243133544921875">
                <ele>2023.54620159998967210412956774234771728515625</ele>
            </trkpt>
            <trkpt lat="47.2558920000000028949216357432305812835693359375" lon="10.6776239999999997820623320876620709896087646484375">
                <ele>2017.52904063998676065239124000072479248046875</ele>
            </trkpt>
            <trkpt lat="47.2559619999999966921677696518599987030029296875" lon="10.67781599999999997407940099947154521942138671875">
                <ele>2010.8821273600397034897468984127044677734375</ele>
            </trkpt>
            <trkpt lat="47.25605500000000347426976077258586883544921875" lon="10.6779360000000007602238838444463908672332763671875">
                <ele>2005.640118399922130265622399747371673583984375</ele>
            </trkpt>
            <trkpt lat="47.25617100000000192494553630240261554718017578125" lon="10.677963999999999344936441048048436641693115234375">
                <ele>2002.860123519994658636278472840785980224609375</ele>
            </trkpt>
            <trkpt lat="47.25631800000000026784618967212736606597900390625" lon="10.6778420000000000555928636458702385425567626953125">
                <ele>2005.6092044799943323596380650997161865234375</ele>
            </trkpt>
            <trkpt lat="47.2564009999999967703843140043318271636962890625" lon="10.6777460000000008477627488900907337665557861328125">
                <ele>2008.75197567999521197634749114513397216796875</ele>
            </trkpt>
            <trkpt lat="47.25650999999999868350641918368637561798095703125" lon="10.6777590000000000003410605131648480892181396484375">
                <ele>2007.06214720001344176125712692737579345703125</ele>
            </trkpt>
            <trkpt lat="47.25659699999999929787009023129940032958984375" lon="10.6776890000000008740244084037840366363525390625">
                <ele>2009.56648863996315412805415689945220947265625</ele>
            </trkpt>
            <trkpt lat="47.2566589999999990823198459111154079437255859375" lon="10.6777280000000001081161826732568442821502685546875">
                <ele>2007.08170816000301783788017928600311279296875</ele>
            </trkpt>
            <trkpt lat="47.25695300000000287354851025156676769256591796875" lon="10.6777169999999994587369656073860824108123779296875">
                <ele>1977.712881279729117522947490215301513671875</ele>
            </trkpt>
            <trkpt lat="47.256991999999996778569766320288181304931640625" lon="10.67766400000000004411049303598701953887939453125">
                <ele>1976.020368640340848287451080977916717529296875</ele>
            </trkpt>
            <trkpt lat="47.257102000000003272361936978995800018310546875" lon="10.677244999999999208739609457552433013916015625">
                <ele>1984.788145599695553755736909806728363037109375</ele>
            </trkpt>
            <trkpt lat="47.257102000000003272361936978995800018310546875" lon="10.677244999999999208739609457552433013916015625">
                <ele>1984.788145599695553755736909806728363037109375</ele>
            </trkpt>
            <trkpt lat="47.25712800000000157751856022514402866363525390625" lon="10.6771429999999991622416928294114768505096435546875">
                <ele>1987.288437759881389865768142044544219970703125</ele>
            </trkpt>
            <trkpt lat="47.2573679999999995970938471145927906036376953125" lon="10.6767839999999996081214703735895454883575439453125">
                <ele>1979.8376972800733710755594074726104736328125</ele>
            </trkpt>
            <trkpt lat="47.2574139999999971450961311347782611846923828125" lon="10.67630199999999973670128383673727512359619140625">
                <ele>1998.395200000332124545820988714694976806640625</ele>
            </trkpt>
            <trkpt lat="47.25757999999999725559973740018904209136962890625" lon="10.6759330000000005611582309938967227935791015625">
                <ele>1996.5891136003256178810261189937591552734375</ele>
            </trkpt>
            <trkpt lat="47.2579319999999967194526107050478458404541015625" lon="10.67526600000000058798832469619810581207275390625">
                <ele>1969.101568000345878317602910101413726806640625</ele>
            </trkpt>
            <trkpt lat="47.25838999999999856527210795320570468902587890625" lon="10.6750330000000008823235475574620068073272705078125">
                <ele>1928.898499200106243733898736536502838134765625</ele>
            </trkpt>
            <trkpt lat="47.25843499999999863803168409503996372222900390625" lon="10.6747659999999999769215719425119459629058837890625">
                <ele>1928.272948800125959678553044795989990234375</ele>
            </trkpt>
            <trkpt lat="47.25839799999999968349584378302097320556640625" lon="10.674139000000000265799826593138277530670166015625">
                <ele>1937.947952640021640036138705909252166748046875</ele>
            </trkpt>
            <trkpt lat="47.25864899999999835245034773834049701690673828125" lon="10.67357200000000005957190296612679958343505859375">
                <ele>1930.171023360128629065002314746379852294921875</ele>
            </trkpt>
            <trkpt lat="47.25860300000000080444806371815502643585205078125" lon="10.673199000000000324916982208378612995147705078125">
                <ele>1941.520585919936593199963681399822235107421875</ele>
            </trkpt>
            <trkpt lat="47.2588310000000006994014256633818149566650390625" lon="10.6728660000000008523102223989553749561309814453125">
                <ele>1931.70065855993425429915077984333038330078125</ele>
            </trkpt>
            <trkpt lat="47.25880599999999986948751029558479785919189453125" lon="10.6726229999999997488657754729501903057098388671875">
                <ele>1938.886087680018817991367541253566741943359375</ele>
            </trkpt>
            <trkpt lat="47.25882399999999705642039771191775798797607421875" lon="10.6725119999999993325445757363922894001007080078125">
                <ele>1940.082727680224024879862554371356964111328125</ele>
            </trkpt>
            <trkpt lat="47.2588769999999982474037096835672855377197265625" lon="10.6724979999999991520098774344660341739654541015625">
                <ele>1936.71329184014803104219026863574981689453125</ele>
            </trkpt>
            <trkpt lat="47.25898200000000315412762574851512908935546875" lon="10.672368999999999772398950881324708461761474609375">
                <ele>1932.969280319796098410733975470066070556640625</ele>
            </trkpt>
            <trkpt lat="47.2590050000000019281287677586078643798828125" lon="10.67231699999999960937202558852732181549072265625">
                <ele>1932.858578399885345788788981735706329345703125</ele>
            </trkpt>
            <trkpt lat="47.2590780000000023619577405042946338653564453125" lon="10.6722529999999995453663359512574970722198486328125">
                <ele>1929.79736735986034545931033790111541748046875</ele>
            </trkpt>
            <trkpt lat="47.2592020000000019308572518639266490936279296875" lon="10.6720179999999995601456248550675809383392333984375">
                <ele>1929.560799999938581095193512737751007080078125</ele>
            </trkpt>
            <trkpt lat="47.259219999999999117790139280259609222412109375" lon="10.6719430000000006231175575521774590015411376953125">
                <ele>1931.098000000018146238289773464202880859375</ele>
            </trkpt>
            <trkpt lat="47.25926100000000218415152630768716335296630859375" lon="10.671884999999999621422830387018620967864990234375">
                <ele>1931.214399999926854434306733310222625732421875</ele>
            </trkpt>
            <trkpt lat="47.2593650000000025102053768932819366455078125" lon="10.67160499999999956344254314899444580078125">
                <ele>1935.97877599991852548555471003055572509765625</ele>
            </trkpt>
            <trkpt lat="47.25939699999999987767296261154115200042724609375" lon="10.67165299999999916735760052688419818878173828125">
                <ele>1932.894534080038056345074437558650970458984375</ele>
            </trkpt>
            <trkpt lat="47.25943099999999930105332168750464916229248046875" lon="10.67164700000000010504663805477321147918701171875">
                <ele>1931.77262816002576073515228927135467529296875</ele>
            </trkpt>
            <trkpt lat="47.25952099999999944657247397117316722869873046875" lon="10.6717040000000000787849785410799086093902587890625">
                <ele>1926.348400000021456435206346213817596435546875</ele>
            </trkpt>
            <trkpt lat="47.2595859999999987621777108870446681976318359375" lon="10.6716440000000005738911568187177181243896484375">
                <ele>1925.737425920029409098788164556026458740234375</ele>
            </trkpt>
            <trkpt lat="47.259647000000001071384758688509464263916015625" lon="10.671469999999999345163814723491668701171875">
                <ele>1929.758739199982983336667530238628387451171875</ele>
            </trkpt>
            <trkpt lat="47.25965099999999807778294780291616916656494140625" lon="10.6714140000000003993818609160371124744415283203125">
                <ele>1931.670360320064673942397348582744598388671875</ele>
            </trkpt>
            <trkpt lat="47.25968900000000161298885359428822994232177734375" lon="10.6713789999999999480451151612214744091033935546875">
                <ele>1931.4292572799386107362806797027587890625</ele>
            </trkpt>
            <trkpt lat="47.2597200000000015052137314341962337493896484375" lon="10.6713029999999999830606611794792115688323974609375">
                <ele>1932.973260799941272125579416751861572265625</ele>
            </trkpt>
            <trkpt lat="47.25972300000000103636921267025172710418701171875" lon="10.6711819999999999453166310559026896953582763671875">
                <ele>1937.303847679961336325504817068576812744140625</ele>
            </trkpt>
            <trkpt lat="47.2597980000000035261109587736427783966064453125" lon="10.671099999999999141664375201798975467681884765625">
                <ele>1937.2288639998878352344036102294921875</ele>
            </trkpt>
            <trkpt lat="47.259872999999998910425347276031970977783203125" lon="10.6710820000000001783746483852155506610870361328125">
                <ele>1934.79104768004026482230983674526214599609375</ele>
            </trkpt>
            <trkpt lat="47.259917999999998983184923417866230010986328125" lon="10.6710300000000000153477230924181640148162841796875">
                <ele>1934.817555200043216245830990374088287353515625</ele>
            </trkpt>
            <trkpt lat="47.25997799999999671172190573997795581817626953125" lon="10.67087000000000074351191869936883449554443359375">
                <ele>1938.1016768001127275056205689907073974609375</ele>
            </trkpt>
            <trkpt lat="47.2600240000000013651515473611652851104736328125" lon="10.6708020000000001203943611471913754940032958984375">
                <ele>1938.385365759935893947840668261051177978515625</ele>
            </trkpt>
            <trkpt lat="47.260052999999999201463651843369007110595703125" lon="10.6707940000000007785274647176265716552734375">
                <ele>1937.316403840013663284480571746826171875</ele>
            </trkpt>
            <trkpt lat="47.2601039999999983365341904573142528533935546875" lon="10.6707319999999992177208696375600993633270263671875">
                <ele>1936.949551360101622776710428297519683837890625</ele>
            </trkpt>
            <trkpt lat="47.26012800000000169120539794676005840301513671875" lon="10.6707330000000002456772563164122402667999267578125">
                <ele>1935.830586879917291298625059425830841064453125</ele>
            </trkpt>
            <trkpt lat="47.26021200000000277441358775831758975982666015625" lon="10.6705740000000002254409992019645869731903076171875">
                <ele>1937.08233855987009519594721496105194091796875</ele>
            </trkpt>
            <trkpt lat="47.26023099999999743658918305300176143646240234375" lon="10.6704959999999999809006112627685070037841796875">
                <ele>1938.71562112011679346323944628238677978515625</ele>
            </trkpt>
            <trkpt lat="47.26053300000000234604158322326838970184326171875" lon="10.6701010000000007238440957735292613506317138671875">
                <ele>1938.168160959876104243448935449123382568359375</ele>
            </trkpt>
            <trkpt lat="47.26057200000000335649019689299166202545166015625" lon="10.6700210000000001997477738768793642520904541015625">
                <ele>1939.09980543985011536278761923313140869140625</ele>
            </trkpt>
            <trkpt lat="47.26057200000000335649019689299166202545166015625" lon="10.6700210000000001997477738768793642520904541015625">
                <ele>1939.09980543985011536278761923313140869140625</ele>
            </trkpt>
            <trkpt lat="47.26060300000000324871507473289966583251953125" lon="10.6698819999999994223571775364689528942108154296875">
                <ele>1943.322402879892024429864250123500823974609375</ele>
            </trkpt>
            <trkpt lat="47.2607229999999987057890393771231174468994140625" lon="10.6696639999999991488266459782607853412628173828125">
                <ele>1947.894012160086049334495328366756439208984375</ele>
            </trkpt>
            <trkpt lat="47.26078499999999849023879505693912506103515625" lon="10.6696609999999996176711647422052919864654541015625">
                <ele>1945.7396728000740040442906320095062255859375</ele>
            </trkpt>
            <trkpt lat="47.260840000000001737134880386292934417724609375" lon="10.66970500000000043883119360543787479400634765625">
                <ele>1941.915679999971644065226428210735321044921875</ele>
            </trkpt>
            <trkpt lat="47.2608910000000008722054190002381801605224609375" lon="10.66960399999999964393282425589859485626220703125">
                <ele>1946.159561600011102200369350612163543701171875</ele>
            </trkpt>
            <trkpt lat="47.2609250000000002955857780762016773223876953125" lon="10.669591000000000491354512632824480533599853515625">
                <ele>1946.50051999997731400071643292903900146484375</ele>
            </trkpt>
            <trkpt lat="47.2611610000000013087628758512437343597412109375" lon="10.669655999999999806959749548695981502532958984375">
                <ele>1942.17007040000089546083472669124603271484375</ele>
            </trkpt>
            <trkpt lat="47.26139400000000279078449239023029804229736328125" lon="10.6695299999999999585043042316101491451263427734375">
                <ele>1945.464607999980444219545461237430572509765625</ele>
            </trkpt>
            <trkpt lat="47.2614429999999998699422576464712619781494140625" lon="10.6694739999999992363655110239051282405853271484375">
                <ele>1947.1361408000302617438137531280517578125</ele>
            </trkpt>
            <trkpt lat="47.261516000000000303771230392158031463623046875" lon="10.6694650000000006428990673157386481761932373046875">
                <ele>1946.817535999975234517478384077548980712890625</ele>
            </trkpt>
            <trkpt lat="47.26153599999999954661689116619527339935302734375" lon="10.6695299999999999585043042316101491451263427734375">
                <ele>1944.33315200000606637331657111644744873046875</ele>
            </trkpt>
            <trkpt lat="47.2615770000000026129782781936228275299072265625" lon="10.6695639999999993818846633075736463069915771484375">
                <ele>1942.820163200002980374847538769245147705078125</ele>
            </trkpt>
            <trkpt lat="47.261718000000001893567969091236591339111328125" lon="10.6695499999999992013499650056473910808563232421875">
                <ele>1942.94648000003917331923730671405792236328125</ele>
            </trkpt>
            <trkpt lat="47.261752999999998792191036045551300048828125" lon="10.669574000000000779664333094842731952667236328125">
                <ele>1942.37759839996715527377091348171234130859375</ele>
            </trkpt>
            <trkpt lat="47.26186599999999771171133033931255340576171875" lon="10.66955600000000004001776687800884246826171875">
                <ele>1943.6947711999846433172933757305145263671875</ele>
            </trkpt>
            <trkpt lat="47.26227000000000089130480773746967315673828125" lon="10.669658999999999338115230784751474857330322265625">
                <ele>1943.268296000026339243049733340740203857421875</ele>
            </trkpt>
            <trkpt lat="47.26226199999999977308107190765440464019775390625" lon="10.6696270000000001942908056662417948246002197265625">
                <ele>1944.149172799993493754300288856029510498046875</ele>
            </trkpt>
            <trkpt lat="47.26228499999999854708221391774713993072509765625" lon="10.669544999999999390638549812138080596923828125">
                <ele>1946.698340000009238792699761688709259033203125</ele>
            </trkpt>
            <trkpt lat="47.26234500000000338104655384086072444915771484375" lon="10.669515000000000526370058651082217693328857421875">
                <ele>1947.939260000006242989911697804927825927734375</ele>
            </trkpt>
            <trkpt lat="47.262327999999996563929016701877117156982421875" lon="10.66946300000000036334313335828483104705810546875">
                <ele>1949.335020799970379812293685972690582275390625</ele>
            </trkpt>
            <trkpt lat="47.2623660000000000991349224932491779327392578125" lon="10.6694340000000007506741894758306443691253662109375">
                <ele>1950.3812767999797870288603007793426513671875</ele>
            </trkpt>
            <trkpt lat="47.262416999999999234205461107194423675537109375" lon="10.6694610000000000837871994008310139179229736328125">
                <ele>1949.901706399993827290018089115619659423828125</ele>
            </trkpt>
            <trkpt lat="47.262416999999999234205461107194423675537109375" lon="10.6694610000000000837871994008310139179229736328125">
                <ele>1949.901706399993827290018089115619659423828125</ele>
            </trkpt>
            <trkpt lat="47.2624550000000027694113668985664844512939453125" lon="10.6694809999999993266328601748682558536529541015625">
                <ele>1949.560556000035603574360720813274383544921875</ele>
            </trkpt>
            <trkpt lat="47.26253100000000273439582088030874729156494140625" lon="10.669470000000000453610482509247958660125732421875">
                <ele>1950.970356800062518232152797281742095947265625</ele>
            </trkpt>
            <trkpt lat="47.26258700000000345653461408801376819610595703125" lon="10.6695170000000008059259926085360348224639892578125">
                <ele>1951.31848496007887661107815802097320556640625</ele>
            </trkpt>
            <trkpt lat="47.262596000000002050001057796180248260498046875" lon="10.669408000000000669160726829431951045989990234375">
                <ele>1954.267800320035576078225858509540557861328125</ele>
            </trkpt>
            <trkpt lat="47.26269800000000032014213502407073974609375" lon="10.66935600000000050613380153663456439971923828125">
                <ele>1957.97203711999691222445107996463775634765625</ele>
            </trkpt>
            <trkpt lat="47.26281900000000035788616514764726161956787109375" lon="10.669197000000000485897544422186911106109619140625">
                <ele>1963.697412319998193197534419596195220947265625</ele>
            </trkpt>
            <trkpt lat="47.262957000000000107320374809205532073974609375" lon="10.6691330000000004218918547849170863628387451171875">
                <ele>1967.851980319987660550395958125591278076171875</ele>
            </trkpt>
            <trkpt lat="47.262957000000000107320374809205532073974609375" lon="10.6691330000000004218918547849170863628387451171875">
                <ele>1967.851980319987660550395958125591278076171875</ele>
            </trkpt>
            <trkpt lat="47.2630520000000018399077816866338253021240234375" lon="10.669143999999999294914232450537383556365966796875">
                <ele>1969.153775360054396514897234737873077392578125</ele>
            </trkpt>
            <trkpt lat="47.2631549999999975852915667928755283355712890625" lon="10.6691909999999996472297425498254597187042236328125">
                <ele>1970.10037519995739785372279584407806396484375</ele>
            </trkpt>
            <trkpt lat="47.26321500000000241925590671598911285400390625" lon="10.6693820000000005876472641830332577228546142578125">
                <ele>1970.082651200055579465697519481182098388671875</ele>
            </trkpt>
            <trkpt lat="47.26324100000000072441252996213734149932861328125" lon="10.66931100000000043337422539480030536651611328125">
                <ele>1971.088598240013880058540962636470794677734375</ele>
            </trkpt>
            <trkpt lat="47.2634800000000012687451089732348918914794921875" lon="10.6698100000000000164845914696343243122100830078125">
                <ele>1979.218464000061430851928889751434326171875</ele>
            </trkpt>
            <trkpt lat="47.263779999999997016857378184795379638671875" lon="10.6707300000000007145217750803567469120025634765625">
                <ele>1987.1369279998398269526660442352294921875</ele>
            </trkpt>
            <trkpt lat="47.26398999999999972487785271368920803070068359375" lon="10.6714999999999999857891452847979962825775146484375">
                <ele>1975.165599999987307455739937722682952880859375</ele>
            </trkpt>
            <trkpt lat="47.26444000000000045247361413203179836273193359375" lon="10.6714800000000007429434845107607543468475341796875">
                <ele>1983.07068799996750385616905987262725830078125</ele>
            </trkpt>
            <trkpt lat="47.26491999999999649162418791092932224273681640625" lon="10.671369999999999578221832052804529666900634765625">
                <ele>1987.50089600003366285818628966808319091796875</ele>
            </trkpt>
            <trkpt lat="47.26514999999999844249032321386039257049560546875" lon="10.6711600000000004229150363244116306304931640625">
                <ele>1998.28208000001313848770223557949066162109375</ele>
            </trkpt>
            <trkpt lat="47.2651800000000008594724931754171848297119140625" lon="10.6706400000000005690026227966882288455963134765625">
                <ele>2026.43011199993588888901285827159881591796875</ele>
            </trkpt>
            <trkpt lat="47.26543000000000205318428925238549709320068359375" lon="10.6699999999999999289457264239899814128875732421875">
                <ele>2050.9559999999191859387792646884918212890625</ele>
            </trkpt>
            <trkpt lat="47.265659999999996898623066954314708709716796875" lon="10.6695299999999999585043042316101491451263427734375">
                <ele>2063.95603199999504795414395630359649658203125</ele>
            </trkpt>
            <trkpt lat="47.265670000000000072759576141834259033203125" lon="10.6688799999999996970245774718932807445526123046875">
                <ele>2086.32179200000746277510188519954681396484375</ele>
            </trkpt>
            <trkpt lat="47.26626999999999867441147216595709323883056640625" lon="10.6691599999999997550048647099174559116363525390625">
                <ele>2066.22745600007465327507816255092620849609375</ele>
            </trkpt>
            <trkpt lat="47.266649999999998499333742074668407440185546875" lon="10.66911999999999949295670376159250736236572265625">
                <ele>2049.25984000009475494152866303920745849609375</ele>
            </trkpt>
            <trkpt lat="47.26655000000000228510543820448219776153564453125" lon="10.6696100000000004826006261282600462436676025390625">
                <ele>2033.194399999898223541094921529293060302734375</ele>
            </trkpt>
            <trkpt lat="47.26559999999999917008608463220298290252685546875" lon="10.6707699999999992002130966284312307834625244140625">
                <ele>2001.774720000081515536294318735599517822265625</ele>
            </trkpt>
            <trkpt lat="47.26534000000000190766513696871697902679443359375" lon="10.6710700000000002773958840407431125640869140625">
                <ele>1998.29849599993804076802916824817657470703125</ele>
            </trkpt>
            <trkpt lat="47.26528900000000277259459835477173328399658203125" lon="10.6709820000000004114326657145284116268157958984375">
                <ele>2004.03197215989212054410018026828765869140625</ele>
            </trkpt>
            <trkpt lat="47.26514900000000096724761533550918102264404296875" lon="10.671158999999999394958649645559489727020263671875">
                <ele>1998.36182672001768878544680774211883544921875</ele>
            </trkpt>
            <trkpt lat="47.26492999999999966576069709844887256622314453125" lon="10.671350000000000335376171278767287731170654296875">
                <ele>1988.7783199999821590608917176723480224609375</ele>
            </trkpt>
            <trkpt lat="47.26474999999999937472239253111183643341064453125" lon="10.6714490000000008507186066708527505397796630859375">
                <ele>1983.15475999995760503225028514862060546875</ele>
            </trkpt>
            <trkpt lat="47.26459200000000038244252209551632404327392578125" lon="10.6713520000000006149321052362211048603057861328125">
                <ele>1988.669884159972070847288705408573150634765625</ele>
            </trkpt>
            <trkpt lat="47.26447600000000193176674656569957733154296875" lon="10.6711539999999995842472344520501792430877685546875">
                <ele>1997.6497049600375248701311647891998291015625</ele>
            </trkpt>
            <trkpt lat="47.264442000000002508386387489736080169677734375" lon="10.671172999999999575493347947485744953155517578125">
                <ele>1996.5365398400399499223567545413970947265625</ele>
            </trkpt>
            <trkpt lat="47.26442399999999821602614247240126132965087890625" lon="10.6712199999999999278088580467738211154937744140625">
                <ele>1994.375187199995934861362911760807037353515625</ele>
            </trkpt>
            <trkpt lat="47.264442000000002508386387489736080169677734375" lon="10.671260000000000189857018995098769664764404296875">
                <ele>1992.71742080000376518000848591327667236328125</ele>
            </trkpt>
            <trkpt lat="47.26440199999999691726770834065973758697509765625" lon="10.6712900000000008304823495564050972461700439453125">
                <ele>1991.299299199959705219953320920467376708984375</ele>
            </trkpt>
            <trkpt lat="47.26435099999999778219716972671449184417724609375" lon="10.6714129999999993714254742371849715709686279296875">
                <ele>1986.238265120033247512765228748321533203125</ele>
            </trkpt>
            <trkpt lat="47.2643580000000014251781976781785488128662109375" lon="10.6714749999999991558752299170009791851043701171875">
                <ele>1983.715832000029195114620961248874664306640625</ele>
            </trkpt>
            <trkpt lat="47.26434199999999918873072601854801177978515625" lon="10.671549999999999869260136620141565799713134765625">
                <ele>1980.81982400001425048685632646083831787109375</ele>
            </trkpt>
            <trkpt lat="47.26427000000000333557181875221431255340576171875" lon="10.67156800000000060890670283697545528411865234375">
                <ele>1980.75856639994935903814621269702911376953125</ele>
            </trkpt>
            <trkpt lat="47.2642290000000002692104317247867584228515625" lon="10.6715110000000006351683623506687581539154052734375">
                <ele>1983.126006559978122822940349578857421875</ele>
            </trkpt>
            <trkpt lat="47.264105000000000700310920365154743194580078125" lon="10.671462999999999254896465572528541088104248046875">
                <ele>1982.04671440005904514691792428493499755859375</ele>
            </trkpt>
            <trkpt lat="47.26404099999999885994839132763445377349853515625" lon="10.671400999999999470446709892712533473968505859375">
                <ele>1980.87672495996093857684172689914703369140625</ele>
            </trkpt>
            <trkpt lat="47.263902000000001635271473787724971771240234375" lon="10.6713900000000005974243322270922362804412841796875">
                <ele>1974.336956800062353067914955317974090576171875</ele>
            </trkpt>
            <trkpt lat="47.263857000000001562511897645890712738037109375" lon="10.6713660000000007954668035381473600864410400390625">
                <ele>1972.871926720052442760788835585117340087890625</ele>
            </trkpt>
            <trkpt lat="47.263835999999997738996171392500400543212890625" lon="10.6713269999999997850181898684240877628326416015625">
                <ele>1973.074664319894736763671971857547760009765625</ele>
            </trkpt>
            <trkpt lat="47.26364000000000231693775276653468608856201171875" lon="10.6707300000000007145217750803567469120025634765625">
                <ele>1980.03926400010868746903724968433380126953125</ele>
            </trkpt>
            <trkpt lat="47.26344999999999885176293901167809963226318359375" lon="10.67005999999999943383954814635217189788818359375">
                <ele>1977.063839999944093506201170384883880615234375</ele>
            </trkpt>
            <trkpt lat="47.26310000000000144382283906452357769012451171875" lon="10.6692699999999991433696777676232159137725830078125">
                <ele>1968.322880000038594516809098422527313232421875</ele>
            </trkpt>
            <trkpt lat="47.2631200000000006866684998385608196258544921875" lon="10.669174999999999187139110290445387363433837890625">
                <ele>1969.5862400000196430482901632785797119140625</ele>
            </trkpt>
            <trkpt lat="47.26295900000000216323314816690981388092041015625" lon="10.6691319999999993939354681060649454593658447265625">
                <ele>1967.920127360057676924043335020542144775390625</ele>
            </trkpt>
            <trkpt lat="47.26281900000000035788616514764726161956787109375" lon="10.669197000000000485897544422186911106109619140625">
                <ele>1963.697412319998193197534419596195220947265625</ele>
            </trkpt>
            <trkpt lat="47.26269800000000032014213502407073974609375" lon="10.66935600000000050613380153663456439971923828125">
                <ele>1957.97203711999691222445107996463775634765625</ele>
            </trkpt>
            <trkpt lat="47.262596000000002050001057796180248260498046875" lon="10.669408000000000669160726829431951045989990234375">
                <ele>1954.267800320035576078225858509540557861328125</ele>
            </trkpt>
            <trkpt lat="47.26258700000000345653461408801376819610595703125" lon="10.6695170000000008059259926085360348224639892578125">
                <ele>1951.31848496007887661107815802097320556640625</ele>
            </trkpt>
            <trkpt lat="47.26253100000000273439582088030874729156494140625" lon="10.669470000000000453610482509247958660125732421875">
                <ele>1950.970356800062518232152797281742095947265625</ele>
            </trkpt>
            <trkpt lat="47.2624550000000027694113668985664844512939453125" lon="10.6694809999999993266328601748682558536529541015625">
                <ele>1949.560556000035603574360720813274383544921875</ele>
            </trkpt>
            <trkpt lat="47.2623660000000000991349224932491779327392578125" lon="10.6694340000000007506741894758306443691253662109375">
                <ele>1950.3812767999797870288603007793426513671875</ele>
            </trkpt>
            <trkpt lat="47.262327999999996563929016701877117156982421875" lon="10.66946300000000036334313335828483104705810546875">
                <ele>1949.335020799970379812293685972690582275390625</ele>
            </trkpt>
            <trkpt lat="47.26234500000000338104655384086072444915771484375" lon="10.669515000000000526370058651082217693328857421875">
                <ele>1947.939260000006242989911697804927825927734375</ele>
            </trkpt>
            <trkpt lat="47.26228499999999854708221391774713993072509765625" lon="10.669544999999999390638549812138080596923828125">
                <ele>1946.698340000009238792699761688709259033203125</ele>
            </trkpt>
            <trkpt lat="47.26226199999999977308107190765440464019775390625" lon="10.6696270000000001942908056662417948246002197265625">
                <ele>1944.149172799993493754300288856029510498046875</ele>
            </trkpt>
            <trkpt lat="47.26227000000000089130480773746967315673828125" lon="10.669658999999999338115230784751474857330322265625">
                <ele>1943.268296000026339243049733340740203857421875</ele>
            </trkpt>
            <trkpt lat="47.26199299999999681176632293500006198883056640625" lon="10.6695840000000004010871634818613529205322265625">
                <ele>1943.632966399967017423477955162525177001953125</ele>
            </trkpt>
            <trkpt lat="47.26199299999999681176632293500006198883056640625" lon="10.6695840000000004010871634818613529205322265625">
                <ele>1943.632966399967017423477955162525177001953125</ele>
            </trkpt>
            <trkpt lat="47.26186599999999771171133033931255340576171875" lon="10.66955600000000004001776687800884246826171875">
                <ele>1943.6947711999846433172933757305145263671875</ele>
            </trkpt>
            <trkpt lat="47.261752999999998792191036045551300048828125" lon="10.669574000000000779664333094842731952667236328125">
                <ele>1942.37759839996715527377091348171234130859375</ele>
            </trkpt>
            <trkpt lat="47.261718000000001893567969091236591339111328125" lon="10.6695499999999992013499650056473910808563232421875">
                <ele>1942.94648000003917331923730671405792236328125</ele>
            </trkpt>
            <trkpt lat="47.2615770000000026129782781936228275299072265625" lon="10.6695639999999993818846633075736463069915771484375">
                <ele>1942.820163200002980374847538769245147705078125</ele>
            </trkpt>
            <trkpt lat="47.26153599999999954661689116619527339935302734375" lon="10.6695299999999999585043042316101491451263427734375">
                <ele>1944.33315200000606637331657111644744873046875</ele>
            </trkpt>
            <trkpt lat="47.261516000000000303771230392158031463623046875" lon="10.6694650000000006428990673157386481761932373046875">
                <ele>1946.817535999975234517478384077548980712890625</ele>
            </trkpt>
            <trkpt lat="47.2614429999999998699422576464712619781494140625" lon="10.6694739999999992363655110239051282405853271484375">
                <ele>1947.1361408000302617438137531280517578125</ele>
            </trkpt>
            <trkpt lat="47.26139400000000279078449239023029804229736328125" lon="10.6695299999999999585043042316101491451263427734375">
                <ele>1945.464607999980444219545461237430572509765625</ele>
            </trkpt>
            <trkpt lat="47.2611610000000013087628758512437343597412109375" lon="10.669655999999999806959749548695981502532958984375">
                <ele>1942.17007040000089546083472669124603271484375</ele>
            </trkpt>
            <trkpt lat="47.2609250000000002955857780762016773223876953125" lon="10.669591000000000491354512632824480533599853515625">
                <ele>1946.50051999997731400071643292903900146484375</ele>
            </trkpt>
            <trkpt lat="47.2608910000000008722054190002381801605224609375" lon="10.66960399999999964393282425589859485626220703125">
                <ele>1946.159561600011102200369350612163543701171875</ele>
            </trkpt>
            <trkpt lat="47.260852999999997336999513208866119384765625" lon="10.669679999999999608917278237640857696533203125">
                <ele>1942.977776000034282333217561244964599609375</ele>
            </trkpt>
            <trkpt lat="47.260852999999997336999513208866119384765625" lon="10.669679999999999608917278237640857696533203125">
                <ele>1942.977776000034282333217561244964599609375</ele>
            </trkpt>
            <trkpt lat="47.260840000000001737134880386292934417724609375" lon="10.66970500000000043883119360543787479400634765625">
                <ele>1941.915679999971644065226428210735321044921875</ele>
            </trkpt>
            <trkpt lat="47.26078499999999849023879505693912506103515625" lon="10.6696609999999996176711647422052919864654541015625">
                <ele>1945.7396728000740040442906320095062255859375</ele>
            </trkpt>
            <trkpt lat="47.2607229999999987057890393771231174468994140625" lon="10.6696639999999991488266459782607853412628173828125">
                <ele>1947.894012160086049334495328366756439208984375</ele>
            </trkpt>
            <trkpt lat="47.26060300000000324871507473289966583251953125" lon="10.6698819999999994223571775364689528942108154296875">
                <ele>1943.322402879892024429864250123500823974609375</ele>
            </trkpt>
            <trkpt lat="47.2605769999999978381310938857495784759521484375" lon="10.6700119999999998299244907684624195098876953125">
                <ele>1939.1792588801008605514653027057647705078125</ele>
            </trkpt>
            <trkpt lat="47.26053300000000234604158322326838970184326171875" lon="10.6701010000000007238440957735292613506317138671875">
                <ele>1938.168160959876104243448935449123382568359375</ele>
            </trkpt>
            <trkpt lat="47.26023099999999743658918305300176143646240234375" lon="10.6704959999999999809006112627685070037841796875">
                <ele>1938.71562112011679346323944628238677978515625</ele>
            </trkpt>
            <trkpt lat="47.26021200000000277441358775831758975982666015625" lon="10.6705740000000002254409992019645869731903076171875">
                <ele>1937.08233855987009519594721496105194091796875</ele>
            </trkpt>
            <trkpt lat="47.26012800000000169120539794676005840301513671875" lon="10.6707330000000002456772563164122402667999267578125">
                <ele>1935.830586879917291298625059425830841064453125</ele>
            </trkpt>
            <trkpt lat="47.2601039999999983365341904573142528533935546875" lon="10.6707319999999992177208696375600993633270263671875">
                <ele>1936.949551360101622776710428297519683837890625</ele>
            </trkpt>
            <trkpt lat="47.260052999999999201463651843369007110595703125" lon="10.6707940000000007785274647176265716552734375">
                <ele>1937.316403840013663284480571746826171875</ele>
            </trkpt>
            <trkpt lat="47.2600240000000013651515473611652851104736328125" lon="10.6708020000000001203943611471913754940032958984375">
                <ele>1938.385365759935893947840668261051177978515625</ele>
            </trkpt>
            <trkpt lat="47.25997799999999671172190573997795581817626953125" lon="10.67087000000000074351191869936883449554443359375">
                <ele>1938.1016768001127275056205689907073974609375</ele>
            </trkpt>
            <trkpt lat="47.259917999999998983184923417866230010986328125" lon="10.6710300000000000153477230924181640148162841796875">
                <ele>1934.817555200043216245830990374088287353515625</ele>
            </trkpt>
            <trkpt lat="47.259872999999998910425347276031970977783203125" lon="10.6710820000000001783746483852155506610870361328125">
                <ele>1934.79104768004026482230983674526214599609375</ele>
            </trkpt>
            <trkpt lat="47.2597980000000035261109587736427783966064453125" lon="10.671099999999999141664375201798975467681884765625">
                <ele>1937.2288639998878352344036102294921875</ele>
            </trkpt>
            <trkpt lat="47.25972300000000103636921267025172710418701171875" lon="10.6711819999999999453166310559026896953582763671875">
                <ele>1937.303847679961336325504817068576812744140625</ele>
            </trkpt>
            <trkpt lat="47.2597200000000015052137314341962337493896484375" lon="10.6713029999999999830606611794792115688323974609375">
                <ele>1932.973260799941272125579416751861572265625</ele>
            </trkpt>
            <trkpt lat="47.25968900000000161298885359428822994232177734375" lon="10.6713789999999999480451151612214744091033935546875">
                <ele>1931.4292572799386107362806797027587890625</ele>
            </trkpt>
            <trkpt lat="47.25965099999999807778294780291616916656494140625" lon="10.6714140000000003993818609160371124744415283203125">
                <ele>1931.670360320064673942397348582744598388671875</ele>
            </trkpt>
            <trkpt lat="47.259647000000001071384758688509464263916015625" lon="10.671469999999999345163814723491668701171875">
                <ele>1929.758739199982983336667530238628387451171875</ele>
            </trkpt>
            <trkpt lat="47.2595859999999987621777108870446681976318359375" lon="10.6716440000000005738911568187177181243896484375">
                <ele>1925.737425920029409098788164556026458740234375</ele>
            </trkpt>
            <trkpt lat="47.25952099999999944657247397117316722869873046875" lon="10.6717040000000000787849785410799086093902587890625">
                <ele>1926.348400000021456435206346213817596435546875</ele>
            </trkpt>
            <trkpt lat="47.25943099999999930105332168750464916229248046875" lon="10.67164700000000010504663805477321147918701171875">
                <ele>1931.77262816002576073515228927135467529296875</ele>
            </trkpt>
            <trkpt lat="47.25939699999999987767296261154115200042724609375" lon="10.67165299999999916735760052688419818878173828125">
                <ele>1932.894534080038056345074437558650970458984375</ele>
            </trkpt>
            <trkpt lat="47.2593650000000025102053768932819366455078125" lon="10.67160499999999956344254314899444580078125">
                <ele>1935.97877599991852548555471003055572509765625</ele>
            </trkpt>
            <trkpt lat="47.25926100000000218415152630768716335296630859375" lon="10.671884999999999621422830387018620967864990234375">
                <ele>1931.214399999926854434306733310222625732421875</ele>
            </trkpt>
            <trkpt lat="47.259219999999999117790139280259609222412109375" lon="10.6719430000000006231175575521774590015411376953125">
                <ele>1931.098000000018146238289773464202880859375</ele>
            </trkpt>
            <trkpt lat="47.2592020000000019308572518639266490936279296875" lon="10.6720179999999995601456248550675809383392333984375">
                <ele>1929.560799999938581095193512737751007080078125</ele>
            </trkpt>
            <trkpt lat="47.2590670000000017125785234384238719940185546875" lon="10.672261999999999915189619059674441814422607421875">
                <ele>1930.269380159892534720711410045623779296875</ele>
            </trkpt>
            <trkpt lat="47.2590670000000017125785234384238719940185546875" lon="10.672261999999999915189619059674441814422607421875">
                <ele>1930.269380159892534720711410045623779296875</ele>
            </trkpt>
            <trkpt lat="47.2590050000000019281287677586078643798828125" lon="10.67231699999999960937202558852732181549072265625">
                <ele>1932.858578399885345788788981735706329345703125</ele>
            </trkpt>
            <trkpt lat="47.25898200000000315412762574851512908935546875" lon="10.672368999999999772398950881324708461761474609375">
                <ele>1932.969280319796098410733975470066070556640625</ele>
            </trkpt>
            <trkpt lat="47.2588769999999982474037096835672855377197265625" lon="10.6724979999999991520098774344660341739654541015625">
                <ele>1936.71329184014803104219026863574981689453125</ele>
            </trkpt>
            <trkpt lat="47.25882399999999705642039771191775798797607421875" lon="10.6725119999999993325445757363922894001007080078125">
                <ele>1940.082727680224024879862554371356964111328125</ele>
            </trkpt>
            <trkpt lat="47.25880599999999986948751029558479785919189453125" lon="10.6726229999999997488657754729501903057098388671875">
                <ele>1938.886087680018817991367541253566741943359375</ele>
            </trkpt>
            <trkpt lat="47.2588310000000006994014256633818149566650390625" lon="10.6728660000000008523102223989553749561309814453125">
                <ele>1931.70065855993425429915077984333038330078125</ele>
            </trkpt>
            <trkpt lat="47.25860300000000080444806371815502643585205078125" lon="10.673199000000000324916982208378612995147705078125">
                <ele>1941.520585919936593199963681399822235107421875</ele>
            </trkpt>
            <trkpt lat="47.25864899999999835245034773834049701690673828125" lon="10.67357200000000005957190296612679958343505859375">
                <ele>1930.171023360128629065002314746379852294921875</ele>
            </trkpt>
            <trkpt lat="47.25839799999999968349584378302097320556640625" lon="10.674139000000000265799826593138277530670166015625">
                <ele>1937.947952640021640036138705909252166748046875</ele>
            </trkpt>
            <trkpt lat="47.25843499999999863803168409503996372222900390625" lon="10.6747659999999999769215719425119459629058837890625">
                <ele>1928.272948800125959678553044795989990234375</ele>
            </trkpt>
            <trkpt lat="47.25838999999999856527210795320570468902587890625" lon="10.6750330000000008823235475574620068073272705078125">
                <ele>1928.898499200106243733898736536502838134765625</ele>
            </trkpt>
            <trkpt lat="47.2579319999999967194526107050478458404541015625" lon="10.67526600000000058798832469619810581207275390625">
                <ele>1969.101568000345878317602910101413726806640625</ele>
            </trkpt>
            <trkpt lat="47.25757999999999725559973740018904209136962890625" lon="10.6759330000000005611582309938967227935791015625">
                <ele>1996.5891136003256178810261189937591552734375</ele>
            </trkpt>
            <trkpt lat="47.2574139999999971450961311347782611846923828125" lon="10.67630199999999973670128383673727512359619140625">
                <ele>1998.395200000332124545820988714694976806640625</ele>
            </trkpt>
            <trkpt lat="47.2573679999999995970938471145927906036376953125" lon="10.6767839999999996081214703735895454883575439453125">
                <ele>1979.8376972800733710755594074726104736328125</ele>
            </trkpt>
            <trkpt lat="47.25712800000000157751856022514402866363525390625" lon="10.6771429999999991622416928294114768505096435546875">
                <ele>1987.288437759881389865768142044544219970703125</ele>
            </trkpt>
            <trkpt lat="47.2570699999999987994669936597347259521484375" lon="10.677367000000000274440026259981095790863037109375">
                <ele>1981.885153600124567674356512725353240966796875</ele>
            </trkpt>
            <trkpt lat="47.2570699999999987994669936597347259521484375" lon="10.677367000000000274440026259981095790863037109375">
                <ele>1981.885153600124567674356512725353240966796875</ele>
            </trkpt>
            <trkpt lat="47.256991999999996778569766320288181304931640625" lon="10.67766400000000004411049303598701953887939453125">
                <ele>1976.020368640340848287451080977916717529296875</ele>
            </trkpt>
            <trkpt lat="47.25695300000000287354851025156676769256591796875" lon="10.6777169999999994587369656073860824108123779296875">
                <ele>1977.712881279729117522947490215301513671875</ele>
            </trkpt>
            <trkpt lat="47.2566589999999990823198459111154079437255859375" lon="10.6777280000000001081161826732568442821502685546875">
                <ele>2007.08170816000301783788017928600311279296875</ele>
            </trkpt>
            <trkpt lat="47.25659699999999929787009023129940032958984375" lon="10.6776890000000008740244084037840366363525390625">
                <ele>2009.56648863996315412805415689945220947265625</ele>
            </trkpt>
            <trkpt lat="47.25650999999999868350641918368637561798095703125" lon="10.6777590000000000003410605131648480892181396484375">
                <ele>2007.06214720001344176125712692737579345703125</ele>
            </trkpt>
            <trkpt lat="47.2564009999999967703843140043318271636962890625" lon="10.6777460000000008477627488900907337665557861328125">
                <ele>2008.75197567999521197634749114513397216796875</ele>
            </trkpt>
            <trkpt lat="47.25631800000000026784618967212736606597900390625" lon="10.6778420000000000555928636458702385425567626953125">
                <ele>2005.6092044799943323596380650997161865234375</ele>
            </trkpt>
            <trkpt lat="47.25617100000000192494553630240261554718017578125" lon="10.677963999999999344936441048048436641693115234375">
                <ele>2002.860123519994658636278472840785980224609375</ele>
            </trkpt>
            <trkpt lat="47.25605500000000347426976077258586883544921875" lon="10.6779360000000007602238838444463908672332763671875">
                <ele>2005.640118399922130265622399747371673583984375</ele>
            </trkpt>
            <trkpt lat="47.2559619999999966921677696518599987030029296875" lon="10.67781599999999997407940099947154521942138671875">
                <ele>2010.8821273600397034897468984127044677734375</ele>
            </trkpt>
            <trkpt lat="47.2558920000000028949216357432305812835693359375" lon="10.6776239999999997820623320876620709896087646484375">
                <ele>2017.52904063998676065239124000072479248046875</ele>
            </trkpt>
            <trkpt lat="47.25587999999999766487235319800674915313720703125" lon="10.677364000000000743284545023925602436065673828125">
                <ele>2024.199097599981541861779987812042236328125</ele>
            </trkpt>
            <trkpt lat="47.25597499999999939745976007543504238128662109375" lon="10.6771650000000004610001269611530005931854248046875">
                <ele>2029.335519999984398964443244040012359619140625</ele>
            </trkpt>
        </trkseg>
    </trk>
</gpx>
