<?xml version="1.0" encoding="UTF-8" standalone="yes"?>
<gpx xmlns="http://www.topografix.com/GPX/1/1" creator="alpenkarte.eu">
    <metadata>
        <name>Pursteinwand Klettersteig</name>
        <link href="alpenkarte.eu">
            <text>Route von alpenkarte.eu</text>
        </link>
        <bounds minlat="46.91283700000000322916093864478170871734619140625" minlon="11.9464400000000008361666914424858987331390380859375" maxlat="46.921660000000002810338628478348255157470703125" maxlon="11.9524209999999992959374139900319278240203857421875"/>
    </metadata>
    <trk>
        <name>Pursteinwand Klettersteig</name>
        <trkseg>
            <trkpt lat="46.9140110000000021273081074468791484832763671875" lon="11.9501249999999998863131622783839702606201171875">
                <ele>875.517620000007582348189316689968109130859375</ele>
            </trkpt>
            <trkpt lat="46.914185000000003356035449542105197906494140625" lon="11.94968899999999933925209916196763515472412109375">
                <ele>891.5332368002553948826971463859081268310546875</ele>
            </trkpt>
            <trkpt lat="46.91419599999999689998730900697410106658935546875" lon="11.9495009999999997063468981650657951831817626953125">
                <ele>900.948865919772060806280933320522308349609375</ele>
            </trkpt>
            <trkpt lat="46.91419599999999689998730900697410106658935546875" lon="11.9495009999999997063468981650657951831817626953125">
                <ele>900.948865919772060806280933320522308349609375</ele>
            </trkpt>
            <trkpt lat="46.91420099999999848705556360073387622833251953125" lon="11.9494319999999998316297933342866599559783935546875">
                <ele>904.54664063988411726313643157482147216796875</ele>
            </trkpt>
            <trkpt lat="46.9137520000000023401298676617443561553955078125" lon="11.9489339999999995001189745380543172359466552734375">
                <ele>907.752464640175048771197907626628875732421875</ele>
            </trkpt>
            <trkpt lat="46.91357500000000158024704433046281337738037109375" lon="11.948482999999999520923665841110050678253173828125">
                <ele>915.0863280001723296663840301334857940673828125</ele>
            </trkpt>
            <trkpt lat="46.9134829999999993788151186890900135040283203125" lon="11.948333999999999122110239113681018352508544921875">
                <ele>910.7188665599468322398024611175060272216796875</ele>
            </trkpt>
            <trkpt lat="46.9134829999999993788151186890900135040283203125" lon="11.948333999999999122110239113681018352508544921875">
                <ele>910.7188665599468322398024611175060272216796875</ele>
            </trkpt>
            <trkpt lat="46.91335600000000027876012609340250492095947265625" lon="11.948221000000000202589944819919764995574951171875">
                <ele>902.863062400009084740304388105869293212890625</ele>
            </trkpt>
            <trkpt lat="46.91326699999999760848368168808519840240478515625" lon="11.948083000000000453155735158361494541168212890625">
                <ele>906.2843329599028265874949283897876739501953125</ele>
            </trkpt>
            <trkpt lat="46.913139000000001033185981214046478271484375" lon="11.9480559999999993436858858331106603145599365234375">
                <ele>903.9033222400620388725656084716320037841796875</ele>
            </trkpt>
            <trkpt lat="46.91313000000000243971953750587999820709228515625" lon="11.9477689999999991954382494441233575344085693359375">
                <ele>917.900459200141995097510516643524169921875</ele>
            </trkpt>
            <trkpt lat="46.91298400000000157206159201450645923614501953125" lon="11.9476840000000006369873517542146146297454833984375">
                <ele>915.266940160042622665059752762317657470703125</ele>
            </trkpt>
            <trkpt lat="46.91283700000000322916093864478170871734619140625" lon="11.947222000000000008412825991399586200714111328125">
                <ele>934.7453017602603040359099395573139190673828125</ele>
            </trkpt>
            <trkpt lat="46.91302999999999912006387603469192981719970703125" lon="11.9471000000000007190692485892213881015777587890625">
                <ele>961.1339199998561753091053105890750885009765625</ele>
            </trkpt>
            <trkpt lat="46.913150000000001682565198279917240142822265625" lon="11.94679000000000002046363078989088535308837890625">
                <ele>1003.02784000020028543076477944850921630859375</ele>
            </trkpt>
            <trkpt lat="46.9132299999999986539478413760662078857421875" lon="11.9464400000000008361666914424858987331390380859375">
                <ele>1046.089183999744591346825473010540008544921875</ele>
            </trkpt>
            <trkpt lat="46.9134099999999989449861459434032440185546875" lon="11.94651999999999958390617393888533115386962890625">
                <ele>1059.566783999934841631329618394374847412109375</ele>
            </trkpt>
            <trkpt lat="46.91362000000000165300662047229707241058349609375" lon="11.94651999999999958390617393888533115386962890625">
                <ele>1078.857888000176217246917076408863067626953125</ele>
            </trkpt>
            <trkpt lat="46.913849999999996498445398174226284027099609375" lon="11.9467400000000001369926394545473158359527587890625">
                <ele>1086.44655999960968983941711485385894775390625</ele>
            </trkpt>
            <trkpt lat="46.9141699999999985948306857608258724212646484375" lon="11.9468499999999995253574525122530758380889892578125">
                <ele>1114.440720000005740075721405446529388427734375</ele>
            </trkpt>
            <trkpt lat="46.9141690000000011195879778824746608734130859375" lon="11.946856000000000364025254384614527225494384765625">
                <ele>1114.091687040005808739806525409221649169921875</ele>
            </trkpt>
            <trkpt lat="46.91444899999999762485458631999790668487548828125" lon="11.946906999999999499095792998559772968292236328125">
                <ele>1116.816888479981344062252901494503021240234375</ele>
            </trkpt>
            <trkpt lat="46.91462200000000137833922053687274456024169921875" lon="11.9468219999999991642880559084005653858184814453125">
                <ele>1123.87113024006384875974617898464202880859375</ele>
            </trkpt>
            <trkpt lat="46.9146879999999981691871653310954570770263671875" lon="11.9468219999999991642880559084005653858184814453125">
                <ele>1125.022824960006118999444879591464996337890625</ele>
            </trkpt>
            <trkpt lat="46.91488700000000022782842279411852359771728515625" lon="11.946937999999999391320670838467776775360107421875">
                <ele>1124.3783241600294786621816456317901611328125</ele>
            </trkpt>
            <trkpt lat="46.91525899999999893452695687301456928253173828125" lon="11.946918000000000148475010064430534839630126953125">
                <ele>1120.425462720027780960663221776485443115234375</ele>
            </trkpt>
            <trkpt lat="46.91525899999999893452695687301456928253173828125" lon="11.946918000000000148475010064430534839630126953125">
                <ele>1120.425462720027780960663221776485443115234375</ele>
            </trkpt>
            <trkpt lat="46.9153900000000021464074961841106414794921875" lon="11.94689699999999987767296261154115200042724609375">
                <ele>1117.611844799950858941883780062198638916015625</ele>
            </trkpt>
            <trkpt lat="46.9153000000000020008883439004421234130859375" lon="11.9470629999999999881765688769519329071044921875">
                <ele>1114.567583999950556972180493175983428955078125</ele>
            </trkpt>
            <trkpt lat="46.91512999999999777855919091962277889251708984375" lon="11.947224999999999539568307227455079555511474609375">
                <ele>1113.87348000007978043868206441402435302734375</ele>
            </trkpt>
            <trkpt lat="46.91498899999999849796950002200901508331298828125" lon="11.9472679999999993327719494118355214595794677734375">
                <ele>1115.690622719979955945746041834354400634765625</ele>
            </trkpt>
            <trkpt lat="46.91485200000000332920535583980381488800048828125" lon="11.9472679999999993327719494118355214595794677734375">
                <ele>1111.6282329601262972573749721050262451171875</ele>
            </trkpt>
            <trkpt lat="46.9148119999999977380866766907274723052978515625" lon="11.9473070000000003432205630815587937831878662109375">
                <ele>1108.977930239920851818169467151165008544921875</ele>
            </trkpt>
            <trkpt lat="46.91481300000000231875674217008054256439208984375" lon="11.9473620000000000374029696104116737842559814453125">
                <ele>1106.94525216007650669780559837818145751953125</ele>
            </trkpt>
            <trkpt lat="46.91484700000000174213710124604403972625732421875" lon="11.9474000000000000198951966012828052043914794921875">
                <ele>1106.65060800006040153675712645053863525390625</ele>
            </trkpt>
            <trkpt lat="46.91515100000000160207491717301309108734130859375" lon="11.9473830000000003082050170633010566234588623046875">
                <ele>1108.14864047995024520787410438060760498046875</ele>
            </trkpt>
            <trkpt lat="46.915402000000000271029421128332614898681640625" lon="11.9473210000000005237552613834850490093231201171875">
                <ele>1103.30801951997955256956629455089569091796875</ele>
            </trkpt>
            <trkpt lat="46.9155999999999977490006131120026111602783203125" lon="11.94721799999999944930095807649195194244384765625">
                <ele>1101.320448000083842998719774186611175537109375</ele>
            </trkpt>
            <trkpt lat="46.91607400000000183126758201979100704193115234375" lon="11.9468440000000004630464900401420891284942626953125">
                <ele>1099.786973439930079621262848377227783203125</ele>
            </trkpt>
            <trkpt lat="46.91631600000000190675564226694405078887939453125" lon="11.9466769999999993245864970958791673183441162109375">
                <ele>1098.064871679970337936538271605968475341796875</ele>
            </trkpt>
            <trkpt lat="46.91637999999999664169081370346248149871826171875" lon="11.946742000000000416548573412001132965087890625">
                <ele>1093.6755904000965529121458530426025390625</ele>
            </trkpt>
            <trkpt lat="46.9162400000000019417711882852017879486083984375" lon="11.9469030000000007163407644839026033878326416015625">
                <ele>1092.317612799916560106794349849224090576171875</ele>
            </trkpt>
            <trkpt lat="46.91621599999999858709998079575598239898681640625" lon="11.947036000000000655063558951951563358306884765625">
                <ele>1088.3371302400291824596934020519256591796875</ele>
            </trkpt>
            <trkpt lat="46.91599999999999681676854379475116729736328125" lon="11.9474560000000007420339898089878261089324951171875">
                <ele>1081.020640000093635535449720919132232666015625</ele>
            </trkpt>
            <trkpt lat="46.916055000000000063664629124104976654052734375" lon="11.9474409999999995335429048282094299793243408203125">
                <ele>1079.57773120001957067870534956455230712890625</ele>
            </trkpt>
            <trkpt lat="46.91606900000000024419932742603123188018798828125" lon="11.947464000000000083900886238552629947662353515625">
                <ele>1078.274467839993803863762877881526947021484375</ele>
            </trkpt>
            <trkpt lat="46.91622399999999970532371662557125091552734375" lon="11.947399000000000768295649322681128978729248046875">
                <ele>1075.056874239988474073470570147037506103515625</ele>
            </trkpt>
            <trkpt lat="46.91622399999999970532371662557125091552734375" lon="11.947399000000000768295649322681128978729248046875">
                <ele>1075.056874239988474073470570147037506103515625</ele>
            </trkpt>
            <trkpt lat="46.9162960000000026639099814929068088531494140625" lon="11.9473690000000001276703187613748013973236083984375">
                <ele>1073.594709759907118495902977883815765380859375</ele>
            </trkpt>
            <trkpt lat="46.916347999999999274223227985203266143798828125" lon="11.9473929999999999296278474503196775913238525390625">
                <ele>1070.8843993600339672411791980266571044921875</ele>
            </trkpt>
            <trkpt lat="46.91640399999999999636202119290828704833984375" lon="11.9473859999999998393604982993565499782562255859375">
                <ele>1069.161122560011790483258664608001708984375</ele>
            </trkpt>
            <trkpt lat="46.9165210000000030277078622020781040191650390625" lon="11.9474479999999996238102539791725575923919677734375">
                <ele>1062.697169919911857505212537944316864013671875</ele>
            </trkpt>
            <trkpt lat="46.9167580000000015161276678554713726043701171875" lon="11.94742600000000010140865924768149852752685546875">
                <ele>1055.720932479958491967408917844295501708984375</ele>
            </trkpt>
            <trkpt lat="46.9169279999999986330294632352888584136962890625" lon="11.94749900000000053523763199336826801300048828125">
                <ele>1048.0123763200244866311550140380859375</ele>
            </trkpt>
            <trkpt lat="46.91693599999999975125319906510412693023681640625" lon="11.947435999999999722831489634700119495391845703125">
                <ele>1050.22562176002384148887358605861663818359375</ele>
            </trkpt>
            <trkpt lat="46.91706599999999838246367289684712886810302734375" lon="11.947433000000000191676008398644626140594482421875">
                <ele>1046.61052768004492463660426437854766845703125</ele>
            </trkpt>
            <trkpt lat="46.9171970000000015943442122079432010650634765625" lon="11.947478000000000264435584540478885173797607421875">
                <ele>1041.088000959949795287684537470340728759765625</ele>
            </trkpt>
            <trkpt lat="46.91748700000000127374732983298599720001220703125" lon="11.9474099999999996413180269883014261722564697265625">
                <ele>1035.43671519998360963654704391956329345703125</ele>
            </trkpt>
            <trkpt lat="46.91759499999999860619936953298747539520263671875" lon="11.947565000000000878799255588091909885406494140625">
                <ele>1027.600216000010959760402329266071319580078125</ele>
            </trkpt>
            <trkpt lat="46.9176039999999971996658132411539554595947265625" lon="11.94771300000000024965629563666880130767822265625">
                <ele>1023.4418022400612926503526978194713592529296875</ele>
            </trkpt>
            <trkpt lat="46.9176929999999998699422576464712619781494140625" lon="11.9479600000000001358557710773311555385589599609375">
                <ele>1014.699913600001991653698496520519256591796875</ele>
            </trkpt>
            <trkpt lat="46.91768400000000127647581393830478191375732421875" lon="11.9481769999999993814299159566871821880340576171875">
                <ele>1009.0732441599876665350166149437427520751953125</ele>
            </trkpt>
            <trkpt lat="46.91770600000000257523424807004630565643310546875" lon="11.948378999999999194869815255515277385711669921875">
                <ele>1002.3224534399736285195103846490383148193359375</ele>
            </trkpt>
            <trkpt lat="46.91770600000000257523424807004630565643310546875" lon="11.948378999999999194869815255515277385711669921875">
                <ele>1002.3224534399736285195103846490383148193359375</ele>
            </trkpt>
            <trkpt lat="46.9176929999999998699422576464712619781494140625" lon="11.9485240000000008109282134682871401309967041015625">
                <ele>996.3466099199716836665174923837184906005859375</ele>
            </trkpt>
            <trkpt lat="46.91772499999999723740984336473047733306884765625" lon="11.948631999999999919737092568539083003997802734375">
                <ele>990.8308320000779758629505522549152374267578125</ele>
            </trkpt>
            <trkpt lat="46.91780700000000337013261741958558559417724609375" lon="11.94860800000000011777956387959420680999755859375">
                <ele>989.7765753599122717787395231425762176513671875</ele>
            </trkpt>
            <trkpt lat="46.91789700000000351565176970325410366058349609375" lon="11.94864199999999954115992295555770397186279296875">
                <ele>985.9847414399336003043572418391704559326171875</ele>
            </trkpt>
            <trkpt lat="46.91798299999999954934537527151405811309814453125" lon="11.9486229999999995499138094601221382617950439453125">
                <ele>984.6133310400349500923766754567623138427734375</ele>
            </trkpt>
            <trkpt lat="46.9182119999999969195414450950920581817626953125" lon="11.948522000000000531372279510833323001861572265625">
                <ele>983.21376384005861837067641317844390869140625</ele>
            </trkpt>
            <trkpt lat="46.91870999999999725105226389132440090179443359375" lon="11.948406999999999555939211859367787837982177734375">
                <ele>981.2286384000479984024423174560070037841796875</ele>
            </trkpt>
            <trkpt lat="46.91877600000000114732756628654897212982177734375" lon="11.948465999999999809233486303128302097320556640625">
                <ele>978.396971519998032817966304719448089599609375</ele>
            </trkpt>
            <trkpt lat="46.91887799999999941746864351443946361541748046875" lon="11.9488170000000000214868123293854296207427978515625">
                <ele>965.4207427200022948454716242849826812744140625</ele>
            </trkpt>
            <trkpt lat="46.91893400000000013960743672214448451995849609375" lon="11.948881000000000085492501966655254364013671875">
                <ele>963.133826879997968717361800372600555419921875</ele>
            </trkpt>
            <trkpt lat="46.9189750000000032059688237495720386505126953125" lon="11.9489970000000003125251168967224657535552978515625">
                <ele>959.3051639999920325863058678805828094482421875</ele>
            </trkpt>
            <trkpt lat="46.91912599999999855526766623370349407196044921875" lon="11.9492010000000004055209501530043780803680419921875">
                <ele>953.250231039981599678867496550083160400390625</ele>
            </trkpt>
            <trkpt lat="46.919162000000000034560798667371273040771484375" lon="11.949217000000000865611582412384450435638427734375">
                <ele>952.9073881599739479497657157480716705322265625</ele>
            </trkpt>
            <trkpt lat="46.919162000000000034560798667371273040771484375" lon="11.949217000000000865611582412384450435638427734375">
                <ele>952.9073881599739479497657157480716705322265625</ele>
            </trkpt>
            <trkpt lat="46.9193089999999983774614520370960235595703125" lon="11.9492829999999994328163666068576276302337646484375">
                <ele>947.4782436800581990610226057469844818115234375</ele>
            </trkpt>
            <trkpt lat="46.9194049999999975852915667928755283355712890625" lon="11.94924400000000019872459233738481998443603515625">
                <ele>946.3937408000534787788637913763523101806640625</ele>
            </trkpt>
            <trkpt lat="46.91970400000000296358848572708666324615478515625" lon="11.9492019999999996571204974316060543060302734375">
                <ele>940.528939519941332036978565156459808349609375</ele>
            </trkpt>
            <trkpt lat="46.91979599999999805959305376745760440826416015625" lon="11.9491680000000002337401383556425571441650390625">
                <ele>939.3556083200413695522001944482326507568359375</ele>
            </trkpt>
            <trkpt lat="46.91982500000000300133251585066318511962890625" lon="11.9491940000000003152536010020412504673004150390625">
                <ele>937.873111999920411108178086578845977783203125</ele>
            </trkpt>
            <trkpt lat="46.91988400000000325462679029442369937896728515625" lon="11.9492019999999996571204974316060543060302734375">
                <ele>936.21809791993428007117472589015960693359375</ele>
            </trkpt>
            <trkpt lat="46.91999799999999964938979246653616428375244140625" lon="11.949163999999999674628270440734922885894775390625">
                <ele>934.66310784002416767179965972900390625</ele>
            </trkpt>
            <trkpt lat="46.92054799999999659121385775506496429443359375" lon="11.9488789999999998059365680092014372348785400390625">
                <ele>927.1757894401333714995416812598705291748046875</ele>
            </trkpt>
            <trkpt lat="46.92077599999999648616721970029175281524658203125" lon="11.94873199999999968667907523922622203826904296875">
                <ele>924.8156582401439891327754594385623931884765625</ele>
            </trkpt>
            <trkpt lat="46.92102200000000067348082666285336017608642578125" lon="11.948510999999999881993062444962561130523681640625">
                <ele>924.988454399983538678498007357120513916015625</ele>
            </trkpt>
            <trkpt lat="46.92136699999999649435267201624810695648193359375" lon="11.9481319999999993086703398148529231548309326171875">
                <ele>922.647276160178762438590638339519500732421875</ele>
            </trkpt>
            <trkpt lat="46.9213969999999989113348419778048992156982421875" lon="11.9481400000000004268940756446681916713714599609375">
                <ele>921.076451200036672162241302430629730224609375</ele>
            </trkpt>
            <trkpt lat="46.92142100000000226600604946725070476531982421875" lon="11.9481780000000004093863026355393230915069580078125">
                <ele>918.8077043198915134780691005289554595947265625</ele>
            </trkpt>
            <trkpt lat="46.92141600000000067893779487349092960357666015625" lon="11.948268999999999806505002197809517383575439453125">
                <ele>916.0973305599801506104995496571063995361328125</ele>
            </trkpt>
            <trkpt lat="46.92139999999999844249032321386039257049560546875" lon="11.9483149999999991308641256182454526424407958984375">
                <ele>915.2922400000965126309893094003200531005859375</ele>
            </trkpt>
            <trkpt lat="46.92139999999999844249032321386039257049560546875" lon="11.9483149999999991308641256182454526424407958984375">
                <ele>915.2922400000965126309893094003200531005859375</ele>
            </trkpt>
            <trkpt lat="46.9210920000000015761543181724846363067626953125" lon="11.9488310000000002020215106313116848468780517578125">
                <ele>913.489526399964006486698053777217864990234375</ele>
            </trkpt>
            <trkpt lat="46.9207439999999991186996339820325374603271484375" lon="11.9494600000000001926991899381391704082489013671875">
                <ele>905.4655808000235310828429646790027618408203125</ele>
            </trkpt>
            <trkpt lat="46.92066799999999915371518000029027462005615234375" lon="11.9496149999999996538235791376791894435882568359375">
                <ele>905.56629440002552655641920864582061767578125</ele>
            </trkpt>
            <trkpt lat="46.92065000000000196678229258395731449127197265625" lon="11.949712999999999141209627850912511348724365234375">
                <ele>904.6946239999721228741691447794437408447265625</ele>
            </trkpt>
            <trkpt lat="46.9206750000000027966962079517543315887451171875" lon="11.9497710000000001429043550160713493824005126953125">
                <ele>903.4534159999460598555742762982845306396484375</ele>
            </trkpt>
            <trkpt lat="46.9207219999999978199411998502910137176513671875" lon="11.949785999999999575038600596599280834197998046875">
                <ele>902.3847526400469405416515655815601348876953125</ele>
            </trkpt>
            <trkpt lat="46.92080200000000189675120054744184017181396484375" lon="11.9497400000000002506794771761633455753326416015625">
                <ele>901.3087615999611443839967250823974609375</ele>
            </trkpt>
            <trkpt lat="46.9212619999999986930561135523021221160888671875" lon="11.9493559999999998666453393525443971157073974609375">
                <ele>902.0388300800068464013747870922088623046875</ele>
            </trkpt>
            <trkpt lat="46.9213170000000019399521988816559314727783203125" lon="11.9493259999999992260200087912380695343017578125">
                <ele>901.925434879994782022549770772457122802734375</ele>
            </trkpt>
            <trkpt lat="46.921559999999999490682967007160186767578125" lon="11.9493039999999997036184140597470104694366455078125">
                <ele>900.848633600003495303099043667316436767578125</ele>
            </trkpt>
            <trkpt lat="46.92162900000000291811375063844025135040283203125" lon="11.9493419999999996861106410506181418895721435546875">
                <ele>900.458539519987652965937741100788116455078125</ele>
            </trkpt>
            <trkpt lat="46.921660000000002810338628478348255157470703125" lon="11.9494249999999997413624441833235323429107666015625">
                <ele>900.2151199999899517933954484760761260986328125</ele>
            </trkpt>
            <trkpt lat="46.92158500000000032059688237495720386505126953125" lon="11.949571999999999860619936953298747539520263671875">
                <ele>900.21759679999968284391798079013824462890625</ele>
            </trkpt>
            <trkpt lat="46.92153400000000118552634376101195812225341796875" lon="11.949636999999999176225173869170248508453369140625">
                <ele>900.1924851199997874573455192148685455322265625</ele>
            </trkpt>
            <trkpt lat="46.92153400000000118552634376101195812225341796875" lon="11.949636999999999176225173869170248508453369140625">
                <ele>900.1924851199997874573455192148685455322265625</ele>
            </trkpt>
            <trkpt lat="46.92108300000000298268787446431815624237060546875" lon="11.950227999999999184410626185126602649688720703125">
                <ele>898.4163411200069049300509504973888397216796875</ele>
            </trkpt>
            <trkpt lat="46.92032499999999828332875040359795093536376953125" lon="11.9513180000000005520632839761674404144287109375">
                <ele>894.5276959999947621327009983360767364501953125</ele>
            </trkpt>
            <trkpt lat="46.92007100000000008321876521222293376922607421875" lon="11.9516390000000001236912794411182403564453125">
                <ele>891.943485439999903974239714443683624267578125</ele>
            </trkpt>
            <trkpt lat="46.91982699999999795181793160736560821533203125" lon="11.9517849999999992149923855322413146495819091796875">
                <ele>890.10824159999765470274724066257476806640625</ele>
            </trkpt>
            <trkpt lat="46.9196620000000024219843908213078975677490234375" lon="11.9518360000000001264197635464370250701904296875">
                <ele>889.1023641600096425463561899960041046142578125</ele>
            </trkpt>
            <trkpt lat="46.9196620000000024219843908213078975677490234375" lon="11.9518360000000001264197635464370250701904296875">
                <ele>889.1023641600096425463561899960041046142578125</ele>
            </trkpt>
            <trkpt lat="46.91942000000000234649633057415485382080078125" lon="11.951890999999999820602170075289905071258544921875">
                <ele>887.691273600011982125579379498958587646484375</ele>
            </trkpt>
            <trkpt lat="46.9194590000000033569449442438781261444091796875" lon="11.9521069999999998145767676760442554950714111328125">
                <ele>886.224325440018446897738613188266754150390625</ele>
            </trkpt>
            <trkpt lat="46.91898599999999674992068321444094181060791015625" lon="11.952301999999999537749317823909223079681396484375">
                <ele>882.0276883199834401239058934152126312255859375</ele>
            </trkpt>
            <trkpt lat="46.918632999999999810825102031230926513671875" lon="11.9524209999999992959374139900319278240203857421875">
                <ele>878.900890080004273841041140258312225341796875</ele>
            </trkpt>
            <trkpt lat="46.9185700000000025511326384730637073516845703125" lon="11.9523559999999999803321770741604268550872802734375">
                <ele>879.0058752000160211537149734795093536376953125</ele>
            </trkpt>
            <trkpt lat="46.91844900000000251338860834948718547821044921875" lon="11.952299000000000006593836587853729724884033203125">
                <ele>878.6746785600158773377188481390476226806640625</ele>
            </trkpt>
            <trkpt lat="46.91820299999999832607500138692557811737060546875" lon="11.952248000000000871523297973908483982086181640625">
                <ele>877.8124185599882594033260829746723175048828125</ele>
            </trkpt>
            <trkpt lat="46.918125000000003410605131648480892181396484375" lon="11.952213000000000420186552219092845916748046875">
                <ele>877.7220000000115760485641658306121826171875</ele>
            </trkpt>
            <trkpt lat="46.91786799999999857391230762004852294921875" lon="11.9520239999999997593249645433388650417327880859375">
                <ele>877.5345676799937564283027313649654388427734375</ele>
            </trkpt>
            <trkpt lat="46.9177830000000000154614099301397800445556640625" lon="11.9519999999999999573674358543939888477325439453125">
                <ele>877.1942400000001498483470641076564788818359375</ele>
            </trkpt>
            <trkpt lat="46.9177150000000011687006917782127857208251953125" lon="11.9519439999999992352286426466889679431915283203125">
                <ele>877.0389504000091847046860493719577789306640625</ele>
            </trkpt>
            <trkpt lat="46.91739199999999954115992295555770397186279296875" lon="11.951795000000000612772055319510400295257568359375">
                <ele>875.9527583999976059203618206083774566650390625</ele>
            </trkpt>
            <trkpt lat="46.91717700000000235149855143390595912933349609375" lon="11.95176000000000016143530956469476222991943359375">
                <ele>875.5442112000049519338062964379787445068359375</ele>
            </trkpt>
            <trkpt lat="46.91717700000000235149855143390595912933349609375" lon="11.95176000000000016143530956469476222991943359375">
                <ele>875.5442112000049519338062964379787445068359375</ele>
            </trkpt>
            <trkpt lat="46.91617600000000010140865924768149852752685546875" lon="11.9514890000000004732783054350875318050384521484375">
                <ele>877.37120703999380566528998315334320068359375</ele>
            </trkpt>
            <trkpt lat="46.9159810000000021545929485000669956207275390625" lon="11.9518129999999995760617821360938251018524169921875">
                <ele>874.1799163200015527763753198087215423583984375</ele>
            </trkpt>
            <trkpt lat="46.91550000000000153477230924181640148162841796875" lon="11.9515510000000002577280611149035394191741943359375">
                <ele>875.127120000002605593181215226650238037109375</ele>
            </trkpt>
            <trkpt lat="46.915401000000002795786713249981403350830078125" lon="11.951463000000000391764842788688838481903076171875">
                <ele>875.52844752000828520976938307285308837890625</ele>
            </trkpt>
            <trkpt lat="46.9153170000000017125785234384238719940185546875" lon="11.95125900000000029876900953240692615509033203125">
                <ele>876.533625120009446618496440351009368896484375</ele>
            </trkpt>
            <trkpt lat="46.91520200000000073714545578695833683013916015625" lon="11.9511040000000008376446203328669071197509765625">
                <ele>876.5658163200022272576461546123027801513671875</ele>
            </trkpt>
            <trkpt lat="46.91456600000000065620042732916772365570068359375" lon="11.9507110000000000837871994008310139179229736328125">
                <ele>877.5719692800054190229275263845920562744140625</ele>
            </trkpt>
            <trkpt lat="46.91449999999999675992512493394315242767333984375" lon="11.950711999999999335386746679432690143585205078125">
                <ele>876.949919999986605034791864454746246337890625</ele>
            </trkpt>
            <trkpt lat="46.914388000000002421074896119534969329833984375" lon="11.9507969999999996701944837695918977260589599609375">
                <ele>874.60204608001686210627667605876922607421875</ele>
            </trkpt>
            <trkpt lat="46.9143609999999995352482073940336704254150390625" lon="11.950874999999999914734871708787977695465087890625">
                <ele>873.9047399999991512231645174324512481689453125</ele>
            </trkpt>
            <trkpt lat="46.9143609999999995352482073940336704254150390625" lon="11.9509430000000005378524292609654366970062255859375">
                <ele>873.804110879998233940568752586841583251953125</ele>
            </trkpt>
            <trkpt lat="46.91428599999999704550646129064261913299560546875" lon="11.950998999999999483634383068419992923736572265625">
                <ele>873.5591318399943929762230254709720611572265625</ele>
            </trkpt>
            <trkpt lat="46.91424299999999902865965850651264190673828125" lon="11.9508799999999997254462869022972881793975830078125">
                <ele>873.622070399998165157740004360675811767578125</ele>
            </trkpt>
            <trkpt lat="46.9142149999999986675902619026601314544677734375" lon="11.9505449999999999732835931354202330112457275390625">
                <ele>875.4165839999760692080599255859851837158203125</ele>
            </trkpt>
            <trkpt lat="46.91417799999999971305442159064114093780517578125" lon="11.9504380000000001160742613137699663639068603515625">
                <ele>875.1955699199925220455043017864227294921875</ele>
            </trkpt>
            <trkpt lat="46.914073999999999387000571005046367645263671875" lon="11.950328999999999979308995534665882587432861328125">
                <ele>875.025901759998077977797947824001312255859375</ele>
            </trkpt>
        </trkseg>
    </trk>
</gpx>
