<?xml version="1.0" encoding="UTF-8" standalone="yes"?>
<gpx xmlns:gpxtpx1="http://www.garmin.com/xmlschemas/TrackPointExtension/v1" xmlns="http://www.topografix.com/GPX/1/1" xmlns:trp="http://www.garmin.com/xmlschemas/TripExtensions/v1" xmlns:gpxx="http://www.garmin.com/xmlschemas/GpxExtensions/v3" xmlns:gpxtpx="http://www.garmin.com/xmlschemas/TrackPointExtension/v2" version="1.1" creator="RouteConverter 2.27.2">
    <metadata>
        <name>2024-05-15 09:29</name>
        <link href="https://www.oruxmaps.com">
            <text>OruxMaps</text>
        </link>
        <time>2024-05-15T07:29:11Z</time>
        <bounds minlat="47.2671565" minlon="11.2681940" maxlat="47.2690061" maxlon="11.2734113"/>
    </metadata>
    <trk>
        <name>2024-05-15 09:29</name>
        <desc>&lt;p&gt;Startzeit: 09:29 15.05.2024&lt;br/&gt;Zielzeit: 13:37 15.05.2024&lt;br/&gt;Strecke: 1,
1 km (04:08)&lt;br/&gt;Bewegungszeit: 00:13&lt;br/&gt;Ø-Geschwindigkeit: 0,
26 km/h&lt;br/&gt;Netto-Geschwindigkeit: 4,
88 km/h&lt;br/&gt;Max. Geschwindigkeit: 62,
46 km/h&lt;br/&gt;Minimale Höhe: 594 m&lt;br/&gt;Maximale Höhe: 680 m&lt;br/&gt;Steig-Geschw.: 42,
4 m/h&lt;br/&gt;Sink-Geschw.: -42,
5 m/h&lt;br/&gt;Aufstieg: 89 m&lt;br/&gt;Abstieg: -85 m&lt;br/&gt;Steigzeit: 02:07&lt;br/&gt;Sinkzeit: 02:00&lt;br/&gt;&lt;/p&gt;&lt;hr align="center" width="480" style="height: 2px; width: 517px"/&gt;</desc>
        <type>Berg/ Klettern</type>
        <extensions>
            <om:oruxmapsextensions xmlns:om="http://www.oruxmaps.com/oruxmapsextensions/1/0" xmlns:gpxtpx="http://www.garmin.com/xmlschemas/TrackPointExtension/v1" xmlns:xsi="http://www.w3.org/2001/XMLSchema-instance">
                <om:ext subtype="0" type="TYPE">36</om:ext>
                <om:ext type="DIFFICULTY">0</om:ext>
</om:oruxmapsextensions>
        </extensions>
        <trkseg>
            <trkpt lat="47.2679707" lon="11.2692641">
                <ele>600.8</ele>
                <time>2024-05-15T07:29:13.000Z</time>
                <name>0000115</name>
            </trkpt>
            <trkpt lat="47.2680331" lon="11.2696376">
                <ele>594.5</ele>
                <time>2024-05-15T07:33:46.000Z</time>
                <name>Position 2</name>
            </trkpt>
            <trkpt lat="47.2682144" lon="11.2696703">
                <ele>600.7</ele>
                <time>2024-05-15T07:34:10.000Z</time>
                <name>Position 3</name>
            </trkpt>
            <trkpt lat="47.268318" lon="11.26989">
                <ele>604.4</ele>
                <time>2024-05-15T07:35:10.000Z</time>
                <name>Position 4</name>
            </trkpt>
            <trkpt lat="47.2682291" lon="11.2701212">
                <ele>618.8</ele>
                <time>2024-05-15T07:35:54.000Z</time>
                <name>Position 5</name>
            </trkpt>
            <trkpt lat="47.2683673" lon="11.2703001">
                <ele>635.9</ele>
                <time>2024-05-15T07:37:51.000Z</time>
                <name>Position 6</name>
            </trkpt>
            <trkpt lat="47.2683636" lon="11.2705704">
                <ele>638.4</ele>
                <time>2024-05-15T07:38:08.000Z</time>
                <name>Position 7</name>
            </trkpt>
            <trkpt lat="47.2685471" lon="11.270583">
                <ele>646.9</ele>
                <time>2024-05-15T07:39:07.000Z</time>
                <name>Position 8</name>
            </trkpt>
            <trkpt lat="47.2686988" lon="11.2707372">
                <ele>649.9</ele>
                <time>2024-05-15T07:39:56.000Z</time>
                <name>Position 9</name>
            </trkpt>
            <trkpt lat="47.2688025" lon="11.270512">
                <ele>662.3</ele>
                <time>2024-05-15T07:40:43.000Z</time>
                <name>Position 10</name>
            </trkpt>
            <trkpt lat="47.2689066" lon="11.2707414">
                <ele>674.6</ele>
                <time>2024-05-15T07:42:47.000Z</time>
                <name>Position 11</name>
            </trkpt>
            <trkpt lat="47.2688198" lon="11.2709867">
                <ele>676.3</ele>
                <time>2024-05-15T07:43:16.000Z</time>
                <name>Position 12</name>
            </trkpt>
            <trkpt lat="47.2687791" lon="11.2712464">
                <ele>670.4</ele>
                <time>2024-05-15T07:43:56.000Z</time>
                <name>Position 13</name>
            </trkpt>
            <trkpt lat="47.2686303" lon="11.2713963">
                <ele>680.7</ele>
                <time>2024-05-15T07:45:06.000Z</time>
                <name>Position 14</name>
            </trkpt>
            <trkpt lat="47.2684871" lon="11.2715891">
                <ele>680.8</ele>
                <time>2024-05-15T09:34:51.000Z</time>
                <name>Position 15</name>
            </trkpt>
            <trkpt lat="47.2684704" lon="11.2713022">
                <ele>679.9</ele>
                <time>2024-05-15T09:48:41.000Z</time>
                <name>Position 16</name>
            </trkpt>
            <trkpt lat="47.268554" lon="11.2715508">
                <ele>661.3</ele>
                <time>2024-05-15T09:48:51.000Z</time>
                <name>Position 17</name>
            </trkpt>
            <trkpt lat="47.2686646" lon="11.2713394">
                <ele>671.5</ele>
                <time>2024-05-15T09:50:52.000Z</time>
                <name>Position 18</name>
            </trkpt>
            <trkpt lat="47.2687703" lon="11.2711211">
                <ele>675.8</ele>
                <time>2024-05-15T09:52:04.000Z</time>
                <name>Position 19</name>
            </trkpt>
            <trkpt lat="47.2688478" lon="11.2708813">
                <ele>671.4</ele>
                <time>2024-05-15T09:53:34.000Z</time>
                <name>Position 20</name>
            </trkpt>
            <trkpt lat="47.2688692" lon="11.2706114">
                <ele>677.9</ele>
                <time>2024-05-15T09:54:58.000Z</time>
                <name>Position 21</name>
            </trkpt>
            <trkpt lat="47.2688855" lon="11.270346">
                <ele>666.2</ele>
                <time>2024-05-15T09:55:39.000Z</time>
                <name>Position 22</name>
            </trkpt>
            <trkpt lat="47.2687973" lon="11.270525">
                <ele>665.4</ele>
                <time>2024-05-15T09:56:00.000Z</time>
                <name>Position 23</name>
            </trkpt>
            <trkpt lat="47.2686648" lon="11.2707288">
                <ele>661.2</ele>
                <time>2024-05-15T09:57:10.000Z</time>
                <name>Position 24</name>
            </trkpt>
            <trkpt lat="47.2685281" lon="11.2705773">
                <ele>661.6</ele>
                <time>2024-05-15T09:57:31.000Z</time>
                <name>Position 25</name>
            </trkpt>
            <trkpt lat="47.2683535" lon="11.2705699">
                <ele>660.4</ele>
                <time>2024-05-15T09:58:16.000Z</time>
                <name>Position 26</name>
            </trkpt>
            <trkpt lat="47.2683654" lon="11.2702855">
                <ele>657.1</ele>
                <time>2024-05-15T10:01:08.000Z</time>
                <name>Position 27</name>
            </trkpt>
            <trkpt lat="47.268214" lon="11.2701182">
                <ele>655.3</ele>
                <time>2024-05-15T10:02:24.000Z</time>
                <name>Position 28</name>
            </trkpt>
            <trkpt lat="47.2682988" lon="11.2699103">
                <ele>650.5</ele>
                <time>2024-05-15T11:08:31.000Z</time>
                <name>Position 29</name>
            </trkpt>
            <trkpt lat="47.2681893" lon="11.2696606">
                <ele>632.1</ele>
                <time>2024-05-15T11:09:33.000Z</time>
                <name>Position 30</name>
            </trkpt>
            <trkpt lat="47.2680059" lon="11.2696263">
                <ele>633.3</ele>
                <time>2024-05-15T11:30:51.000Z</time>
                <name>Position 31</name>
            </trkpt>
            <trkpt lat="47.2679717" lon="11.2692789">
                <ele>627.1</ele>
                <time>2024-05-15T11:33:43.000Z</time>
                <name>Position 32</name>
            </trkpt>
        </trkseg>
    </trk>
</gpx>
