<?xml version="1.0" encoding="UTF-8" standalone="yes"?>
<gpx xmlns:gpxtpx1="http://www.garmin.com/xmlschemas/TrackPointExtension/v1" xmlns="http://www.topografix.com/GPX/1/1" xmlns:trp="http://www.garmin.com/xmlschemas/TripExtensions/v1" xmlns:gpxx="http://www.garmin.com/xmlschemas/GpxExtensions/v3" xmlns:gpxtpx="http://www.garmin.com/xmlschemas/TrackPointExtension/v2" version="1.1" creator="Generated by Christian Pesch's RouteConverter. See http://www.routeconverter.com">
    <metadata>
        <name>2018-06-02 10:38</name>
        <link href="http://www.oruxmaps.com">
            <text>OruxMaps</text>
        </link>
        <time>2018-06-02T08:38:12Z</time>
        <bounds minlat="47.3197721" minlon="15.3683730" maxlat="47.3247022" maxlon="15.3805250"/>
    </metadata>
    <wpt lat="47.3219956" lon="15.3785432">
        <ele>814.5</ele>
        <time>2018-06-02T12:14:27.000Z</time>
        <name>flowes</name>
        <sym>Waypoint</sym>
        <type>Wegpunkt</type>
        <extensions>
            <om:oruxmapsextensions xmlns:om="http://www.oruxmaps.com/oruxmapsextensions/1/0" xmlns:gpxtpx="http://www.garmin.com/xmlschemas/TrackPointExtension/v1" xmlns:gpxtrx="http://www.garmin.com/xmlschemas/GpxExtensions/v3" xmlns:gpxx="http://www.garmin.com/xmlschemas/WaypointExtension/v1" xmlns:nmea="http://trekbuddy.net/2009/01/gpx/nmea" xmlns:rcxx="http://www.routeconverter.de/xmlschemas/RouteCatalogExtensions/1.0" xmlns:xsi="http://www.w3.org/2001/XMLSchema-instance">
                <om:ext subtype="0" type="ICON">1</om:ext>
</om:oruxmapsextensions>
        </extensions>
    </wpt>
    <trk>
        <name>2018-06-02 10:38</name>
        <desc>&lt;p&gt;Startzeit: 06/02/2018 10:36&lt;br/&gt;Zielzeit: 06/02/2018 18:11&lt;br/&gt;Strecke: 4,
3 km (07:34)&lt;br/&gt;Bewegungszeit: 03:15&lt;br/&gt;Ø-Geschwindigkeit: 0,
57 km/h&lt;br/&gt;Netto-Geschwindigkeit: 1,
33 km/h&lt;br/&gt;Max. Geschwindigkeit: 11,
91 km/h&lt;br/&gt;Minimale Höhe: 427 m&lt;br/&gt;Maximale Höhe: 947 m&lt;br/&gt;Steig-Geschw.: 169,
9 m/h&lt;br/&gt;Sink-Geschw.: -662,
4 m/h&lt;br/&gt;Aufstieg: 544 m&lt;br/&gt;Abstieg: -637 m&lt;br/&gt;Steigzeit: 03:12&lt;br/&gt;Sinkzeit: 00:57&lt;br/&gt;&lt;/p&gt;&lt;hr align="center" width="480" style="height: 2px; width: 517px"/&gt;</desc>
        <type>Unbestimmt</type>
        <extensions>
            <om:oruxmapsextensions xmlns:om="http://www.oruxmaps.com/oruxmapsextensions/1/0" xmlns:gpxtpx="http://www.garmin.com/xmlschemas/TrackPointExtension/v1" xmlns:gpxtrx="http://www.garmin.com/xmlschemas/GpxExtensions/v3" xmlns:gpxx="http://www.garmin.com/xmlschemas/WaypointExtension/v1" xmlns:nmea="http://trekbuddy.net/2009/01/gpx/nmea" xmlns:rcxx="http://www.routeconverter.de/xmlschemas/RouteCatalogExtensions/1.0" xmlns:xsi="http://www.w3.org/2001/XMLSchema-instance">
                <om:ext subtype="0" type="TYPE">0</om:ext>
                <om:ext type="DIFFICULTY">0</om:ext>
</om:oruxmapsextensions>
        </extensions>
        <trkseg>
            <trkpt lat="47.3224673" lon="15.3692847">
                <ele>460.5</ele>
                <time>2018-06-02T08:36:34.000Z</time>
                <name>Position 1</name>
            </trkpt>
            <trkpt lat="47.3217364" lon="15.3697856">
                <ele>450.2</ele>
                <time>2018-06-02T08:37:50.000Z</time>
                <name>Position 2</name>
            </trkpt>
            <trkpt lat="47.321856" lon="15.3700637">
                <ele>432.3</ele>
                <time>2018-06-02T08:37:52.000Z</time>
                <name>Position 3</name>
            </trkpt>
            <trkpt lat="47.3217643" lon="15.369804">
                <ele>439.3</ele>
                <time>2018-06-02T08:37:54.000Z</time>
                <name>Position 4</name>
            </trkpt>
            <trkpt lat="47.3215933" lon="15.3698956">
                <ele>446.4</ele>
                <time>2018-06-02T08:38:05.000Z</time>
                <name>Position 5</name>
            </trkpt>
            <trkpt lat="47.3213111" lon="15.3715673">
                <ele>480.6</ele>
                <time>2018-06-02T08:41:23.000Z</time>
                <name>Position 6</name>
            </trkpt>
            <trkpt lat="47.3210702" lon="15.3716916">
                <ele>492.0</ele>
                <time>2018-06-02T08:42:22.000Z</time>
                <name>Position 7</name>
            </trkpt>
            <trkpt lat="47.3212622" lon="15.3715866">
                <ele>497.5</ele>
                <time>2018-06-02T08:42:29.000Z</time>
                <name>Position 8</name>
            </trkpt>
            <trkpt lat="47.3211059" lon="15.3717343">
                <ele>503.1</ele>
                <time>2018-06-02T08:42:45.000Z</time>
                <name>Position 9</name>
            </trkpt>
            <trkpt lat="47.3209758" lon="15.3719413">
                <ele>505.8</ele>
                <time>2018-06-02T08:43:24.000Z</time>
                <name>Position 10</name>
            </trkpt>
            <trkpt lat="47.3204205" lon="15.3727928">
                <ele>517.2</ele>
                <time>2018-06-02T08:45:04.000Z</time>
                <name>Position 11</name>
            </trkpt>
            <trkpt lat="47.3204622" lon="15.3730808">
                <ele>524.4</ele>
                <time>2018-06-02T08:45:31.000Z</time>
                <name>Position 12</name>
            </trkpt>
            <trkpt lat="47.3203261" lon="15.3732665">
                <ele>523.9</ele>
                <time>2018-06-02T08:45:35.000Z</time>
                <name>Position 13</name>
            </trkpt>
            <trkpt lat="47.3208667" lon="15.3737627">
                <ele>558.2</ele>
                <time>2018-06-02T08:49:22.000Z</time>
                <name>Position 14</name>
            </trkpt>
            <trkpt lat="47.3210497" lon="15.3738536">
                <ele>567.1</ele>
                <time>2018-06-02T08:49:50.000Z</time>
                <name>Position 15</name>
            </trkpt>
            <trkpt lat="47.3212531" lon="15.373763">
                <ele>584.0</ele>
                <time>2018-06-02T08:50:44.000Z</time>
                <name>Position 16</name>
            </trkpt>
            <trkpt lat="47.3214344" lon="15.3737949">
                <ele>572.8</ele>
                <time>2018-06-02T08:51:08.000Z</time>
                <name>Position 17</name>
            </trkpt>
            <trkpt lat="47.3224038" lon="15.3735745">
                <ele>613.0</ele>
                <time>2018-06-02T08:53:35.000Z</time>
                <name>Position 18</name>
            </trkpt>
            <trkpt lat="47.3223328" lon="15.3738391">
                <ele>603.5</ele>
                <time>2018-06-02T08:53:36.000Z</time>
                <name>Position 19</name>
            </trkpt>
            <trkpt lat="47.3232426" lon="15.3740222">
                <ele>628.5</ele>
                <time>2018-06-02T08:56:21.000Z</time>
                <name>Position 20</name>
            </trkpt>
            <trkpt lat="47.3235184" lon="15.3735425">
                <ele>636.4</ele>
                <time>2018-06-02T08:57:05.000Z</time>
                <name>Position 21</name>
            </trkpt>
            <trkpt lat="47.3237037" lon="15.373621">
                <ele>630.1</ele>
                <time>2018-06-02T08:57:21.000Z</time>
                <name>Position 22</name>
            </trkpt>
            <trkpt lat="47.3238612" lon="15.3737693">
                <ele>629.2</ele>
                <time>2018-06-02T08:58:08.000Z</time>
                <name>Position 23</name>
            </trkpt>
            <trkpt lat="47.3240249" lon="15.3738881">
                <ele>627.2</ele>
                <time>2018-06-02T08:58:17.000Z</time>
                <name>Position 24</name>
            </trkpt>
            <trkpt lat="47.3242176" lon="15.3740056">
                <ele>633.6</ele>
                <time>2018-06-02T08:58:53.000Z</time>
                <name>Position 25</name>
            </trkpt>
            <trkpt lat="47.3243996" lon="15.3740375">
                <ele>640.1</ele>
                <time>2018-06-02T08:59:32.000Z</time>
                <name>Position 26</name>
            </trkpt>
            <trkpt lat="47.3245793" lon="15.374117">
                <ele>638.5</ele>
                <time>2018-06-02T09:00:20.000Z</time>
                <name>Position 27</name>
            </trkpt>
            <trkpt lat="47.3247022" lon="15.3743437">
                <ele>652.5</ele>
                <time>2018-06-02T09:01:07.000Z</time>
                <name>Position 28</name>
            </trkpt>
            <trkpt lat="47.32457" lon="15.3745423">
                <ele>669.1</ele>
                <time>2018-06-02T09:02:00.000Z</time>
                <name>Position 29</name>
            </trkpt>
            <trkpt lat="47.3244202" lon="15.3746988">
                <ele>676.1</ele>
                <time>2018-06-02T09:02:37.000Z</time>
                <name>Position 30</name>
            </trkpt>
            <trkpt lat="47.3243379" lon="15.3749364">
                <ele>679.8</ele>
                <time>2018-06-02T09:03:17.000Z</time>
                <name>Position 31</name>
            </trkpt>
            <trkpt lat="47.3243012" lon="15.3752114">
                <ele>690.3</ele>
                <time>2018-06-02T09:04:56.000Z</time>
                <name>Position 32</name>
            </trkpt>
            <trkpt lat="47.3242609" lon="15.3754753">
                <ele>695.2</ele>
                <time>2018-06-02T09:05:45.000Z</time>
                <name>Position 33</name>
            </trkpt>
            <trkpt lat="47.3241975" lon="15.3757294">
                <ele>699.5</ele>
                <time>2018-06-02T09:06:15.000Z</time>
                <name>Position 34</name>
            </trkpt>
            <trkpt lat="47.3240885" lon="15.3759421">
                <ele>708.3</ele>
                <time>2018-06-02T09:07:01.000Z</time>
                <name>Position 35</name>
            </trkpt>
            <trkpt lat="47.3240739" lon="15.3762112">
                <ele>719.5</ele>
                <time>2018-06-02T09:07:54.000Z</time>
                <name>Position 36</name>
            </trkpt>
            <trkpt lat="47.3239138" lon="15.3763353">
                <ele>735.3</ele>
                <time>2018-06-02T09:08:24.000Z</time>
                <name>Position 37</name>
            </trkpt>
            <trkpt lat="47.3237744" lon="15.3765249">
                <ele>747.5</ele>
                <time>2018-06-02T09:08:59.000Z</time>
                <name>Position 38</name>
            </trkpt>
            <trkpt lat="47.3236524" lon="15.3767358">
                <ele>756.2</ele>
                <time>2018-06-02T09:10:10.000Z</time>
                <name>Position 39</name>
            </trkpt>
            <trkpt lat="47.3235691" lon="15.376974">
                <ele>770.7</ele>
                <time>2018-06-02T09:11:13.000Z</time>
                <name>Position 40</name>
            </trkpt>
            <trkpt lat="47.3234059" lon="15.3770899">
                <ele>775.8</ele>
                <time>2018-06-02T09:11:38.000Z</time>
                <name>Position 41</name>
            </trkpt>
            <trkpt lat="47.3232365" lon="15.377204">
                <ele>772.5</ele>
                <time>2018-06-02T09:12:52.000Z</time>
                <name>Position 42</name>
            </trkpt>
            <trkpt lat="47.3230659" lon="15.3770999">
                <ele>778.5</ele>
                <time>2018-06-02T09:13:27.000Z</time>
                <name>Position 43</name>
            </trkpt>
            <trkpt lat="47.3228221" lon="15.3771345">
                <ele>783.6</ele>
                <time>2018-06-02T11:56:49.000Z</time>
                <name>Position 44</name>
            </trkpt>
            <trkpt lat="47.3226842" lon="15.37731">
                <ele>784.5</ele>
                <time>2018-06-02T11:57:52.000Z</time>
                <name>Position 45</name>
            </trkpt>
            <trkpt lat="47.3225178" lon="15.3774151">
                <ele>787.3</ele>
                <time>2018-06-02T11:58:24.000Z</time>
                <name>Position 46</name>
            </trkpt>
            <trkpt lat="47.3223104" lon="15.3773148">
                <ele>779.5</ele>
                <time>2018-06-02T11:58:50.000Z</time>
                <name>Position 47</name>
            </trkpt>
            <trkpt lat="47.3221927" lon="15.3775254">
                <ele>769.5</ele>
                <time>2018-06-02T12:00:01.000Z</time>
                <name>Position 48</name>
            </trkpt>
            <trkpt lat="47.322072" lon="15.3777772">
                <ele>761.1</ele>
                <time>2018-06-02T12:00:22.000Z</time>
                <name>Position 49</name>
            </trkpt>
            <trkpt lat="47.3218961" lon="15.3779377">
                <ele>763.1</ele>
                <time>2018-06-02T12:00:45.000Z</time>
                <name>Position 50</name>
            </trkpt>
            <trkpt lat="47.3219898" lon="15.3781753">
                <ele>776.4</ele>
                <time>2018-06-02T12:02:15.000Z</time>
                <name>Position 51</name>
            </trkpt>
            <trkpt lat="47.3220448" lon="15.3784294">
                <ele>788.2</ele>
                <time>2018-06-02T12:06:01.000Z</time>
                <name>Position 52</name>
            </trkpt>
            <trkpt lat="47.3221826" lon="15.3786431">
                <ele>788.9</ele>
                <time>2018-06-02T12:06:35.000Z</time>
                <name>Position 53</name>
            </trkpt>
            <trkpt lat="47.3221052" lon="15.378565">
                <ele>810.1</ele>
                <time>2018-06-02T12:09:12.000Z</time>
                <name>Position 54</name>
            </trkpt>
            <trkpt lat="47.3221885" lon="15.3784508">
                <ele>840.9</ele>
                <time>2018-06-02T12:34:51.000Z</time>
                <name>Position 55</name>
            </trkpt>
            <trkpt lat="47.3223841" lon="15.3784417">
                <ele>902.8</ele>
                <time>2018-06-02T13:13:29.000Z</time>
                <name>Position 56</name>
            </trkpt>
            <trkpt lat="47.3225023" lon="15.3785665">
                <ele>906.5</ele>
                <time>2018-06-02T13:29:45.000Z</time>
                <name>Position 57</name>
            </trkpt>
            <trkpt lat="47.3226741" lon="15.3787044">
                <ele>913.7</ele>
                <time>2018-06-02T13:32:01.000Z</time>
                <name>Position 58</name>
            </trkpt>
            <trkpt lat="47.3225499" lon="15.3786786">
                <ele>914.5</ele>
                <time>2018-06-02T13:32:22.000Z</time>
                <name>Position 59</name>
            </trkpt>
            <trkpt lat="47.3225339" lon="15.3785765">
                <ele>935.5</ele>
                <time>2018-06-02T13:42:22.000Z</time>
                <name>Position 60</name>
            </trkpt>
            <trkpt lat="47.3227132" lon="15.3786108">
                <ele>942.4</ele>
                <time>2018-06-02T13:46:47.000Z</time>
                <name>Position 61</name>
            </trkpt>
            <trkpt lat="47.3227391" lon="15.3786164">
                <ele>947.5</ele>
                <time>2018-06-02T13:52:32.000Z</time>
                <name>Position 62</name>
            </trkpt>
            <trkpt lat="47.3228629" lon="15.3788328">
                <ele>939.3</ele>
                <time>2018-06-02T13:56:47.000Z</time>
                <name>Position 63</name>
            </trkpt>
            <trkpt lat="47.3228309" lon="15.3790986">
                <ele>937.0</ele>
                <time>2018-06-02T13:57:20.000Z</time>
                <name>Position 64</name>
            </trkpt>
            <trkpt lat="47.3228637" lon="15.3793631">
                <ele>930.1</ele>
                <time>2018-06-02T13:57:41.000Z</time>
                <name>Position 65</name>
            </trkpt>
            <trkpt lat="47.3228411" lon="15.3796292">
                <ele>920.5</ele>
                <time>2018-06-02T13:58:26.000Z</time>
                <name>Position 66</name>
            </trkpt>
            <trkpt lat="47.3226982" lon="15.3798241">
                <ele>919.3</ele>
                <time>2018-06-02T13:59:15.000Z</time>
                <name>Position 67</name>
            </trkpt>
            <trkpt lat="47.3225168" lon="15.3798441">
                <ele>910.3</ele>
                <time>2018-06-02T13:59:59.000Z</time>
                <name>Position 68</name>
            </trkpt>
            <trkpt lat="47.3224152" lon="15.3800696">
                <ele>894.8</ele>
                <time>2018-06-02T14:01:13.000Z</time>
                <name>Position 69</name>
            </trkpt>
            <trkpt lat="47.3222565" lon="15.3802244">
                <ele>887.5</ele>
                <time>2018-06-02T14:01:54.000Z</time>
                <name>Position 70</name>
            </trkpt>
            <trkpt lat="47.3221271" lon="15.3804169">
                <ele>877.4</ele>
                <time>2018-06-02T14:02:16.000Z</time>
                <name>Position 71</name>
            </trkpt>
            <trkpt lat="47.3219793" lon="15.380525">
                <ele>878.5</ele>
                <time>2018-06-02T14:02:44.000Z</time>
                <name>Position 72</name>
            </trkpt>
            <trkpt lat="47.3219174" lon="15.380246">
                <ele>877.7</ele>
                <time>2018-06-02T14:02:55.000Z</time>
                <name>Position 73</name>
            </trkpt>
            <trkpt lat="47.3218299" lon="15.3800083">
                <ele>863.8</ele>
                <time>2018-06-02T14:04:03.000Z</time>
                <name>Position 74</name>
            </trkpt>
            <trkpt lat="47.3218614" lon="15.3797346">
                <ele>854.3</ele>
                <time>2018-06-02T14:04:31.000Z</time>
                <name>Position 75</name>
            </trkpt>
            <trkpt lat="47.321915" lon="15.3794774">
                <ele>841.7</ele>
                <time>2018-06-02T14:05:15.000Z</time>
                <name>Position 76</name>
            </trkpt>
            <trkpt lat="47.3219269" lon="15.3791686">
                <ele>850.6</ele>
                <time>2018-06-02T14:05:48.000Z</time>
                <name>Position 77</name>
            </trkpt>
            <trkpt lat="47.3218788" lon="15.3788998">
                <ele>857.0</ele>
                <time>2018-06-02T14:06:10.000Z</time>
                <name>Position 78</name>
            </trkpt>
            <trkpt lat="47.3218205" lon="15.3786453">
                <ele>837.7</ele>
                <time>2018-06-02T14:07:21.000Z</time>
                <name>Position 79</name>
            </trkpt>
            <trkpt lat="47.3217951" lon="15.3783735">
                <ele>802.7</ele>
                <time>2018-06-02T14:08:16.000Z</time>
                <name>Position 80</name>
            </trkpt>
            <trkpt lat="47.3218363" lon="15.3781124">
                <ele>790.6</ele>
                <time>2018-06-02T14:08:57.000Z</time>
                <name>Position 81</name>
            </trkpt>
            <trkpt lat="47.3217921" lon="15.3778531">
                <ele>782.5</ele>
                <time>2018-06-02T14:09:40.000Z</time>
                <name>Position 82</name>
            </trkpt>
            <trkpt lat="47.3218793" lon="15.3776021">
                <ele>773.8</ele>
                <time>2018-06-02T14:09:53.000Z</time>
                <name>Position 83</name>
            </trkpt>
            <trkpt lat="47.322023" lon="15.3774373">
                <ele>769.2</ele>
                <time>2018-06-02T14:10:14.000Z</time>
                <name>Position 84</name>
            </trkpt>
            <trkpt lat="47.322052" lon="15.3771638">
                <ele>776.5</ele>
                <time>2018-06-02T14:10:43.000Z</time>
                <name>Position 85</name>
            </trkpt>
            <trkpt lat="47.3221428" lon="15.3769271">
                <ele>777.2</ele>
                <time>2018-06-02T14:11:02.000Z</time>
                <name>Position 86</name>
            </trkpt>
            <trkpt lat="47.3223225" lon="15.3768463">
                <ele>772.2</ele>
                <time>2018-06-02T14:11:33.000Z</time>
                <name>Position 87</name>
            </trkpt>
            <trkpt lat="47.3225071" lon="15.3769303">
                <ele>770.3</ele>
                <time>2018-06-02T14:11:51.000Z</time>
                <name>Position 88</name>
            </trkpt>
            <trkpt lat="47.3226946" lon="15.3769361">
                <ele>771.3</ele>
                <time>2018-06-02T14:12:13.000Z</time>
                <name>Position 89</name>
            </trkpt>
            <trkpt lat="47.3228793" lon="15.376978">
                <ele>773.4</ele>
                <time>2018-06-02T14:12:36.000Z</time>
                <name>Position 90</name>
            </trkpt>
            <trkpt lat="47.3229787" lon="15.3768353">
                <ele>772.5</ele>
                <time>2018-06-02T14:12:56.000Z</time>
                <name>Position 91</name>
            </trkpt>
            <trkpt lat="47.323082" lon="15.3770846">
                <ele>769.2</ele>
                <time>2018-06-02T14:13:08.000Z</time>
                <name>Position 92</name>
            </trkpt>
            <trkpt lat="47.3232642" lon="15.3770775">
                <ele>762.7</ele>
                <time>2018-06-02T14:13:29.000Z</time>
                <name>Position 93</name>
            </trkpt>
            <trkpt lat="47.3233909" lon="15.3772698">
                <ele>759.8</ele>
                <time>2018-06-02T14:13:52.000Z</time>
                <name>Position 94</name>
            </trkpt>
            <trkpt lat="47.3235164" lon="15.3770772">
                <ele>759.2</ele>
                <time>2018-06-02T14:14:31.000Z</time>
                <name>Position 95</name>
            </trkpt>
            <trkpt lat="47.3236344" lon="15.3768614">
                <ele>741.8</ele>
                <time>2018-06-02T14:15:29.000Z</time>
                <name>Position 96</name>
            </trkpt>
            <trkpt lat="47.3237192" lon="15.3766014">
                <ele>738.2</ele>
                <time>2018-06-02T14:16:02.000Z</time>
                <name>Position 97</name>
            </trkpt>
            <trkpt lat="47.3238892" lon="15.3764589">
                <ele>730.9</ele>
                <time>2018-06-02T14:16:24.000Z</time>
                <name>Position 98</name>
            </trkpt>
            <trkpt lat="47.3240407" lon="15.3763113">
                <ele>729.6</ele>
                <time>2018-06-02T14:16:39.000Z</time>
                <name>Position 99</name>
            </trkpt>
            <trkpt lat="47.3240147" lon="15.3760389">
                <ele>725.5</ele>
                <time>2018-06-02T14:17:29.000Z</time>
                <name>Position 100</name>
            </trkpt>
            <trkpt lat="47.3241101" lon="15.3758078">
                <ele>714.5</ele>
                <time>2018-06-02T14:17:58.000Z</time>
                <name>Position 101</name>
            </trkpt>
            <trkpt lat="47.3242156" lon="15.3755587">
                <ele>706.5</ele>
                <time>2018-06-02T14:18:23.000Z</time>
                <name>Position 102</name>
            </trkpt>
            <trkpt lat="47.3242387" lon="15.3752797">
                <ele>695.3</ele>
                <time>2018-06-02T14:18:57.000Z</time>
                <name>Position 103</name>
            </trkpt>
            <trkpt lat="47.3242178" lon="15.3750122">
                <ele>697.2</ele>
                <time>2018-06-02T14:19:57.000Z</time>
                <name>Position 104</name>
            </trkpt>
            <trkpt lat="47.3242867" lon="15.3747641">
                <ele>698.1</ele>
                <time>2018-06-02T14:20:29.000Z</time>
                <name>Position 105</name>
            </trkpt>
            <trkpt lat="47.3244213" lon="15.3745438">
                <ele>692.3</ele>
                <time>2018-06-02T14:21:13.000Z</time>
                <name>Position 106</name>
            </trkpt>
            <trkpt lat="47.3245668" lon="15.3743756">
                <ele>681.8</ele>
                <time>2018-06-02T14:21:36.000Z</time>
                <name>Position 107</name>
            </trkpt>
            <trkpt lat="47.3246275" lon="15.3741138">
                <ele>676.6</ele>
                <time>2018-06-02T14:22:00.000Z</time>
                <name>Position 108</name>
            </trkpt>
            <trkpt lat="47.3245014" lon="15.3739105">
                <ele>669.1</ele>
                <time>2018-06-02T14:22:45.000Z</time>
                <name>Position 109</name>
            </trkpt>
            <trkpt lat="47.3242949" lon="15.3737762">
                <ele>665.5</ele>
                <time>2018-06-02T14:23:03.000Z</time>
                <name>Position 110</name>
            </trkpt>
            <trkpt lat="47.3241085" lon="15.3737978">
                <ele>648.3</ele>
                <time>2018-06-02T14:23:43.000Z</time>
                <name>Position 111</name>
            </trkpt>
            <trkpt lat="47.323927" lon="15.3737024">
                <ele>641.3</ele>
                <time>2018-06-02T14:24:07.000Z</time>
                <name>Position 112</name>
            </trkpt>
            <trkpt lat="47.3238005" lon="15.3735005">
                <ele>633.9</ele>
                <time>2018-06-02T14:24:32.000Z</time>
                <name>Position 113</name>
            </trkpt>
            <trkpt lat="47.323607" lon="15.3734858">
                <ele>629.4</ele>
                <time>2018-06-02T14:24:48.000Z</time>
                <name>Position 114</name>
            </trkpt>
            <trkpt lat="47.3234497" lon="15.3736185">
                <ele>633.0</ele>
                <time>2018-06-02T14:25:03.000Z</time>
                <name>Position 115</name>
            </trkpt>
            <trkpt lat="47.3233288" lon="15.3738282">
                <ele>633.2</ele>
                <time>2018-06-02T14:25:33.000Z</time>
                <name>Position 116</name>
            </trkpt>
            <trkpt lat="47.3232174" lon="15.3740585">
                <ele>632.2</ele>
                <time>2018-06-02T14:25:51.000Z</time>
                <name>Position 117</name>
            </trkpt>
            <trkpt lat="47.3230566" lon="15.3741805">
                <ele>637.1</ele>
                <time>2018-06-02T14:26:07.000Z</time>
                <name>Position 118</name>
            </trkpt>
            <trkpt lat="47.3228727" lon="15.3742359">
                <ele>637.2</ele>
                <time>2018-06-02T14:26:27.000Z</time>
                <name>Position 119</name>
            </trkpt>
            <trkpt lat="47.3226971" lon="15.3741444">
                <ele>625.3</ele>
                <time>2018-06-02T14:27:05.000Z</time>
                <name>Position 120</name>
            </trkpt>
            <trkpt lat="47.3225258" lon="15.3740054">
                <ele>612.7</ele>
                <time>2018-06-02T14:27:25.000Z</time>
                <name>Position 121</name>
            </trkpt>
            <trkpt lat="47.3223423" lon="15.3738892">
                <ele>603.5</ele>
                <time>2018-06-02T14:27:50.000Z</time>
                <name>Position 122</name>
            </trkpt>
            <trkpt lat="47.3221598" lon="15.3738834">
                <ele>592.5</ele>
                <time>2018-06-02T14:28:20.000Z</time>
                <name>Position 123</name>
            </trkpt>
            <trkpt lat="47.3219569" lon="15.3738371">
                <ele>591.6</ele>
                <time>2018-06-02T14:28:48.000Z</time>
                <name>Position 124</name>
            </trkpt>
            <trkpt lat="47.3217547" lon="15.373802">
                <ele>592.9</ele>
                <time>2018-06-02T14:28:55.000Z</time>
                <name>Position 125</name>
            </trkpt>
            <trkpt lat="47.3215463" lon="15.373845">
                <ele>594.0</ele>
                <time>2018-06-02T14:29:06.000Z</time>
                <name>Position 126</name>
            </trkpt>
            <trkpt lat="47.3214087" lon="15.3736496">
                <ele>591.8</ele>
                <time>2018-06-02T14:29:24.000Z</time>
                <name>Position 127</name>
            </trkpt>
            <trkpt lat="47.3212273" lon="15.3736756">
                <ele>592.1</ele>
                <time>2018-06-02T14:29:41.000Z</time>
                <name>Position 128</name>
            </trkpt>
            <trkpt lat="47.321035" lon="15.3736458">
                <ele>580.4</ele>
                <time>2018-06-02T14:30:09.000Z</time>
                <name>Position 129</name>
            </trkpt>
            <trkpt lat="47.3208603" lon="15.3737783">
                <ele>566.9</ele>
                <time>2018-06-02T14:30:37.000Z</time>
                <name>Position 130</name>
            </trkpt>
            <trkpt lat="47.3206865" lon="15.3736496">
                <ele>571.2</ele>
                <time>2018-06-02T14:30:50.000Z</time>
                <name>Position 131</name>
            </trkpt>
            <trkpt lat="47.3205074" lon="15.3737536">
                <ele>565.1</ele>
                <time>2018-06-02T14:31:02.000Z</time>
                <name>Position 132</name>
            </trkpt>
            <trkpt lat="47.3203221" lon="15.3737014">
                <ele>563.6</ele>
                <time>2018-06-02T14:31:22.000Z</time>
                <name>Position 133</name>
            </trkpt>
            <trkpt lat="47.3201279" lon="15.3737084">
                <ele>565.5</ele>
                <time>2018-06-02T14:31:43.000Z</time>
                <name>Position 134</name>
            </trkpt>
            <trkpt lat="47.3199454" lon="15.3737374">
                <ele>557.6</ele>
                <time>2018-06-02T14:32:03.000Z</time>
                <name>Position 135</name>
            </trkpt>
            <trkpt lat="47.3200013" lon="15.3734724">
                <ele>550.3</ele>
                <time>2018-06-02T14:32:31.000Z</time>
                <name>Position 136</name>
            </trkpt>
            <trkpt lat="47.3201892" lon="15.373426">
                <ele>544.7</ele>
                <time>2018-06-02T14:32:50.000Z</time>
                <name>Position 137</name>
            </trkpt>
            <trkpt lat="47.3202724" lon="15.3732332">
                <ele>535.5</ele>
                <time>2018-06-02T14:33:09.000Z</time>
                <name>Position 138</name>
            </trkpt>
            <trkpt lat="47.3204511" lon="15.3731979">
                <ele>523.7</ele>
                <time>2018-06-02T14:33:17.000Z</time>
                <name>Position 139</name>
            </trkpt>
            <trkpt lat="47.3204256" lon="15.372912">
                <ele>519.6</ele>
                <time>2018-06-02T14:33:50.000Z</time>
                <name>Position 140</name>
            </trkpt>
            <trkpt lat="47.320531" lon="15.3726838">
                <ele>517.0</ele>
                <time>2018-06-02T14:34:04.000Z</time>
                <name>Position 141</name>
            </trkpt>
            <trkpt lat="47.3206819" lon="15.3725232">
                <ele>515.3</ele>
                <time>2018-06-02T14:34:24.000Z</time>
                <name>Position 142</name>
            </trkpt>
            <trkpt lat="47.320759" lon="15.3722695">
                <ele>507.2</ele>
                <time>2018-06-02T14:34:42.000Z</time>
                <name>Position 143</name>
            </trkpt>
            <trkpt lat="47.3208891" lon="15.3720843">
                <ele>502.3</ele>
                <time>2018-06-02T14:35:04.000Z</time>
                <name>Position 144</name>
            </trkpt>
            <trkpt lat="47.3210255" lon="15.3719003">
                <ele>503.4</ele>
                <time>2018-06-02T14:35:37.000Z</time>
                <name>Position 145</name>
            </trkpt>
            <trkpt lat="47.3210886" lon="15.3716361">
                <ele>500.5</ele>
                <time>2018-06-02T14:35:56.000Z</time>
                <name>Position 146</name>
            </trkpt>
            <trkpt lat="47.3212385" lon="15.3714729">
                <ele>495.9</ele>
                <time>2018-06-02T14:36:22.000Z</time>
                <name>Position 147</name>
            </trkpt>
            <trkpt lat="47.3212525" lon="15.3711905">
                <ele>482.9</ele>
                <time>2018-06-02T14:37:21.000Z</time>
                <name>Position 148</name>
            </trkpt>
            <trkpt lat="47.3211745" lon="15.3709362">
                <ele>479.8</ele>
                <time>2018-06-02T14:37:35.000Z</time>
                <name>Position 149</name>
            </trkpt>
            <trkpt lat="47.3211387" lon="15.3706668">
                <ele>476.7</ele>
                <time>2018-06-02T14:38:00.000Z</time>
                <name>Position 150</name>
            </trkpt>
            <trkpt lat="47.3212049" lon="15.3704163">
                <ele>467.1</ele>
                <time>2018-06-02T14:38:36.000Z</time>
                <name>Position 151</name>
            </trkpt>
            <trkpt lat="47.3223322" lon="15.3692742">
                <ele>427.5</ele>
                <time>2018-06-02T16:11:13.000Z</time>
                <name>Position 152</name>
            </trkpt>
        </trkseg>
    </trk>
</gpx>
