<?xml version="1.0" encoding="UTF-8" standalone="yes"?>
<gpx xmlns="http://www.topografix.com/GPX/1/1" creator="alpenkarte.eu">
    <metadata>
        <name>anton-renk-klettersteig</name>
        <link href="alpenkarte.eu">
            <text>Route von alpenkarte.eu</text>
        </link>
        <bounds minlat="47.008409999999997808117768727242946624755859375" minlon="10.681319999999999481588019989430904388427734375" maxlat="47.043419000000000096406438387930393218994140625" maxlon="10.69971699999999970032149576582014560699462890625"/>
    </metadata>
    <trk>
        <name>anton-renk-klettersteig</name>
        <trkseg>
            <trkpt lat="47.0434010000000029094735509715974330902099609375" lon="10.6951499999999999346300683100707828998565673828125">
                <ele>1863.176703999951087098452262580394744873046875</ele>
            </trkpt>
            <trkpt lat="47.04320400000000290674506686627864837646484375" lon="10.6955439999999999400870365207083523273468017578125">
                <ele>1862.209032960036665826919488608837127685546875</ele>
            </trkpt>
            <trkpt lat="47.04304799999999886495061218738555908203125" lon="10.6957170000000001408579919370822608470916748046875">
                <ele>1861.162815359990645447396673262119293212890625</ele>
            </trkpt>
            <trkpt lat="47.043080000000003337845555506646633148193359375" lon="10.6957760000000003941522663808427751064300537109375">
                <ele>1861.714156800025875782012008130550384521484375</ele>
            </trkpt>
            <trkpt lat="47.043080000000003337845555506646633148193359375" lon="10.6959409999999994766994859674014151096343994140625">
                <ele>1863.254428800004689037450589239597320556640625</ele>
            </trkpt>
            <trkpt lat="47.04302500000000009094947017729282379150390625" lon="10.696059999999999234887582133524119853973388671875">
                <ele>1864.620239999989053103490732610225677490234375</ele>
            </trkpt>
            <trkpt lat="47.04290300000000257796273217536509037017822265625" lon="10.696130000000000137561073643155395984649658203125">
                <ele>1865.639414399998713633976876735687255859375</ele>
            </trkpt>
            <trkpt lat="47.04247699999999809961082064546644687652587890625" lon="10.6962180000000000035242919693700969219207763671875">
                <ele>1867.860280319970343043678440153598785400390625</ele>
            </trkpt>
            <trkpt lat="47.04221700000000083718987298198044300079345703125" lon="10.6963950000000007634071153006516396999359130859375">
                <ele>1868.696980800029223246383480727672576904296875</ele>
            </trkpt>
            <trkpt lat="47.04168800000000061345417634584009647369384765625" lon="10.6970399999999994378185874666087329387664794921875">
                <ele>1882.210131199987927175243385136127471923828125</ele>
            </trkpt>
            <trkpt lat="47.04098400000000168574842973612248897552490234375" lon="10.6976999999999993207211446133442223072052001953125">
                <ele>1890.726816000012377116945572197437286376953125</ele>
            </trkpt>
            <trkpt lat="47.04079999999999728288457845337688922882080078125" lon="10.6977270000000004301909939385950565338134765625">
                <ele>1888.73150400002532478538341820240020751953125</ele>
            </trkpt>
            <trkpt lat="47.0403969999999986839611665345728397369384765625" lon="10.697666999999999148940332815982401371002197265625">
                <ele>1888.699870559979672179906629025936126708984375</ele>
            </trkpt>
            <trkpt lat="47.0403969999999986839611665345728397369384765625" lon="10.697666999999999148940332815982401371002197265625">
                <ele>1888.699870559979672179906629025936126708984375</ele>
            </trkpt>
            <trkpt lat="47.0399120000000010577423381619155406951904296875" lon="10.69759499999999974306774674914777278900146484375">
                <ele>1890.1331615999706627917475998401641845703125</ele>
            </trkpt>
            <trkpt lat="47.03943699999999950023266137577593326568603515625" lon="10.69713899999999995316102285869419574737548828125">
                <ele>1886.30733984000971759087406098842620849609375</ele>
            </trkpt>
            <trkpt lat="47.03894600000000281170287053100764751434326171875" lon="10.696968999999999283545548678375780582427978515625">
                <ele>1891.708799999922348433756269514560699462890625</ele>
            </trkpt>
            <trkpt lat="47.0384999999999990905052982270717620849609375" lon="10.696764999999999190549715422093868255615234375">
                <ele>1894.931999999995468897395767271518707275390625</ele>
            </trkpt>
            <trkpt lat="47.038263999999998077328200452029705047607421875" lon="10.6968200000000006610889613511972129344940185546875">
                <ele>1901.17930880005451399483717978000640869140625</ele>
            </trkpt>
            <trkpt lat="47.03799000000000063437255448661744594573974609375" lon="10.696723999999999676902007195167243480682373046875">
                <ele>1903.359545599979583130334503948688507080078125</ele>
            </trkpt>
            <trkpt lat="47.0378639999999990095602697692811489105224609375" lon="10.6965400000000006031086741131730377674102783203125">
                <ele>1900.148000000033562173484824597835540771484375</ele>
            </trkpt>
            <trkpt lat="47.03744400000000069894667831249535083770751953125" lon="10.69645799999999979945641825906932353973388671875">
                <ele>1905.01274623998187962570227682590484619140625</ele>
            </trkpt>
            <trkpt lat="47.037115000000000009094947017729282379150390625" lon="10.6961770000000004898765837424434721469879150390625">
                <ele>1900.811057600012645707465708255767822265625</ele>
            </trkpt>
            <trkpt lat="47.03679600000000249337972491048276424407958984375" lon="10.6961279999999998580051396857015788555145263671875">
                <ele>1903.385442559960893049719743430614471435546875</ele>
            </trkpt>
            <trkpt lat="47.03667200000000292448021355085074901580810546875" lon="10.696222999999999814235707162879407405853271484375">
                <ele>1908.055214719953028179588727653026580810546875</ele>
            </trkpt>
            <trkpt lat="47.0364450000000005047695594839751720428466796875" lon="10.6965020000000006206164471223019063472747802734375">
                <ele>1921.627854400005844581755809485912322998046875</ele>
            </trkpt>
            <trkpt lat="47.03632999999999952933649183250963687896728515625" lon="10.69644699999999915007720119319856166839599609375">
                <ele>1922.401249599983884763787500560283660888671875</ele>
            </trkpt>
            <trkpt lat="47.0359949999999997771737980656325817108154296875" lon="10.6958470000000005484253051690757274627685546875">
                <ele>1915.1678344000174547545611858367919921875</ele>
            </trkpt>
            <trkpt lat="47.0358480000000014342731446959078311920166015625" lon="10.69550100000000014688339433632791042327880859375">
                <ele>1912.633630079954173197620548307895660400390625</ele>
            </trkpt>
            <trkpt lat="47.0350949999999983219822752289474010467529296875" lon="10.69509000000000042973624658770859241485595703125">
                <ele>1926.77906400005713294376619160175323486328125</ele>
            </trkpt>
            <trkpt lat="47.034773999999998750354279763996601104736328125" lon="10.6946770000000004330331648816354572772979736328125">
                <ele>1925.7424972800408795592375099658966064453125</ele>
            </trkpt>
            <trkpt lat="47.03456099999999651117832399904727935791015625" lon="10.6943099999999997606892065959982573986053466796875">
                <ele>1921.267257600067978273727931082248687744140625</ele>
            </trkpt>
            <trkpt lat="47.0344860000000011268639354966580867767333984375" lon="10.6942830000000004275761966709978878498077392578125">
                <ele>1922.15463167998632343369536101818084716796875</ele>
            </trkpt>
            <trkpt lat="47.03446600000000188401827472262084484100341796875" lon="10.6944239999999997081658875686116516590118408203125">
                <ele>1926.448074239948255126364529132843017578125</ele>
            </trkpt>
            <trkpt lat="47.03450099999999878264134167693555355072021484375" lon="10.6944759999999998711928128614090383052825927734375">
                <ele>1927.066047360023503642878495156764984130859375</ele>
            </trkpt>
            <trkpt lat="47.03450099999999878264134167693555355072021484375" lon="10.6944759999999998711928128614090383052825927734375">
                <ele>1927.066047360023503642878495156764984130859375</ele>
            </trkpt>
            <trkpt lat="47.03446600000000188401827472262084484100341796875" lon="10.6944239999999997081658875686116516590118408203125">
                <ele>1926.448074239948255126364529132843017578125</ele>
            </trkpt>
            <trkpt lat="47.0344860000000011268639354966580867767333984375" lon="10.6942830000000004275761966709978878498077392578125">
                <ele>1922.15463167998632343369536101818084716796875</ele>
            </trkpt>
            <trkpt lat="47.0342600000000032878233469091355800628662109375" lon="10.6942859999999999587316779070533812046051025390625">
                <ele>1927.0797695999272036715410649776458740234375</ele>
            </trkpt>
            <trkpt lat="47.0340709999999972978912410326302051544189453125" lon="10.6943350000000005906031219637952744960784912109375">
                <ele>1931.078768800031639329972676932811737060546875</ele>
            </trkpt>
            <trkpt lat="47.0336989999999985911927069537341594696044921875" lon="10.694483999999999213059709290973842144012451171875">
                <ele>1937.905914879982219645171426236629486083984375</ele>
            </trkpt>
            <trkpt lat="47.0327190000000001646185410209000110626220703125" lon="10.6950079999999996260839907336048781871795654296875">
                <ele>1951.861599999987447517924010753631591796875</ele>
            </trkpt>
            <trkpt lat="47.0323139999999995097823557443916797637939453125" lon="10.6952820000000006217533154995180666446685791015625">
                <ele>1957.8882764800155200646258890628814697265625</ele>
            </trkpt>
            <trkpt lat="47.0319750000000027512214728631079196929931640625" lon="10.6956199999999999050714905024506151676177978515625">
                <ele>1966.453120000011722368071787059307098388671875</ele>
            </trkpt>
            <trkpt lat="47.03175399999999939382178126834332942962646484375" lon="10.6957380000000004116600393899716436862945556640625">
                <ele>1968.44964352000579310697503387928009033203125</ele>
            </trkpt>
            <trkpt lat="47.03155799999999686633600504137575626373291015625" lon="10.69566400000000072623151936568319797515869140625">
                <ele>1967.211978240057533184881322085857391357421875</ele>
            </trkpt>
            <trkpt lat="47.03155799999999686633600504137575626373291015625" lon="10.69566400000000072623151936568319797515869140625">
                <ele>1967.211978240057533184881322085857391357421875</ele>
            </trkpt>
            <trkpt lat="47.03146699999999924557414487935602664947509765625" lon="10.6956299999999995264943208894692361354827880859375">
                <ele>1967.5120991999965553986839950084686279296875</ele>
            </trkpt>
            <trkpt lat="47.03130300000000119098331197164952754974365234375" lon="10.6954960000000003361719791428185999393463134765625">
                <ele>1966.53043775998912678915075957775115966796875</ele>
            </trkpt>
            <trkpt lat="47.03125399999999700639818911440670490264892578125" lon="10.6955439999999999400870365207083523273468017578125">
                <ele>1968.346667520039545706822536885738372802734375</ele>
            </trkpt>
            <trkpt lat="47.03115100000000126101440400816500186920166015625" lon="10.695527999999999479996404261328279972076416015625">
                <ele>1969.45582655996940957265906035900115966796875</ele>
            </trkpt>
            <trkpt lat="47.031081999999997833583620376884937286376953125" lon="10.695420999999999622787072439678013324737548828125">
                <ele>1968.21121344002449404797516763210296630859375</ele>
            </trkpt>
            <trkpt lat="47.03068900000000240879671764560043811798095703125" lon="10.695325000000000414956957683898508548736572265625">
                <ele>1975.313911999923220719210803508758544921875</ele>
            </trkpt>
            <trkpt lat="47.0306130000000024438122636638581752777099609375" lon="10.6953779999999998295834302552975714206695556640625">
                <ele>1978.78080895991342913475818932056427001953125</ele>
            </trkpt>
            <trkpt lat="47.03043000000000262161847786046564579010009765625" lon="10.6953410000000008750475899432785809040069580078125">
                <ele>1984.4536831999221249134279787540435791015625</ele>
            </trkpt>
            <trkpt lat="47.030169999999998253770172595977783203125" lon="10.6947179999999999466808731085620820522308349609375">
                <ele>1988.2230656000674571259878575801849365234375</ele>
            </trkpt>
            <trkpt lat="47.03018200000000348381945514120161533355712890625" lon="10.6946220000000007388507583527825772762298583984375">
                <ele>1987.426135039865357612143270671367645263671875</ele>
            </trkpt>
            <trkpt lat="47.03011699999999706278686062432825565338134765625" lon="10.69447699999999912279236014001071453094482421875">
                <ele>1989.53993984011549400747753679752349853515625</ele>
            </trkpt>
            <trkpt lat="47.030113000000000056388671509921550750732421875" lon="10.694283999999999679175743949599564075469970703125">
                <ele>1989.111969919996454336796887218952178955078125</ele>
            </trkpt>
            <trkpt lat="47.02993000000000023419488570652902126312255859375" lon="10.6937850000000000960653778747655451297760009765625">
                <ele>2001.493055999986381721100769937038421630859375</ele>
            </trkpt>
            <trkpt lat="47.02997599999999778219716972671449184417724609375" lon="10.692519000000000772843122831545770168304443359375">
                <ele>2017.476800000107004962046630680561065673828125</ele>
            </trkpt>
            <trkpt lat="47.03007099999999951478457660414278507232666015625" lon="10.6918039999999994194013197557069361209869384765625">
                <ele>2021.4412409600381579366512596607208251953125</ele>
            </trkpt>
            <trkpt lat="47.03005799999999680949258618056774139404296875" lon="10.691055999999999670535544282756745815277099609375">
                <ele>2025.7406144001788561581633985042572021484375</ele>
            </trkpt>
            <trkpt lat="47.029730000000000700310920365154743194580078125" lon="10.690189000000000163481672643683850765228271484375">
                <ele>2025.506131199977289725211448967456817626953125</ele>
            </trkpt>
            <trkpt lat="47.02941799999999972214936860837042331695556640625" lon="10.689769999999999328110789065249264240264892578125">
                <ele>2023.973692799990885760053060948848724365234375</ele>
            </trkpt>
            <trkpt lat="47.0290930000000031441231840290129184722900390625" lon="10.6897210000000004725961844087578356266021728515625">
                <ele>2036.336326399843756007612682878971099853515625</ele>
            </trkpt>
            <trkpt lat="47.02895000000000180762071977369487285614013671875" lon="10.6893460000000004583853296935558319091796875">
                <ele>2038.07455999989224437740631401538848876953125</ele>
            </trkpt>
            <trkpt lat="47.028942000000000689396983943879604339599609375" lon="10.6882380000000001274429450859315693378448486328125">
                <ele>2039.932462079960941991885192692279815673828125</ele>
            </trkpt>
            <trkpt lat="47.0282330000000001746229827404022216796875" lon="10.68682199999999937745087663643062114715576171875">
                <ele>2047.397770239971350747509859502315521240234375</ele>
            </trkpt>
            <trkpt lat="47.02776800000000179124981514178216457366943359375" lon="10.6865520000000007172502591856755316257476806640625">
                <ele>2061.0105305599308849195949733257293701171875</ele>
            </trkpt>
            <trkpt lat="47.027737999999999374267645180225372314453125" lon="10.6863689999999991186996339820325374603271484375">
                <ele>2059.371053120014039450325071811676025390625</ele>
            </trkpt>
            <trkpt lat="47.02779100000000056525095715187489986419677734375" lon="10.68607899999999943929651635698974132537841796875">
                <ele>2051.95529743996075922041200101375579833984375</ele>
            </trkpt>
            <trkpt lat="47.02752100000000012869350030086934566497802734375" lon="10.6852579999999992566017681383527815341949462890625">
                <ele>2060.32959615999061497859656810760498046875</ele>
            </trkpt>
            <trkpt lat="47.027546999999998433850123547017574310302734375" lon="10.684371999999999758301783003844320774078369140625">
                <ele>2064.14610304008192542823962867259979248046875</ele>
            </trkpt>
            <trkpt lat="47.027500000000003410605131648480892181396484375" lon="10.68394299999999930150806903839111328125">
                <ele>2070.64719999983708476065658032894134521484375</ele>
            </trkpt>
            <trkpt lat="47.02757600000000337558958563022315502166748046875" lon="10.6834100000000002950173438875935971736907958984375">
                <ele>2072.09921919983435145695693790912628173828125</ele>
            </trkpt>
            <trkpt lat="47.027546000000000958607415668666362762451171875" lon="10.6826589999999992386392477783374488353729248046875">
                <ele>2081.66413567996414712979458272457122802734375</ele>
            </trkpt>
            <trkpt lat="47.027658000000002402885002084076404571533203125" lon="10.6814599999999995105781636084429919719696044921875">
                <ele>2083.55114879994243892724625766277313232421875</ele>
            </trkpt>
            <trkpt lat="47.027658000000002402885002084076404571533203125" lon="10.6814599999999995105781636084429919719696044921875">
                <ele>2083.55114879994243892724625766277313232421875</ele>
            </trkpt>
            <trkpt lat="47.02767099999999800274963490664958953857421875" lon="10.681319999999999481588019989430904388427734375">
                <ele>2081.333875200018155737780034542083740234375</ele>
            </trkpt>
            <trkpt lat="47.027163999999999077772372402250766754150390625" lon="10.6816720000000007217977326945401728153228759765625">
                <ele>2098.3598681600196869112551212310791015625</ele>
            </trkpt>
            <trkpt lat="47.0261119999999976926119416020810604095458984375" lon="10.6821439999999991954382494441233575344085693359375">
                <ele>2134.9690124800645207869820296764373779296875</ele>
            </trkpt>
            <trkpt lat="47.02559999999999718056642450392246246337890625" lon="10.681972999999999274223227985203266143798828125">
                <ele>2140.21647999997139777406118810176849365234375</ele>
            </trkpt>
            <trkpt lat="47.02482599999999735018718638457357883453369140625" lon="10.6823910000000008579945642850361764430999755859375">
                <ele>2152.09077855998248196556232869625091552734375</ele>
            </trkpt>
            <trkpt lat="47.02457600000000326190274790860712528228759765625" lon="10.6826290000000003743707566172815859317779541015625">
                <ele>2157.56396224006903139525093138217926025390625</ele>
            </trkpt>
            <trkpt lat="47.02375099999999719102561357431113719940185546875" lon="10.68265099999999989677235134877264499664306640625">
                <ele>2140.32566975991949220770038664340972900390625</ele>
            </trkpt>
            <trkpt lat="47.02360800000000295995050691999495029449462890625" lon="10.683116999999999308101905626244843006134033203125">
                <ele>2153.9393433600625940016470849514007568359375</ele>
            </trkpt>
            <trkpt lat="47.02346399999999704277797718532383441925048828125" lon="10.683248999999999995225152815692126750946044921875">
                <ele>2154.47732735990894070710055530071258544921875</ele>
            </trkpt>
            <trkpt lat="47.023290000000002919477992691099643707275390625" lon="10.68351499999999987267074175179004669189453125">
                <ele>2162.38934400001062385854311287403106689453125</ele>
            </trkpt>
            <trkpt lat="47.022593999999998004568624310195446014404296875" lon="10.6832809999999991390495779342018067836761474609375">
                <ele>2145.1784767999333780608139932155609130859375</ele>
            </trkpt>
            <trkpt lat="47.0221480000000013887984096072614192962646484375" lon="10.6833030000000004378080120659433305263519287109375">
                <ele>2142.89232896003477435442619025707244873046875</ele>
            </trkpt>
            <trkpt lat="47.02135799999999932197169982828199863433837890625" lon="10.6836999999999999744204615126363933086395263671875">
                <ele>2149.151487999988603405654430389404296875</ele>
            </trkpt>
            <trkpt lat="47.0211910000000017362253856845200061798095703125" lon="10.6837210000000002452225089655257761478424072265625">
                <ele>2147.27396608003255096264183521270751953125</ele>
            </trkpt>
            <trkpt lat="47.020882000000000289219315163791179656982421875" lon="10.6842360000000002884235072997398674488067626953125">
                <ele>2153.70577664001075390842743217945098876953125</ele>
            </trkpt>
            <trkpt lat="47.02062600000000003319655661471188068389892578125" lon="10.6848159999999996472297425498254597187042236328125">
                <ele>2155.5485299199945075088180601596832275390625</ele>
            </trkpt>
            <trkpt lat="47.02048599999999822784957359544932842254638671875" lon="10.6854969999999998009343471494503319263458251953125">
                <ele>2161.65359999994552708812989294528961181640625</ele>
            </trkpt>
            <trkpt lat="47.0203580000000016525518731214106082916259765625" lon="10.6855639999999993960955180227756500244140625">
                <ele>2158.9320000000379877747036516666412353515625</ele>
            </trkpt>
            <trkpt lat="47.02033300000000082263795775361359119415283203125" lon="10.685613000000000027966962079517543315887451171875">
                <ele>2158.9176000000234125764109194278717041015625</ele>
            </trkpt>
            <trkpt lat="47.0201220000000006393747753463685512542724609375" lon="10.6856539999999995416146703064441680908203125">
                <ele>2153.4312000000109037500806152820587158203125</ele>
            </trkpt>
            <trkpt lat="47.02006000000000085492501966655254364013671875" lon="10.6855530000000005230731403571553528308868408203125">
                <ele>2150.19120000003158565959893167018890380859375</ele>
            </trkpt>
            <trkpt lat="47.01976599999999706369635532610118389129638671875" lon="10.6856829999999991542836141888983547687530517578125">
                <ele>2144.465918399911970482207834720611572265625</ele>
            </trkpt>
            <trkpt lat="47.01960799999999807141648489050567150115966796875" lon="10.685826999999999742385625722818076610565185546875">
                <ele>2142.98292479994825043831951916217803955078125</ele>
            </trkpt>
            <trkpt lat="47.0193909999999988258423400111496448516845703125" lon="10.6861370000000004409912435221485793590545654296875">
                <ele>2142.7894070399788688519038259983062744140625</ele>
            </trkpt>
            <trkpt lat="47.01897699999999957753971102647483348846435546875" lon="10.6865140000000007347580321948044002056121826171875">
                <ele>2135.1613110399921424686908721923828125</ele>
            </trkpt>
            <trkpt lat="47.018922000000003436070983298122882843017578125" lon="10.686654000000000763748175813816487789154052734375">
                <ele>2135.11701184016919796704314649105072021484375</ele>
            </trkpt>
            <trkpt lat="47.018878000000000838554115034639835357666015625" lon="10.6868350000000003063860276597552001476287841796875">
                <ele>2135.170636800039574154652655124664306640625</ele>
            </trkpt>
            <trkpt lat="47.01889800000000008139977580867707729339599609375" lon="10.6869560000000003441300577833317220211029052734375">
                <ele>2137.350823680006214999593794345855712890625</ele>
            </trkpt>
            <trkpt lat="47.01884799999999842157194507308304309844970703125" lon="10.6875189999999999912461134954355657100677490234375">
                <ele>2141.60319359993945909081958234310150146484375</ele>
            </trkpt>
            <trkpt lat="47.01882400000000217232809518463909626007080078125" lon="10.687578999999999496139935217797756195068359375">
                <ele>2141.76890880007294981623999774456024169921875</ele>
            </trkpt>
            <trkpt lat="47.0187590000000028567228582687675952911376953125" lon="10.6875920000000004250750862411223351955413818359375">
                <ele>2139.55083840011548090842552483081817626953125</ele>
            </trkpt>
            <trkpt lat="47.0186139999999994643076206557452678680419921875" lon="10.687492999999999909732650849036872386932373046875">
                <ele>2132.18537471997706234105862677097320556640625</ele>
            </trkpt>
            <trkpt lat="47.018541999999996505721355788409709930419921875" lon="10.687436999999999187593857641331851482391357421875">
                <ele>2128.64358143985145943588577210903167724609375</ele>
            </trkpt>
            <trkpt lat="47.018517000000002781234798021614551544189453125" lon="10.6873489999999993216306393151171505451202392578125">
                <ele>2126.43681888009950853302143514156341552734375</ele>
            </trkpt>
            <trkpt lat="47.0183999999999997498889570124447345733642578125" lon="10.6872039999999994819290805025957524776458740234375">
                <ele>2119.61289599998053745366632938385009765625</ele>
            </trkpt>
            <trkpt lat="47.01829699999999689907781430520117282867431640625" lon="10.6871759999999991208596838987432420253753662109375">
                <ele>2114.98503487985954052419401705265045166015625</ele>
            </trkpt>
            <trkpt lat="47.01787499999999653255144949071109294891357421875" lon="10.6872640000000007631797416252084076404571533203125">
                <ele>2099.9165599998787001823075115680694580078125</ele>
            </trkpt>
            <trkpt lat="47.01762999999999692590790800750255584716796875" lon="10.68735099999999960118657327257096767425537109375">
                <ele>2092.49743519987123363534919917583465576171875</ele>
            </trkpt>
            <trkpt lat="47.01740399999999908686731941998004913330078125" lon="10.6874540000000006756408765795640647411346435546875">
                <ele>2085.4789951999691766104660928249359130859375</ele>
            </trkpt>
            <trkpt lat="47.01724399999999803867467562668025493621826171875" lon="10.6875920000000004250750862411223351955413818359375">
                <ele>2080.5169702399098241585306823253631591796875</ele>
            </trkpt>
            <trkpt lat="47.01715800000000200498107005842030048370361328125" lon="10.6877539999999999764668245916254818439483642578125">
                <ele>2079.499420160102090449072420597076416015625</ele>
            </trkpt>
            <trkpt lat="47.0170379999999994424797478131949901580810546875" lon="10.68804899999999946658135741017758846282958984375">
                <ele>2079.34312255996019302983768284320831298828125</ele>
            </trkpt>
            <trkpt lat="47.0169240000000030477167456410825252532958984375" lon="10.68861199999999911369741312228143215179443359375">
                <ele>2084.07858816014822878059931099414825439453125</ele>
            </trkpt>
            <trkpt lat="47.01668200000000297222868539392948150634765625" lon="10.688929999999999154169927351176738739013671875">
                <ele>2076.373123200150075717829167842864990234375</ele>
            </trkpt>
            <trkpt lat="47.0164850000000029695002012886106967926025390625" lon="10.6888600000000000278532752417959272861480712890625">
                <ele>2065.60532800014289023238234221935272216796875</ele>
            </trkpt>
            <trkpt lat="47.01652700000000351110429619438946247100830078125" lon="10.6886069999999993029859979287721216678619384765625">
                <ele>2063.2235195201601527514867484569549560546875</ele>
            </trkpt>
            <trkpt lat="47.01652399999999687452145735733211040496826171875" lon="10.688413000000000607769834459759294986724853515625">
                <ele>2059.69710015985356221790425479412078857421875</ele>
            </trkpt>
            <trkpt lat="47.01637600000000105637809610925614833831787109375" lon="10.6883590000000001651869752095080912113189697265625">
                <ele>2051.31382912005574326030910015106201171875</ele>
            </trkpt>
            <trkpt lat="47.01635300000000228237695409916341304779052734375" lon="10.688064000000000675072442390955984592437744140625">
                <ele>2044.7633049601254242588765919208526611328125</ele>
            </trkpt>
            <trkpt lat="47.0162600000000026057023205794394016265869140625" lon="10.6878159999999997609165802714414894580841064453125">
                <ele>2035.677100800123071167035959661006927490234375</ele>
            </trkpt>
            <trkpt lat="47.01592500000000285353962681256234645843505859375" lon="10.6881369999999993325445757363922894001007080078125">
                <ele>2024.769768000130852669826708734035491943359375</ele>
            </trkpt>
            <trkpt lat="47.015771999999998342900653369724750518798828125" lon="10.6883199999999991547383615397848188877105712890625">
                <ele>2021.055046399925004152464680373668670654296875</ele>
            </trkpt>
            <trkpt lat="47.01563800000000270529199042357504367828369140625" lon="10.6883049999999997226041159592568874359130859375">
                <ele>2015.904334400093148360610939562320709228515625</ele>
            </trkpt>
            <trkpt lat="47.01546499999999895180735620670020580291748046875" lon="10.6881649999999996936139723402447998523712158203125">
                <ele>2006.42987599995240088901482522487640380859375</ele>
            </trkpt>
            <trkpt lat="47.015411999999997760824044235050678253173828125" lon="10.6880620000000003955165084335021674633026123046875">
                <ele>2001.96274303991913257050327956676483154296875</ele>
            </trkpt>
            <trkpt lat="47.01542299999999841020326130092144012451171875" lon="10.6877669999999991290451362146995961666107177734375">
                <ele>1995.532614559908324736170470714569091796875</ele>
            </trkpt>
            <trkpt lat="47.01552699999999873625711188651621341705322265625" lon="10.6872840000000000060254023992456495761871337890625">
                <ele>1989.667518079935462083085440099239349365234375</ele>
            </trkpt>
            <trkpt lat="47.0155170000000026675479602999985218048095703125" lon="10.6865089999999991476897776010446250438690185546875">
                <ele>1971.93573904011509512201882898807525634765625</ele>
            </trkpt>
            <trkpt lat="47.015489999999999781721271574497222900390625" lon="10.686491000000000184400050784461200237274169921875">
                <ele>1970.141051199991352405049838125705718994140625</ele>
            </trkpt>
            <trkpt lat="47.0154459999999971842044033110141754150390625" lon="10.6864959999999999951114659779705107212066650390625">
                <ele>1968.006426879854188882745802402496337890625</ele>
            </trkpt>
            <trkpt lat="47.0152659999999968931660987436771392822265625" lon="10.6866129999999994737436281866393983364105224609375">
                <ele>1961.61566943982825250714085996150970458984375</ele>
            </trkpt>
            <trkpt lat="47.01510300000000341924533131532371044158935546875" lon="10.6868140000000000355839802068658173084259033203125">
                <ele>1958.02854752017037753830663859844207763671875</ele>
            </trkpt>
            <trkpt lat="47.01501600000000280488166026771068572998046875" lon="10.6868300000000004956746124662458896636962890625">
                <ele>1954.02663680014984493027441203594207763671875</ele>
            </trkpt>
            <trkpt lat="47.014937000000003308741725049912929534912109375" lon="10.686930000000000262616595136933028697967529296875">
                <ele>1952.32880000017075872165150940418243408203125</ele>
            </trkpt>
            <trkpt lat="47.0148539999999997007762431167066097259521484375" lon="10.687105999999999994543031789362430572509765625">
                <ele>1952.158399999982748340698890388011932373046875</ele>
            </trkpt>
            <trkpt lat="47.0147199999999969577402225695550441741943359375" lon="10.687118999999999147121343412436544895172119140625">
                <ele>1945.701199999825121267349459230899810791015625</ele>
            </trkpt>
            <trkpt lat="47.0146340000000009240466170012950897216796875" lon="10.68720700000000078944140113890171051025390625">
                <ele>1943.373200000062524850363843142986297607421875</ele>
            </trkpt>
            <trkpt lat="47.0145600000000030149749363772571086883544921875" lon="10.687214000000000879708750289864838123321533203125">
                <ele>1939.80320000016990888980217278003692626953125</ele>
            </trkpt>
            <trkpt lat="47.014499999999998181010596454143524169921875" lon="10.6871390000000001663238435867242515087127685546875">
                <ele>1935.069199999910097176325507462024688720703125</ele>
            </trkpt>
            <trkpt lat="47.01442999999999727833710494451224803924560546875" lon="10.6869150000000008304823495564050972461700439453125">
                <ele>1926.43399999987968840287066996097564697265625</ele>
            </trkpt>
            <trkpt lat="47.014194000000003370587364770472049713134765625" lon="10.686961000000000154841472976841032505035400390625">
                <ele>1915.588400000171304782270453870296478271484375</ele>
            </trkpt>
            <trkpt lat="47.0138850000000019235812942497432231903076171875" lon="10.6871209999999994266772773698903620243072509765625">
                <ele>1910.82380320003767337766475975513458251953125</ele>
            </trkpt>
            <trkpt lat="47.0138170000000030768205760978162288665771484375" lon="10.6871039999999997149870978319086134433746337890625">
                <ele>1908.8918905600703510572202503681182861328125</ele>
            </trkpt>
            <trkpt lat="47.013609999999999899955582804977893829345703125" lon="10.687419999999999475903678103350102901458740234375">
                <ele>1906.4583039999915854423306882381439208984375</ele>
            </trkpt>
            <trkpt lat="47.01330999999999704641595599241554737091064453125" lon="10.6879399999999993298160916310735046863555908203125">
                <ele>1905.71545600002582432352937757968902587890625</ele>
            </trkpt>
            <trkpt lat="47.01306000000000295813151751644909381866455078125" lon="10.6884099999999993002575138234533369541168212890625">
                <ele>1915.24230399997986751259304583072662353515625</ele>
            </trkpt>
            <trkpt lat="47.0130740000000031386662158183753490447998046875" lon="10.6884169999999993905248629744164645671844482421875">
                <ele>1915.387865919982004925259388983249664306640625</ele>
            </trkpt>
            <trkpt lat="47.01288600000000172940417542122304439544677734375" lon="10.68918000000000034788172342814505100250244140625">
                <ele>1929.113478400043959481990896165370941162109375</ele>
            </trkpt>
            <trkpt lat="47.01276299999999963574737193994224071502685546875" lon="10.690127000000000379031916963867843151092529296875">
                <ele>1944.531707679994497084408067166805267333984375</ele>
            </trkpt>
            <trkpt lat="47.01252699999999862257027416490018367767333984375" lon="10.6909229999999997318127498147077858448028564453125">
                <ele>1951.92045503995768740423955023288726806640625</ele>
            </trkpt>
            <trkpt lat="47.012382999999999810825102031230926513671875" lon="10.6913509999999991606500771013088524341583251953125">
                <ele>1959.598750559983045604894869029521942138671875</ele>
            </trkpt>
            <trkpt lat="47.01200899999999904821379459463059902191162109375" lon="10.691359999999999530473360209725797176361083984375">
                <ele>1960.26247679999187312205322086811065673828125</ele>
            </trkpt>
            <trkpt lat="47.01152900000000300906322081573307514190673828125" lon="10.692021000000000441332304035313427448272705078125">
                <ele>1973.06301263997966088936664164066314697265625</ele>
            </trkpt>
            <trkpt lat="47.01132299999999730744093540124595165252685546875" lon="10.6921470000000002897877493523992598056793212890625">
                <ele>1976.54303376002144432277418673038482666015625</ele>
            </trkpt>
            <trkpt lat="47.0111169999999987112460075877606868743896484375" lon="10.69215799999999916281012701801955699920654296875">
                <ele>1978.09949855999866485944949090480804443359375</ele>
            </trkpt>
            <trkpt lat="47.01096299999999672536432626657187938690185546875" lon="10.6924410000000005283027348923496901988983154296875">
                <ele>1981.664851680014180601574480533599853515625</ele>
            </trkpt>
            <trkpt lat="47.01089900000000199042915483005344867706298828125" lon="10.6927719999999997213535607443191111087799072265625">
                <ele>1987.0148812799934603390283882617950439453125</ele>
            </trkpt>
            <trkpt lat="47.01062300000000249156073550693690776824951171875" lon="10.6932559999999998723296812386251986026763916015625">
                <ele>2000.230627199938680860213935375213623046875</ele>
            </trkpt>
            <trkpt lat="47.01037800000000288491719402372837066650390625" lon="10.6934830000000005156834959052503108978271484375">
                <ele>2009.5255993599466819432564079761505126953125</ele>
            </trkpt>
            <trkpt lat="47.01006000000000284444467979483306407928466796875" lon="10.6936189999999999855617716093547642230987548828125">
                <ele>2018.39368959994180841022171080112457275390625</ele>
            </trkpt>
            <trkpt lat="47.00978099999999670899342163465917110443115234375" lon="10.693837999999999510691850446164608001708984375">
                <ele>2035.69254496018720601568929851055145263671875</ele>
            </trkpt>
            <trkpt lat="47.0095529999999968140400596894323825836181640625" lon="10.69374499999999983401721692644059658050537109375">
                <ele>2047.9894552001869669766165316104888916015625</ele>
            </trkpt>
            <trkpt lat="47.0093499999999977490006131120026111602783203125" lon="10.6939499999999991786125974613241851329803466796875">
                <ele>2062.42840000012211021385155618190765380859375</ele>
            </trkpt>
            <trkpt lat="47.00925199999999648525772499851882457733154296875" lon="10.694413000000000835143509902991354465484619140625">
                <ele>2077.088000000223473762162029743194580078125</ele>
            </trkpt>
            <trkpt lat="47.0091139999999967358235153369605541229248046875" lon="10.694767999999999830151864443905651569366455078125">
                <ele>2099.9377382405245953123085200786590576171875</ele>
            </trkpt>
            <trkpt lat="47.00898200000000315412762574851512908935546875" lon="10.6951699999999991774757290841080248355865478515625">
                <ele>2137.12391039942804127349518239498138427734375</ele>
            </trkpt>
            <trkpt lat="47.0090110000000009904397302307188510894775390625" lon="10.6953800000000001091393642127513885498046875">
                <ele>2142.17186879983955805073492228984832763671875</ele>
            </trkpt>
            <trkpt lat="47.0087800000000015643308870494365692138671875" lon="10.6951699999999991774757290841080248355865478515625">
                <ele>2171.09481599969922172022052109241485595703125</ele>
            </trkpt>
            <trkpt lat="47.0085600000000027876012609340250492095947265625" lon="10.6952499999999997015720509807579219341278076171875">
                <ele>2211.14639999952169091557152569293975830078125</ele>
            </trkpt>
            <trkpt lat="47.008409999999997808117768727242946624755859375" lon="10.6956000000000006622258297284133732318878173828125">
                <ele>2248.4313600003706596908159554004669189453125</ele>
            </trkpt>
            <trkpt lat="47.008409999999997808117768727242946624755859375" lon="10.6956000000000006622258297284133732318878173828125">
                <ele>2248.4313600003706596908159554004669189453125</ele>
            </trkpt>
            <trkpt lat="47.00848500000000029785951483063399791717529296875" lon="10.6961150000000007054268280626274645328521728515625">
                <ele>2255.10453999998435392626561224460601806640625</ele>
            </trkpt>
            <trkpt lat="47.0085729999999983874658937565982341766357421875" lon="10.6963699999999999334931999328546226024627685546875">
                <ele>2255.03053600016210111789405345916748046875</ele>
            </trkpt>
            <trkpt lat="47.0087199999999967303665471263229846954345703125" lon="10.6965850000000006758682502550072968006134033203125">
                <ele>2252.08432000031052666599862277507781982421875</ele>
            </trkpt>
            <trkpt lat="47.0088209999999975252649164758622646331787109375" lon="10.696979999999999932924765744246542453765869140625">
                <ele>2261.00415040015786871663294732570648193359375</ele>
            </trkpt>
            <trkpt lat="47.00890600000000318914317176677286624908447265625" lon="10.6974459999999993442543200217187404632568359375">
                <ele>2274.83447487982493839808739721775054931640625</ele>
            </trkpt>
            <trkpt lat="47.0090789999999998372004483826458454132080078125" lon="10.6975099999999994082600096589885652065277099609375">
                <ele>2269.6494495999913851846940815448760986328125</ele>
            </trkpt>
            <trkpt lat="47.00912199999999785404725116677582263946533203125" lon="10.6976549999999992479615684715099632740020751953125">
                <ele>2271.4290784000777421169914305210113525390625</ele>
            </trkpt>
            <trkpt lat="47.009365999999999985448084771633148193359375" lon="10.6979179999999995942516761715523898601531982421875">
                <ele>2264.313565439990270533598959445953369140625</ele>
            </trkpt>
            <trkpt lat="47.009512000000000853106030263006687164306640625" lon="10.698145000000000237605490838177502155303955078125">
                <ele>2261.67549119995646833558566868305206298828125</ele>
            </trkpt>
            <trkpt lat="47.00961499999999659848981536924839019775390625" lon="10.6984469999999998179873728076927363872528076171875">
                <ele>2262.154848800188119639642536640167236328125</ele>
            </trkpt>
            <trkpt lat="47.00962100000000276622813544236123561859130859375" lon="10.6987959999999997506847648764960467815399169921875">
                <ele>2266.38585535985339447506703436374664306640625</ele>
            </trkpt>
            <trkpt lat="47.00960400000000305453795590437948703765869140625" lon="10.69905299999999925830707070417702198028564453125">
                <ele>2270.57015551984295598231256008148193359375</ele>
            </trkpt>
            <trkpt lat="47.0096980000000002064552973024547100067138671875" lon="10.6993709999999992987795849330723285675048828125">
                <ele>2270.62543231998051851405762135982513427734375</ele>
            </trkpt>
            <trkpt lat="47.00981800000000276895661954768002033233642578125" lon="10.6995090000000008245706339948810636997222900390625">
                <ele>2267.97650047990600796765647828578948974609375</ele>
            </trkpt>
            <trkpt lat="47.01010899999999992360244505107402801513671875" lon="10.69971699999999970032149576582014560699462890625">
                <ele>2264.8318755199934457777999341487884521484375</ele>
            </trkpt>
            <trkpt lat="47.01010899999999992360244505107402801513671875" lon="10.69971699999999970032149576582014560699462890625">
                <ele>2264.8318755199934457777999341487884521484375</ele>
            </trkpt>
            <trkpt lat="47.0103519999999974743332131765782833099365234375" lon="10.69969999999999998863131622783839702606201171875">
                <ele>2263.34729600001128346775658428668975830078125</ele>
            </trkpt>
            <trkpt lat="47.01073800000000346699380315840244293212890625" lon="10.699498999999999426790964207611978054046630859375">
                <ele>2260.16191807999348384328186511993408203125</ele>
            </trkpt>
            <trkpt lat="47.010817000000002963133738376200199127197265625" lon="10.6994220000000002102069629472680389881134033203125">
                <ele>2259.71167616000320776947773993015289306640625</ele>
            </trkpt>
            <trkpt lat="47.01091699999999917736204224638640880584716796875" lon="10.6991630000000004230287231621332466602325439453125">
                <ele>2256.2010088000315590761601924896240234375</ele>
            </trkpt>
            <trkpt lat="47.01113099999999889178070588968694210052490234375" lon="10.698854000000000752379492041654884815216064453125">
                <ele>2243.4325072000438012764789164066314697265625</ele>
            </trkpt>
            <trkpt lat="47.0112069999999988567651598714292049407958984375" lon="10.6989420000000006183427103678695857524871826171875">
                <ele>2243.57804320004152032197453081607818603515625</ele>
            </trkpt>
            <trkpt lat="47.01127999999999929059413261711597442626953125" lon="10.6989560000000007988774086697958409786224365234375">
                <ele>2242.0767040000346241868101060390472412109375</ele>
            </trkpt>
            <trkpt lat="47.0112840000000034024196793325245380401611328125" lon="10.6991169999999993223127603414468467235565185546875">
                <ele>2245.5119583998957750736735761165618896484375</ele>
            </trkpt>
            <trkpt lat="47.01137899999999802957972860895097255706787109375" lon="10.6992209999999996483666109270416200160980224609375">
                <ele>2245.03828736004288657568395137786865234375</ele>
            </trkpt>
            <trkpt lat="47.01137899999999802957972860895097255706787109375" lon="10.6992209999999996483666109270416200160980224609375">
                <ele>2245.03828736004288657568395137786865234375</ele>
            </trkpt>
            <trkpt lat="47.0112840000000034024196793325245380401611328125" lon="10.6991169999999993223127603414468467235565185546875">
                <ele>2245.5119583998957750736735761165618896484375</ele>
            </trkpt>
            <trkpt lat="47.01127999999999929059413261711597442626953125" lon="10.6989560000000007988774086697958409786224365234375">
                <ele>2242.0767040000346241868101060390472412109375</ele>
            </trkpt>
            <trkpt lat="47.011346000000003186869435012340545654296875" lon="10.699051000000000755107976146973669528961181640625">
                <ele>2242.47774879993403374101035296916961669921875</ele>
            </trkpt>
            <trkpt lat="47.01136900000000196087057702243328094482421875" lon="10.6989940000000007813696356606669723987579345703125">
                <ele>2240.673140799966859049163758754730224609375</ele>
            </trkpt>
            <trkpt lat="47.01144599999999940109773888252675533294677734375" lon="10.6990590000000000969748725765384733676910400390625">
                <ele>2240.08733920001714068348519504070281982421875</ele>
            </trkpt>
            <trkpt lat="47.0114329999999966958057484589517116546630859375" lon="10.699099000000000359023033524863421916961669921875">
                <ele>2241.255757600092692882753908634185791015625</ele>
            </trkpt>
            <trkpt lat="47.0115229999999968413249007426202297210693359375" lon="10.6991230000000001609805622138082981109619140625">
                <ele>2239.40923120008528712787665426731109619140625</ele>
            </trkpt>
            <trkpt lat="47.01162699999999716737875132821500301361083984375" lon="10.699087999999999709643816458992660045623779296875">
                <ele>2236.01433280006722270627506077289581298828125</ele>
            </trkpt>
            <trkpt lat="47.0116689999999977089828462339937686920166015625" lon="10.699042999999999636884240317158401012420654296875">
                <ele>2234.08213616003513379837386310100555419921875</ele>
            </trkpt>
            <trkpt lat="47.01169999999999760120772407390177249908447265625" lon="10.698916000000000536829247721470892429351806640625">
                <ele>2230.9626560000624522217549383640289306640625</ele>
            </trkpt>
            <trkpt lat="47.01177500000000009094947017729282379150390625" lon="10.6988470000000006621121428906917572021484375">
                <ele>2227.82464400001163085107691586017608642578125</ele>
            </trkpt>
            <trkpt lat="47.0118889999999964857124723494052886962890625" lon="10.6986380000000007584048944409005343914031982421875">
                <ele>2220.003815360118096577934920787811279296875</ele>
            </trkpt>
            <trkpt lat="47.01208100000000200680005946196615695953369140625" lon="10.6985499999999991160848367144353687763214111328125">
                <ele>2211.9416239999118261039257049560546875</ele>
            </trkpt>
            <trkpt lat="47.01216500000000309000824927352368831634521484375" lon="10.6985340000000004323510438553057610988616943359375">
                <ele>2208.860772799916958319954574108123779296875</ele>
            </trkpt>
            <trkpt lat="47.01232300000000208228811970911920070648193359375" lon="10.6986819999999998032080839038826525211334228515625">
                <ele>2209.168441279934995691291987895965576171875</ele>
            </trkpt>
            <trkpt lat="47.01235899999999645615389454178512096405029296875" lon="10.6987740000000002282831701450049877166748046875">
                <ele>2211.50535968009671705658547580242156982421875</ele>
            </trkpt>
            <trkpt lat="47.01244700000000165118763106875121593475341796875" lon="10.699025999999999925194060779176652431488037109375">
                <ele>2218.93890655996483474154956638813018798828125</ele>
            </trkpt>
            <trkpt lat="47.01312300000000021782398107461631298065185546875" lon="10.6990210000000001144826455856673419475555419921875">
                <ele>2239.73107568001205436303280293941497802734375</ele>
            </trkpt>
            <trkpt lat="47.01320100000000223872120841406285762786865234375" lon="10.69868100000000055160853662528097629547119140625">
                <ele>2225.93253776009441935457289218902587890625</ele>
            </trkpt>
            <trkpt lat="47.01320100000000223872120841406285762786865234375" lon="10.69868100000000055160853662528097629547119140625">
                <ele>2225.93253776009441935457289218902587890625</ele>
            </trkpt>
            <trkpt lat="47.01325200000000137379174702800810337066650390625" lon="10.6984569999999994394102031947113573551177978515625">
                <ele>2216.455245440009093726985156536102294921875</ele>
            </trkpt>
            <trkpt lat="47.01341000000000036607161746360361576080322265625" lon="10.6982289999999995444568412494845688343048095703125">
                <ele>2211.34041599999545724131166934967041015625</ele>
            </trkpt>
            <trkpt lat="47.013385999999997011400409974157810211181640625" lon="10.6981249999999992184029906638897955417633056640625">
                <ele>2205.55679999983340167091228067874908447265625</ele>
            </trkpt>
            <trkpt lat="47.0138970000000000482032191939651966094970703125" lon="10.6974859999999996063024809700436890125274658203125">
                <ele>2194.4480553599833001499064266681671142578125</ele>
            </trkpt>
            <trkpt lat="47.014397000000002435626811347901821136474609375" lon="10.697196999999999178498910623602569103240966796875">
                <ele>2201.36530288008680145139805972576141357421875</ele>
            </trkpt>
            <trkpt lat="47.0151249999999976125764078460633754730224609375" lon="10.6961560000000002190745362895540893077850341796875">
                <ele>2190.8071999998346655047498643398284912109375</ele>
            </trkpt>
            <trkpt lat="47.0152929999999997789927874691784381866455078125" lon="10.695705000000000239879227592609822750091552734375">
                <ele>2183.622282399990581325255334377288818359375</ele>
            </trkpt>
            <trkpt lat="47.01553499999999985448084771633148193359375" lon="10.6951990000000005665015123668126761913299560546875">
                <ele>2183.829786400006923940964043140411376953125</ele>
            </trkpt>
            <trkpt lat="47.01594399999999751571522210724651813507080078125" lon="10.694770999999999361307345679961144924163818359375">
                <ele>2193.40021311984992280486039817333221435546875</ele>
            </trkpt>
            <trkpt lat="47.016334999999997990016709081828594207763671875" lon="10.693860000000000809450284577906131744384765625">
                <ele>2185.4338559999259814503602683544158935546875</ele>
            </trkpt>
            <trkpt lat="47.01647899999999680176188121549785137176513671875" lon="10.6937420000000003028617356903851032257080078125">
                <ele>2188.74144767985535509069450199604034423828125</ele>
            </trkpt>
            <trkpt lat="47.01672700000000304498826153576374053955078125" lon="10.6931840000000004664570951717905700206756591796875">
                <ele>2182.66532224014736129902303218841552734375</ele>
            </trkpt>
            <trkpt lat="47.01691799999999687997842556796967983245849609375" lon="10.693023000000000166664904099889099597930908203125">
                <ele>2186.3845475198659187299199402332305908203125</ele>
            </trkpt>
            <trkpt lat="47.01736700000000013233147910796105861663818359375" lon="10.692510999999999654619387001730501651763916015625">
                <ele>2192.5723201599967069341801106929779052734375</ele>
            </trkpt>
            <trkpt lat="47.0175669999999996662154444493353366851806640625" lon="10.6918670000000002318074621143750846385955810546875">
                <ele>2187.44396895998261243221350014209747314453125</ele>
            </trkpt>
            <trkpt lat="47.0177460000000024820110411383211612701416015625" lon="10.69106000000000022964741219766438007354736328125">
                <ele>2180.4541888001476763747632503509521484375</ele>
            </trkpt>
            <trkpt lat="47.01794399999999995998223312199115753173828125" lon="10.6909200000000002006572685786522924900054931640625">
                <ele>2188.9532224000004134722985327243804931640625</ele>
            </trkpt>
            <trkpt lat="47.0179210000000011859810911118984222412109375" lon="10.69048000000000087084117694757878780364990234375">
                <ele>2176.40396160008504011784680187702178955078125</ele>
            </trkpt>
            <trkpt lat="47.01820000000000021600499167107045650482177734375" lon="10.689965000000000827640178613364696502685546875">
                <ele>2176.03320000003441236913204193115234375</ele>
            </trkpt>
            <trkpt lat="47.01822700000000310183168039657175540924072265625" lon="10.689826000000000050249582272954285144805908203125">
                <ele>2173.0248288001412220182828605175018310546875</ele>
            </trkpt>
            <trkpt lat="47.01893599999999651117832399904727935791015625" lon="10.68933200000000027785063139162957668304443359375">
                <ele>2184.84993151987555393134243786334991455078125</ele>
            </trkpt>
            <trkpt lat="47.0194929999999970959834172390401363372802734375" lon="10.6884099999999993002575138234533369541168212890625">
                <ele>2181.71037279986421708599664270877838134765625</ele>
            </trkpt>
            <trkpt lat="47.01947799999999944020601105876266956329345703125" lon="10.6877230000000000842419467517174780368804931640625">
                <ele>2167.49220287998241474269889295101165771484375</ele>
            </trkpt>
            <trkpt lat="47.0197720000000032314346753992140293121337890625" lon="10.687143999999999977035258780233561992645263671875">
                <ele>2166.91345536008566341479308903217315673828125</ele>
            </trkpt>
            <trkpt lat="47.02018000000000341742634191177785396575927734375" lon="10.686628999999999933834260446019470691680908203125">
                <ele>2168.93536320009252449381165206432342529296875</ele>
            </trkpt>
            <trkpt lat="47.02030599999999793681126902811229228973388671875" lon="10.6863709999999993982555679394863545894622802734375">
                <ele>2168.81828255993286802549846470355987548828125</ele>
            </trkpt>
            <trkpt lat="47.02044699999999721740095992572605609893798828125" lon="10.6856829999999991542836141888983547687530517578125">
                <ele>2163.20879999990711439750157296657562255859375</ele>
            </trkpt>
            <trkpt lat="47.02044699999999721740095992572605609893798828125" lon="10.6856829999999991542836141888983547687530517578125">
                <ele>2163.20879999990711439750157296657562255859375</ele>
            </trkpt>
            <trkpt lat="47.02062600000000003319655661471188068389892578125" lon="10.6848159999999996472297425498254597187042236328125">
                <ele>2155.5485299199945075088180601596832275390625</ele>
            </trkpt>
            <trkpt lat="47.020882000000000289219315163791179656982421875" lon="10.6842360000000002884235072997398674488067626953125">
                <ele>2153.70577664001075390842743217945098876953125</ele>
            </trkpt>
            <trkpt lat="47.0211910000000017362253856845200061798095703125" lon="10.6837210000000002452225089655257761478424072265625">
                <ele>2147.27396608003255096264183521270751953125</ele>
            </trkpt>
            <trkpt lat="47.02135799999999932197169982828199863433837890625" lon="10.6836999999999999744204615126363933086395263671875">
                <ele>2149.151487999988603405654430389404296875</ele>
            </trkpt>
            <trkpt lat="47.0221480000000013887984096072614192962646484375" lon="10.6833030000000004378080120659433305263519287109375">
                <ele>2142.89232896003477435442619025707244873046875</ele>
            </trkpt>
            <trkpt lat="47.022593999999998004568624310195446014404296875" lon="10.6832809999999991390495779342018067836761474609375">
                <ele>2145.1784767999333780608139932155609130859375</ele>
            </trkpt>
            <trkpt lat="47.023290000000002919477992691099643707275390625" lon="10.68351499999999987267074175179004669189453125">
                <ele>2162.38934400001062385854311287403106689453125</ele>
            </trkpt>
            <trkpt lat="47.02346399999999704277797718532383441925048828125" lon="10.683248999999999995225152815692126750946044921875">
                <ele>2154.47732735990894070710055530071258544921875</ele>
            </trkpt>
            <trkpt lat="47.02360800000000295995050691999495029449462890625" lon="10.683116999999999308101905626244843006134033203125">
                <ele>2153.9393433600625940016470849514007568359375</ele>
            </trkpt>
            <trkpt lat="47.02375099999999719102561357431113719940185546875" lon="10.68265099999999989677235134877264499664306640625">
                <ele>2140.32566975991949220770038664340972900390625</ele>
            </trkpt>
            <trkpt lat="47.02457600000000326190274790860712528228759765625" lon="10.6826290000000003743707566172815859317779541015625">
                <ele>2157.56396224006903139525093138217926025390625</ele>
            </trkpt>
            <trkpt lat="47.02482599999999735018718638457357883453369140625" lon="10.6823910000000008579945642850361764430999755859375">
                <ele>2152.09077855998248196556232869625091552734375</ele>
            </trkpt>
            <trkpt lat="47.02559999999999718056642450392246246337890625" lon="10.681972999999999274223227985203266143798828125">
                <ele>2140.21647999997139777406118810176849365234375</ele>
            </trkpt>
            <trkpt lat="47.0261119999999976926119416020810604095458984375" lon="10.6821439999999991954382494441233575344085693359375">
                <ele>2134.9690124800645207869820296764373779296875</ele>
            </trkpt>
            <trkpt lat="47.027163999999999077772372402250766754150390625" lon="10.6816720000000007217977326945401728153228759765625">
                <ele>2098.3598681600196869112551212310791015625</ele>
            </trkpt>
            <trkpt lat="47.02767099999999800274963490664958953857421875" lon="10.681319999999999481588019989430904388427734375">
                <ele>2081.333875200018155737780034542083740234375</ele>
            </trkpt>
            <trkpt lat="47.02759300000000308727976516820490360260009765625" lon="10.682152999999999565261532552540302276611328125">
                <ele>2084.31524287988258947734721004962921142578125</ele>
            </trkpt>
            <trkpt lat="47.02759300000000308727976516820490360260009765625" lon="10.682152999999999565261532552540302276611328125">
                <ele>2084.31524287988258947734721004962921142578125</ele>
            </trkpt>
            <trkpt lat="47.027546000000000958607415668666362762451171875" lon="10.6826589999999992386392477783374488353729248046875">
                <ele>2081.66413567996414712979458272457122802734375</ele>
            </trkpt>
            <trkpt lat="47.02757600000000337558958563022315502166748046875" lon="10.6834100000000002950173438875935971736907958984375">
                <ele>2072.09921919983435145695693790912628173828125</ele>
            </trkpt>
            <trkpt lat="47.027500000000003410605131648480892181396484375" lon="10.68394299999999930150806903839111328125">
                <ele>2070.64719999983708476065658032894134521484375</ele>
            </trkpt>
            <trkpt lat="47.027546999999998433850123547017574310302734375" lon="10.684371999999999758301783003844320774078369140625">
                <ele>2064.14610304008192542823962867259979248046875</ele>
            </trkpt>
            <trkpt lat="47.02752100000000012869350030086934566497802734375" lon="10.6852579999999992566017681383527815341949462890625">
                <ele>2060.32959615999061497859656810760498046875</ele>
            </trkpt>
            <trkpt lat="47.02779100000000056525095715187489986419677734375" lon="10.68607899999999943929651635698974132537841796875">
                <ele>2051.95529743996075922041200101375579833984375</ele>
            </trkpt>
            <trkpt lat="47.027737999999999374267645180225372314453125" lon="10.6863689999999991186996339820325374603271484375">
                <ele>2059.371053120014039450325071811676025390625</ele>
            </trkpt>
            <trkpt lat="47.02776800000000179124981514178216457366943359375" lon="10.6865520000000007172502591856755316257476806640625">
                <ele>2061.0105305599308849195949733257293701171875</ele>
            </trkpt>
            <trkpt lat="47.0282330000000001746229827404022216796875" lon="10.68682199999999937745087663643062114715576171875">
                <ele>2047.397770239971350747509859502315521240234375</ele>
            </trkpt>
            <trkpt lat="47.028942000000000689396983943879604339599609375" lon="10.6882380000000001274429450859315693378448486328125">
                <ele>2039.932462079960941991885192692279815673828125</ele>
            </trkpt>
            <trkpt lat="47.02895000000000180762071977369487285614013671875" lon="10.6893460000000004583853296935558319091796875">
                <ele>2038.07455999989224437740631401538848876953125</ele>
            </trkpt>
            <trkpt lat="47.0290930000000031441231840290129184722900390625" lon="10.6897210000000004725961844087578356266021728515625">
                <ele>2036.336326399843756007612682878971099853515625</ele>
            </trkpt>
            <trkpt lat="47.02941799999999972214936860837042331695556640625" lon="10.689769999999999328110789065249264240264892578125">
                <ele>2023.973692799990885760053060948848724365234375</ele>
            </trkpt>
            <trkpt lat="47.029730000000000700310920365154743194580078125" lon="10.690189000000000163481672643683850765228271484375">
                <ele>2025.506131199977289725211448967456817626953125</ele>
            </trkpt>
            <trkpt lat="47.03005799999999680949258618056774139404296875" lon="10.691055999999999670535544282756745815277099609375">
                <ele>2025.7406144001788561581633985042572021484375</ele>
            </trkpt>
            <trkpt lat="47.03007099999999951478457660414278507232666015625" lon="10.6918039999999994194013197557069361209869384765625">
                <ele>2021.4412409600381579366512596607208251953125</ele>
            </trkpt>
            <trkpt lat="47.02997599999999778219716972671449184417724609375" lon="10.692519000000000772843122831545770168304443359375">
                <ele>2017.476800000107004962046630680561065673828125</ele>
            </trkpt>
            <trkpt lat="47.02993000000000023419488570652902126312255859375" lon="10.6937850000000000960653778747655451297760009765625">
                <ele>2001.493055999986381721100769937038421630859375</ele>
            </trkpt>
            <trkpt lat="47.030113000000000056388671509921550750732421875" lon="10.694283999999999679175743949599564075469970703125">
                <ele>1989.111969919996454336796887218952178955078125</ele>
            </trkpt>
            <trkpt lat="47.03011699999999706278686062432825565338134765625" lon="10.69447699999999912279236014001071453094482421875">
                <ele>1989.53993984011549400747753679752349853515625</ele>
            </trkpt>
            <trkpt lat="47.03018200000000348381945514120161533355712890625" lon="10.6946220000000007388507583527825772762298583984375">
                <ele>1987.426135039865357612143270671367645263671875</ele>
            </trkpt>
            <trkpt lat="47.030169999999998253770172595977783203125" lon="10.6947179999999999466808731085620820522308349609375">
                <ele>1988.2230656000674571259878575801849365234375</ele>
            </trkpt>
            <trkpt lat="47.03043000000000262161847786046564579010009765625" lon="10.6953410000000008750475899432785809040069580078125">
                <ele>1984.4536831999221249134279787540435791015625</ele>
            </trkpt>
            <trkpt lat="47.0306130000000024438122636638581752777099609375" lon="10.6953779999999998295834302552975714206695556640625">
                <ele>1978.78080895991342913475818932056427001953125</ele>
            </trkpt>
            <trkpt lat="47.03068900000000240879671764560043811798095703125" lon="10.695325000000000414956957683898508548736572265625">
                <ele>1975.313911999923220719210803508758544921875</ele>
            </trkpt>
            <trkpt lat="47.031081999999997833583620376884937286376953125" lon="10.695420999999999622787072439678013324737548828125">
                <ele>1968.21121344002449404797516763210296630859375</ele>
            </trkpt>
            <trkpt lat="47.03115100000000126101440400816500186920166015625" lon="10.695527999999999479996404261328279972076416015625">
                <ele>1969.45582655996940957265906035900115966796875</ele>
            </trkpt>
            <trkpt lat="47.03125399999999700639818911440670490264892578125" lon="10.6955439999999999400870365207083523273468017578125">
                <ele>1968.346667520039545706822536885738372802734375</ele>
            </trkpt>
            <trkpt lat="47.03130300000000119098331197164952754974365234375" lon="10.6954960000000003361719791428185999393463134765625">
                <ele>1966.53043775998912678915075957775115966796875</ele>
            </trkpt>
            <trkpt lat="47.03146699999999924557414487935602664947509765625" lon="10.6956299999999995264943208894692361354827880859375">
                <ele>1967.5120991999965553986839950084686279296875</ele>
            </trkpt>
            <trkpt lat="47.03175399999999939382178126834332942962646484375" lon="10.6957380000000004116600393899716436862945556640625">
                <ele>1968.44964352000579310697503387928009033203125</ele>
            </trkpt>
            <trkpt lat="47.0319750000000027512214728631079196929931640625" lon="10.6956199999999999050714905024506151676177978515625">
                <ele>1966.453120000011722368071787059307098388671875</ele>
            </trkpt>
            <trkpt lat="47.0323139999999995097823557443916797637939453125" lon="10.6952820000000006217533154995180666446685791015625">
                <ele>1957.8882764800155200646258890628814697265625</ele>
            </trkpt>
            <trkpt lat="47.0327190000000001646185410209000110626220703125" lon="10.6950079999999996260839907336048781871795654296875">
                <ele>1951.861599999987447517924010753631591796875</ele>
            </trkpt>
            <trkpt lat="47.0336989999999985911927069537341594696044921875" lon="10.694483999999999213059709290973842144012451171875">
                <ele>1937.905914879982219645171426236629486083984375</ele>
            </trkpt>
            <trkpt lat="47.0341269999999980200300342403352260589599609375" lon="10.6943210000000004100684236618690192699432373046875">
                <ele>1930.346846560021958794095553457736968994140625</ele>
            </trkpt>
            <trkpt lat="47.0341269999999980200300342403352260589599609375" lon="10.6943210000000004100684236618690192699432373046875">
                <ele>1930.346846560021958794095553457736968994140625</ele>
            </trkpt>
            <trkpt lat="47.0342600000000032878233469091355800628662109375" lon="10.6942859999999999587316779070533812046051025390625">
                <ele>1927.0797695999272036715410649776458740234375</ele>
            </trkpt>
            <trkpt lat="47.0344860000000011268639354966580867767333984375" lon="10.6942830000000004275761966709978878498077392578125">
                <ele>1922.15463167998632343369536101818084716796875</ele>
            </trkpt>
            <trkpt lat="47.03456099999999651117832399904727935791015625" lon="10.6943099999999997606892065959982573986053466796875">
                <ele>1921.267257600067978273727931082248687744140625</ele>
            </trkpt>
            <trkpt lat="47.034773999999998750354279763996601104736328125" lon="10.6946770000000004330331648816354572772979736328125">
                <ele>1925.7424972800408795592375099658966064453125</ele>
            </trkpt>
            <trkpt lat="47.0350949999999983219822752289474010467529296875" lon="10.69509000000000042973624658770859241485595703125">
                <ele>1926.77906400005713294376619160175323486328125</ele>
            </trkpt>
            <trkpt lat="47.0358480000000014342731446959078311920166015625" lon="10.69550100000000014688339433632791042327880859375">
                <ele>1912.633630079954173197620548307895660400390625</ele>
            </trkpt>
            <trkpt lat="47.0359949999999997771737980656325817108154296875" lon="10.6958470000000005484253051690757274627685546875">
                <ele>1915.1678344000174547545611858367919921875</ele>
            </trkpt>
            <trkpt lat="47.03632999999999952933649183250963687896728515625" lon="10.69644699999999915007720119319856166839599609375">
                <ele>1922.401249599983884763787500560283660888671875</ele>
            </trkpt>
            <trkpt lat="47.0364450000000005047695594839751720428466796875" lon="10.6965020000000006206164471223019063472747802734375">
                <ele>1921.627854400005844581755809485912322998046875</ele>
            </trkpt>
            <trkpt lat="47.03667200000000292448021355085074901580810546875" lon="10.696222999999999814235707162879407405853271484375">
                <ele>1908.055214719953028179588727653026580810546875</ele>
            </trkpt>
            <trkpt lat="47.03679600000000249337972491048276424407958984375" lon="10.6961279999999998580051396857015788555145263671875">
                <ele>1903.385442559960893049719743430614471435546875</ele>
            </trkpt>
            <trkpt lat="47.037115000000000009094947017729282379150390625" lon="10.6961770000000004898765837424434721469879150390625">
                <ele>1900.811057600012645707465708255767822265625</ele>
            </trkpt>
            <trkpt lat="47.03744400000000069894667831249535083770751953125" lon="10.69645799999999979945641825906932353973388671875">
                <ele>1905.01274623998187962570227682590484619140625</ele>
            </trkpt>
            <trkpt lat="47.0378639999999990095602697692811489105224609375" lon="10.6965400000000006031086741131730377674102783203125">
                <ele>1900.148000000033562173484824597835540771484375</ele>
            </trkpt>
            <trkpt lat="47.03799000000000063437255448661744594573974609375" lon="10.696723999999999676902007195167243480682373046875">
                <ele>1903.359545599979583130334503948688507080078125</ele>
            </trkpt>
            <trkpt lat="47.038263999999998077328200452029705047607421875" lon="10.6968200000000006610889613511972129344940185546875">
                <ele>1901.17930880005451399483717978000640869140625</ele>
            </trkpt>
            <trkpt lat="47.0384999999999990905052982270717620849609375" lon="10.696764999999999190549715422093868255615234375">
                <ele>1894.931999999995468897395767271518707275390625</ele>
            </trkpt>
            <trkpt lat="47.03894600000000281170287053100764751434326171875" lon="10.696968999999999283545548678375780582427978515625">
                <ele>1891.708799999922348433756269514560699462890625</ele>
            </trkpt>
            <trkpt lat="47.03931200000000245609044213779270648956298828125" lon="10.6970949999999991320009939954616129398345947265625">
                <ele>1887.70168319992217220715247094631195068359375</ele>
            </trkpt>
            <trkpt lat="47.03931200000000245609044213779270648956298828125" lon="10.6970949999999991320009939954616129398345947265625">
                <ele>1887.70168319992217220715247094631195068359375</ele>
            </trkpt>
            <trkpt lat="47.03943699999999950023266137577593326568603515625" lon="10.69713899999999995316102285869419574737548828125">
                <ele>1886.30733984000971759087406098842620849609375</ele>
            </trkpt>
            <trkpt lat="47.0399120000000010577423381619155406951904296875" lon="10.69759499999999974306774674914777278900146484375">
                <ele>1890.1331615999706627917475998401641845703125</ele>
            </trkpt>
            <trkpt lat="47.04079999999999728288457845337688922882080078125" lon="10.6977270000000004301909939385950565338134765625">
                <ele>1888.73150400002532478538341820240020751953125</ele>
            </trkpt>
            <trkpt lat="47.04098400000000168574842973612248897552490234375" lon="10.6976999999999993207211446133442223072052001953125">
                <ele>1890.726816000012377116945572197437286376953125</ele>
            </trkpt>
            <trkpt lat="47.04168800000000061345417634584009647369384765625" lon="10.6970399999999994378185874666087329387664794921875">
                <ele>1882.210131199987927175243385136127471923828125</ele>
            </trkpt>
            <trkpt lat="47.04221700000000083718987298198044300079345703125" lon="10.6963950000000007634071153006516396999359130859375">
                <ele>1868.696980800029223246383480727672576904296875</ele>
            </trkpt>
            <trkpt lat="47.04247699999999809961082064546644687652587890625" lon="10.6962180000000000035242919693700969219207763671875">
                <ele>1867.860280319970343043678440153598785400390625</ele>
            </trkpt>
            <trkpt lat="47.04290300000000257796273217536509037017822265625" lon="10.696130000000000137561073643155395984649658203125">
                <ele>1865.639414399998713633976876735687255859375</ele>
            </trkpt>
            <trkpt lat="47.04302500000000009094947017729282379150390625" lon="10.696059999999999234887582133524119853973388671875">
                <ele>1864.620239999989053103490732610225677490234375</ele>
            </trkpt>
            <trkpt lat="47.043080000000003337845555506646633148193359375" lon="10.6959409999999994766994859674014151096343994140625">
                <ele>1863.254428800004689037450589239597320556640625</ele>
            </trkpt>
            <trkpt lat="47.043080000000003337845555506646633148193359375" lon="10.6957760000000003941522663808427751064300537109375">
                <ele>1861.714156800025875782012008130550384521484375</ele>
            </trkpt>
            <trkpt lat="47.04304799999999886495061218738555908203125" lon="10.6957170000000001408579919370822608470916748046875">
                <ele>1861.162815359990645447396673262119293212890625</ele>
            </trkpt>
            <trkpt lat="47.04320400000000290674506686627864837646484375" lon="10.6955439999999999400870365207083523273468017578125">
                <ele>1862.209032960036665826919488608837127685546875</ele>
            </trkpt>
            <trkpt lat="47.0433560000000028367139748297631740570068359375" lon="10.6952610000000003509512680466286838054656982421875">
                <ele>1863.782085759949040948413312435150146484375</ele>
            </trkpt>
            <trkpt lat="47.043419000000000096406438387930393218994140625" lon="10.6951079999999993930259734042920172214508056640625">
                <ele>1862.954062719999683395144529640674591064453125</ele>
            </trkpt>
        </trkseg>
    </trk>
</gpx>
