<?xml version="1.0" encoding="UTF-8" standalone="yes"?>
<gpx xmlns="http://www.topografix.com/GPX/1/1" creator="alpenkarte.eu">
    <metadata>
        <name>brustwand klettersteig</name>
        <link href="alpenkarte.eu">
            <text>Route von alpenkarte.eu</text>
        </link>
        <bounds minlat="47.70093399999999661531546735204756259918212890625" minlon="13.4832319999999992177208696375600993633270263671875" maxlat="47.70376999999999867441147216595709323883056640625" maxlon="13.4874530000000003582272256608121097087860107421875"/>
    </metadata>
    <trk>
        <name>brustwand klettersteig</name>
        <trkseg>
            <trkpt lat="47.7022979999999989786374499090015888214111328125" lon="13.4871040000000004255298335920087993144989013671875">
                <ele>695.2208345599746053267153911292552947998046875</ele>
            </trkpt>
            <trkpt lat="47.70228900000000038517100620083510875701904296875" lon="13.487047000000000451791493105702102184295654296875">
                <ele>695.8122814400020388347911648452281951904296875</ele>
            </trkpt>
            <trkpt lat="47.7021050000000030877345125190913677215576171875" lon="13.486703999999999581405063509009778499603271484375">
                <ele>696.4941056000719754592864774167537689208984375</ele>
            </trkpt>
            <trkpt lat="47.7019090000000005602487362921237945556640625" lon="13.48649999999999948840923025272786617279052734375">
                <ele>694.7344000000184678356163203716278076171875</ele>
            </trkpt>
            <trkpt lat="47.70147999999999655074134352616965770721435546875" lon="13.4859729999999995442294675740413367748260498046875">
                <ele>695.189542399993342769448645412921905517578125</ele>
            </trkpt>
            <trkpt lat="47.7013299999999986766852089203894138336181640625" lon="13.485549999999999926103555480949580669403076171875">
                <ele>700.158559999994167810655198991298675537109375</ele>
            </trkpt>
            <trkpt lat="47.701099999999996725819073617458343505859375" lon="13.48466799999999921055859886109828948974609375">
                <ele>711.42915199997923991759307682514190673828125</ele>
            </trkpt>
            <trkpt lat="47.70093399999999661531546735204756259918212890625" lon="13.48392499999999927240423858165740966796875">
                <ele>723.08383199996887924498878419399261474609375</ele>
            </trkpt>
            <trkpt lat="47.70094300000000231420926866121590137481689453125" lon="13.483710999999999557985574938356876373291015625">
                <ele>727.8619588800405608708388172090053558349609375</ele>
            </trkpt>
            <trkpt lat="47.70098300000000079990059020929038524627685546875" lon="13.4836919999999995667394614429213106632232666015625">
                <ele>728.830700160019432587432675063610076904296875</ele>
            </trkpt>
            <trkpt lat="47.70098300000000079990059020929038524627685546875" lon="13.4836919999999995667394614429213106632232666015625">
                <ele>728.830700160019432587432675063610076904296875</ele>
            </trkpt>
            <trkpt lat="47.70104099999999647252479917369782924652099609375" lon="13.48366299999999995407051756046712398529052734375">
                <ele>730.271016479950731081771664321422576904296875</ele>
            </trkpt>
            <trkpt lat="47.70139300000000304180503007955849170684814453125" lon="13.4839549999999999130295691429637372493743896484375">
                <ele>728.6301864000419072908698581159114837646484375</ele>
            </trkpt>
            <trkpt lat="47.70179300000000210957296076230704784393310546875" lon="13.483985000000000553654899704270064830780029296875">
                <ele>734.232844000030354436603374779224395751953125</ele>
            </trkpt>
            <trkpt lat="47.7023420000000015761543181724846363067626953125" lon="13.48410200000000003228706191293895244598388671875">
                <ele>742.2552352000303699242067523300647735595703125</ele>
            </trkpt>
            <trkpt lat="47.7024540000000030204319045878946781158447265625" lon="13.4840870000000006001528163324110209941864013671875">
                <ele>744.884814400042841953109018504619598388671875</ele>
            </trkpt>
            <trkpt lat="47.70258700000000118279785965569317340850830078125" lon="13.4841250000000005826450433232821524143218994140625">
                <ele>750.00352000005341324140317738056182861328125</ele>
            </trkpt>
            <trkpt lat="47.70258700000000118279785965569317340850830078125" lon="13.4841250000000005826450433232821524143218994140625">
                <ele>750.00352000005341324140317738056182861328125</ele>
            </trkpt>
            <trkpt lat="47.7026680000000027348505682311952114105224609375" lon="13.48419200000000017780621419660747051239013671875">
                <ele>752.9472422401585163242998532950878143310546875</ele>
            </trkpt>
            <trkpt lat="47.70272800000000046338755055330693721771240234375" lon="13.48428799999999938563632895238697528839111328125">
                <ele>754.0550745600427262615994550287723541259765625</ele>
            </trkpt>
            <trkpt lat="47.70280799999999743477019364945590496063232421875" lon="13.4843250000000001165290086646564304828643798828125">
                <ele>757.7379839998480974827543832361698150634765625</ele>
            </trkpt>
            <trkpt lat="47.70283100000000331419869326055049896240234375" lon="13.484235999999999222609403659589588642120361328125">
                <ele>761.481776640216821760986931622028350830078125</ele>
            </trkpt>
            <trkpt lat="47.70278600000000324143911711871623992919921875" lon="13.4840859999999995721964296535588800907135009765625">
                <ele>763.5147481602149355239816941320896148681640625</ele>
            </trkpt>
            <trkpt lat="47.70265200000000049840309657156467437744140625" lon="13.4838660000000007954668035381473600864410400390625">
                <ele>762.332158720006873409147374331951141357421875</ele>
            </trkpt>
            <trkpt lat="47.70275099999999923738869256339967250823974609375" lon="13.48372200000000020736479200422763824462890625">
                <ele>773.93792511993842708761803805828094482421875</ele>
            </trkpt>
            <trkpt lat="47.70275099999999923738869256339967250823974609375" lon="13.48372200000000020736479200422763824462890625">
                <ele>773.93792511993842708761803805828094482421875</ele>
            </trkpt>
            <trkpt lat="47.70282399999999967121766530908644199371337890625" lon="13.4835480000000007549942893092520534992218017578125">
                <ele>785.375921919947359128855168819427490234375</ele>
            </trkpt>
            <trkpt lat="47.70300999999999902456693234853446483612060546875" lon="13.48349400000000031241143005900084972381591796875">
                <ele>801.3769023999128648938494734466075897216796875</ele>
            </trkpt>
            <trkpt lat="47.70307100000000133377398014999926090240478515625" lon="13.4833750000000005542233338928781449794769287109375">
                <ele>810.9750400000802983413450419902801513671875</ele>
            </trkpt>
            <trkpt lat="47.7031080000000002883098204620182514190673828125" lon="13.4832319999999992177208696375600993633270263671875">
                <ele>818.828235520047883255756460130214691162109375</ele>
            </trkpt>
            <trkpt lat="47.70317399999999707915776525624096393585205078125" lon="13.4833330000000000126192389870993793010711669921875">
                <ele>820.8914646397685146439471282064914703369140625</ele>
            </trkpt>
            <trkpt lat="47.70317399999999707915776525624096393585205078125" lon="13.4833330000000000126192389870993793010711669921875">
                <ele>820.8914646397685146439471282064914703369140625</ele>
            </trkpt>
            <trkpt lat="47.70353999999999672354533686302602291107177734375" lon="13.4841719999999991586037140223197638988494873046875">
                <ele>810.4232767997567634665756486356258392333984375</ele>
            </trkpt>
            <trkpt lat="47.7036159999999966885297908447682857513427734375" lon="13.4842209999999997904751580790616571903228759765625">
                <ele>814.9465049597330335018341429531574249267578125</ele>
            </trkpt>
            <trkpt lat="47.70376999999999867441147216595709323883056640625" lon="13.483850000000000335376171278767287731170654296875">
                <ele>840.2762399998906630571582354605197906494140625</ele>
            </trkpt>
            <trkpt lat="47.70373000000000018872015061788260936737060546875" lon="13.4842600000000008009237717487849295139312744140625">
                <ele>822.888127999983908011927269399166107177734375</ele>
            </trkpt>
            <trkpt lat="47.703721999999999070496414788067340850830078125" lon="13.484289000000000413592715631239116191864013671875">
                <ele>821.1603948799069030428654514253139495849609375</ele>
            </trkpt>
            <trkpt lat="47.70353999999999672354533686302602291107177734375" lon="13.4841719999999991586037140223197638988494873046875">
                <ele>810.4232767997567634665756486356258392333984375</ele>
            </trkpt>
            <trkpt lat="47.7031750000000016598278307355940341949462890625" lon="13.4833339999999992642187862657010555267333984375">
                <ele>820.9304320001632504499866627156734466552734375</ele>
            </trkpt>
            <trkpt lat="47.7031080000000002883098204620182514190673828125" lon="13.4832319999999992177208696375600993633270263671875">
                <ele>818.828235520047883255756460130214691162109375</ele>
            </trkpt>
            <trkpt lat="47.70307100000000133377398014999926090240478515625" lon="13.4833750000000005542233338928781449794769287109375">
                <ele>810.9750400000802983413450419902801513671875</ele>
            </trkpt>
            <trkpt lat="47.70300999999999902456693234853446483612060546875" lon="13.48349400000000031241143005900084972381591796875">
                <ele>801.3769023999128648938494734466075897216796875</ele>
            </trkpt>
            <trkpt lat="47.70282399999999967121766530908644199371337890625" lon="13.4835480000000007549942893092520534992218017578125">
                <ele>785.375921919947359128855168819427490234375</ele>
            </trkpt>
            <trkpt lat="47.70273999999999858800947549752891063690185546875" lon="13.4837469999999992609218679717741906642913818359375">
                <ele>772.3069887999262164157698862254619598388671875</ele>
            </trkpt>
            <trkpt lat="47.70265200000000049840309657156467437744140625" lon="13.4838660000000007954668035381473600864410400390625">
                <ele>762.332158720006873409147374331951141357421875</ele>
            </trkpt>
            <trkpt lat="47.70278600000000324143911711871623992919921875" lon="13.4840859999999995721964296535588800907135009765625">
                <ele>763.5147481602149355239816941320896148681640625</ele>
            </trkpt>
            <trkpt lat="47.70283100000000331419869326055049896240234375" lon="13.484235999999999222609403659589588642120361328125">
                <ele>761.481776640216821760986931622028350830078125</ele>
            </trkpt>
            <trkpt lat="47.70280799999999743477019364945590496063232421875" lon="13.4843250000000001165290086646564304828643798828125">
                <ele>757.7379839998480974827543832361698150634765625</ele>
            </trkpt>
            <trkpt lat="47.70272800000000046338755055330693721771240234375" lon="13.48428799999999938563632895238697528839111328125">
                <ele>754.0550745600427262615994550287723541259765625</ele>
            </trkpt>
            <trkpt lat="47.7026680000000027348505682311952114105224609375" lon="13.48419200000000017780621419660747051239013671875">
                <ele>752.9472422401585163242998532950878143310546875</ele>
            </trkpt>
            <trkpt lat="47.7025689999999968904376146383583545684814453125" lon="13.4841099999999993741539583425037562847137451171875">
                <ele>749.3620863998277172868256457149982452392578125</ele>
            </trkpt>
            <trkpt lat="47.7024540000000030204319045878946781158447265625" lon="13.4840870000000006001528163324110209941864013671875">
                <ele>744.884814400042841953109018504619598388671875</ele>
            </trkpt>
            <trkpt lat="47.70230500000000262161847786046564579010009765625" lon="13.4840940000000006904201654833741486072540283203125">
                <ele>741.7467760000330372349708341062068939208984375</ele>
            </trkpt>
            <trkpt lat="47.70230500000000262161847786046564579010009765625" lon="13.4840940000000006904201654833741486072540283203125">
                <ele>741.7467760000330372349708341062068939208984375</ele>
            </trkpt>
            <trkpt lat="47.70179300000000210957296076230704784393310546875" lon="13.483985000000000553654899704270064830780029296875">
                <ele>734.232844000030354436603374779224395751953125</ele>
            </trkpt>
            <trkpt lat="47.70139300000000304180503007955849170684814453125" lon="13.4839549999999999130295691429637372493743896484375">
                <ele>728.6301864000419072908698581159114837646484375</ele>
            </trkpt>
            <trkpt lat="47.70104099999999647252479917369782924652099609375" lon="13.48366299999999995407051756046712398529052734375">
                <ele>730.271016479950731081771664321422576904296875</ele>
            </trkpt>
            <trkpt lat="47.70094300000000231420926866121590137481689453125" lon="13.483710999999999557985574938356876373291015625">
                <ele>727.8619588800405608708388172090053558349609375</ele>
            </trkpt>
            <trkpt lat="47.70093399999999661531546735204756259918212890625" lon="13.48392499999999927240423858165740966796875">
                <ele>723.08383199996887924498878419399261474609375</ele>
            </trkpt>
            <trkpt lat="47.701099999999996725819073617458343505859375" lon="13.48466799999999921055859886109828948974609375">
                <ele>711.42915199997923991759307682514190673828125</ele>
            </trkpt>
            <trkpt lat="47.7013299999999986766852089203894138336181640625" lon="13.485549999999999926103555480949580669403076171875">
                <ele>700.158559999994167810655198991298675537109375</ele>
            </trkpt>
            <trkpt lat="47.70147999999999655074134352616965770721435546875" lon="13.4859729999999995442294675740413367748260498046875">
                <ele>695.189542399993342769448645412921905517578125</ele>
            </trkpt>
            <trkpt lat="47.7019090000000005602487362921237945556640625" lon="13.48649999999999948840923025272786617279052734375">
                <ele>694.7344000000184678356163203716278076171875</ele>
            </trkpt>
            <trkpt lat="47.7021050000000030877345125190913677215576171875" lon="13.486703999999999581405063509009778499603271484375">
                <ele>696.4941056000719754592864774167537689208984375</ele>
            </trkpt>
            <trkpt lat="47.70228900000000038517100620083510875701904296875" lon="13.487047000000000451791493105702102184295654296875">
                <ele>695.8122814400020388347911648452281951904296875</ele>
            </trkpt>
            <trkpt lat="47.70235199999999764486346975900232791900634765625" lon="13.4874530000000003582272256608121097087860107421875">
                <ele>691.482750079952666055760346353054046630859375</ele>
            </trkpt>
        </trkseg>
    </trk>
</gpx>
