<?xml version="1.0" encoding="UTF-8" standalone="yes"?>
<gpx xmlns:gpxtpx1="http://www.garmin.com/xmlschemas/TrackPointExtension/v1" xmlns="http://www.topografix.com/GPX/1/1" xmlns:trp="http://www.garmin.com/xmlschemas/TripExtensions/v1" xmlns:gpxx="http://www.garmin.com/xmlschemas/GpxExtensions/v3" xmlns:gpxtpx="http://www.garmin.com/xmlschemas/TrackPointExtension/v2" version="1.1" creator="Generated by Christian Pesch's RouteConverter. See http://www.routeconverter.com">
    <metadata>
        <name>2018-09-21 13:08</name>
        <link href="http://www.oruxmaps.com">
            <text>OruxMaps</text>
        </link>
        <time>2018-09-21T11:08:14Z</time>
        <bounds minlat="47.2726051" minlon="10.9173182" maxlat="47.2745612" maxlon="10.9212022"/>
    </metadata>
    <wpt lat="47.2736183" lon="10.9174812">
        <ele>776.0</ele>
        <time>2018-09-21T11:26:21.000Z</time>
        <name>0000019</name>
        <sym>Waypoint</sym>
        <type>Wegpunkt</type>
        <extensions>
            <om:oruxmapsextensions xmlns:om="http://www.oruxmaps.com/oruxmapsextensions/1/0" xmlns:gpxtpx="http://www.garmin.com/xmlschemas/TrackPointExtension/v1" xmlns:gpxtrx="http://www.garmin.com/xmlschemas/GpxExtensions/v3" xmlns:gpxx="http://www.garmin.com/xmlschemas/WaypointExtension/v1" xmlns:nmea="http://trekbuddy.net/2009/01/gpx/nmea" xmlns:rcxx="http://www.routeconverter.de/xmlschemas/RouteCatalogExtensions/1.0" xmlns:xsi="http://www.w3.org/2001/XMLSchema-instance">
                <om:ext subtype="0" type="ICON">1</om:ext>
</om:oruxmapsextensions>
        </extensions>
    </wpt>
    <trk>
        <name>2018-09-21 13:08</name>
        <desc>&lt;p&gt;Startzeit: 09/21/2018 13:08&lt;br/&gt;Zielzeit: 09/21/2018 14:52&lt;br/&gt;Strecke: 1,
4 km (01:44)&lt;br/&gt;Bewegungszeit: 00:23&lt;br/&gt;Ø-Geschwindigkeit: 0,
79 km/h&lt;br/&gt;Netto-Geschwindigkeit: 3,
54 km/h&lt;br/&gt;Max. Geschwindigkeit: 7,
83 km/h&lt;br/&gt;Minimale Höhe: 661 m&lt;br/&gt;Maximale Höhe: 897 m&lt;br/&gt;Steig-Geschw.: 196,
7 m/h&lt;br/&gt;Sink-Geschw.: -375 m/h&lt;br/&gt;Aufstieg: 224 m&lt;br/&gt;Abstieg: -224 m&lt;br/&gt;Steigzeit: 01:08&lt;br/&gt;Sinkzeit: 00:35&lt;br/&gt;&lt;/p&gt;&lt;hr align="center" width="480" style="height: 2px; width: 517px"/&gt;</desc>
        <type>Berg/ Bergsteigen</type>
        <extensions>
            <om:oruxmapsextensions xmlns:om="http://www.oruxmaps.com/oruxmapsextensions/1/0" xmlns:gpxtpx="http://www.garmin.com/xmlschemas/TrackPointExtension/v1" xmlns:gpxtrx="http://www.garmin.com/xmlschemas/GpxExtensions/v3" xmlns:gpxx="http://www.garmin.com/xmlschemas/WaypointExtension/v1" xmlns:nmea="http://trekbuddy.net/2009/01/gpx/nmea" xmlns:rcxx="http://www.routeconverter.de/xmlschemas/RouteCatalogExtensions/1.0" xmlns:xsi="http://www.w3.org/2001/XMLSchema-instance">
                <om:ext subtype="0" type="TYPE">7</om:ext>
                <om:ext type="DIFFICULTY">0</om:ext>
</om:oruxmapsextensions>
        </extensions>
        <trkseg>
            <trkpt lat="47.2728024" lon="10.9209417">
                <ele>667.9</ele>
                <time>2018-09-21T11:13:00.000Z</time>
                <name>Position 1</name>
            </trkpt>
            <trkpt lat="47.2727795" lon="10.9207873">
                <ele>668.6</ele>
                <time>2018-09-21T11:13:22.000Z</time>
                <name>Position 2</name>
            </trkpt>
            <trkpt lat="47.2728238" lon="10.9206689">
                <ele>664.6</ele>
                <time>2018-09-21T11:13:32.000Z</time>
                <name>Position 3</name>
            </trkpt>
            <trkpt lat="47.2728171" lon="10.9205363">
                <ele>666.0</ele>
                <time>2018-09-21T11:13:40.000Z</time>
                <name>Position 4</name>
            </trkpt>
            <trkpt lat="47.2728164" lon="10.9204011">
                <ele>662.1</ele>
                <time>2018-09-21T11:13:48.000Z</time>
                <name>Position 5</name>
            </trkpt>
            <trkpt lat="47.2727902" lon="10.92025">
                <ele>665.9</ele>
                <time>2018-09-21T11:14:08.000Z</time>
                <name>Position 6</name>
            </trkpt>
            <trkpt lat="47.2727585" lon="10.9200989">
                <ele>665.8</ele>
                <time>2018-09-21T11:14:20.000Z</time>
                <name>Position 7</name>
            </trkpt>
            <trkpt lat="47.2727353" lon="10.9199502">
                <ele>671.9</ele>
                <time>2018-09-21T11:14:32.000Z</time>
                <name>Position 8</name>
            </trkpt>
            <trkpt lat="47.2727136" lon="10.9198022">
                <ele>675.0</ele>
                <time>2018-09-21T11:14:42.000Z</time>
                <name>Position 9</name>
            </trkpt>
            <trkpt lat="47.2727735" lon="10.9196682">
                <ele>681.2</ele>
                <time>2018-09-21T11:14:56.000Z</time>
                <name>Position 10</name>
            </trkpt>
            <trkpt lat="47.2727074" lon="10.919538">
                <ele>686.1</ele>
                <time>2018-09-21T11:15:08.000Z</time>
                <name>Position 11</name>
            </trkpt>
            <trkpt lat="47.2726503" lon="10.9194031">
                <ele>679.1</ele>
                <time>2018-09-21T11:15:18.000Z</time>
                <name>Position 12</name>
            </trkpt>
            <trkpt lat="47.2726547" lon="10.9192563">
                <ele>676.9</ele>
                <time>2018-09-21T11:15:36.000Z</time>
                <name>Position 13</name>
            </trkpt>
            <trkpt lat="47.2726314" lon="10.9191257">
                <ele>676.3</ele>
                <time>2018-09-21T11:15:48.000Z</time>
                <name>Position 14</name>
            </trkpt>
            <trkpt lat="47.2726051" lon="10.918998">
                <ele>682.1</ele>
                <time>2018-09-21T11:16:18.000Z</time>
                <name>Position 15</name>
            </trkpt>
            <trkpt lat="47.272684" lon="10.9188959">
                <ele>676.7</ele>
                <time>2018-09-21T11:16:46.000Z</time>
                <name>Position 16</name>
            </trkpt>
            <trkpt lat="47.2727468" lon="10.9187719">
                <ele>697.4</ele>
                <time>2018-09-21T11:17:24.000Z</time>
                <name>Position 17</name>
            </trkpt>
            <trkpt lat="47.2727897" lon="10.9186543">
                <ele>705.8</ele>
                <time>2018-09-21T11:17:36.000Z</time>
                <name>Position 18</name>
            </trkpt>
            <trkpt lat="47.2728275" lon="10.9185057">
                <ele>702.2</ele>
                <time>2018-09-21T11:18:04.000Z</time>
                <name>Position 19</name>
            </trkpt>
            <trkpt lat="47.2728783" lon="10.9183856">
                <ele>706.9</ele>
                <time>2018-09-21T11:18:14.000Z</time>
                <name>Position 20</name>
            </trkpt>
            <trkpt lat="47.2728569" lon="10.9182351">
                <ele>704.6</ele>
                <time>2018-09-21T11:18:46.000Z</time>
                <name>Position 21</name>
            </trkpt>
            <trkpt lat="47.2729074" lon="10.9181085">
                <ele>721.4</ele>
                <time>2018-09-21T11:19:04.000Z</time>
                <name>Position 22</name>
            </trkpt>
            <trkpt lat="47.2729331" lon="10.9179773">
                <ele>726.6</ele>
                <time>2018-09-21T11:19:46.000Z</time>
                <name>Position 23</name>
            </trkpt>
            <trkpt lat="47.2730704" lon="10.9179814">
                <ele>733.5</ele>
                <time>2018-09-21T11:20:30.000Z</time>
                <name>Position 24</name>
            </trkpt>
            <trkpt lat="47.2731349" lon="10.9180908">
                <ele>735.0</ele>
                <time>2018-09-21T11:20:44.000Z</time>
                <name>Position 25</name>
            </trkpt>
            <trkpt lat="47.2732198" lon="10.9180456">
                <ele>740.5</ele>
                <time>2018-09-21T11:21:18.000Z</time>
                <name>Position 26</name>
            </trkpt>
            <trkpt lat="47.2733742" lon="10.9180006">
                <ele>764.5</ele>
                <time>2018-09-21T11:22:34.000Z</time>
                <name>Position 27</name>
            </trkpt>
            <trkpt lat="47.2734637" lon="10.9179383">
                <ele>765.2</ele>
                <time>2018-09-21T11:22:52.000Z</time>
                <name>Position 28</name>
            </trkpt>
            <trkpt lat="47.2735294" lon="10.9178471">
                <ele>772.9</ele>
                <time>2018-09-21T11:23:38.000Z</time>
                <name>Position 29</name>
            </trkpt>
            <trkpt lat="47.2736179" lon="10.9174799">
                <ele>775.4</ele>
                <time>2018-09-21T11:25:58.000Z</time>
                <name>Position 30</name>
            </trkpt>
            <trkpt lat="47.2737065" lon="10.9174471">
                <ele>782.3</ele>
                <time>2018-09-21T11:30:28.000Z</time>
                <name>Position 31</name>
            </trkpt>
            <trkpt lat="47.2737987" lon="10.9174455">
                <ele>807.7</ele>
                <time>2018-09-21T11:40:46.000Z</time>
                <name>Position 32</name>
            </trkpt>
            <trkpt lat="47.2738311" lon="10.9173182">
                <ele>826.3</ele>
                <time>2018-09-21T11:46:26.000Z</time>
                <name>Position 33</name>
            </trkpt>
            <trkpt lat="47.2740184" lon="10.9173943">
                <ele>829.3</ele>
                <time>2018-09-21T11:50:20.000Z</time>
                <name>Position 34</name>
            </trkpt>
            <trkpt lat="47.2740459" lon="10.9175214">
                <ele>843.1</ele>
                <time>2018-09-21T11:51:16.000Z</time>
                <name>Position 35</name>
            </trkpt>
            <trkpt lat="47.274009" lon="10.9176435">
                <ele>849.5</ele>
                <time>2018-09-21T11:52:04.000Z</time>
                <name>Position 36</name>
            </trkpt>
            <trkpt lat="47.273977" lon="10.9177783">
                <ele>848.6</ele>
                <time>2018-09-21T11:52:28.000Z</time>
                <name>Position 37</name>
            </trkpt>
            <trkpt lat="47.2739875" lon="10.9179203">
                <ele>843.5</ele>
                <time>2018-09-21T11:52:50.000Z</time>
                <name>Position 38</name>
            </trkpt>
            <trkpt lat="47.2740294" lon="10.9180397">
                <ele>839.0</ele>
                <time>2018-09-21T11:53:06.000Z</time>
                <name>Position 39</name>
            </trkpt>
            <trkpt lat="47.273958" lon="10.9181289">
                <ele>836.2</ele>
                <time>2018-09-21T11:53:44.000Z</time>
                <name>Position 40</name>
            </trkpt>
            <trkpt lat="47.2739372" lon="10.918262">
                <ele>830.3</ele>
                <time>2018-09-21T11:54:02.000Z</time>
                <name>Position 41</name>
            </trkpt>
            <trkpt lat="47.2739299" lon="10.9183988">
                <ele>823.9</ele>
                <time>2018-09-21T11:54:16.000Z</time>
                <name>Position 42</name>
            </trkpt>
            <trkpt lat="47.2739097" lon="10.9186824">
                <ele>832.7</ele>
                <time>2018-09-21T12:13:01.000Z</time>
                <name>Position 43</name>
            </trkpt>
            <trkpt lat="47.2739945" lon="10.9186256">
                <ele>847.5</ele>
                <time>2018-09-21T12:14:01.000Z</time>
                <name>Position 44</name>
            </trkpt>
            <trkpt lat="47.2740399" lon="10.9185068">
                <ele>848.3</ele>
                <time>2018-09-21T12:14:47.000Z</time>
                <name>Position 45</name>
            </trkpt>
            <trkpt lat="47.2741315" lon="10.9184555">
                <ele>846.7</ele>
                <time>2018-09-21T12:15:59.000Z</time>
                <name>Position 46</name>
            </trkpt>
            <trkpt lat="47.2741948" lon="10.9183608">
                <ele>847.4</ele>
                <time>2018-09-21T12:16:41.000Z</time>
                <name>Position 47</name>
            </trkpt>
            <trkpt lat="47.2742922" lon="10.9183706">
                <ele>867.9</ele>
                <time>2018-09-21T12:18:05.000Z</time>
                <name>Position 48</name>
            </trkpt>
            <trkpt lat="47.2743856" lon="10.918394">
                <ele>878.5</ele>
                <time>2018-09-21T12:18:29.000Z</time>
                <name>Position 49</name>
            </trkpt>
            <trkpt lat="47.2744718" lon="10.9183224">
                <ele>884.0</ele>
                <time>2018-09-21T12:21:03.000Z</time>
                <name>Position 50</name>
            </trkpt>
            <trkpt lat="47.2745478" lon="10.9182379">
                <ele>888.6</ele>
                <time>2018-09-21T12:23:55.000Z</time>
                <name>Position 51</name>
            </trkpt>
            <trkpt lat="47.2744856" lon="10.918137">
                <ele>897.4</ele>
                <time>2018-09-21T12:27:21.000Z</time>
                <name>Position 52</name>
            </trkpt>
            <trkpt lat="47.2743976" lon="10.9177257">
                <ele>870.3</ele>
                <time>2018-09-21T12:34:21.000Z</time>
                <name>Position 53</name>
            </trkpt>
            <trkpt lat="47.2743808" lon="10.9175941">
                <ele>874.9</ele>
                <time>2018-09-21T12:34:33.000Z</time>
                <name>Position 54</name>
            </trkpt>
            <trkpt lat="47.2743452" lon="10.9174641">
                <ele>868.9</ele>
                <time>2018-09-21T12:34:45.000Z</time>
                <name>Position 55</name>
            </trkpt>
            <trkpt lat="47.2740946" lon="10.9173798">
                <ele>860.8</ele>
                <time>2018-09-21T12:36:47.000Z</time>
                <name>Position 56</name>
            </trkpt>
            <trkpt lat="47.274059" lon="10.9175162">
                <ele>860.0</ele>
                <time>2018-09-21T12:36:57.000Z</time>
                <name>Position 57</name>
            </trkpt>
            <trkpt lat="47.2740349" lon="10.9177374">
                <ele>838.4</ele>
                <time>2018-09-21T12:37:51.000Z</time>
                <name>Position 58</name>
            </trkpt>
            <trkpt lat="47.2740217" lon="10.9178693">
                <ele>843.3</ele>
                <time>2018-09-21T12:38:15.000Z</time>
                <name>Position 59</name>
            </trkpt>
            <trkpt lat="47.274029" lon="10.9180042">
                <ele>836.5</ele>
                <time>2018-09-21T12:38:35.000Z</time>
                <name>Position 60</name>
            </trkpt>
            <trkpt lat="47.273989" lon="10.9180858">
                <ele>833.9</ele>
                <time>2018-09-21T12:39:01.262Z</time>
                <name>Position 61</name>
            </trkpt>
            <trkpt lat="47.2739511" lon="10.9182108">
                <ele>829.0</ele>
                <time>2018-09-21T12:39:23.320Z</time>
                <name>Position 62</name>
            </trkpt>
            <trkpt lat="47.2739387" lon="10.918352">
                <ele>827.5</ele>
                <time>2018-09-21T12:39:46.252Z</time>
                <name>Position 63</name>
            </trkpt>
            <trkpt lat="47.273925" lon="10.9185377">
                <ele>825.7</ele>
                <time>2018-09-21T12:39:58.399Z</time>
                <name>Position 64</name>
            </trkpt>
            <trkpt lat="47.2739113" lon="10.918698">
                <ele>821.9</ele>
                <time>2018-09-21T12:40:13.451Z</time>
                <name>Position 65</name>
            </trkpt>
            <trkpt lat="47.2738579" lon="10.9188271">
                <ele>806.1</ele>
                <time>2018-09-21T12:40:53.000Z</time>
                <name>Position 66</name>
            </trkpt>
            <trkpt lat="47.2737915" lon="10.9187093">
                <ele>801.7</ele>
                <time>2018-09-21T12:41:09.000Z</time>
                <name>Position 67</name>
            </trkpt>
            <trkpt lat="47.2737425" lon="10.9185658">
                <ele>793.0</ele>
                <time>2018-09-21T12:42:07.000Z</time>
                <name>Position 68</name>
            </trkpt>
            <trkpt lat="47.2736919" lon="10.9184133">
                <ele>797.2</ele>
                <time>2018-09-21T12:42:13.000Z</time>
                <name>Position 69</name>
            </trkpt>
            <trkpt lat="47.2736181" lon="10.9182749">
                <ele>793.3</ele>
                <time>2018-09-21T12:42:19.000Z</time>
                <name>Position 70</name>
            </trkpt>
            <trkpt lat="47.2735563" lon="10.9181511">
                <ele>795.3</ele>
                <time>2018-09-21T12:42:29.000Z</time>
                <name>Position 71</name>
            </trkpt>
            <trkpt lat="47.2735052" lon="10.9180368">
                <ele>786.6</ele>
                <time>2018-09-21T12:43:13.000Z</time>
                <name>Position 72</name>
            </trkpt>
            <trkpt lat="47.273407" lon="10.9180107">
                <ele>774.3</ele>
                <time>2018-09-21T12:43:39.000Z</time>
                <name>Position 73</name>
            </trkpt>
            <trkpt lat="47.2732453" lon="10.9180629">
                <ele>753.3</ele>
                <time>2018-09-21T12:44:33.000Z</time>
                <name>Position 74</name>
            </trkpt>
            <trkpt lat="47.2731544" lon="10.9180582">
                <ele>744.8</ele>
                <time>2018-09-21T12:44:59.000Z</time>
                <name>Position 75</name>
            </trkpt>
            <trkpt lat="47.2730837" lon="10.9179539">
                <ele>743.3</ele>
                <time>2018-09-21T12:45:27.000Z</time>
                <name>Position 76</name>
            </trkpt>
            <trkpt lat="47.2729937" lon="10.9179311">
                <ele>741.6</ele>
                <time>2018-09-21T12:45:43.000Z</time>
                <name>Position 77</name>
            </trkpt>
            <trkpt lat="47.2728749" lon="10.9182093">
                <ele>703.4</ele>
                <time>2018-09-21T12:48:51.000Z</time>
                <name>Position 78</name>
            </trkpt>
            <trkpt lat="47.2728729" lon="10.9183779">
                <ele>700.4</ele>
                <time>2018-09-21T12:48:59.000Z</time>
                <name>Position 79</name>
            </trkpt>
            <trkpt lat="47.272928" lon="10.9184888">
                <ele>689.7</ele>
                <time>2018-09-21T12:49:11.000Z</time>
                <name>Position 80</name>
            </trkpt>
            <trkpt lat="47.272884" lon="10.9186147">
                <ele>685.1</ele>
                <time>2018-09-21T12:49:33.000Z</time>
                <name>Position 81</name>
            </trkpt>
            <trkpt lat="47.2728114" lon="10.9187158">
                <ele>687.8</ele>
                <time>2018-09-21T12:49:41.000Z</time>
                <name>Position 82</name>
            </trkpt>
            <trkpt lat="47.2727255" lon="10.9188046">
                <ele>683.1</ele>
                <time>2018-09-21T12:50:11.000Z</time>
                <name>Position 83</name>
            </trkpt>
            <trkpt lat="47.2726624" lon="10.9189149">
                <ele>682.5</ele>
                <time>2018-09-21T12:50:31.000Z</time>
                <name>Position 84</name>
            </trkpt>
            <trkpt lat="47.2726915" lon="10.9190615">
                <ele>674.4</ele>
                <time>2018-09-21T12:50:37.000Z</time>
                <name>Position 85</name>
            </trkpt>
            <trkpt lat="47.2726856" lon="10.9192286">
                <ele>674.1</ele>
                <time>2018-09-21T12:50:45.000Z</time>
                <name>Position 86</name>
            </trkpt>
            <trkpt lat="47.272697" lon="10.9193908">
                <ele>670.6</ele>
                <time>2018-09-21T12:50:53.000Z</time>
                <name>Position 87</name>
            </trkpt>
            <trkpt lat="47.2726886" lon="10.9195302">
                <ele>674.1</ele>
                <time>2018-09-21T12:51:07.000Z</time>
                <name>Position 88</name>
            </trkpt>
            <trkpt lat="47.272654" lon="10.9196633">
                <ele>679.3</ele>
                <time>2018-09-21T12:51:15.000Z</time>
                <name>Position 89</name>
            </trkpt>
            <trkpt lat="47.2726634" lon="10.9198639">
                <ele>684.2</ele>
                <time>2018-09-21T12:51:23.000Z</time>
                <name>Position 90</name>
            </trkpt>
            <trkpt lat="47.2726955" lon="10.9200071">
                <ele>680.5</ele>
                <time>2018-09-21T12:51:29.000Z</time>
                <name>Position 91</name>
            </trkpt>
            <trkpt lat="47.272725" lon="10.9201412">
                <ele>678.5</ele>
                <time>2018-09-21T12:51:37.000Z</time>
                <name>Position 92</name>
            </trkpt>
            <trkpt lat="47.2727493" lon="10.9202933">
                <ele>676.4</ele>
                <time>2018-09-21T12:51:47.000Z</time>
                <name>Position 93</name>
            </trkpt>
            <trkpt lat="47.272755" lon="10.9204462">
                <ele>671.9</ele>
                <time>2018-09-21T12:51:59.000Z</time>
                <name>Position 94</name>
            </trkpt>
            <trkpt lat="47.2727771" lon="10.9205991">
                <ele>662.8</ele>
                <time>2018-09-21T12:52:07.000Z</time>
                <name>Position 95</name>
            </trkpt>
            <trkpt lat="47.2728166" lon="10.9207471">
                <ele>661.8</ele>
                <time>2018-09-21T12:52:13.000Z</time>
                <name>Position 96</name>
            </trkpt>
            <trkpt lat="47.2727581" lon="10.9208659">
                <ele>668.8</ele>
                <time>2018-09-21T12:52:19.000Z</time>
                <name>Position 97</name>
            </trkpt>
        </trkseg>
    </trk>
</gpx>
