<?xml version="1.0" encoding="UTF-8" standalone="yes"?>
<gpx xmlns:gpxtpx1="http://www.garmin.com/xmlschemas/TrackPointExtension/v1" xmlns="http://www.topografix.com/GPX/1/1" xmlns:trp="http://www.garmin.com/xmlschemas/TripExtensions/v1" xmlns:gpxx="http://www.garmin.com/xmlschemas/GpxExtensions/v3" xmlns:gpxtpx="http://www.garmin.com/xmlschemas/TrackPointExtension/v2" version="1.1" creator="Generated by Christian Pesch's RouteConverter. See http://www.routeconverter.com">
    <metadata>
        <name>2018-11-10 13:26</name>
        <link href="https://www.oruxmaps.com">
            <text>OruxMaps</text>
        </link>
        <time>2018-11-10T12:26:15Z</time>
        <bounds minlat="47.5375574" minlon="14.5838799" maxlat="47.5463940" maxlon="14.5933243"/>
    </metadata>
    <wpt lat="47.544255" lon="14.5855419">
        <ele>772.8</ele>
        <time>2018-11-10T12:34:17.000Z</time>
        <name>e geo</name>
        <sym>Waypoint</sym>
        <type>Wegpunkt</type>
        <extensions>
            <om:oruxmapsextensions xmlns:om="http://www.oruxmaps.com/oruxmapsextensions/1/0" xmlns:gpxtpx="http://www.garmin.com/xmlschemas/TrackPointExtension/v1" xmlns:xsi="http://www.w3.org/2001/XMLSchema-instance">
                <om:ext subtype="0" type="ICON">1</om:ext>
</om:oruxmapsextensions>
        </extensions>
    </wpt>
    <trk>
        <name>2018-11-10 13:26</name>
        <desc>&lt;p&gt;Startzeit: 11/10/2018 13:26&lt;br/&gt;Zielzeit: 11/10/2018 17:58&lt;br/&gt;Strecke: 3,
7 km (04:31)&lt;br/&gt;Bewegungszeit: 01:08&lt;br/&gt;Ø-Geschwindigkeit: 0,
82 km/h&lt;br/&gt;Netto-Geschwindigkeit: 3,
24 km/h&lt;br/&gt;Max. Geschwindigkeit: 67,
07 km/h&lt;br/&gt;Minimale Höhe: 616 m&lt;br/&gt;Maximale Höhe: 1112 m&lt;br/&gt;Steig-Geschw.: 178,
7 m/h&lt;br/&gt;Sink-Geschw.: -188,
4 m/h&lt;br/&gt;Aufstieg: 429 m&lt;br/&gt;Abstieg: -400 m&lt;br/&gt;Steigzeit: 02:24&lt;br/&gt;Sinkzeit: 02:07&lt;br/&gt;&lt;/p&gt;&lt;hr align="center" width="480" style="height: 2px; width: 517px"/&gt;</desc>
        <type>Unbestimmt</type>
        <extensions>
            <om:oruxmapsextensions xmlns:om="http://www.oruxmaps.com/oruxmapsextensions/1/0" xmlns:gpxtpx="http://www.garmin.com/xmlschemas/TrackPointExtension/v1" xmlns:xsi="http://www.w3.org/2001/XMLSchema-instance">
                <om:ext subtype="0" type="TYPE">0</om:ext>
                <om:ext type="DIFFICULTY">0</om:ext>
</om:oruxmapsextensions>
        </extensions>
        <trkseg>
            <trkpt lat="47.5397565" lon="14.5842141">
                <ele>746.1</ele>
                <time>2018-11-10T16:57:29.000Z</time>
                <name>Position 1</name>
            </trkpt>
            <trkpt lat="47.5399261" lon="14.5840984">
                <ele>745.5</ele>
                <time>2018-11-10T16:57:45.000Z</time>
                <name>Position 2</name>
            </trkpt>
            <trkpt lat="47.5400955" lon="14.5839686">
                <ele>744.7</ele>
                <time>2018-11-10T16:57:48.000Z</time>
                <name>Position 3</name>
            </trkpt>
            <trkpt lat="47.5402843" lon="14.5838956">
                <ele>745.1</ele>
                <time>2018-11-10T16:57:50.000Z</time>
                <name>Position 4</name>
            </trkpt>
            <trkpt lat="47.5405245" lon="14.5838799">
                <ele>744.1</ele>
                <time>2018-11-10T16:57:52.000Z</time>
                <name>Position 5</name>
            </trkpt>
            <trkpt lat="47.5408175" lon="14.5839434">
                <ele>741.0</ele>
                <time>2018-11-10T16:57:54.000Z</time>
                <name>Position 6</name>
            </trkpt>
            <trkpt lat="47.5411286" lon="14.5840508">
                <ele>738.0</ele>
                <time>2018-11-10T16:57:56.000Z</time>
                <name>Position 7</name>
            </trkpt>
            <trkpt lat="47.5414452" lon="14.5841643">
                <ele>735.8</ele>
                <time>2018-11-10T16:57:58.000Z</time>
                <name>Position 8</name>
            </trkpt>
            <trkpt lat="47.5417903" lon="14.5842359">
                <ele>732.1</ele>
                <time>2018-11-10T16:58:00.000Z</time>
                <name>Position 9</name>
            </trkpt>
            <trkpt lat="47.5421364" lon="14.5842227">
                <ele>729.4</ele>
                <time>2018-11-10T16:58:02.000Z</time>
                <name>Position 10</name>
            </trkpt>
            <trkpt lat="47.5423189" lon="14.5842402">
                <ele>729.0</ele>
                <time>2018-11-10T16:58:03.000Z</time>
                <name>Position 11</name>
            </trkpt>
            <trkpt lat="47.5426401" lon="14.5843953">
                <ele>726.8</ele>
                <time>2018-11-10T16:58:05.000Z</time>
                <name>Position 12</name>
            </trkpt>
            <trkpt lat="47.5429202" lon="14.5845616">
                <ele>724.9</ele>
                <time>2018-11-10T16:58:07.000Z</time>
                <name>Position 13</name>
            </trkpt>
            <trkpt lat="47.5431649" lon="14.5846257">
                <ele>723.1</ele>
                <time>2018-11-10T16:58:09.000Z</time>
                <name>Position 14</name>
            </trkpt>
            <trkpt lat="47.5434129" lon="14.5846355">
                <ele>720.5</ele>
                <time>2018-11-10T16:58:11.000Z</time>
                <name>Position 15</name>
            </trkpt>
            <trkpt lat="47.5436398" lon="14.5846545">
                <ele>718.1</ele>
                <time>2018-11-10T16:58:13.000Z</time>
                <name>Position 16</name>
            </trkpt>
            <trkpt lat="47.5437428" lon="14.5848247">
                <ele>725.0</ele>
                <time>2018-11-10T12:26:44.000Z</time>
                <name>Position 17</name>
            </trkpt>
            <trkpt lat="47.5439844" lon="14.5847884">
                <ele>728.9</ele>
                <time>2018-11-10T12:26:46.000Z</time>
                <name>Position 18</name>
            </trkpt>
            <trkpt lat="47.5441684" lon="14.5847324">
                <ele>713.1</ele>
                <time>2018-11-10T12:26:49.000Z</time>
                <name>Position 19</name>
            </trkpt>
            <trkpt lat="47.5443465" lon="14.5847916">
                <ele>722.2</ele>
                <time>2018-11-10T12:27:33.000Z</time>
                <name>Position 20</name>
            </trkpt>
            <trkpt lat="47.544517" lon="14.5846711">
                <ele>723.0</ele>
                <time>2018-11-10T12:27:56.000Z</time>
                <name>Position 21</name>
            </trkpt>
            <trkpt lat="47.5444178" lon="14.5848958">
                <ele>713.9</ele>
                <time>2018-11-10T12:29:02.000Z</time>
                <name>Position 22</name>
            </trkpt>
            <trkpt lat="47.5443115" lon="14.5851255">
                <ele>709.4</ele>
                <time>2018-11-10T12:29:51.000Z</time>
                <name>Position 23</name>
            </trkpt>
            <trkpt lat="47.5441276" lon="14.5851288">
                <ele>730.7</ele>
                <time>2018-11-10T12:31:02.000Z</time>
                <name>Position 24</name>
            </trkpt>
            <trkpt lat="47.5442491" lon="14.5853279">
                <ele>756.2</ele>
                <time>2018-11-10T12:33:44.000Z</time>
                <name>Position 25</name>
            </trkpt>
            <trkpt lat="47.5442602" lon="14.5855956">
                <ele>767.7</ele>
                <time>2018-11-10T12:35:09.000Z</time>
                <name>Position 26</name>
            </trkpt>
            <trkpt lat="47.5441058" lon="14.5854574">
                <ele>764.8</ele>
                <time>2018-11-10T12:40:12.000Z</time>
                <name>Position 27</name>
            </trkpt>
            <trkpt lat="47.5441587" lon="14.5857145">
                <ele>802.2</ele>
                <time>2018-11-10T12:46:56.000Z</time>
                <name>Position 28</name>
            </trkpt>
            <trkpt lat="47.5441879" lon="14.5859826">
                <ele>814.8</ele>
                <time>2018-11-10T12:51:11.000Z</time>
                <name>Position 29</name>
            </trkpt>
            <trkpt lat="47.5441213" lon="14.5862361">
                <ele>858.6</ele>
                <time>2018-11-10T13:11:16.000Z</time>
                <name>Position 30</name>
            </trkpt>
            <trkpt lat="47.544144" lon="14.5865021">
                <ele>885.1</ele>
                <time>2018-11-10T13:21:13.000Z</time>
                <name>Position 31</name>
            </trkpt>
            <trkpt lat="47.5441824" lon="14.5867636">
                <ele>894.6</ele>
                <time>2018-11-10T13:25:49.000Z</time>
                <name>Position 32</name>
            </trkpt>
            <trkpt lat="47.5441892" lon="14.58704">
                <ele>908.7</ele>
                <time>2018-11-10T13:32:10.000Z</time>
                <name>Position 33</name>
            </trkpt>
            <trkpt lat="47.5442965" lon="14.5872596">
                <ele>937.3</ele>
                <time>2018-11-10T13:43:09.000Z</time>
                <name>Position 34</name>
            </trkpt>
            <trkpt lat="47.5443413" lon="14.5875189">
                <ele>958.6</ele>
                <time>2018-11-10T13:51:37.000Z</time>
                <name>Position 35</name>
            </trkpt>
            <trkpt lat="47.5443607" lon="14.5877841">
                <ele>973.8</ele>
                <time>2018-11-10T13:53:07.000Z</time>
                <name>Position 36</name>
            </trkpt>
            <trkpt lat="47.5443527" lon="14.5878236">
                <ele>977.3</ele>
                <time>2018-11-10T13:57:31.000Z</time>
                <name>Position 37</name>
            </trkpt>
            <trkpt lat="47.5444155" lon="14.588075">
                <ele>999.0</ele>
                <time>2018-11-10T14:09:11.000Z</time>
                <name>Position 38</name>
            </trkpt>
            <trkpt lat="47.5444839" lon="14.5883265">
                <ele>1015.8</ele>
                <time>2018-11-10T14:13:57.000Z</time>
                <name>Position 39</name>
            </trkpt>
            <trkpt lat="47.5445299" lon="14.5885846">
                <ele>1027.7</ele>
                <time>2018-11-10T14:20:42.000Z</time>
                <name>Position 40</name>
            </trkpt>
            <trkpt lat="47.5445418" lon="14.5888535">
                <ele>1049.2</ele>
                <time>2018-11-10T14:27:28.000Z</time>
                <name>Position 41</name>
            </trkpt>
            <trkpt lat="47.5445812" lon="14.5891148">
                <ele>1065.5</ele>
                <time>2018-11-10T14:29:51.000Z</time>
                <name>Position 42</name>
            </trkpt>
            <trkpt lat="47.5446206" lon="14.5893773">
                <ele>1073.5</ele>
                <time>2018-11-10T14:30:46.000Z</time>
                <name>Position 43</name>
            </trkpt>
            <trkpt lat="47.5446756" lon="14.5896347">
                <ele>1072.0</ele>
                <time>2018-11-10T14:31:48.000Z</time>
                <name>Position 44</name>
            </trkpt>
            <trkpt lat="47.5447776" lon="14.5898569">
                <ele>1081.4</ele>
                <time>2018-11-10T14:34:13.000Z</time>
                <name>Position 45</name>
            </trkpt>
            <trkpt lat="47.5448675" lon="14.5900883">
                <ele>1088.3</ele>
                <time>2018-11-10T14:35:17.000Z</time>
                <name>Position 46</name>
            </trkpt>
            <trkpt lat="47.5449883" lon="14.5902899">
                <ele>1100.2</ele>
                <time>2018-11-10T14:36:21.000Z</time>
                <name>Position 47</name>
            </trkpt>
            <trkpt lat="47.5449598" lon="14.5905561">
                <ele>1112.0</ele>
                <time>2018-11-10T14:37:28.000Z</time>
                <name>Position 48</name>
            </trkpt>
            <trkpt lat="47.5448887" lon="14.5908061">
                <ele>1101.7</ele>
                <time>2018-11-10T14:48:20.000Z</time>
                <name>Position 49</name>
            </trkpt>
            <trkpt lat="47.5448145" lon="14.5910577">
                <ele>1099.9</ele>
                <time>2018-11-10T14:50:59.000Z</time>
                <name>Position 50</name>
            </trkpt>
            <trkpt lat="47.5447988" lon="14.5913342">
                <ele>1100.3</ele>
                <time>2018-11-10T14:51:28.000Z</time>
                <name>Position 51</name>
            </trkpt>
            <trkpt lat="47.544824" lon="14.5916006">
                <ele>1098.8</ele>
                <time>2018-11-10T14:51:54.000Z</time>
                <name>Position 52</name>
            </trkpt>
            <trkpt lat="47.5447477" lon="14.5918464">
                <ele>1097.4</ele>
                <time>2018-11-10T14:52:20.000Z</time>
                <name>Position 53</name>
            </trkpt>
            <trkpt lat="47.5447743" lon="14.592134">
                <ele>1094.1</ele>
                <time>2018-11-10T14:52:44.000Z</time>
                <name>Position 54</name>
            </trkpt>
            <trkpt lat="47.5446686" lon="14.5923496">
                <ele>1093.7</ele>
                <time>2018-11-10T14:54:47.000Z</time>
                <name>Position 55</name>
            </trkpt>
            <trkpt lat="47.5447543" lon="14.5925874">
                <ele>1088.2</ele>
                <time>2018-11-10T14:55:48.000Z</time>
                <name>Position 56</name>
            </trkpt>
            <trkpt lat="47.5447774" lon="14.592861">
                <ele>1082.3</ele>
                <time>2018-11-10T14:57:18.000Z</time>
                <name>Position 57</name>
            </trkpt>
            <trkpt lat="47.54479" lon="14.5931286">
                <ele>1079.0</ele>
                <time>2018-11-10T14:58:28.000Z</time>
                <name>Position 58</name>
            </trkpt>
            <trkpt lat="47.5446642" lon="14.5933243">
                <ele>1071.2</ele>
                <time>2018-11-10T14:59:13.000Z</time>
                <name>Position 59</name>
            </trkpt>
            <trkpt lat="47.5445497" lon="14.5931103">
                <ele>1061.0</ele>
                <time>2018-11-10T15:00:04.000Z</time>
                <name>Position 60</name>
            </trkpt>
            <trkpt lat="47.5444183" lon="14.5929188">
                <ele>1052.0</ele>
                <time>2018-11-10T15:00:37.000Z</time>
                <name>Position 61</name>
            </trkpt>
            <trkpt lat="47.5443669" lon="14.5926607">
                <ele>1046.4</ele>
                <time>2018-11-10T15:01:04.000Z</time>
                <name>Position 62</name>
            </trkpt>
            <trkpt lat="47.5443075" lon="14.5924033">
                <ele>1040.9</ele>
                <time>2018-11-10T15:01:38.000Z</time>
                <name>Position 63</name>
            </trkpt>
            <trkpt lat="47.5441595" lon="14.5922477">
                <ele>1037.1</ele>
                <time>2018-11-10T15:01:57.000Z</time>
                <name>Position 64</name>
            </trkpt>
            <trkpt lat="47.5440083" lon="14.5920878">
                <ele>1036.2</ele>
                <time>2018-11-10T15:02:17.000Z</time>
                <name>Position 65</name>
            </trkpt>
            <trkpt lat="47.5438243" lon="14.5920607">
                <ele>1033.8</ele>
                <time>2018-11-10T15:02:35.000Z</time>
                <name>Position 66</name>
            </trkpt>
            <trkpt lat="47.5436389" lon="14.5920425">
                <ele>1026.6</ele>
                <time>2018-11-10T15:03:03.000Z</time>
                <name>Position 67</name>
            </trkpt>
            <trkpt lat="47.5434633" lon="14.5919719">
                <ele>1019.6</ele>
                <time>2018-11-10T15:03:26.000Z</time>
                <name>Position 68</name>
            </trkpt>
            <trkpt lat="47.5432827" lon="14.5919139">
                <ele>1014.9</ele>
                <time>2018-11-10T15:03:43.000Z</time>
                <name>Position 69</name>
            </trkpt>
            <trkpt lat="47.5431448" lon="14.5917156">
                <ele>1008.1</ele>
                <time>2018-11-10T15:04:03.000Z</time>
                <name>Position 70</name>
            </trkpt>
            <trkpt lat="47.543212" lon="14.591464">
                <ele>1001.2</ele>
                <time>2018-11-10T15:04:25.000Z</time>
                <name>Position 71</name>
            </trkpt>
            <trkpt lat="47.5432483" lon="14.5911941">
                <ele>992.8</ele>
                <time>2018-11-10T15:04:52.000Z</time>
                <name>Position 72</name>
            </trkpt>
            <trkpt lat="47.5433744" lon="14.5910027">
                <ele>982.2</ele>
                <time>2018-11-10T15:05:20.000Z</time>
                <name>Position 73</name>
            </trkpt>
            <trkpt lat="47.5434588" lon="14.5907493">
                <ele>973.9</ele>
                <time>2018-11-10T15:05:42.000Z</time>
                <name>Position 74</name>
            </trkpt>
            <trkpt lat="47.5435389" lon="14.5905009">
                <ele>968.0</ele>
                <time>2018-11-10T15:06:04.000Z</time>
                <name>Position 75</name>
            </trkpt>
            <trkpt lat="47.5433528" lon="14.590423">
                <ele>953.8</ele>
                <time>2018-11-10T15:06:54.000Z</time>
                <name>Position 76</name>
            </trkpt>
            <trkpt lat="47.5432179" lon="14.5902328">
                <ele>951.6</ele>
                <time>2018-11-10T15:07:09.000Z</time>
                <name>Position 77</name>
            </trkpt>
            <trkpt lat="47.5430664" lon="14.5900443">
                <ele>951.4</ele>
                <time>2018-11-10T15:07:16.000Z</time>
                <name>Position 78</name>
            </trkpt>
            <trkpt lat="47.542902" lon="14.5899312">
                <ele>949.3</ele>
                <time>2018-11-10T15:07:30.000Z</time>
                <name>Position 79</name>
            </trkpt>
            <trkpt lat="47.5427192" lon="14.5899378">
                <ele>944.7</ele>
                <time>2018-11-10T15:07:50.000Z</time>
                <name>Position 80</name>
            </trkpt>
            <trkpt lat="47.5425229" lon="14.5899578">
                <ele>941.4</ele>
                <time>2018-11-10T15:08:10.000Z</time>
                <name>Position 81</name>
            </trkpt>
            <trkpt lat="47.5423565" lon="14.5898321">
                <ele>939.5</ele>
                <time>2018-11-10T15:08:25.000Z</time>
                <name>Position 82</name>
            </trkpt>
            <trkpt lat="47.5421818" lon="14.5897354">
                <ele>935.0</ele>
                <time>2018-11-10T15:08:47.000Z</time>
                <name>Position 83</name>
            </trkpt>
            <trkpt lat="47.5420044" lon="14.589822">
                <ele>927.5</ele>
                <time>2018-11-10T15:09:12.000Z</time>
                <name>Position 84</name>
            </trkpt>
            <trkpt lat="47.5420262" lon="14.5895377">
                <ele>925.3</ele>
                <time>2018-11-10T15:09:31.000Z</time>
                <name>Position 85</name>
            </trkpt>
            <trkpt lat="47.5421657" lon="14.5893606">
                <ele>923.7</ele>
                <time>2018-11-10T15:09:47.000Z</time>
                <name>Position 86</name>
            </trkpt>
            <trkpt lat="47.5419896" lon="14.5894708">
                <ele>924.2</ele>
                <time>2018-11-10T15:10:54.000Z</time>
                <name>Position 87</name>
            </trkpt>
            <trkpt lat="47.5418845" lon="14.5896965">
                <ele>920.0</ele>
                <time>2018-11-10T15:11:27.000Z</time>
                <name>Position 88</name>
            </trkpt>
            <trkpt lat="47.5418452" lon="14.5899619">
                <ele>913.1</ele>
                <time>2018-11-10T15:11:48.000Z</time>
                <name>Position 89</name>
            </trkpt>
            <trkpt lat="47.5418211" lon="14.5902309">
                <ele>908.7</ele>
                <time>2018-11-10T15:12:06.000Z</time>
                <name>Position 90</name>
            </trkpt>
            <trkpt lat="47.5417072" lon="14.590441">
                <ele>904.0</ele>
                <time>2018-11-10T15:13:04.000Z</time>
                <name>Position 91</name>
            </trkpt>
            <trkpt lat="47.5416648" lon="14.590716">
                <ele>901.0</ele>
                <time>2018-11-10T15:13:31.000Z</time>
                <name>Position 92</name>
            </trkpt>
            <trkpt lat="47.5416603" lon="14.5909951">
                <ele>898.0</ele>
                <time>2018-11-10T15:14:00.000Z</time>
                <name>Position 93</name>
            </trkpt>
            <trkpt lat="47.5416634" lon="14.5912699">
                <ele>894.9</ele>
                <time>2018-11-10T15:14:20.000Z</time>
                <name>Position 94</name>
            </trkpt>
            <trkpt lat="47.5416201" lon="14.5915324">
                <ele>892.5</ele>
                <time>2018-11-10T15:14:33.000Z</time>
                <name>Position 95</name>
            </trkpt>
            <trkpt lat="47.541531" lon="14.5917845">
                <ele>891.5</ele>
                <time>2018-11-10T15:14:52.000Z</time>
                <name>Position 96</name>
            </trkpt>
            <trkpt lat="47.5415696" lon="14.592047">
                <ele>887.5</ele>
                <time>2018-11-10T15:15:12.000Z</time>
                <name>Position 97</name>
            </trkpt>
            <trkpt lat="47.5414724" lon="14.5922792">
                <ele>884.6</ele>
                <time>2018-11-10T15:15:25.000Z</time>
                <name>Position 98</name>
            </trkpt>
            <trkpt lat="47.5412946" lon="14.5924055">
                <ele>882.8</ele>
                <time>2018-11-10T15:15:45.000Z</time>
                <name>Position 99</name>
            </trkpt>
            <trkpt lat="47.5411076" lon="14.5924157">
                <ele>881.7</ele>
                <time>2018-11-10T15:15:58.000Z</time>
                <name>Position 100</name>
            </trkpt>
            <trkpt lat="47.5410557" lon="14.5921475">
                <ele>873.2</ele>
                <time>2018-11-10T15:16:31.000Z</time>
                <name>Position 101</name>
            </trkpt>
            <trkpt lat="47.540915" lon="14.5919719">
                <ele>870.8</ele>
                <time>2018-11-10T15:16:47.000Z</time>
                <name>Position 102</name>
            </trkpt>
            <trkpt lat="47.5407353" lon="14.5919303">
                <ele>865.9</ele>
                <time>2018-11-10T15:17:11.000Z</time>
                <name>Position 103</name>
            </trkpt>
            <trkpt lat="47.5405847" lon="14.5917774">
                <ele>861.5</ele>
                <time>2018-11-10T15:17:27.000Z</time>
                <name>Position 104</name>
            </trkpt>
            <trkpt lat="47.5405492" lon="14.5915155">
                <ele>854.8</ele>
                <time>2018-11-10T15:17:48.000Z</time>
                <name>Position 105</name>
            </trkpt>
            <trkpt lat="47.5403692" lon="14.5914657">
                <ele>848.7</ele>
                <time>2018-11-10T15:18:30.000Z</time>
                <name>Position 106</name>
            </trkpt>
            <trkpt lat="47.5401936" lon="14.5915232">
                <ele>846.7</ele>
                <time>2018-11-10T15:18:54.000Z</time>
                <name>Position 107</name>
            </trkpt>
            <trkpt lat="47.5400416" lon="14.5913694">
                <ele>845.3</ele>
                <time>2018-11-10T15:19:20.000Z</time>
                <name>Position 108</name>
            </trkpt>
            <trkpt lat="47.5400722" lon="14.5911025">
                <ele>842.0</ele>
                <time>2018-11-10T15:19:47.000Z</time>
                <name>Position 109</name>
            </trkpt>
            <trkpt lat="47.5400305" lon="14.5908423">
                <ele>838.5</ele>
                <time>2018-11-10T15:21:17.000Z</time>
                <name>Position 110</name>
            </trkpt>
            <trkpt lat="47.5401391" lon="14.5906174">
                <ele>835.3</ele>
                <time>2018-11-10T15:21:34.000Z</time>
                <name>Position 111</name>
            </trkpt>
            <trkpt lat="47.5402802" lon="14.5904299">
                <ele>833.1</ele>
                <time>2018-11-10T15:21:50.000Z</time>
                <name>Position 112</name>
            </trkpt>
            <trkpt lat="47.5403769" lon="14.5901976">
                <ele>830.9</ele>
                <time>2018-11-10T15:22:05.000Z</time>
                <name>Position 113</name>
            </trkpt>
            <trkpt lat="47.5401987" lon="14.5901522">
                <ele>828.6</ele>
                <time>2018-11-10T15:22:44.000Z</time>
                <name>Position 114</name>
            </trkpt>
            <trkpt lat="47.5400065" lon="14.5902497">
                <ele>827.3</ele>
                <time>2018-11-10T15:22:55.000Z</time>
                <name>Position 115</name>
            </trkpt>
            <trkpt lat="47.539827" lon="14.5903135">
                <ele>826.1</ele>
                <time>2018-11-10T15:23:16.000Z</time>
                <name>Position 116</name>
            </trkpt>
            <trkpt lat="47.539634" lon="14.5903527">
                <ele>823.6</ele>
                <time>2018-11-10T15:23:33.000Z</time>
                <name>Position 117</name>
            </trkpt>
            <trkpt lat="47.5394425" lon="14.590378">
                <ele>822.1</ele>
                <time>2018-11-10T15:23:46.000Z</time>
                <name>Position 118</name>
            </trkpt>
            <trkpt lat="47.5392745" lon="14.5904786">
                <ele>820.7</ele>
                <time>2018-11-10T15:24:04.000Z</time>
                <name>Position 119</name>
            </trkpt>
            <trkpt lat="47.5391619" lon="14.5906913">
                <ele>819.3</ele>
                <time>2018-11-10T15:24:18.000Z</time>
                <name>Position 120</name>
            </trkpt>
            <trkpt lat="47.5389767" lon="14.5907408">
                <ele>814.4</ele>
                <time>2018-11-10T15:24:49.000Z</time>
                <name>Position 121</name>
            </trkpt>
            <trkpt lat="47.5388112" lon="14.5908674">
                <ele>810.6</ele>
                <time>2018-11-10T15:25:09.000Z</time>
                <name>Position 122</name>
            </trkpt>
            <trkpt lat="47.5386293" lon="14.5908099">
                <ele>806.4</ele>
                <time>2018-11-10T15:25:27.000Z</time>
                <name>Position 123</name>
            </trkpt>
            <trkpt lat="47.538445" lon="14.5908007">
                <ele>805.0</ele>
                <time>2018-11-10T15:25:41.000Z</time>
                <name>Position 124</name>
            </trkpt>
            <trkpt lat="47.5382797" lon="14.5906812">
                <ele>801.6</ele>
                <time>2018-11-10T15:25:59.000Z</time>
                <name>Position 125</name>
            </trkpt>
            <trkpt lat="47.5380972" lon="14.5906237">
                <ele>799.6</ele>
                <time>2018-11-10T15:26:17.000Z</time>
                <name>Position 126</name>
            </trkpt>
            <trkpt lat="47.5379815" lon="14.5904134">
                <ele>796.0</ele>
                <time>2018-11-10T15:27:24.000Z</time>
                <name>Position 127</name>
            </trkpt>
            <trkpt lat="47.5379734" lon="14.5901462">
                <ele>793.0</ele>
                <time>2018-11-10T15:27:39.000Z</time>
                <name>Position 128</name>
            </trkpt>
            <trkpt lat="47.5379532" lon="14.5898814">
                <ele>791.2</ele>
                <time>2018-11-10T15:27:54.000Z</time>
                <name>Position 129</name>
            </trkpt>
            <trkpt lat="47.5379847" lon="14.5896017">
                <ele>789.0</ele>
                <time>2018-11-10T15:28:13.000Z</time>
                <name>Position 130</name>
            </trkpt>
            <trkpt lat="47.5378469" lon="14.5894224">
                <ele>784.3</ele>
                <time>2018-11-10T15:28:41.000Z</time>
                <name>Position 131</name>
            </trkpt>
            <trkpt lat="47.5376657" lon="14.589456">
                <ele>783.2</ele>
                <time>2018-11-10T15:28:58.000Z</time>
                <name>Position 132</name>
            </trkpt>
            <trkpt lat="47.5375574" lon="14.5892363">
                <ele>779.8</ele>
                <time>2018-11-10T15:29:12.000Z</time>
                <name>Position 133</name>
            </trkpt>
            <trkpt lat="47.5376056" lon="14.5889724">
                <ele>778.4</ele>
                <time>2018-11-10T15:29:27.000Z</time>
                <name>Position 134</name>
            </trkpt>
            <trkpt lat="47.5377442" lon="14.5888013">
                <ele>775.5</ele>
                <time>2018-11-10T15:29:42.000Z</time>
                <name>Position 135</name>
            </trkpt>
            <trkpt lat="47.5378965" lon="14.5886432">
                <ele>774.1</ele>
                <time>2018-11-10T15:29:56.000Z</time>
                <name>Position 136</name>
            </trkpt>
            <trkpt lat="47.5379474" lon="14.5883822">
                <ele>772.3</ele>
                <time>2018-11-10T15:30:13.000Z</time>
                <name>Position 137</name>
            </trkpt>
            <trkpt lat="47.5380136" lon="14.5881234">
                <ele>770.2</ele>
                <time>2018-11-10T15:30:28.000Z</time>
                <name>Position 138</name>
            </trkpt>
            <trkpt lat="47.538053" lon="14.5878462">
                <ele>769.1</ele>
                <time>2018-11-10T15:30:42.000Z</time>
                <name>Position 139</name>
            </trkpt>
            <trkpt lat="47.5381578" lon="14.5876132">
                <ele>766.8</ele>
                <time>2018-11-10T15:30:57.000Z</time>
                <name>Position 140</name>
            </trkpt>
            <trkpt lat="47.5382637" lon="14.5873742">
                <ele>763.7</ele>
                <time>2018-11-10T15:31:14.000Z</time>
                <name>Position 141</name>
            </trkpt>
            <trkpt lat="47.5383622" lon="14.5871217">
                <ele>762.5</ele>
                <time>2018-11-10T15:31:30.000Z</time>
                <name>Position 142</name>
            </trkpt>
            <trkpt lat="47.538508" lon="14.5869547">
                <ele>761.7</ele>
                <time>2018-11-10T15:31:45.000Z</time>
                <name>Position 143</name>
            </trkpt>
            <trkpt lat="47.5386113" lon="14.5867341">
                <ele>761.5</ele>
                <time>2018-11-10T15:32:02.000Z</time>
                <name>Position 144</name>
            </trkpt>
            <trkpt lat="47.5387431" lon="14.5865472">
                <ele>760.4</ele>
                <time>2018-11-10T15:32:17.000Z</time>
                <name>Position 145</name>
            </trkpt>
            <trkpt lat="47.5388264" lon="14.5863054">
                <ele>759.7</ele>
                <time>2018-11-10T15:32:34.000Z</time>
                <name>Position 146</name>
            </trkpt>
            <trkpt lat="47.5389045" lon="14.5860507">
                <ele>758.5</ele>
                <time>2018-11-10T15:32:48.000Z</time>
                <name>Position 147</name>
            </trkpt>
            <trkpt lat="47.5390107" lon="14.5858302">
                <ele>757.2</ele>
                <time>2018-11-10T15:33:03.000Z</time>
                <name>Position 148</name>
            </trkpt>
            <trkpt lat="47.5390963" lon="14.5855881">
                <ele>755.2</ele>
                <time>2018-11-10T15:33:19.000Z</time>
                <name>Position 149</name>
            </trkpt>
            <trkpt lat="47.5391371" lon="14.5853107">
                <ele>753.6</ele>
                <time>2018-11-10T15:33:35.000Z</time>
                <name>Position 150</name>
            </trkpt>
            <trkpt lat="47.5392278" lon="14.5850794">
                <ele>752.8</ele>
                <time>2018-11-10T15:33:50.000Z</time>
                <name>Position 151</name>
            </trkpt>
            <trkpt lat="47.5393491" lon="14.5848633">
                <ele>750.5</ele>
                <time>2018-11-10T15:34:04.000Z</time>
                <name>Position 152</name>
            </trkpt>
            <trkpt lat="47.5394447" lon="14.5846306">
                <ele>749.7</ele>
                <time>2018-11-10T15:34:49.000Z</time>
                <name>Position 153</name>
            </trkpt>
            <trkpt lat="47.5394748" lon="14.5843476">
                <ele>749.3</ele>
                <time>2018-11-10T15:35:19.000Z</time>
                <name>Position 154</name>
            </trkpt>
            <trkpt lat="47.5395895" lon="14.5843266">
                <ele>746.3</ele>
                <time>2018-11-10T16:57:22.000Z</time>
                <name>Position 155</name>
            </trkpt>
        </trkseg>
    </trk>
</gpx>
