<?xml version="1.0" encoding="UTF-8" standalone="yes"?>
<gpx xmlns:gpxtpx1="http://www.garmin.com/xmlschemas/TrackPointExtension/v1" xmlns="http://www.topografix.com/GPX/1/1" xmlns:trp="http://www.garmin.com/xmlschemas/TripExtensions/v1" xmlns:gpxx="http://www.garmin.com/xmlschemas/GpxExtensions/v3" xmlns:gpxtpx="http://www.garmin.com/xmlschemas/TrackPointExtension/v2" version="1.1" creator="Generated by Christian Pesch's RouteConverter. See http://www.routeconverter.com">
    <metadata>
        <name>mauerkarspitze klettersteig</name>
        <link href="alpenkarte.eu">
            <text>Route von alpenkarte.eu</text>
        </link>
        <bounds minlat="47.15050000000000096633812063373625278472900390625" minlon="13.0456289999999999196234057308174669742584228515625" maxlat="47.15529500000000240333974943496286869049072265625" maxlon="13.0601800000000007884182195994071662425994873046875"/>
    </metadata>
    <trk>
        <name>mauerkarspitze klettersteig</name>
        <trkseg>
            <trkpt lat="47.15427" lon="13.060163">
                <ele>2051.4</ele>
                <name>Position 1</name>
            </trkpt>
            <trkpt lat="47.154241" lon="13.060113">
                <ele>2051.2</ele>
                <name>Position 2</name>
            </trkpt>
            <trkpt lat="47.154244" lon="13.059937">
                <ele>2052.8</ele>
                <name>Position 3</name>
            </trkpt>
            <trkpt lat="47.154326" lon="13.059625">
                <ele>2059.2</ele>
                <name>Position 4</name>
            </trkpt>
            <trkpt lat="47.154302" lon="13.059547">
                <ele>2060.2</ele>
                <name>Position 5</name>
            </trkpt>
            <trkpt lat="47.154285" lon="13.059401">
                <ele>2062.5</ele>
                <name>Position 6</name>
            </trkpt>
            <trkpt lat="47.154183" lon="13.059222">
                <ele>2064.6</ele>
                <name>Position 7</name>
            </trkpt>
            <trkpt lat="47.154067" lon="13.059087">
                <ele>2064.9</ele>
                <name>Position 8</name>
            </trkpt>
            <trkpt lat="47.153933" lon="13.059013">
                <ele>2062.9</ele>
                <name>Position 9</name>
            </trkpt>
            <trkpt lat="47.153821" lon="13.059047">
                <ele>2059.1</ele>
                <name>Position 10</name>
            </trkpt>
            <trkpt lat="47.153605" lon="13.059205">
                <ele>2050.6</ele>
                <name>Position 11</name>
            </trkpt>
            <trkpt lat="47.153445" lon="13.05925">
                <ele>2045.6</ele>
                <name>Position 12</name>
            </trkpt>
            <trkpt lat="47.153272" lon="13.05917">
                <ele>2042.4</ele>
                <name>Position 13</name>
            </trkpt>
            <trkpt lat="47.153071" lon="13.058926">
                <ele>2038.5</ele>
                <name>Position 14</name>
            </trkpt>
            <trkpt lat="47.152979" lon="13.05875">
                <ele>2037.3</ele>
                <name>Position 15</name>
            </trkpt>
            <trkpt lat="47.152927" lon="13.058297">
                <ele>2040.1</ele>
                <name>Position 16</name>
            </trkpt>
            <trkpt lat="47.152938" lon="13.058112">
                <ele>2041.9</ele>
                <name>Position 17</name>
            </trkpt>
            <trkpt lat="47.152938" lon="13.058112">
                <ele>2041.9</ele>
                <name>Position 18</name>
            </trkpt>
            <trkpt lat="47.152955" lon="13.057841">
                <ele>2044.4</ele>
                <name>Position 19</name>
            </trkpt>
            <trkpt lat="47.153033" lon="13.057585">
                <ele>2048.4</ele>
                <name>Position 20</name>
            </trkpt>
            <trkpt lat="47.153294" lon="13.057074">
                <ele>2060.3</ele>
                <name>Position 21</name>
            </trkpt>
            <trkpt lat="47.153363" lon="13.056835">
                <ele>2065.2</ele>
                <name>Position 22</name>
            </trkpt>
            <trkpt lat="47.15335" lon="13.056636">
                <ele>2066.7</ele>
                <name>Position 23</name>
            </trkpt>
            <trkpt lat="47.153279" lon="13.056471">
                <ele>2067.0</ele>
                <name>Position 24</name>
            </trkpt>
            <trkpt lat="47.153152" lon="13.056398">
                <ele>2065.9</ele>
                <name>Position 25</name>
            </trkpt>
            <trkpt lat="47.153002" lon="13.056403">
                <ele>2063.5</ele>
                <name>Position 26</name>
            </trkpt>
            <trkpt lat="47.152829" lon="13.056476">
                <ele>2059.5</ele>
                <name>Position 27</name>
            </trkpt>
            <trkpt lat="47.152441" lon="13.056499">
                <ele>2052.8</ele>
                <name>Position 28</name>
            </trkpt>
            <trkpt lat="47.152292" lon="13.056537">
                <ele>2049.6</ele>
                <name>Position 29</name>
            </trkpt>
            <trkpt lat="47.152081" lon="13.056413">
                <ele>2048.8</ele>
                <name>Position 30</name>
            </trkpt>
            <trkpt lat="47.151899" lon="13.056013">
                <ele>2054.7</ele>
                <name>Position 31</name>
            </trkpt>
            <trkpt lat="47.151761" lon="13.055918">
                <ele>2054.8</ele>
                <name>Position 32</name>
            </trkpt>
            <trkpt lat="47.151524" lon="13.056005">
                <ele>2049.7</ele>
                <name>Position 33</name>
            </trkpt>
            <trkpt lat="47.151392" lon="13.055911">
                <ele>2049.9</ele>
                <name>Position 34</name>
            </trkpt>
            <trkpt lat="47.151036" lon="13.054942">
                <ele>2070.9</ele>
                <name>Position 35</name>
            </trkpt>
            <trkpt lat="47.150929" lon="13.054595">
                <ele>2080.9</ele>
                <name>Position 36</name>
            </trkpt>
            <trkpt lat="47.150711" lon="13.054067">
                <ele>2089.4</ele>
                <name>Position 37</name>
            </trkpt>
            <trkpt lat="47.150699" lon="13.053654">
                <ele>2098.9</ele>
                <name>Position 38</name>
            </trkpt>
            <trkpt lat="47.15058" lon="13.052951">
                <ele>2107.2</ele>
                <name>Position 39</name>
            </trkpt>
            <trkpt lat="47.1505" lon="13.051725">
                <ele>2127.3</ele>
                <name>Position 40</name>
            </trkpt>
            <trkpt lat="47.150583" lon="13.051247">
                <ele>2135.7</ele>
                <name>Position 41</name>
            </trkpt>
            <trkpt lat="47.150842" lon="13.050501">
                <ele>2148.7</ele>
                <name>Position 42</name>
            </trkpt>
            <trkpt lat="47.151348" lon="13.049688">
                <ele>2177.0</ele>
                <name>Position 43</name>
            </trkpt>
            <trkpt lat="47.151492" lon="13.049224">
                <ele>2184.1</ele>
                <name>Position 44</name>
            </trkpt>
            <trkpt lat="47.151435" lon="13.048097">
                <ele>2200.6</ele>
                <name>Position 45</name>
            </trkpt>
            <trkpt lat="47.151546" lon="13.047654">
                <ele>2211.1</ele>
                <name>Position 46</name>
            </trkpt>
            <trkpt lat="47.151899" lon="13.046932">
                <ele>2231.5</ele>
                <name>Position 47</name>
            </trkpt>
            <trkpt lat="47.15249" lon="13.045629">
                <ele>2267.4</ele>
                <name>Position 48</name>
            </trkpt>
            <trkpt lat="47.15295" lon="13.04586">
                <ele>2277.5</ele>
                <name>Position 49</name>
            </trkpt>
            <trkpt lat="47.1536676" lon="13.0465134">
                <ele>2289.1</ele>
                <name>Position 50</name>
            </trkpt>
            <trkpt lat="47.1537477" lon="13.0466944">
                <ele>2302.9</ele>
                <name>Position 51</name>
            </trkpt>
            <trkpt lat="47.15406" lon="13.04684">
                <ele>2321.7</ele>
                <name>Position 52</name>
            </trkpt>
            <trkpt lat="47.1542103" lon="13.0473813">
                <ele>2332.9</ele>
                <name>Position 53</name>
            </trkpt>
            <trkpt lat="47.15419" lon="13.048">
                <ele>2327.7</ele>
                <name>Position 54</name>
            </trkpt>
            <trkpt lat="47.1545319" lon="13.0484073">
                <ele>2296.7</ele>
                <name>Position 55</name>
            </trkpt>
            <trkpt lat="47.1546746" lon="13.0483989">
                <ele>2276.1</ele>
                <name>Position 56</name>
            </trkpt>
            <trkpt lat="47.1547038" lon="13.0488817">
                <ele>2255.0</ele>
                <name>57 Hermann-Kreilinger-Steig, 5630 Salzburg, Österreich</name>
            </trkpt>
            <trkpt lat="47.1548862" lon="13.0493215">
                <ele>2234.0</ele>
                <name>58 Hermann-Kreilinger-Steig, 5630 Salzburg, Österreich</name>
            </trkpt>
            <trkpt lat="47.155034" lon="13.049846">
                <ele>2240.8</ele>
                <name>Position 59</name>
            </trkpt>
            <trkpt lat="47.1548516" lon="13.0497173">
                <ele>2237.0</ele>
                <name>60 Hermann-Kreilinger-Steig, 5630 Salzburg, Österreich</name>
            </trkpt>
            <trkpt lat="47.1551872" lon="13.0500713">
                <ele>2221.0</ele>
                <name>60 Hermann-Kreilinger-Steig, 5630 Salzburg, Österreich</name>
            </trkpt>
            <trkpt lat="47.15527" lon="13.05051">
                <ele>2203.8</ele>
                <name>Position 62</name>
            </trkpt>
            <trkpt lat="47.155295" lon="13.050579">
                <ele>2201.7</ele>
                <name>Position 63</name>
            </trkpt>
            <trkpt lat="47.155277" lon="13.050594">
                <ele>2202.7</ele>
                <name>Position 64</name>
            </trkpt>
            <trkpt lat="47.155204" lon="13.05058">
                <ele>2207.7</ele>
                <name>Position 65</name>
            </trkpt>
            <trkpt lat="47.155111" lon="13.050642">
                <ele>2213.1</ele>
                <name>Position 66</name>
            </trkpt>
            <trkpt lat="47.155076" lon="13.050725">
                <ele>2214.4</ele>
                <name>Position 67</name>
            </trkpt>
            <trkpt lat="47.15495" lon="13.050696">
                <ele>2219.6</ele>
                <name>Position 68</name>
            </trkpt>
            <trkpt lat="47.15495" lon="13.050741">
                <ele>2218.8</ele>
                <name>Position 69</name>
            </trkpt>
            <trkpt lat="47.154852" lon="13.050776">
                <ele>2218.0</ele>
                <name>Position 70</name>
            </trkpt>
            <trkpt lat="47.154853" lon="13.051079">
                <ele>2215.0</ele>
                <name>Position 71</name>
            </trkpt>
            <trkpt lat="47.154764" lon="13.05116">
                <ele>2212.6</ele>
                <name>Position 72</name>
            </trkpt>
            <trkpt lat="47.15474" lon="13.051364">
                <ele>2209.8</ele>
                <name>Position 73</name>
            </trkpt>
            <trkpt lat="47.154664" lon="13.051406">
                <ele>2206.9</ele>
                <name>Position 74</name>
            </trkpt>
            <trkpt lat="47.154624" lon="13.051541">
                <ele>2203.4</ele>
                <name>Position 75</name>
            </trkpt>
            <trkpt lat="47.154677" lon="13.051605">
                <ele>2204.4</ele>
                <name>Position 76</name>
            </trkpt>
            <trkpt lat="47.154624" lon="13.05173">
                <ele>2200.4</ele>
                <name>Position 77</name>
            </trkpt>
            <trkpt lat="47.154589" lon="13.051878">
                <ele>2196.8</ele>
                <name>Position 78</name>
            </trkpt>
            <trkpt lat="47.154565" lon="13.052065">
                <ele>2193.1</ele>
                <name>Position 79</name>
            </trkpt>
            <trkpt lat="47.154524" lon="13.052147">
                <ele>2189.9</ele>
                <name>Position 80</name>
            </trkpt>
            <trkpt lat="47.154397" lon="13.052694">
                <ele>2177.3</ele>
                <name>Position 81</name>
            </trkpt>
            <trkpt lat="47.154129" lon="13.053257">
                <ele>2162.9</ele>
                <name>Position 82</name>
            </trkpt>
            <trkpt lat="47.1541" lon="13.053244">
                <ele>2161.7</ele>
                <name>Position 83</name>
            </trkpt>
            <trkpt lat="47.154084" lon="13.053">
                <ele>2162.1</ele>
                <name>Position 84</name>
            </trkpt>
            <trkpt lat="47.154021" lon="13.052918">
                <ele>2160.4</ele>
                <name>Position 85</name>
            </trkpt>
            <trkpt lat="47.15392" lon="13.052839">
                <ele>2158.1</ele>
                <name>Position 86</name>
            </trkpt>
            <trkpt lat="47.1538" lon="13.052813">
                <ele>2155.1</ele>
                <name>Position 87</name>
            </trkpt>
            <trkpt lat="47.153798" lon="13.052851">
                <ele>2154.5</ele>
                <name>Position 88</name>
            </trkpt>
            <trkpt lat="47.153828" lon="13.052936">
                <ele>2154.2</ele>
                <name>Position 89</name>
            </trkpt>
            <trkpt lat="47.153832" lon="13.053063">
                <ele>2152.5</ele>
                <name>Position 90</name>
            </trkpt>
            <trkpt lat="47.153808" lon="13.053047">
                <ele>2151.9</ele>
                <name>Position 91</name>
            </trkpt>
            <trkpt lat="47.153754" lon="13.05322">
                <ele>2147.1</ele>
                <name>Position 92</name>
            </trkpt>
            <trkpt lat="47.153734" lon="13.053083">
                <ele>2148.6</ele>
                <name>Position 93</name>
            </trkpt>
            <trkpt lat="47.153566" lon="13.053485">
                <ele>2135.9</ele>
                <name>Position 94</name>
            </trkpt>
            <trkpt lat="47.153527" lon="13.053629">
                <ele>2133.1</ele>
                <name>Position 95</name>
            </trkpt>
            <trkpt lat="47.153505" lon="13.05381">
                <ele>2130.8</ele>
                <name>Position 96</name>
            </trkpt>
            <trkpt lat="47.153649" lon="13.054277">
                <ele>2137.5</ele>
                <name>Position 97</name>
            </trkpt>
            <trkpt lat="47.153776" lon="13.054512">
                <ele>2141.4</ele>
                <name>Position 98</name>
            </trkpt>
            <trkpt lat="47.153757" lon="13.054558">
                <ele>2138.5</ele>
                <name>Position 99</name>
            </trkpt>
            <trkpt lat="47.153819" lon="13.054684">
                <ele>2140.1</ele>
                <name>Position 100</name>
            </trkpt>
            <trkpt lat="47.153803" lon="13.05495">
                <ele>2131.2</ele>
                <name>Position 101</name>
            </trkpt>
            <trkpt lat="47.154014" lon="13.055765">
                <ele>2113.6</ele>
                <name>Position 102</name>
            </trkpt>
            <trkpt lat="47.154124" lon="13.055931">
                <ele>2115.0</ele>
                <name>Position 103</name>
            </trkpt>
            <trkpt lat="47.154222" lon="13.056425">
                <ele>2113.1</ele>
                <name>Position 104</name>
            </trkpt>
            <trkpt lat="47.154195" lon="13.056621">
                <ele>2109.3</ele>
                <name>Position 105</name>
            </trkpt>
            <trkpt lat="47.154233" lon="13.056931">
                <ele>2108.3</ele>
                <name>Position 106</name>
            </trkpt>
            <trkpt lat="47.154229" lon="13.057315">
                <ele>2105.4</ele>
                <name>Position 107</name>
            </trkpt>
            <trkpt lat="47.154268" lon="13.05753">
                <ele>2103.7</ele>
                <name>Position 108</name>
            </trkpt>
            <trkpt lat="47.154441" lon="13.05782">
                <ele>2098.3</ele>
                <name>Position 109</name>
            </trkpt>
            <trkpt lat="47.154661" lon="13.05806">
                <ele>2093.0</ele>
                <name>Position 110</name>
            </trkpt>
            <trkpt lat="47.154682" lon="13.058124">
                <ele>2091.4</ele>
                <name>Position 111</name>
            </trkpt>
            <trkpt lat="47.154901" lon="13.058476">
                <ele>2083.2</ele>
                <name>Position 112</name>
            </trkpt>
            <trkpt lat="47.155006" lon="13.058607">
                <ele>2081.2</ele>
                <name>Position 113</name>
            </trkpt>
            <trkpt lat="47.154993" lon="13.058661">
                <ele>2080.4</ele>
                <name>Position 114</name>
            </trkpt>
            <trkpt lat="47.155007" lon="13.058777">
                <ele>2078.5</ele>
                <name>Position 115</name>
            </trkpt>
            <trkpt lat="47.15505" lon="13.05892">
                <ele>2076.1</ele>
                <name>Position 116</name>
            </trkpt>
            <trkpt lat="47.155041" lon="13.058961">
                <ele>2075.5</ele>
                <name>Position 117</name>
            </trkpt>
            <trkpt lat="47.154994" lon="13.059009">
                <ele>2074.9</ele>
                <name>Position 118</name>
            </trkpt>
            <trkpt lat="47.15498" lon="13.059087">
                <ele>2073.6</ele>
                <name>Position 119</name>
            </trkpt>
            <trkpt lat="47.15488" lon="13.059193">
                <ele>2071.2</ele>
                <name>Position 120</name>
            </trkpt>
            <trkpt lat="47.154737" lon="13.059425">
                <ele>2066.9</ele>
                <name>Position 121</name>
            </trkpt>
            <trkpt lat="47.154641" lon="13.059485">
                <ele>2065.1</ele>
                <name>Position 122</name>
            </trkpt>
            <trkpt lat="47.154603" lon="13.059815">
                <ele>2059.9</ele>
                <name>Position 123</name>
            </trkpt>
            <trkpt lat="47.154564" lon="13.059956">
                <ele>2057.3</ele>
                <name>Position 124</name>
            </trkpt>
            <trkpt lat="47.154507" lon="13.060071">
                <ele>2055.3</ele>
                <name>Position 125</name>
            </trkpt>
            <trkpt lat="47.154396" lon="13.060158">
                <ele>2053.1</ele>
                <name>Position 126</name>
            </trkpt>
            <trkpt lat="47.154442" lon="13.06018">
                <ele>2053.6</ele>
                <name>Position 127</name>
            </trkpt>
        </trkseg>
    </trk>
</gpx>
