<?xml version="1.0" encoding="UTF-8" standalone="yes"?>
<gpx xmlns="http://www.topografix.com/GPX/1/0" version="1.0" creator="Generated by Christian Pesch's RouteConverter. See http://www.routeconverter.com">
    <trk>
        <name>2018-08-19 10:42</name>
        <desc>&lt;p&gt;Startzeit: 08/19/2018 10:43&lt;br/&gt;Zielzeit: 08/19/2018 15:57&lt;br/&gt;Strecke: 15,
3 km (05:14)&lt;br/&gt;Bewegungszeit: 01:26&lt;br/&gt;Ø-Geschwindigkeit: 2,
91 km/h&lt;br/&gt;Netto-Geschwindigkeit: 10,
59 km/h&lt;br/&gt;Max. Geschwindigkeit: 93,
79 km/h&lt;br/&gt;Minimale Höhe: 1039 m&lt;br/&gt;Maximale Höhe: 1409 m&lt;br/&gt;Steig-Geschw.: 176,
9 m/h&lt;br/&gt;Sink-Geschw.: -1037 m/h&lt;br/&gt;Aufstieg: 772 m&lt;br/&gt;Abstieg: -899 m&lt;br/&gt;Steigzeit: 04:22&lt;br/&gt;Sinkzeit: 00:52&lt;br/&gt;&lt;/p&gt;&lt;hr align="center" width="480" style="height: 2px; width: 517px"/&gt;</desc>
        <trkseg>
            <trkpt lat="47.0579722" lon="10.9629857">
                <ele>1159.4</ele>
                <time>2018-08-19T08:43:32.000Z</time>
                <name>Position 1</name>
            </trkpt>
            <trkpt lat="47.0580697" lon="10.963058">
                <ele>1172.7</ele>
                <time>2018-08-19T08:44:03.000Z</time>
                <name>Position 2</name>
            </trkpt>
            <trkpt lat="47.0580267" lon="10.9631985">
                <ele>1182.3</ele>
                <time>2018-08-19T08:48:07.000Z</time>
                <name>Position 3</name>
            </trkpt>
            <trkpt lat="47.0579681" lon="10.9633272">
                <ele>1179.7</ele>
                <time>2018-08-19T08:48:13.000Z</time>
                <name>Position 4</name>
            </trkpt>
            <trkpt lat="47.0579875" lon="10.9634662">
                <ele>1178.6</ele>
                <time>2018-08-19T08:48:17.000Z</time>
                <name>Position 5</name>
            </trkpt>
            <trkpt lat="47.058011" lon="10.9636269">
                <ele>1174.9</ele>
                <time>2018-08-19T08:48:23.000Z</time>
                <name>Position 6</name>
            </trkpt>
            <trkpt lat="47.0580549" lon="10.9637813">
                <ele>1162.8</ele>
                <time>2018-08-19T08:48:29.000Z</time>
                <name>Position 7</name>
            </trkpt>
            <trkpt lat="47.0580598" lon="10.9639223">
                <ele>1165.5</ele>
                <time>2018-08-19T08:48:33.000Z</time>
                <name>Position 8</name>
            </trkpt>
            <trkpt lat="47.0580488" lon="10.9640842">
                <ele>1165.7</ele>
                <time>2018-08-19T08:48:39.000Z</time>
                <name>Position 9</name>
            </trkpt>
            <trkpt lat="47.0580633" lon="10.9642399">
                <ele>1171.3</ele>
                <time>2018-08-19T08:48:44.000Z</time>
                <name>Position 10</name>
            </trkpt>
            <trkpt lat="47.0580611" lon="10.9643805">
                <ele>1172.6</ele>
                <time>2018-08-19T08:48:54.000Z</time>
                <name>Position 11</name>
            </trkpt>
            <trkpt lat="47.0579775" lon="10.9644509">
                <ele>1174.7</ele>
                <time>2018-08-19T08:49:00.000Z</time>
                <name>Position 12</name>
            </trkpt>
            <trkpt lat="47.0580507" lon="10.9645724">
                <ele>1173.4</ele>
                <time>2018-08-19T08:49:09.000Z</time>
                <name>Position 13</name>
            </trkpt>
            <trkpt lat="47.0581041" lon="10.9647215">
                <ele>1172.6</ele>
                <time>2018-08-19T08:49:15.000Z</time>
                <name>Position 14</name>
            </trkpt>
            <trkpt lat="47.0581054" lon="10.9648727">
                <ele>1174.8</ele>
                <time>2018-08-19T08:49:23.000Z</time>
                <name>Position 15</name>
            </trkpt>
            <trkpt lat="47.0580223" lon="10.9649612">
                <ele>1179.2</ele>
                <time>2018-08-19T08:49:29.000Z</time>
                <name>Position 16</name>
            </trkpt>
            <trkpt lat="47.0581148" lon="10.9650831">
                <ele>1174.0</ele>
                <time>2018-08-19T08:50:19.000Z</time>
                <name>Position 17</name>
            </trkpt>
            <trkpt lat="47.0582113" lon="10.9651688">
                <ele>1169.3</ele>
                <time>2018-08-19T08:50:23.000Z</time>
                <name>Position 18</name>
            </trkpt>
            <trkpt lat="47.0582953" lon="10.965271">
                <ele>1168.9</ele>
                <time>2018-08-19T08:50:27.000Z</time>
                <name>Position 19</name>
            </trkpt>
            <trkpt lat="47.0583514" lon="10.9653862">
                <ele>1170.6</ele>
                <time>2018-08-19T08:50:33.000Z</time>
                <name>Position 20</name>
            </trkpt>
            <trkpt lat="47.0582721" lon="10.9653148">
                <ele>1173.1</ele>
                <time>2018-08-19T08:50:51.000Z</time>
                <name>Position 21</name>
            </trkpt>
            <trkpt lat="47.0581801" lon="10.9653638">
                <ele>1174.8</ele>
                <time>2018-08-19T08:51:33.000Z</time>
                <name>Position 22</name>
            </trkpt>
            <trkpt lat="47.0580779" lon="10.9653657">
                <ele>1173.9</ele>
                <time>2018-08-19T08:51:43.000Z</time>
                <name>Position 23</name>
            </trkpt>
            <trkpt lat="47.0579476" lon="10.9654114">
                <ele>1171.9</ele>
                <time>2018-08-19T08:51:58.000Z</time>
                <name>Position 24</name>
            </trkpt>
            <trkpt lat="47.0581448" lon="10.9655945">
                <ele>1164.9</ele>
                <time>2018-08-19T08:52:19.000Z</time>
                <name>Position 25</name>
            </trkpt>
            <trkpt lat="47.0582144" lon="10.9654748">
                <ele>1163.0</ele>
                <time>2018-08-19T08:52:26.000Z</time>
                <name>Position 26</name>
            </trkpt>
            <trkpt lat="47.0583021" lon="10.9655287">
                <ele>1163.1</ele>
                <time>2018-08-19T08:52:38.000Z</time>
                <name>Position 27</name>
            </trkpt>
            <trkpt lat="47.0582833" lon="10.965699">
                <ele>1164.4</ele>
                <time>2018-08-19T08:52:49.000Z</time>
                <name>Position 28</name>
            </trkpt>
            <trkpt lat="47.0583708" lon="10.9656635">
                <ele>1155.6</ele>
                <time>2018-08-19T08:52:58.000Z</time>
                <name>Position 29</name>
            </trkpt>
            <trkpt lat="47.0584684" lon="10.9656592">
                <ele>1171.4</ele>
                <time>2018-08-19T08:55:40.000Z</time>
                <name>Position 30</name>
            </trkpt>
            <trkpt lat="47.0585653" lon="10.9656248">
                <ele>1174.0</ele>
                <time>2018-08-19T08:55:50.000Z</time>
                <name>Position 31</name>
            </trkpt>
            <trkpt lat="47.0586554" lon="10.9655683">
                <ele>1173.6</ele>
                <time>2018-08-19T08:55:58.000Z</time>
                <name>Position 32</name>
            </trkpt>
            <trkpt lat="47.0587326" lon="10.9654871">
                <ele>1174.0</ele>
                <time>2018-08-19T08:56:04.000Z</time>
                <name>Position 33</name>
            </trkpt>
            <trkpt lat="47.0588223" lon="10.9655404">
                <ele>1167.7</ele>
                <time>2018-08-19T08:56:12.000Z</time>
                <name>Position 34</name>
            </trkpt>
            <trkpt lat="47.0589149" lon="10.9654977">
                <ele>1173.4</ele>
                <time>2018-08-19T08:56:24.000Z</time>
                <name>Position 35</name>
            </trkpt>
            <trkpt lat="47.0590101" lon="10.9654311">
                <ele>1174.6</ele>
                <time>2018-08-19T08:56:32.000Z</time>
                <name>Position 36</name>
            </trkpt>
            <trkpt lat="47.0591252" lon="10.9654226">
                <ele>1174.0</ele>
                <time>2018-08-19T08:56:48.000Z</time>
                <name>Position 37</name>
            </trkpt>
            <trkpt lat="47.0592093" lon="10.9654796">
                <ele>1172.4</ele>
                <time>2018-08-19T08:56:54.000Z</time>
                <name>Position 38</name>
            </trkpt>
            <trkpt lat="47.0592913" lon="10.9655555">
                <ele>1172.0</ele>
                <time>2018-08-19T08:57:02.000Z</time>
                <name>Position 39</name>
            </trkpt>
            <trkpt lat="47.0593878" lon="10.96559">
                <ele>1169.8</ele>
                <time>2018-08-19T08:57:10.000Z</time>
                <name>Position 40</name>
            </trkpt>
            <trkpt lat="47.0594946" lon="10.9655744">
                <ele>1169.7</ele>
                <time>2018-08-19T08:57:18.000Z</time>
                <name>Position 41</name>
            </trkpt>
            <trkpt lat="47.0595765" lon="10.9656466">
                <ele>1166.0</ele>
                <time>2018-08-19T08:57:26.000Z</time>
                <name>Position 42</name>
            </trkpt>
            <trkpt lat="47.0596872" lon="10.9656215">
                <ele>1167.3</ele>
                <time>2018-08-19T08:57:38.000Z</time>
                <name>Position 43</name>
            </trkpt>
            <trkpt lat="47.0597807" lon="10.9655479">
                <ele>1174.6</ele>
                <time>2018-08-19T08:57:50.000Z</time>
                <name>Position 44</name>
            </trkpt>
            <trkpt lat="47.0598774" lon="10.9655894">
                <ele>1169.1</ele>
                <time>2018-08-19T08:57:58.000Z</time>
                <name>Position 45</name>
            </trkpt>
            <trkpt lat="47.0599747" lon="10.9656331">
                <ele>1172.3</ele>
                <time>2018-08-19T08:58:12.000Z</time>
                <name>Position 46</name>
            </trkpt>
            <trkpt lat="47.0600845" lon="10.9656994">
                <ele>1169.5</ele>
                <time>2018-08-19T08:58:30.000Z</time>
                <name>Position 47</name>
            </trkpt>
            <trkpt lat="47.0601826" lon="10.9657258">
                <ele>1166.5</ele>
                <time>2018-08-19T08:58:36.000Z</time>
                <name>Position 48</name>
            </trkpt>
            <trkpt lat="47.0602688" lon="10.9657681">
                <ele>1171.7</ele>
                <time>2018-08-19T08:58:42.000Z</time>
                <name>Position 49</name>
            </trkpt>
            <trkpt lat="47.0603377" lon="10.965859">
                <ele>1169.9</ele>
                <time>2018-08-19T08:59:02.000Z</time>
                <name>Position 50</name>
            </trkpt>
            <trkpt lat="47.0604357" lon="10.9658921">
                <ele>1175.2</ele>
                <time>2018-08-19T08:59:20.000Z</time>
                <name>Position 51</name>
            </trkpt>
            <trkpt lat="47.0604818" lon="10.9659228">
                <ele>1185.9</ele>
                <time>2018-08-19T09:02:42.000Z</time>
                <name>Position 52</name>
            </trkpt>
            <trkpt lat="47.0604702" lon="10.9660555">
                <ele>1181.7</ele>
                <time>2018-08-19T09:03:16.000Z</time>
                <name>Position 53</name>
            </trkpt>
            <trkpt lat="47.0603014" lon="10.9660722">
                <ele>1189.0</ele>
                <time>2018-08-19T09:05:16.000Z</time>
                <name>Position 54</name>
            </trkpt>
            <trkpt lat="47.0599531" lon="10.9658706">
                <ele>1170.4</ele>
                <time>2018-08-19T09:23:20.000Z</time>
                <name>Position 55</name>
            </trkpt>
            <trkpt lat="47.059968" lon="10.9658914">
                <ele>1283.6</ele>
                <time>2018-08-19T11:10:00.000Z</time>
                <name>Position 56</name>
            </trkpt>
            <trkpt lat="47.0599673" lon="10.9660256">
                <ele>1275.1</ele>
                <time>2018-08-19T11:11:10.000Z</time>
                <name>Position 57</name>
            </trkpt>
            <trkpt lat="47.06" lon="10.9662143">
                <ele>1365.6</ele>
                <time>2018-08-19T12:36:02.000Z</time>
                <name>Position 58</name>
            </trkpt>
            <trkpt lat="47.0599739" lon="10.966208">
                <ele>1371.7</ele>
                <time>2018-08-19T12:37:54.000Z</time>
                <name>Position 59</name>
            </trkpt>
            <trkpt lat="47.0599049" lon="10.9663003">
                <ele>1367.0</ele>
                <time>2018-08-19T12:42:23.000Z</time>
                <name>Position 60</name>
            </trkpt>
            <trkpt lat="47.0598471" lon="10.9664028">
                <ele>1375.8</ele>
                <time>2018-08-19T12:42:51.000Z</time>
                <name>Position 61</name>
            </trkpt>
            <trkpt lat="47.0597699" lon="10.9664882">
                <ele>1382.0</ele>
                <time>2018-08-19T12:43:23.000Z</time>
                <name>Position 62</name>
            </trkpt>
            <trkpt lat="47.0596912" lon="10.9665571">
                <ele>1297.6</ele>
                <time>2018-08-19T12:53:47.000Z</time>
                <name>Position 63</name>
            </trkpt>
            <trkpt lat="47.0596048" lon="10.9665058">
                <ele>1353.1</ele>
                <time>2018-08-19T12:53:55.000Z</time>
                <name>Position 64</name>
            </trkpt>
            <trkpt lat="47.0595078" lon="10.9664393">
                <ele>1364.8</ele>
                <time>2018-08-19T12:54:03.000Z</time>
                <name>Position 65</name>
            </trkpt>
            <trkpt lat="47.0594394" lon="10.9665489">
                <ele>1366.0</ele>
                <time>2018-08-19T12:54:43.000Z</time>
                <name>Position 66</name>
            </trkpt>
            <trkpt lat="47.0593807" lon="10.9666783">
                <ele>1377.4</ele>
                <time>2018-08-19T12:54:57.000Z</time>
                <name>Position 67</name>
            </trkpt>
            <trkpt lat="47.0593723" lon="10.9668124">
                <ele>1379.3</ele>
                <time>2018-08-19T12:55:07.000Z</time>
                <name>Position 68</name>
            </trkpt>
            <trkpt lat="47.0593189" lon="10.9669259">
                <ele>1384.0</ele>
                <time>2018-08-19T12:55:21.000Z</time>
                <name>Position 69</name>
            </trkpt>
            <trkpt lat="47.059303" lon="10.967093">
                <ele>1387.9</ele>
                <time>2018-08-19T12:55:37.000Z</time>
                <name>Position 70</name>
            </trkpt>
            <trkpt lat="47.0593236" lon="10.9672235">
                <ele>1388.4</ele>
                <time>2018-08-19T12:55:47.000Z</time>
                <name>Position 71</name>
            </trkpt>
            <trkpt lat="47.0592423" lon="10.9673299">
                <ele>1381.8</ele>
                <time>2018-08-19T12:56:09.000Z</time>
                <name>Position 72</name>
            </trkpt>
            <trkpt lat="47.0591659" lon="10.9674358">
                <ele>1395.1</ele>
                <time>2018-08-19T12:56:21.000Z</time>
                <name>Position 73</name>
            </trkpt>
            <trkpt lat="47.059169" lon="10.9675958">
                <ele>1374.4</ele>
                <time>2018-08-19T12:56:33.000Z</time>
                <name>Position 74</name>
            </trkpt>
            <trkpt lat="47.0591544" lon="10.9677545">
                <ele>1388.0</ele>
                <time>2018-08-19T12:56:43.000Z</time>
                <name>Position 75</name>
            </trkpt>
            <trkpt lat="47.0591318" lon="10.9679056">
                <ele>1401.3</ele>
                <time>2018-08-19T12:56:57.000Z</time>
                <name>Position 76</name>
            </trkpt>
            <trkpt lat="47.0591296" lon="10.9680648">
                <ele>1407.8</ele>
                <time>2018-08-19T12:57:09.000Z</time>
                <name>Position 77</name>
            </trkpt>
            <trkpt lat="47.0591206" lon="10.9681977">
                <ele>1409.5</ele>
                <time>2018-08-19T12:57:19.000Z</time>
                <name>Position 78</name>
            </trkpt>
            <trkpt lat="47.0591481" lon="10.9683458">
                <ele>1409.7</ele>
                <time>2018-08-19T12:57:27.000Z</time>
                <name>Position 79</name>
            </trkpt>
            <trkpt lat="47.0591436" lon="10.9684799">
                <ele>1376.3</ele>
                <time>2018-08-19T12:57:35.000Z</time>
                <name>Position 80</name>
            </trkpt>
            <trkpt lat="47.059134" lon="10.9686185">
                <ele>1340.7</ele>
                <time>2018-08-19T12:57:43.000Z</time>
                <name>Position 81</name>
            </trkpt>
            <trkpt lat="47.0591152" lon="10.968781">
                <ele>1373.8</ele>
                <time>2018-08-19T12:57:51.000Z</time>
                <name>Position 82</name>
            </trkpt>
            <trkpt lat="47.059126" lon="10.9689473">
                <ele>1351.6</ele>
                <time>2018-08-19T12:57:59.000Z</time>
                <name>Position 83</name>
            </trkpt>
            <trkpt lat="47.0591628" lon="10.9691124">
                <ele>1390.6</ele>
                <time>2018-08-19T12:58:07.000Z</time>
                <name>Position 84</name>
            </trkpt>
            <trkpt lat="47.0591644" lon="10.9692606">
                <ele>1351.2</ele>
                <time>2018-08-19T12:58:19.000Z</time>
                <name>Position 85</name>
            </trkpt>
            <trkpt lat="47.0591658" lon="10.9694127">
                <ele>1392.9</ele>
                <time>2018-08-19T12:58:27.000Z</time>
                <name>Position 86</name>
            </trkpt>
            <trkpt lat="47.0591835" lon="10.9695505">
                <ele>1357.1</ele>
                <time>2018-08-19T12:58:33.000Z</time>
                <name>Position 87</name>
            </trkpt>
            <trkpt lat="47.0592001" lon="10.9697089">
                <ele>1382.3</ele>
                <time>2018-08-19T12:58:41.000Z</time>
                <name>Position 88</name>
            </trkpt>
            <trkpt lat="47.0592913" lon="10.9697337">
                <ele>1403.3</ele>
                <time>2018-08-19T12:58:53.000Z</time>
                <name>Position 89</name>
            </trkpt>
            <trkpt lat="47.0593988" lon="10.9696951">
                <ele>1337.2</ele>
                <time>2018-08-19T12:59:01.000Z</time>
                <name>Position 90</name>
            </trkpt>
            <trkpt lat="47.0595014" lon="10.9696908">
                <ele>1344.5</ele>
                <time>2018-08-19T12:59:07.000Z</time>
                <name>Position 91</name>
            </trkpt>
            <trkpt lat="47.0595925" lon="10.9696569">
                <ele>1396.2</ele>
                <time>2018-08-19T12:59:17.000Z</time>
                <name>Position 92</name>
            </trkpt>
            <trkpt lat="47.0596815" lon="10.9696124">
                <ele>1401.5</ele>
                <time>2018-08-19T12:59:25.000Z</time>
                <name>Position 93</name>
            </trkpt>
            <trkpt lat="47.0597819" lon="10.9695616">
                <ele>1400.0</ele>
                <time>2018-08-19T12:59:33.000Z</time>
                <name>Position 94</name>
            </trkpt>
            <trkpt lat="47.0598719" lon="10.9695734">
                <ele>1400.0</ele>
                <time>2018-08-19T12:59:43.000Z</time>
                <name>Position 95</name>
            </trkpt>
            <trkpt lat="47.0599739" lon="10.9695402">
                <ele>1404.4</ele>
                <time>2018-08-19T12:59:55.000Z</time>
                <name>Position 96</name>
            </trkpt>
            <trkpt lat="47.0600634" lon="10.9695598">
                <ele>1400.9</ele>
                <time>2018-08-19T13:00:03.000Z</time>
                <name>Position 97</name>
            </trkpt>
            <trkpt lat="47.0601492" lon="10.9696035">
                <ele>1401.4</ele>
                <time>2018-08-19T13:00:11.000Z</time>
                <name>Position 98</name>
            </trkpt>
            <trkpt lat="47.0602398" lon="10.9696313">
                <ele>1399.4</ele>
                <time>2018-08-19T13:00:19.000Z</time>
                <name>Position 99</name>
            </trkpt>
            <trkpt lat="47.0603327" lon="10.9696858">
                <ele>1399.1</ele>
                <time>2018-08-19T13:00:27.000Z</time>
                <name>Position 100</name>
            </trkpt>
            <trkpt lat="47.0604354" lon="10.9697157">
                <ele>1358.0</ele>
                <time>2018-08-19T13:00:35.000Z</time>
                <name>Position 101</name>
            </trkpt>
            <trkpt lat="47.0605273" lon="10.9697362">
                <ele>1384.1</ele>
                <time>2018-08-19T13:00:43.000Z</time>
                <name>Position 102</name>
            </trkpt>
            <trkpt lat="47.0606254" lon="10.969731">
                <ele>1391.6</ele>
                <time>2018-08-19T13:00:59.000Z</time>
                <name>Position 103</name>
            </trkpt>
            <trkpt lat="47.0607173" lon="10.9698076">
                <ele>1393.0</ele>
                <time>2018-08-19T13:01:11.000Z</time>
                <name>Position 104</name>
            </trkpt>
            <trkpt lat="47.0608188" lon="10.9698794">
                <ele>1390.3</ele>
                <time>2018-08-19T13:01:21.000Z</time>
                <name>Position 105</name>
            </trkpt>
            <trkpt lat="47.0609119" lon="10.9698835">
                <ele>1387.2</ele>
                <time>2018-08-19T13:01:33.000Z</time>
                <name>Position 106</name>
            </trkpt>
            <trkpt lat="47.0610103" lon="10.9698904">
                <ele>1387.4</ele>
                <time>2018-08-19T13:01:43.000Z</time>
                <name>Position 107</name>
            </trkpt>
            <trkpt lat="47.0611049" lon="10.9699645">
                <ele>1375.9</ele>
                <time>2018-08-19T13:01:51.000Z</time>
                <name>Position 108</name>
            </trkpt>
            <trkpt lat="47.0611864" lon="10.9700212">
                <ele>1385.1</ele>
                <time>2018-08-19T13:02:01.000Z</time>
                <name>Position 109</name>
            </trkpt>
            <trkpt lat="47.061231" lon="10.9698753">
                <ele>1384.1</ele>
                <time>2018-08-19T13:02:09.000Z</time>
                <name>Position 110</name>
            </trkpt>
            <trkpt lat="47.0613239" lon="10.9698534">
                <ele>1382.5</ele>
                <time>2018-08-19T13:02:21.000Z</time>
                <name>Position 111</name>
            </trkpt>
            <trkpt lat="47.0614399" lon="10.9698281">
                <ele>1381.5</ele>
                <time>2018-08-19T13:02:39.000Z</time>
                <name>Position 112</name>
            </trkpt>
            <trkpt lat="47.0615397" lon="10.9698825">
                <ele>1382.0</ele>
                <time>2018-08-19T13:02:47.000Z</time>
                <name>Position 113</name>
            </trkpt>
            <trkpt lat="47.0616453" lon="10.9699293">
                <ele>1382.2</ele>
                <time>2018-08-19T13:02:59.000Z</time>
                <name>Position 114</name>
            </trkpt>
            <trkpt lat="47.0617317" lon="10.9700008">
                <ele>1381.1</ele>
                <time>2018-08-19T13:03:07.000Z</time>
                <name>Position 115</name>
            </trkpt>
            <trkpt lat="47.0618313" lon="10.9700601">
                <ele>1382.5</ele>
                <time>2018-08-19T13:03:17.000Z</time>
                <name>Position 116</name>
            </trkpt>
            <trkpt lat="47.061937" lon="10.9700659">
                <ele>1381.2</ele>
                <time>2018-08-19T13:03:27.000Z</time>
                <name>Position 117</name>
            </trkpt>
            <trkpt lat="47.0620158" lon="10.9699884">
                <ele>1375.0</ele>
                <time>2018-08-19T13:03:41.000Z</time>
                <name>Position 118</name>
            </trkpt>
            <trkpt lat="47.062118" lon="10.970034">
                <ele>1368.2</ele>
                <time>2018-08-19T13:03:49.000Z</time>
                <name>Position 119</name>
            </trkpt>
            <trkpt lat="47.0622286" lon="10.9700666">
                <ele>1359.7</ele>
                <time>2018-08-19T13:04:07.000Z</time>
                <name>Position 120</name>
            </trkpt>
            <trkpt lat="47.0623429" lon="10.9700846">
                <ele>1360.3</ele>
                <time>2018-08-19T13:04:13.000Z</time>
                <name>Position 121</name>
            </trkpt>
            <trkpt lat="47.062458" lon="10.9701594">
                <ele>1377.4</ele>
                <time>2018-08-19T13:04:21.000Z</time>
                <name>Position 122</name>
            </trkpt>
            <trkpt lat="47.062518" lon="10.9702673">
                <ele>1375.1</ele>
                <time>2018-08-19T13:04:27.000Z</time>
                <name>Position 123</name>
            </trkpt>
            <trkpt lat="47.0625546" lon="10.970402">
                <ele>1373.3</ele>
                <time>2018-08-19T13:04:35.000Z</time>
                <name>Position 124</name>
            </trkpt>
            <trkpt lat="47.0626098" lon="10.9705311">
                <ele>1373.0</ele>
                <time>2018-08-19T13:04:43.000Z</time>
                <name>Position 125</name>
            </trkpt>
            <trkpt lat="47.062624" lon="10.9706655">
                <ele>1372.0</ele>
                <time>2018-08-19T13:04:51.000Z</time>
                <name>Position 126</name>
            </trkpt>
            <trkpt lat="47.062672" lon="10.9707968">
                <ele>1372.3</ele>
                <time>2018-08-19T13:05:01.000Z</time>
                <name>Position 127</name>
            </trkpt>
            <trkpt lat="47.062773" lon="10.9708435">
                <ele>1374.3</ele>
                <time>2018-08-19T13:05:13.000Z</time>
                <name>Position 128</name>
            </trkpt>
            <trkpt lat="47.0628695" lon="10.9708852">
                <ele>1371.0</ele>
                <time>2018-08-19T13:05:25.000Z</time>
                <name>Position 129</name>
            </trkpt>
            <trkpt lat="47.0629673" lon="10.9708318">
                <ele>1369.5</ele>
                <time>2018-08-19T13:05:33.000Z</time>
                <name>Position 130</name>
            </trkpt>
            <trkpt lat="47.0630355" lon="10.9707206">
                <ele>1361.8</ele>
                <time>2018-08-19T13:05:53.000Z</time>
                <name>Position 131</name>
            </trkpt>
            <trkpt lat="47.0630802" lon="10.9706004">
                <ele>1351.8</ele>
                <time>2018-08-19T13:06:07.000Z</time>
                <name>Position 132</name>
            </trkpt>
            <trkpt lat="47.0631416" lon="10.9704734">
                <ele>1344.6</ele>
                <time>2018-08-19T13:06:19.000Z</time>
                <name>Position 133</name>
            </trkpt>
            <trkpt lat="47.063248" lon="10.9704276">
                <ele>1337.5</ele>
                <time>2018-08-19T13:06:39.000Z</time>
                <name>Position 134</name>
            </trkpt>
            <trkpt lat="47.0633476" lon="10.9703844">
                <ele>1339.1</ele>
                <time>2018-08-19T13:06:45.000Z</time>
                <name>Position 135</name>
            </trkpt>
            <trkpt lat="47.0634633" lon="10.9704353">
                <ele>1329.7</ele>
                <time>2018-08-19T13:06:55.000Z</time>
                <name>Position 136</name>
            </trkpt>
            <trkpt lat="47.0635649" lon="10.970443">
                <ele>1332.2</ele>
                <time>2018-08-19T13:07:03.000Z</time>
                <name>Position 137</name>
            </trkpt>
            <trkpt lat="47.0636515" lon="10.9703706">
                <ele>1340.4</ele>
                <time>2018-08-19T13:07:45.000Z</time>
                <name>Position 138</name>
            </trkpt>
            <trkpt lat="47.0637551" lon="10.9704001">
                <ele>1337.4</ele>
                <time>2018-08-19T13:07:55.000Z</time>
                <name>Position 139</name>
            </trkpt>
            <trkpt lat="47.0638555" lon="10.9704085">
                <ele>1339.8</ele>
                <time>2018-08-19T13:08:01.000Z</time>
                <name>Position 140</name>
            </trkpt>
            <trkpt lat="47.0639518" lon="10.9704574">
                <ele>1339.5</ele>
                <time>2018-08-19T13:08:09.000Z</time>
                <name>Position 141</name>
            </trkpt>
            <trkpt lat="47.0640257" lon="10.9705783">
                <ele>1361.5</ele>
                <time>2018-08-19T13:08:15.000Z</time>
                <name>Position 142</name>
            </trkpt>
            <trkpt lat="47.0641435" lon="10.9706885">
                <ele>1329.5</ele>
                <time>2018-08-19T13:08:33.000Z</time>
                <name>Position 143</name>
            </trkpt>
            <trkpt lat="47.0642187" lon="10.9707825">
                <ele>1330.9</ele>
                <time>2018-08-19T13:08:39.000Z</time>
                <name>Position 144</name>
            </trkpt>
            <trkpt lat="47.0643181" lon="10.9708458">
                <ele>1328.9</ele>
                <time>2018-08-19T13:08:47.000Z</time>
                <name>Position 145</name>
            </trkpt>
            <trkpt lat="47.0643822" lon="10.9709719">
                <ele>1348.3</ele>
                <time>2018-08-19T13:08:53.000Z</time>
                <name>Position 146</name>
            </trkpt>
            <trkpt lat="47.0644708" lon="10.9710045">
                <ele>1325.7</ele>
                <time>2018-08-19T13:09:03.000Z</time>
                <name>Position 147</name>
            </trkpt>
            <trkpt lat="47.0645656" lon="10.9709892">
                <ele>1321.8</ele>
                <time>2018-08-19T13:09:15.000Z</time>
                <name>Position 148</name>
            </trkpt>
            <trkpt lat="47.0646897" lon="10.9710342">
                <ele>1314.6</ele>
                <time>2018-08-19T13:09:25.000Z</time>
                <name>Position 149</name>
            </trkpt>
            <trkpt lat="47.0647647" lon="10.9711078">
                <ele>1365.2</ele>
                <time>2018-08-19T13:09:29.000Z</time>
                <name>Position 150</name>
            </trkpt>
            <trkpt lat="47.0648489" lon="10.9710507">
                <ele>1317.8</ele>
                <time>2018-08-19T13:09:39.000Z</time>
                <name>Position 151</name>
            </trkpt>
            <trkpt lat="47.0649481" lon="10.9709473">
                <ele>1311.7</ele>
                <time>2018-08-19T13:09:49.000Z</time>
                <name>Position 152</name>
            </trkpt>
            <trkpt lat="47.0650412" lon="10.9710008">
                <ele>1309.4</ele>
                <time>2018-08-19T13:09:57.000Z</time>
                <name>Position 153</name>
            </trkpt>
            <trkpt lat="47.0651371" lon="10.9710224">
                <ele>1308.2</ele>
                <time>2018-08-19T13:10:05.000Z</time>
                <name>Position 154</name>
            </trkpt>
            <trkpt lat="47.0652455" lon="10.9711044">
                <ele>1310.9</ele>
                <time>2018-08-19T13:10:11.000Z</time>
                <name>Position 155</name>
            </trkpt>
            <trkpt lat="47.0653364" lon="10.9712313">
                <ele>1306.5</ele>
                <time>2018-08-19T13:10:19.000Z</time>
                <name>Position 156</name>
            </trkpt>
            <trkpt lat="47.0654323" lon="10.9712851">
                <ele>1300.4</ele>
                <time>2018-08-19T13:10:31.000Z</time>
                <name>Position 157</name>
            </trkpt>
            <trkpt lat="47.0655305" lon="10.9711752">
                <ele>1304.5</ele>
                <time>2018-08-19T13:10:37.000Z</time>
                <name>Position 158</name>
            </trkpt>
            <trkpt lat="47.0656344" lon="10.9711974">
                <ele>1305.4</ele>
                <time>2018-08-19T13:10:43.000Z</time>
                <name>Position 159</name>
            </trkpt>
            <trkpt lat="47.0656996" lon="10.9713061">
                <ele>1299.5</ele>
                <time>2018-08-19T13:10:49.000Z</time>
                <name>Position 160</name>
            </trkpt>
            <trkpt lat="47.065797" lon="10.9712886">
                <ele>1306.6</ele>
                <time>2018-08-19T13:11:07.000Z</time>
                <name>Position 161</name>
            </trkpt>
            <trkpt lat="47.0656988" lon="10.9713036">
                <ele>1296.7</ele>
                <time>2018-08-19T13:11:21.000Z</time>
                <name>Position 162</name>
            </trkpt>
            <trkpt lat="47.0656096" lon="10.9711603">
                <ele>1293.4</ele>
                <time>2018-08-19T13:11:29.000Z</time>
                <name>Position 163</name>
            </trkpt>
            <trkpt lat="47.065525" lon="10.971061">
                <ele>1291.8</ele>
                <time>2018-08-19T13:11:41.000Z</time>
                <name>Position 164</name>
            </trkpt>
            <trkpt lat="47.0654279" lon="10.9710047">
                <ele>1293.8</ele>
                <time>2018-08-19T13:11:47.000Z</time>
                <name>Position 165</name>
            </trkpt>
            <trkpt lat="47.0653525" lon="10.9709279">
                <ele>1293.6</ele>
                <time>2018-08-19T13:11:55.000Z</time>
                <name>Position 166</name>
            </trkpt>
            <trkpt lat="47.0652997" lon="10.9708162">
                <ele>1291.6</ele>
                <time>2018-08-19T13:12:03.000Z</time>
                <name>Position 167</name>
            </trkpt>
            <trkpt lat="47.0652344" lon="10.9706779">
                <ele>1292.6</ele>
                <time>2018-08-19T13:12:11.000Z</time>
                <name>Position 168</name>
            </trkpt>
            <trkpt lat="47.0651899" lon="10.9705526">
                <ele>1284.9</ele>
                <time>2018-08-19T13:12:21.000Z</time>
                <name>Position 169</name>
            </trkpt>
            <trkpt lat="47.0651129" lon="10.9704779">
                <ele>1279.9</ele>
                <time>2018-08-19T13:12:29.000Z</time>
                <name>Position 170</name>
            </trkpt>
            <trkpt lat="47.0650602" lon="10.9703571">
                <ele>1282.2</ele>
                <time>2018-08-19T13:12:39.000Z</time>
                <name>Position 171</name>
            </trkpt>
            <trkpt lat="47.0649756" lon="10.9702511">
                <ele>1279.9</ele>
                <time>2018-08-19T13:12:49.000Z</time>
                <name>Position 172</name>
            </trkpt>
            <trkpt lat="47.0648589" lon="10.9701688">
                <ele>1264.9</ele>
                <time>2018-08-19T13:13:13.000Z</time>
                <name>Position 173</name>
            </trkpt>
            <trkpt lat="47.0647669" lon="10.970151">
                <ele>1270.5</ele>
                <time>2018-08-19T13:13:21.000Z</time>
                <name>Position 174</name>
            </trkpt>
            <trkpt lat="47.0646617" lon="10.9700782">
                <ele>1268.3</ele>
                <time>2018-08-19T13:13:25.000Z</time>
                <name>Position 175</name>
            </trkpt>
            <trkpt lat="47.0646109" lon="10.969954">
                <ele>1266.8</ele>
                <time>2018-08-19T13:13:29.000Z</time>
                <name>Position 176</name>
            </trkpt>
            <trkpt lat="47.0646853" lon="10.9698647">
                <ele>1262.2</ele>
                <time>2018-08-19T13:13:37.000Z</time>
                <name>Position 177</name>
            </trkpt>
            <trkpt lat="47.0647718" lon="10.9699556">
                <ele>1259.5</ele>
                <time>2018-08-19T13:13:47.000Z</time>
                <name>Position 178</name>
            </trkpt>
            <trkpt lat="47.0648672" lon="10.9699206">
                <ele>1358.3</ele>
                <time>2018-08-19T13:13:55.000Z</time>
                <name>Position 179</name>
            </trkpt>
            <trkpt lat="47.0649645" lon="10.9699715">
                <ele>1284.2</ele>
                <time>2018-08-19T13:14:03.000Z</time>
                <name>Position 180</name>
            </trkpt>
            <trkpt lat="47.0650596" lon="10.9700305">
                <ele>1267.0</ele>
                <time>2018-08-19T13:14:09.000Z</time>
                <name>Position 181</name>
            </trkpt>
            <trkpt lat="47.0651704" lon="10.9700608">
                <ele>1261.5</ele>
                <time>2018-08-19T13:14:17.000Z</time>
                <name>Position 182</name>
            </trkpt>
            <trkpt lat="47.0652635" lon="10.970062">
                <ele>1261.1</ele>
                <time>2018-08-19T13:14:23.000Z</time>
                <name>Position 183</name>
            </trkpt>
            <trkpt lat="47.0653516" lon="10.9700925">
                <ele>1285.0</ele>
                <time>2018-08-19T13:14:29.000Z</time>
                <name>Position 184</name>
            </trkpt>
            <trkpt lat="47.0654577" lon="10.9701178">
                <ele>1296.4</ele>
                <time>2018-08-19T13:14:39.000Z</time>
                <name>Position 185</name>
            </trkpt>
            <trkpt lat="47.0655345" lon="10.9701884">
                <ele>1271.2</ele>
                <time>2018-08-19T13:14:47.000Z</time>
                <name>Position 186</name>
            </trkpt>
            <trkpt lat="47.0656243" lon="10.9702539">
                <ele>1332.8</ele>
                <time>2018-08-19T13:14:51.000Z</time>
                <name>Position 187</name>
            </trkpt>
            <trkpt lat="47.0657306" lon="10.9701754">
                <ele>1269.8</ele>
                <time>2018-08-19T13:14:59.000Z</time>
                <name>Position 188</name>
            </trkpt>
            <trkpt lat="47.0657968" lon="10.9702715">
                <ele>1296.6</ele>
                <time>2018-08-19T13:15:13.000Z</time>
                <name>Position 189</name>
            </trkpt>
            <trkpt lat="47.0658856" lon="10.970367">
                <ele>1258.7</ele>
                <time>2018-08-19T13:15:23.000Z</time>
                <name>Position 190</name>
            </trkpt>
            <trkpt lat="47.0659363" lon="10.9704849">
                <ele>1247.8</ele>
                <time>2018-08-19T13:15:33.000Z</time>
                <name>Position 191</name>
            </trkpt>
            <trkpt lat="47.0660276" lon="10.9706032">
                <ele>1248.1</ele>
                <time>2018-08-19T13:15:37.000Z</time>
                <name>Position 192</name>
            </trkpt>
            <trkpt lat="47.066109" lon="10.9706736">
                <ele>1249.2</ele>
                <time>2018-08-19T13:16:09.000Z</time>
                <name>Position 193</name>
            </trkpt>
            <trkpt lat="47.0662263" lon="10.97074">
                <ele>1245.6</ele>
                <time>2018-08-19T13:16:12.000Z</time>
                <name>Position 194</name>
            </trkpt>
            <trkpt lat="47.0663294" lon="10.9706875">
                <ele>1247.8</ele>
                <time>2018-08-19T13:16:16.000Z</time>
                <name>Position 195</name>
            </trkpt>
            <trkpt lat="47.066387" lon="10.9705778">
                <ele>1241.7</ele>
                <time>2018-08-19T13:16:20.000Z</time>
                <name>Position 196</name>
            </trkpt>
            <trkpt lat="47.0664044" lon="10.9704277">
                <ele>1238.0</ele>
                <time>2018-08-19T13:16:24.000Z</time>
                <name>Position 197</name>
            </trkpt>
            <trkpt lat="47.0665192" lon="10.9704755">
                <ele>1228.7</ele>
                <time>2018-08-19T13:16:34.000Z</time>
                <name>Position 198</name>
            </trkpt>
            <trkpt lat="47.0666309" lon="10.9704326">
                <ele>1225.6</ele>
                <time>2018-08-19T13:16:40.000Z</time>
                <name>Position 199</name>
            </trkpt>
            <trkpt lat="47.0667345" lon="10.9704915">
                <ele>1220.6</ele>
                <time>2018-08-19T13:16:48.000Z</time>
                <name>Position 200</name>
            </trkpt>
            <trkpt lat="47.0668206" lon="10.9705825">
                <ele>1220.2</ele>
                <time>2018-08-19T13:16:52.000Z</time>
                <name>Position 201</name>
            </trkpt>
            <trkpt lat="47.0668966" lon="10.970667">
                <ele>1218.5</ele>
                <time>2018-08-19T13:16:56.000Z</time>
                <name>Position 202</name>
            </trkpt>
            <trkpt lat="47.0668576" lon="10.9707929">
                <ele>1206.4</ele>
                <time>2018-08-19T13:17:04.000Z</time>
                <name>Position 203</name>
            </trkpt>
            <trkpt lat="47.0669691" lon="10.9708308">
                <ele>1292.2</ele>
                <time>2018-08-19T13:17:18.000Z</time>
                <name>Position 204</name>
            </trkpt>
            <trkpt lat="47.0670736" lon="10.9708384">
                <ele>1332.4</ele>
                <time>2018-08-19T13:17:26.000Z</time>
                <name>Position 205</name>
            </trkpt>
            <trkpt lat="47.0671275" lon="10.9707233">
                <ele>1240.4</ele>
                <time>2018-08-19T13:17:34.000Z</time>
                <name>Position 206</name>
            </trkpt>
            <trkpt lat="47.0672035" lon="10.9706335">
                <ele>1210.9</ele>
                <time>2018-08-19T13:17:44.000Z</time>
                <name>Position 207</name>
            </trkpt>
            <trkpt lat="47.0672927" lon="10.9706503">
                <ele>1207.4</ele>
                <time>2018-08-19T13:17:48.000Z</time>
                <name>Position 208</name>
            </trkpt>
            <trkpt lat="47.067388" lon="10.970687">
                <ele>1257.0</ele>
                <time>2018-08-19T13:17:56.000Z</time>
                <name>Position 209</name>
            </trkpt>
            <trkpt lat="47.0674843" lon="10.9707892">
                <ele>1216.6</ele>
                <time>2018-08-19T13:18:02.000Z</time>
                <name>Position 210</name>
            </trkpt>
            <trkpt lat="47.0675725" lon="10.9709139">
                <ele>1213.0</ele>
                <time>2018-08-19T13:18:06.000Z</time>
                <name>Position 211</name>
            </trkpt>
            <trkpt lat="47.0676385" lon="10.9710046">
                <ele>1201.7</ele>
                <time>2018-08-19T13:18:12.000Z</time>
                <name>Position 212</name>
            </trkpt>
            <trkpt lat="47.067728" lon="10.9709486">
                <ele>1192.7</ele>
                <time>2018-08-19T13:18:22.000Z</time>
                <name>Position 213</name>
            </trkpt>
            <trkpt lat="47.0677869" lon="10.9708389">
                <ele>1280.6</ele>
                <time>2018-08-19T13:18:36.000Z</time>
                <name>Position 214</name>
            </trkpt>
            <trkpt lat="47.067896" lon="10.9708789">
                <ele>1235.7</ele>
                <time>2018-08-19T13:18:42.000Z</time>
                <name>Position 215</name>
            </trkpt>
            <trkpt lat="47.0679876" lon="10.9709066">
                <ele>1195.3</ele>
                <time>2018-08-19T13:18:50.000Z</time>
                <name>Position 216</name>
            </trkpt>
            <trkpt lat="47.0681014" lon="10.9708551">
                <ele>1191.8</ele>
                <time>2018-08-19T13:18:56.000Z</time>
                <name>Position 217</name>
            </trkpt>
            <trkpt lat="47.0681995" lon="10.9708858">
                <ele>1186.4</ele>
                <time>2018-08-19T13:19:04.000Z</time>
                <name>Position 218</name>
            </trkpt>
            <trkpt lat="47.0682967" lon="10.9708596">
                <ele>1188.3</ele>
                <time>2018-08-19T13:19:08.000Z</time>
                <name>Position 219</name>
            </trkpt>
            <trkpt lat="47.068386" lon="10.9707942">
                <ele>1187.4</ele>
                <time>2018-08-19T13:19:16.000Z</time>
                <name>Position 220</name>
            </trkpt>
            <trkpt lat="47.0684943" lon="10.970711">
                <ele>1183.1</ele>
                <time>2018-08-19T13:19:24.000Z</time>
                <name>Position 221</name>
            </trkpt>
            <trkpt lat="47.068609" lon="10.9706911">
                <ele>1181.0</ele>
                <time>2018-08-19T13:19:32.000Z</time>
                <name>Position 222</name>
            </trkpt>
            <trkpt lat="47.0687024" lon="10.9706106">
                <ele>1179.7</ele>
                <time>2018-08-19T13:19:44.000Z</time>
                <name>Position 223</name>
            </trkpt>
            <trkpt lat="47.0688011" lon="10.9705563">
                <ele>1179.0</ele>
                <time>2018-08-19T13:19:52.000Z</time>
                <name>Position 224</name>
            </trkpt>
            <trkpt lat="47.0688582" lon="10.9704386">
                <ele>1176.6</ele>
                <time>2018-08-19T13:19:56.000Z</time>
                <name>Position 225</name>
            </trkpt>
            <trkpt lat="47.0688523" lon="10.9702893">
                <ele>1178.3</ele>
                <time>2018-08-19T13:20:02.000Z</time>
                <name>Position 226</name>
            </trkpt>
            <trkpt lat="47.0687871" lon="10.9701709">
                <ele>1178.8</ele>
                <time>2018-08-19T13:20:10.000Z</time>
                <name>Position 227</name>
            </trkpt>
            <trkpt lat="47.0686629" lon="10.9701783">
                <ele>1164.5</ele>
                <time>2018-08-19T13:20:22.000Z</time>
                <name>Position 228</name>
            </trkpt>
            <trkpt lat="47.068568" lon="10.9701218">
                <ele>1168.4</ele>
                <time>2018-08-19T13:20:38.000Z</time>
                <name>Position 229</name>
            </trkpt>
            <trkpt lat="47.0684512" lon="10.9701199">
                <ele>1171.4</ele>
                <time>2018-08-19T13:20:44.000Z</time>
                <name>Position 230</name>
            </trkpt>
            <trkpt lat="47.0683387" lon="10.9701077">
                <ele>1166.2</ele>
                <time>2018-08-19T13:20:52.000Z</time>
                <name>Position 231</name>
            </trkpt>
            <trkpt lat="47.0682228" lon="10.9700318">
                <ele>1161.7</ele>
                <time>2018-08-19T13:20:58.000Z</time>
                <name>Position 232</name>
            </trkpt>
            <trkpt lat="47.0681172" lon="10.9699507">
                <ele>1153.3</ele>
                <time>2018-08-19T13:21:08.000Z</time>
                <name>Position 233</name>
            </trkpt>
            <trkpt lat="47.0680222" lon="10.9698808">
                <ele>1151.9</ele>
                <time>2018-08-19T13:21:14.000Z</time>
                <name>Position 234</name>
            </trkpt>
            <trkpt lat="47.0679238" lon="10.9698246">
                <ele>1149.5</ele>
                <time>2018-08-19T13:21:24.000Z</time>
                <name>Position 235</name>
            </trkpt>
            <trkpt lat="47.0678431" lon="10.9697531">
                <ele>1146.2</ele>
                <time>2018-08-19T13:21:32.000Z</time>
                <name>Position 236</name>
            </trkpt>
            <trkpt lat="47.0677339" lon="10.9696847">
                <ele>1143.6</ele>
                <time>2018-08-19T13:21:38.000Z</time>
                <name>Position 237</name>
            </trkpt>
            <trkpt lat="47.0676402" lon="10.9695825">
                <ele>1148.7</ele>
                <time>2018-08-19T13:21:48.000Z</time>
                <name>Position 238</name>
            </trkpt>
            <trkpt lat="47.067547" lon="10.9695329">
                <ele>1147.6</ele>
                <time>2018-08-19T13:21:52.000Z</time>
                <name>Position 239</name>
            </trkpt>
            <trkpt lat="47.067456" lon="10.9694852">
                <ele>1150.2</ele>
                <time>2018-08-19T13:22:00.000Z</time>
                <name>Position 240</name>
            </trkpt>
            <trkpt lat="47.0673641" lon="10.9694702">
                <ele>1153.0</ele>
                <time>2018-08-19T13:22:04.000Z</time>
                <name>Position 241</name>
            </trkpt>
            <trkpt lat="47.067286" lon="10.9693938">
                <ele>1149.6</ele>
                <time>2018-08-19T13:22:12.000Z</time>
                <name>Position 242</name>
            </trkpt>
            <trkpt lat="47.0671942" lon="10.9693546">
                <ele>1152.1</ele>
                <time>2018-08-19T13:22:18.000Z</time>
                <name>Position 243</name>
            </trkpt>
            <trkpt lat="47.0670912" lon="10.96932">
                <ele>1152.4</ele>
                <time>2018-08-19T13:22:28.000Z</time>
                <name>Position 244</name>
            </trkpt>
            <trkpt lat="47.0670054" lon="10.9692356">
                <ele>1155.6</ele>
                <time>2018-08-19T13:22:36.000Z</time>
                <name>Position 245</name>
            </trkpt>
            <trkpt lat="47.0670513" lon="10.9690667">
                <ele>1164.5</ele>
                <time>2018-08-19T13:22:46.000Z</time>
                <name>Position 246</name>
            </trkpt>
            <trkpt lat="47.0671212" lon="10.968964">
                <ele>1170.4</ele>
                <time>2018-08-19T13:22:54.000Z</time>
                <name>Position 247</name>
            </trkpt>
            <trkpt lat="47.0671242" lon="10.9688126">
                <ele>1170.3</ele>
                <time>2018-08-19T13:23:00.000Z</time>
                <name>Position 248</name>
            </trkpt>
            <trkpt lat="47.067066" lon="10.9686963">
                <ele>1167.6</ele>
                <time>2018-08-19T13:23:12.000Z</time>
                <name>Position 249</name>
            </trkpt>
            <trkpt lat="47.067003" lon="10.9685872">
                <ele>1171.9</ele>
                <time>2018-08-19T13:23:18.000Z</time>
                <name>Position 250</name>
            </trkpt>
            <trkpt lat="47.0669595" lon="10.9684432">
                <ele>1170.5</ele>
                <time>2018-08-19T13:23:24.000Z</time>
                <name>Position 251</name>
            </trkpt>
            <trkpt lat="47.0669096" lon="10.9683213">
                <ele>1168.9</ele>
                <time>2018-08-19T13:23:34.000Z</time>
                <name>Position 252</name>
            </trkpt>
            <trkpt lat="47.066813" lon="10.9682696">
                <ele>1167.7</ele>
                <time>2018-08-19T13:23:44.000Z</time>
                <name>Position 253</name>
            </trkpt>
            <trkpt lat="47.0666994" lon="10.9682293">
                <ele>1167.6</ele>
                <time>2018-08-19T13:23:52.000Z</time>
                <name>Position 254</name>
            </trkpt>
            <trkpt lat="47.0666216" lon="10.9681307">
                <ele>1164.1</ele>
                <time>2018-08-19T13:24:00.000Z</time>
                <name>Position 255</name>
            </trkpt>
            <trkpt lat="47.0665369" lon="10.9680652">
                <ele>1168.3</ele>
                <time>2018-08-19T13:24:08.000Z</time>
                <name>Position 256</name>
            </trkpt>
            <trkpt lat="47.0664458" lon="10.9679865">
                <ele>1170.4</ele>
                <time>2018-08-19T13:24:14.000Z</time>
                <name>Position 257</name>
            </trkpt>
            <trkpt lat="47.066334" lon="10.9678976">
                <ele>1169.0</ele>
                <time>2018-08-19T13:24:24.000Z</time>
                <name>Position 258</name>
            </trkpt>
            <trkpt lat="47.0662206" lon="10.9678372">
                <ele>1166.8</ele>
                <time>2018-08-19T13:24:34.000Z</time>
                <name>Position 259</name>
            </trkpt>
            <trkpt lat="47.0661278" lon="10.9678327">
                <ele>1170.9</ele>
                <time>2018-08-19T13:24:42.000Z</time>
                <name>Position 260</name>
            </trkpt>
            <trkpt lat="47.0660261" lon="10.9678304">
                <ele>1167.1</ele>
                <time>2018-08-19T13:24:50.000Z</time>
                <name>Position 261</name>
            </trkpt>
            <trkpt lat="47.0659157" lon="10.9678285">
                <ele>1167.8</ele>
                <time>2018-08-19T13:25:00.000Z</time>
                <name>Position 262</name>
            </trkpt>
            <trkpt lat="47.0658397" lon="10.967755">
                <ele>1173.0</ele>
                <time>2018-08-19T13:25:06.000Z</time>
                <name>Position 263</name>
            </trkpt>
            <trkpt lat="47.0657582" lon="10.9676562">
                <ele>1170.6</ele>
                <time>2018-08-19T13:25:16.000Z</time>
                <name>Position 264</name>
            </trkpt>
            <trkpt lat="47.0657182" lon="10.9674977">
                <ele>1168.7</ele>
                <time>2018-08-19T13:25:28.000Z</time>
                <name>Position 265</name>
            </trkpt>
            <trkpt lat="47.0656092" lon="10.9674559">
                <ele>1165.0</ele>
                <time>2018-08-19T13:25:40.000Z</time>
                <name>Position 266</name>
            </trkpt>
            <trkpt lat="47.0655045" lon="10.9674371">
                <ele>1167.0</ele>
                <time>2018-08-19T13:25:48.000Z</time>
                <name>Position 267</name>
            </trkpt>
            <trkpt lat="47.0654074" lon="10.9674568">
                <ele>1168.3</ele>
                <time>2018-08-19T13:25:54.000Z</time>
                <name>Position 268</name>
            </trkpt>
            <trkpt lat="47.0653053" lon="10.967452">
                <ele>1168.5</ele>
                <time>2018-08-19T13:26:02.000Z</time>
                <name>Position 269</name>
            </trkpt>
            <trkpt lat="47.0651978" lon="10.9674127">
                <ele>1167.0</ele>
                <time>2018-08-19T13:26:10.000Z</time>
                <name>Position 270</name>
            </trkpt>
            <trkpt lat="47.0651044" lon="10.9673738">
                <ele>1164.5</ele>
                <time>2018-08-19T13:26:18.000Z</time>
                <name>Position 271</name>
            </trkpt>
            <trkpt lat="47.0650136" lon="10.9673497">
                <ele>1162.9</ele>
                <time>2018-08-19T13:26:26.000Z</time>
                <name>Position 272</name>
            </trkpt>
            <trkpt lat="47.0649004" lon="10.9673393">
                <ele>1163.9</ele>
                <time>2018-08-19T13:26:36.000Z</time>
                <name>Position 273</name>
            </trkpt>
            <trkpt lat="47.0648066" lon="10.9673242">
                <ele>1166.9</ele>
                <time>2018-08-19T13:26:44.000Z</time>
                <name>Position 274</name>
            </trkpt>
            <trkpt lat="47.0647066" lon="10.9673318">
                <ele>1165.6</ele>
                <time>2018-08-19T13:26:50.000Z</time>
                <name>Position 275</name>
            </trkpt>
            <trkpt lat="47.0645895" lon="10.9672841">
                <ele>1165.3</ele>
                <time>2018-08-19T13:27:00.000Z</time>
                <name>Position 276</name>
            </trkpt>
            <trkpt lat="47.0644995" lon="10.9672527">
                <ele>1166.1</ele>
                <time>2018-08-19T13:27:08.000Z</time>
                <name>Position 277</name>
            </trkpt>
            <trkpt lat="47.0643944" lon="10.9672596">
                <ele>1166.6</ele>
                <time>2018-08-19T13:27:16.000Z</time>
                <name>Position 278</name>
            </trkpt>
            <trkpt lat="47.0642951" lon="10.9672501">
                <ele>1165.0</ele>
                <time>2018-08-19T13:27:22.000Z</time>
                <name>Position 279</name>
            </trkpt>
            <trkpt lat="47.0641836" lon="10.9672398">
                <ele>1162.6</ele>
                <time>2018-08-19T13:27:30.000Z</time>
                <name>Position 280</name>
            </trkpt>
            <trkpt lat="47.0640838" lon="10.9672384">
                <ele>1161.5</ele>
                <time>2018-08-19T13:27:36.000Z</time>
                <name>Position 281</name>
            </trkpt>
            <trkpt lat="47.0639578" lon="10.9672022">
                <ele>1159.9</ele>
                <time>2018-08-19T13:27:44.000Z</time>
                <name>Position 282</name>
            </trkpt>
            <trkpt lat="47.0638214" lon="10.9671643">
                <ele>1162.5</ele>
                <time>2018-08-19T13:27:54.000Z</time>
                <name>Position 283</name>
            </trkpt>
            <trkpt lat="47.0637348" lon="10.9671224">
                <ele>1163.2</ele>
                <time>2018-08-19T13:28:02.000Z</time>
                <name>Position 284</name>
            </trkpt>
            <trkpt lat="47.0636447" lon="10.967079">
                <ele>1163.7</ele>
                <time>2018-08-19T13:28:08.000Z</time>
                <name>Position 285</name>
            </trkpt>
            <trkpt lat="47.0636357" lon="10.9668812">
                <ele>1166.1</ele>
                <time>2018-08-19T13:28:16.000Z</time>
                <name>Position 286</name>
            </trkpt>
            <trkpt lat="47.0636903" lon="10.9667128">
                <ele>1168.0</ele>
                <time>2018-08-19T13:28:24.000Z</time>
                <name>Position 287</name>
            </trkpt>
            <trkpt lat="47.0637202" lon="10.9665492">
                <ele>1165.4</ele>
                <time>2018-08-19T13:28:30.000Z</time>
                <name>Position 288</name>
            </trkpt>
            <trkpt lat="47.0637641" lon="10.9663737">
                <ele>1171.3</ele>
                <time>2018-08-19T13:28:38.000Z</time>
                <name>Position 289</name>
            </trkpt>
            <trkpt lat="47.0638116" lon="10.9662463">
                <ele>1168.5</ele>
                <time>2018-08-19T13:28:44.000Z</time>
                <name>Position 290</name>
            </trkpt>
            <trkpt lat="47.0638593" lon="10.9661112">
                <ele>1174.5</ele>
                <time>2018-08-19T13:28:52.000Z</time>
                <name>Position 291</name>
            </trkpt>
            <trkpt lat="47.0639041" lon="10.9659841">
                <ele>1174.4</ele>
                <time>2018-08-19T13:29:00.000Z</time>
                <name>Position 292</name>
            </trkpt>
            <trkpt lat="47.0639331" lon="10.9658526">
                <ele>1177.9</ele>
                <time>2018-08-19T13:29:08.000Z</time>
                <name>Position 293</name>
            </trkpt>
            <trkpt lat="47.0639412" lon="10.9656903">
                <ele>1177.3</ele>
                <time>2018-08-19T13:29:16.000Z</time>
                <name>Position 294</name>
            </trkpt>
            <trkpt lat="47.0639998" lon="10.9655554">
                <ele>1181.3</ele>
                <time>2018-08-19T13:29:24.000Z</time>
                <name>Position 295</name>
            </trkpt>
            <trkpt lat="47.0639891" lon="10.9654154">
                <ele>1178.3</ele>
                <time>2018-08-19T13:29:30.000Z</time>
                <name>Position 296</name>
            </trkpt>
            <trkpt lat="47.0640021" lon="10.9652394">
                <ele>1170.6</ele>
                <time>2018-08-19T13:29:44.000Z</time>
                <name>Position 297</name>
            </trkpt>
            <trkpt lat="47.064041" lon="10.9651001">
                <ele>1169.2</ele>
                <time>2018-08-19T13:29:48.000Z</time>
                <name>Position 298</name>
            </trkpt>
            <trkpt lat="47.0640339" lon="10.9649528">
                <ele>1173.2</ele>
                <time>2018-08-19T13:29:56.000Z</time>
                <name>Position 299</name>
            </trkpt>
            <trkpt lat="47.0640781" lon="10.9648059">
                <ele>1172.3</ele>
                <time>2018-08-19T13:30:04.000Z</time>
                <name>Position 300</name>
            </trkpt>
            <trkpt lat="47.0639841" lon="10.9648113">
                <ele>1168.1</ele>
                <time>2018-08-19T13:30:12.000Z</time>
                <name>Position 301</name>
            </trkpt>
            <trkpt lat="47.0638712" lon="10.9647714">
                <ele>1166.5</ele>
                <time>2018-08-19T13:30:22.000Z</time>
                <name>Position 302</name>
            </trkpt>
            <trkpt lat="47.0637498" lon="10.9647426">
                <ele>1168.3</ele>
                <time>2018-08-19T13:30:30.000Z</time>
                <name>Position 303</name>
            </trkpt>
            <trkpt lat="47.0636582" lon="10.9646812">
                <ele>1165.6</ele>
                <time>2018-08-19T13:30:34.000Z</time>
                <name>Position 304</name>
            </trkpt>
            <trkpt lat="47.0635758" lon="10.9646181">
                <ele>1163.7</ele>
                <time>2018-08-19T13:30:40.000Z</time>
                <name>Position 305</name>
            </trkpt>
            <trkpt lat="47.0634867" lon="10.9645559">
                <ele>1163.2</ele>
                <time>2018-08-19T13:30:48.000Z</time>
                <name>Position 306</name>
            </trkpt>
            <trkpt lat="47.063375" lon="10.9644752">
                <ele>1163.0</ele>
                <time>2018-08-19T13:31:00.000Z</time>
                <name>Position 307</name>
            </trkpt>
            <trkpt lat="47.0632787" lon="10.9644437">
                <ele>1164.2</ele>
                <time>2018-08-19T13:31:08.000Z</time>
                <name>Position 308</name>
            </trkpt>
            <trkpt lat="47.0631771" lon="10.9644108">
                <ele>1162.1</ele>
                <time>2018-08-19T13:31:16.000Z</time>
                <name>Position 309</name>
            </trkpt>
            <trkpt lat="47.0630842" lon="10.9643634">
                <ele>1160.7</ele>
                <time>2018-08-19T13:31:24.000Z</time>
                <name>Position 310</name>
            </trkpt>
            <trkpt lat="47.0629765" lon="10.9643236">
                <ele>1160.4</ele>
                <time>2018-08-19T13:31:30.000Z</time>
                <name>Position 311</name>
            </trkpt>
            <trkpt lat="47.0628916" lon="10.9642762">
                <ele>1165.6</ele>
                <time>2018-08-19T13:31:44.000Z</time>
                <name>Position 312</name>
            </trkpt>
            <trkpt lat="47.0628008" lon="10.964239">
                <ele>1167.4</ele>
                <time>2018-08-19T13:31:50.000Z</time>
                <name>Position 313</name>
            </trkpt>
            <trkpt lat="47.0626914" lon="10.9642001">
                <ele>1169.2</ele>
                <time>2018-08-19T13:31:58.000Z</time>
                <name>Position 314</name>
            </trkpt>
            <trkpt lat="47.0626061" lon="10.9641544">
                <ele>1170.2</ele>
                <time>2018-08-19T13:32:06.000Z</time>
                <name>Position 315</name>
            </trkpt>
            <trkpt lat="47.062524" lon="10.9640935">
                <ele>1172.1</ele>
                <time>2018-08-19T13:32:12.000Z</time>
                <name>Position 316</name>
            </trkpt>
            <trkpt lat="47.0624155" lon="10.9640267">
                <ele>1174.1</ele>
                <time>2018-08-19T13:32:20.000Z</time>
                <name>Position 317</name>
            </trkpt>
            <trkpt lat="47.0623043" lon="10.9640071">
                <ele>1171.6</ele>
                <time>2018-08-19T13:32:30.000Z</time>
                <name>Position 318</name>
            </trkpt>
            <trkpt lat="47.0622051" lon="10.9639704">
                <ele>1169.6</ele>
                <time>2018-08-19T13:32:38.000Z</time>
                <name>Position 319</name>
            </trkpt>
            <trkpt lat="47.062108" lon="10.9639496">
                <ele>1170.4</ele>
                <time>2018-08-19T13:32:44.000Z</time>
                <name>Position 320</name>
            </trkpt>
            <trkpt lat="47.0619904" lon="10.9638967">
                <ele>1170.8</ele>
                <time>2018-08-19T13:32:54.000Z</time>
                <name>Position 321</name>
            </trkpt>
            <trkpt lat="47.0618994" lon="10.9638784">
                <ele>1169.6</ele>
                <time>2018-08-19T13:33:02.000Z</time>
                <name>Position 322</name>
            </trkpt>
            <trkpt lat="47.0618083" lon="10.963831">
                <ele>1171.9</ele>
                <time>2018-08-19T13:33:10.000Z</time>
                <name>Position 323</name>
            </trkpt>
            <trkpt lat="47.0617168" lon="10.9637904">
                <ele>1171.8</ele>
                <time>2018-08-19T13:33:18.000Z</time>
                <name>Position 324</name>
            </trkpt>
            <trkpt lat="47.0616048" lon="10.9637706">
                <ele>1167.9</ele>
                <time>2018-08-19T13:33:24.000Z</time>
                <name>Position 325</name>
            </trkpt>
            <trkpt lat="47.0614918" lon="10.9637091">
                <ele>1165.0</ele>
                <time>2018-08-19T13:33:34.000Z</time>
                <name>Position 326</name>
            </trkpt>
            <trkpt lat="47.0613986" lon="10.9637023">
                <ele>1164.0</ele>
                <time>2018-08-19T13:33:42.000Z</time>
                <name>Position 327</name>
            </trkpt>
            <trkpt lat="47.0613096" lon="10.9636399">
                <ele>1166.1</ele>
                <time>2018-08-19T13:33:50.000Z</time>
                <name>Position 328</name>
            </trkpt>
            <trkpt lat="47.0612194" lon="10.9635971">
                <ele>1168.1</ele>
                <time>2018-08-19T13:33:58.000Z</time>
                <name>Position 329</name>
            </trkpt>
            <trkpt lat="47.0611316" lon="10.9635629">
                <ele>1178.4</ele>
                <time>2018-08-19T13:34:14.000Z</time>
                <name>Position 330</name>
            </trkpt>
            <trkpt lat="47.0610397" lon="10.9635727">
                <ele>1184.1</ele>
                <time>2018-08-19T13:34:24.000Z</time>
                <name>Position 331</name>
            </trkpt>
            <trkpt lat="47.0609371" lon="10.9635299">
                <ele>1186.1</ele>
                <time>2018-08-19T13:34:34.000Z</time>
                <name>Position 332</name>
            </trkpt>
            <trkpt lat="47.06083" lon="10.9635195">
                <ele>1203.8</ele>
                <time>2018-08-19T13:34:56.000Z</time>
                <name>Position 333</name>
            </trkpt>
            <trkpt lat="47.0607308" lon="10.9635519">
                <ele>1205.9</ele>
                <time>2018-08-19T13:35:02.000Z</time>
                <name>Position 334</name>
            </trkpt>
            <trkpt lat="47.0606447" lon="10.963473">
                <ele>1204.9</ele>
                <time>2018-08-19T13:35:10.000Z</time>
                <name>Position 335</name>
            </trkpt>
            <trkpt lat="47.0605334" lon="10.963475">
                <ele>1194.5</ele>
                <time>2018-08-19T13:35:18.000Z</time>
                <name>Position 336</name>
            </trkpt>
            <trkpt lat="47.0604403" lon="10.9634801">
                <ele>1197.6</ele>
                <time>2018-08-19T13:35:26.000Z</time>
                <name>Position 337</name>
            </trkpt>
            <trkpt lat="47.0603411" lon="10.9634772">
                <ele>1189.7</ele>
                <time>2018-08-19T13:35:34.000Z</time>
                <name>Position 338</name>
            </trkpt>
            <trkpt lat="47.0602551" lon="10.9635246">
                <ele>1191.4</ele>
                <time>2018-08-19T13:35:42.000Z</time>
                <name>Position 339</name>
            </trkpt>
            <trkpt lat="47.0602709" lon="10.9635144">
                <ele>1191.8</ele>
                <time>2018-08-19T13:36:33.000Z</time>
                <name>Position 340</name>
            </trkpt>
            <trkpt lat="47.0601858" lon="10.9634294">
                <ele>1188.5</ele>
                <time>2018-08-19T13:36:40.000Z</time>
                <name>Position 341</name>
            </trkpt>
            <trkpt lat="47.0600809" lon="10.9634402">
                <ele>1186.5</ele>
                <time>2018-08-19T13:36:48.000Z</time>
                <name>Position 342</name>
            </trkpt>
            <trkpt lat="47.0599838" lon="10.9634627">
                <ele>1189.3</ele>
                <time>2018-08-19T13:37:13.000Z</time>
                <name>Position 343</name>
            </trkpt>
            <trkpt lat="47.0598689" lon="10.9634616">
                <ele>1187.8</ele>
                <time>2018-08-19T13:37:39.000Z</time>
                <name>Position 344</name>
            </trkpt>
            <trkpt lat="47.0597681" lon="10.963497">
                <ele>1183.9</ele>
                <time>2018-08-19T13:37:47.000Z</time>
                <name>Position 345</name>
            </trkpt>
            <trkpt lat="47.0596703" lon="10.9634918">
                <ele>1183.2</ele>
                <time>2018-08-19T13:37:55.000Z</time>
                <name>Position 346</name>
            </trkpt>
            <trkpt lat="47.0595506" lon="10.9634767">
                <ele>1182.2</ele>
                <time>2018-08-19T13:38:05.000Z</time>
                <name>Position 347</name>
            </trkpt>
            <trkpt lat="47.0594291" lon="10.9634752">
                <ele>1180.9</ele>
                <time>2018-08-19T13:38:15.000Z</time>
                <name>Position 348</name>
            </trkpt>
            <trkpt lat="47.0593277" lon="10.9634707">
                <ele>1179.9</ele>
                <time>2018-08-19T13:38:25.000Z</time>
                <name>Position 349</name>
            </trkpt>
            <trkpt lat="47.0593218" lon="10.9636033">
                <ele>1173.9</ele>
                <time>2018-08-19T13:38:43.000Z</time>
                <name>Position 350</name>
            </trkpt>
            <trkpt lat="47.0593057" lon="10.9634703">
                <ele>1175.2</ele>
                <time>2018-08-19T13:39:07.000Z</time>
                <name>Position 351</name>
            </trkpt>
            <trkpt lat="47.059215" lon="10.9634721">
                <ele>1174.0</ele>
                <time>2018-08-19T13:39:13.000Z</time>
                <name>Position 352</name>
            </trkpt>
            <trkpt lat="47.0590915" lon="10.9634034">
                <ele>1174.9</ele>
                <time>2018-08-19T13:39:27.000Z</time>
                <name>Position 353</name>
            </trkpt>
            <trkpt lat="47.0589787" lon="10.9634061">
                <ele>1178.2</ele>
                <time>2018-08-19T13:39:33.000Z</time>
                <name>Position 354</name>
            </trkpt>
            <trkpt lat="47.0588837" lon="10.9634227">
                <ele>1180.3</ele>
                <time>2018-08-19T13:39:41.000Z</time>
                <name>Position 355</name>
            </trkpt>
            <trkpt lat="47.0587972" lon="10.96347">
                <ele>1178.9</ele>
                <time>2018-08-19T13:39:49.000Z</time>
                <name>Position 356</name>
            </trkpt>
            <trkpt lat="47.0586932" lon="10.9634715">
                <ele>1177.7</ele>
                <time>2018-08-19T13:39:55.000Z</time>
                <name>Position 357</name>
            </trkpt>
            <trkpt lat="47.0585927" lon="10.9634948">
                <ele>1178.9</ele>
                <time>2018-08-19T13:40:19.000Z</time>
                <name>Position 358</name>
            </trkpt>
            <trkpt lat="47.058499" lon="10.9634552">
                <ele>1178.0</ele>
                <time>2018-08-19T13:40:27.000Z</time>
                <name>Position 359</name>
            </trkpt>
            <trkpt lat="47.0584055" lon="10.9634424">
                <ele>1178.0</ele>
                <time>2018-08-19T13:40:35.000Z</time>
                <name>Position 360</name>
            </trkpt>
            <trkpt lat="47.058303" lon="10.9634656">
                <ele>1176.0</ele>
                <time>2018-08-19T13:40:43.000Z</time>
                <name>Position 361</name>
            </trkpt>
            <trkpt lat="47.0581959" lon="10.9634658">
                <ele>1174.8</ele>
                <time>2018-08-19T13:40:51.000Z</time>
                <name>Position 362</name>
            </trkpt>
            <trkpt lat="47.05809" lon="10.9634666">
                <ele>1173.4</ele>
                <time>2018-08-19T13:41:03.000Z</time>
                <name>Position 363</name>
            </trkpt>
            <trkpt lat="47.0580582" lon="10.963304">
                <ele>1168.2</ele>
                <time>2018-08-19T13:41:09.000Z</time>
                <name>Position 364</name>
            </trkpt>
        </trkseg>
    </trk>
</gpx>
