<?xml version="1.0" encoding="UTF-8" standalone="yes"?>
<gpx xmlns:gpxtpx1="http://www.garmin.com/xmlschemas/TrackPointExtension/v1" xmlns="http://www.topografix.com/GPX/1/1" xmlns:trp="http://www.garmin.com/xmlschemas/TripExtensions/v1" xmlns:gpxx="http://www.garmin.com/xmlschemas/GpxExtensions/v3" xmlns:gpxtpx="http://www.garmin.com/xmlschemas/TrackPointExtension/v2" version="1.1" creator="Generated by Christian Pesch's RouteConverter. See http://www.routeconverter.com">
    <metadata>
        <link href="connect.garmin.com">
            <text>Garmin Connect</text>
        </link>
        <time>2019-03-22T11:04:08.000Z</time>
    </metadata>
    <trk>
        <name>Steinwand Klettersteig</name>
        <type>running</type>
        <trkseg>
            <trkpt lat="47.2075871" lon="10.7590501">
                <ele>809.6</ele>
                <time>2019-03-22T11:08:04.000Z</time>
                <name>Position 1</name>
                <extensions>
                    <gpxtpx:TrackPointExtension>
                        <gpxtpx:hr>84</gpxtpx:hr>
                        <gpxtpx:cad>48</gpxtpx:cad>
                    </gpxtpx:TrackPointExtension>
                </extensions>
            </trkpt>
            <trkpt lat="47.2074606" lon="10.7589009">
                <ele>811.8</ele>
                <time>2019-03-22T11:08:25.000Z</time>
                <name>Position 2</name>
                <extensions>
                    <gpxtpx:TrackPointExtension>
                        <gpxtpx:hr>87</gpxtpx:hr>
                        <gpxtpx:cad>48</gpxtpx:cad>
                    </gpxtpx:TrackPointExtension>
                </extensions>
            </trkpt>
            <trkpt lat="47.2073045" lon="10.7587535">
                <ele>821.4</ele>
                <time>2019-03-22T11:09:24.000Z</time>
                <name>Position 3</name>
                <extensions>
                    <gpxtpx:TrackPointExtension>
                        <gpxtpx:hr>88</gpxtpx:hr>
                        <gpxtpx:cad>43</gpxtpx:cad>
                    </gpxtpx:TrackPointExtension>
                </extensions>
            </trkpt>
            <trkpt lat="47.2071968" lon="10.7585735">
                <ele>823.0</ele>
                <time>2019-03-22T11:09:41.000Z</time>
                <name>Position 4</name>
                <extensions>
                    <gpxtpx:TrackPointExtension>
                        <gpxtpx:hr>94</gpxtpx:hr>
                        <gpxtpx:cad>45</gpxtpx:cad>
                    </gpxtpx:TrackPointExtension>
                </extensions>
            </trkpt>
            <trkpt lat="47.2070448" lon="10.7584171">
                <ele>827.0</ele>
                <time>2019-03-22T11:10:02.000Z</time>
                <name>Position 5</name>
                <extensions>
                    <gpxtpx:TrackPointExtension>
                        <gpxtpx:hr>88</gpxtpx:hr>
                    </gpxtpx:TrackPointExtension>
                </extensions>
            </trkpt>
            <trkpt lat="47.2069917" lon="10.758184">
                <ele>827.4</ele>
                <time>2019-03-22T11:11:15.000Z</time>
                <name>Position 6</name>
                <extensions>
                    <gpxtpx:TrackPointExtension>
                        <gpxtpx:hr>114</gpxtpx:hr>
                        <gpxtpx:cad>60</gpxtpx:cad>
                    </gpxtpx:TrackPointExtension>
                </extensions>
            </trkpt>
            <trkpt lat="47.2069401" lon="10.7579158">
                <ele>826.8</ele>
                <time>2019-03-22T11:11:29.000Z</time>
                <name>Position 7</name>
                <extensions>
                    <gpxtpx:TrackPointExtension>
                        <gpxtpx:hr>115</gpxtpx:hr>
                        <gpxtpx:cad>59</gpxtpx:cad>
                    </gpxtpx:TrackPointExtension>
                </extensions>
            </trkpt>
            <trkpt lat="47.2069201" lon="10.7576767">
                <ele>826.2</ele>
                <time>2019-03-22T11:11:42.000Z</time>
                <name>Position 8</name>
                <extensions>
                    <gpxtpx:TrackPointExtension>
                        <gpxtpx:hr>107</gpxtpx:hr>
                        <gpxtpx:cad>60</gpxtpx:cad>
                    </gpxtpx:TrackPointExtension>
                </extensions>
            </trkpt>
            <trkpt lat="47.206841" lon="10.757474">
                <ele>826.4</ele>
                <time>2019-03-22T11:12:01.000Z</time>
                <name>Position 9</name>
                <extensions>
                    <gpxtpx:TrackPointExtension>
                        <gpxtpx:hr>105</gpxtpx:hr>
                        <gpxtpx:cad>42</gpxtpx:cad>
                    </gpxtpx:TrackPointExtension>
                </extensions>
            </trkpt>
            <trkpt lat="47.2067739" lon="10.7572719">
                <ele>831.2</ele>
                <time>2019-03-22T11:12:26.000Z</time>
                <name>Position 10</name>
                <extensions>
                    <gpxtpx:TrackPointExtension>
                        <gpxtpx:hr>107</gpxtpx:hr>
                        <gpxtpx:cad>48</gpxtpx:cad>
                    </gpxtpx:TrackPointExtension>
                </extensions>
            </trkpt>
            <trkpt lat="47.2066892" lon="10.7570355">
                <ele>835.8</ele>
                <time>2019-03-22T11:12:53.000Z</time>
                <name>Position 11</name>
                <extensions>
                    <gpxtpx:TrackPointExtension>
                        <gpxtpx:hr>96</gpxtpx:hr>
                        <gpxtpx:cad>47</gpxtpx:cad>
                    </gpxtpx:TrackPointExtension>
                </extensions>
            </trkpt>
            <trkpt lat="47.2067573" lon="10.7568266">
                <ele>836.6</ele>
                <time>2019-03-22T11:13:14.000Z</time>
                <name>Position 12</name>
                <extensions>
                    <gpxtpx:TrackPointExtension>
                        <gpxtpx:hr>98</gpxtpx:hr>
                        <gpxtpx:cad>49</gpxtpx:cad>
                    </gpxtpx:TrackPointExtension>
                </extensions>
            </trkpt>
            <trkpt lat="47.2066846" lon="10.7566258">
                <ele>839.2</ele>
                <time>2019-03-22T11:13:41.000Z</time>
                <name>Position 13</name>
                <extensions>
                    <gpxtpx:TrackPointExtension>
                        <gpxtpx:hr>97</gpxtpx:hr>
                        <gpxtpx:cad>71</gpxtpx:cad>
                    </gpxtpx:TrackPointExtension>
                </extensions>
            </trkpt>
            <trkpt lat="47.2065539" lon="10.7564868">
                <ele>845.8</ele>
                <time>2019-03-22T11:14:05.000Z</time>
                <name>Position 14</name>
                <extensions>
                    <gpxtpx:TrackPointExtension>
                        <gpxtpx:hr>127</gpxtpx:hr>
                        <gpxtpx:cad>43</gpxtpx:cad>
                    </gpxtpx:TrackPointExtension>
                </extensions>
            </trkpt>
            <trkpt lat="47.2065427" lon="10.7564364">
                <ele>872.8</ele>
                <time>2019-03-22T11:18:01.000Z</time>
                <name>Position 15</name>
                <extensions>
                    <gpxtpx:TrackPointExtension>
                        <gpxtpx:hr>107</gpxtpx:hr>
                    </gpxtpx:TrackPointExtension>
                </extensions>
            </trkpt>
            <trkpt lat="47.2065318" lon="10.7562638">
                <ele>872.4</ele>
                <time>2019-03-22T11:19:04.000Z</time>
                <name>Position 16</name>
                <extensions>
                    <gpxtpx:TrackPointExtension>
                        <gpxtpx:hr>99</gpxtpx:hr>
                    </gpxtpx:TrackPointExtension>
                </extensions>
            </trkpt>
            <trkpt lat="47.2063552" lon="10.7563032">
                <ele>872.8</ele>
                <time>2019-03-22T11:22:09.000Z</time>
                <name>Position 17</name>
                <extensions>
                    <gpxtpx:TrackPointExtension>
                        <gpxtpx:hr>98</gpxtpx:hr>
                    </gpxtpx:TrackPointExtension>
                </extensions>
            </trkpt>
            <trkpt lat="47.2062395" lon="10.7561375">
                <ele>892.2</ele>
                <time>2019-03-22T11:25:08.000Z</time>
                <name>Position 18</name>
                <extensions>
                    <gpxtpx:TrackPointExtension>
                        <gpxtpx:hr>118</gpxtpx:hr>
                    </gpxtpx:TrackPointExtension>
                </extensions>
            </trkpt>
            <trkpt lat="47.206174" lon="10.7563464">
                <ele>914.0</ele>
                <time>2019-03-22T11:37:02.000Z</time>
                <name>Position 19</name>
                <extensions>
                    <gpxtpx:TrackPointExtension>
                        <gpxtpx:hr>98</gpxtpx:hr>
                    </gpxtpx:TrackPointExtension>
                </extensions>
            </trkpt>
            <trkpt lat="47.2060814" lon="10.7565388">
                <ele>913.6</ele>
                <time>2019-03-22T11:38:08.000Z</time>
                <name>Position 20</name>
                <extensions>
                    <gpxtpx:TrackPointExtension>
                        <gpxtpx:hr>99</gpxtpx:hr>
                    </gpxtpx:TrackPointExtension>
                </extensions>
            </trkpt>
            <trkpt lat="47.2059219" lon="10.7566119">
                <ele>913.6</ele>
                <time>2019-03-22T11:39:06.000Z</time>
                <name>Position 21</name>
                <extensions>
                    <gpxtpx:TrackPointExtension>
                        <gpxtpx:hr>110</gpxtpx:hr>
                    </gpxtpx:TrackPointExtension>
                </extensions>
            </trkpt>
            <trkpt lat="47.2058554" lon="10.7565421">
                <ele>990.0</ele>
                <time>2019-03-22T12:32:56.000Z</time>
                <name>Position 22</name>
                <extensions>
                    <gpxtpx:TrackPointExtension>
                        <gpxtpx:hr>129</gpxtpx:hr>
                        <gpxtpx:cad>52</gpxtpx:cad>
                    </gpxtpx:TrackPointExtension>
                </extensions>
            </trkpt>
            <trkpt lat="47.2056946" lon="10.7565254">
                <ele>998.0</ele>
                <time>2019-03-22T12:35:45.000Z</time>
                <name>Position 23</name>
                <extensions>
                    <gpxtpx:TrackPointExtension>
                        <gpxtpx:hr>103</gpxtpx:hr>
                        <gpxtpx:cad>43</gpxtpx:cad>
                    </gpxtpx:TrackPointExtension>
                </extensions>
            </trkpt>
            <trkpt lat="47.2056703" lon="10.7562963">
                <ele>1000.4</ele>
                <time>2019-03-22T12:36:05.000Z</time>
                <name>Position 24</name>
                <extensions>
                    <gpxtpx:TrackPointExtension>
                        <gpxtpx:hr>105</gpxtpx:hr>
                        <gpxtpx:cad>43</gpxtpx:cad>
                    </gpxtpx:TrackPointExtension>
                </extensions>
            </trkpt>
            <trkpt lat="47.2056565" lon="10.7560726">
                <ele>1004.6</ele>
                <time>2019-03-22T12:36:56.000Z</time>
                <name>Position 25</name>
                <extensions>
                    <gpxtpx:TrackPointExtension>
                        <gpxtpx:hr>94</gpxtpx:hr>
                        <gpxtpx:cad>45</gpxtpx:cad>
                    </gpxtpx:TrackPointExtension>
                </extensions>
            </trkpt>
            <trkpt lat="47.2056363" lon="10.7558238">
                <ele>1007.0</ele>
                <time>2019-03-22T12:37:19.000Z</time>
                <name>Position 26</name>
                <extensions>
                    <gpxtpx:TrackPointExtension>
                        <gpxtpx:hr>98</gpxtpx:hr>
                    </gpxtpx:TrackPointExtension>
                </extensions>
            </trkpt>
            <trkpt lat="47.2056864" lon="10.755599">
                <ele>1008.2</ele>
                <time>2019-03-22T12:38:03.000Z</time>
                <name>Position 27</name>
                <extensions>
                    <gpxtpx:TrackPointExtension>
                        <gpxtpx:hr>101</gpxtpx:hr>
                    </gpxtpx:TrackPointExtension>
                </extensions>
            </trkpt>
            <trkpt lat="47.2056986" lon="10.7555432">
                <ele>1008.6</ele>
                <time>2019-03-22T12:38:28.000Z</time>
                <name>Position 28</name>
                <extensions>
                    <gpxtpx:TrackPointExtension>
                        <gpxtpx:hr>99</gpxtpx:hr>
                    </gpxtpx:TrackPointExtension>
                </extensions>
            </trkpt>
            <trkpt lat="47.2057096" lon="10.7552381">
                <ele>1008.4</ele>
                <time>2019-03-22T12:38:50.000Z</time>
                <name>Position 29</name>
                <extensions>
                    <gpxtpx:TrackPointExtension>
                        <gpxtpx:hr>98</gpxtpx:hr>
                        <gpxtpx:cad>59</gpxtpx:cad>
                    </gpxtpx:TrackPointExtension>
                </extensions>
            </trkpt>
            <trkpt lat="47.2055934" lon="10.755048">
                <ele>1006.4</ele>
                <time>2019-03-22T12:39:08.000Z</time>
                <name>Position 30</name>
                <extensions>
                    <gpxtpx:TrackPointExtension>
                        <gpxtpx:hr>105</gpxtpx:hr>
                        <gpxtpx:cad>56</gpxtpx:cad>
                    </gpxtpx:TrackPointExtension>
                </extensions>
            </trkpt>
            <trkpt lat="47.2054152" lon="10.7549106">
                <ele>1004.6</ele>
                <time>2019-03-22T12:39:34.000Z</time>
                <name>Position 31</name>
                <extensions>
                    <gpxtpx:TrackPointExtension>
                        <gpxtpx:hr>104</gpxtpx:hr>
                    </gpxtpx:TrackPointExtension>
                </extensions>
            </trkpt>
            <trkpt lat="47.2053427" lon="10.754647">
                <ele>991.2</ele>
                <time>2019-03-22T12:40:36.000Z</time>
                <name>Position 32</name>
                <extensions>
                    <gpxtpx:TrackPointExtension>
                        <gpxtpx:hr>93</gpxtpx:hr>
                        <gpxtpx:cad>60</gpxtpx:cad>
                    </gpxtpx:TrackPointExtension>
                </extensions>
            </trkpt>
            <trkpt lat="47.2053864" lon="10.7544265">
                <ele>980.4</ele>
                <time>2019-03-22T12:41:13.000Z</time>
                <name>Position 33</name>
                <extensions>
                    <gpxtpx:TrackPointExtension>
                        <gpxtpx:hr>97</gpxtpx:hr>
                        <gpxtpx:cad>50</gpxtpx:cad>
                    </gpxtpx:TrackPointExtension>
                </extensions>
            </trkpt>
            <trkpt lat="47.2055149" lon="10.7541658">
                <ele>967.8</ele>
                <time>2019-03-22T12:42:20.000Z</time>
                <name>Position 34</name>
                <extensions>
                    <gpxtpx:TrackPointExtension>
                        <gpxtpx:hr>124</gpxtpx:hr>
                        <gpxtpx:cad>54</gpxtpx:cad>
                    </gpxtpx:TrackPointExtension>
                </extensions>
            </trkpt>
            <trkpt lat="47.2056503" lon="10.7539673">
                <ele>964.4</ele>
                <time>2019-03-22T12:43:08.000Z</time>
                <name>Position 35</name>
                <extensions>
                    <gpxtpx:TrackPointExtension>
                        <gpxtpx:hr>115</gpxtpx:hr>
                    </gpxtpx:TrackPointExtension>
                </extensions>
            </trkpt>
            <trkpt lat="47.2057878" lon="10.7537865">
                <ele>948.0</ele>
                <time>2019-03-22T12:44:47.000Z</time>
                <name>Position 36</name>
                <extensions>
                    <gpxtpx:TrackPointExtension>
                        <gpxtpx:hr>101</gpxtpx:hr>
                        <gpxtpx:cad>46</gpxtpx:cad>
                    </gpxtpx:TrackPointExtension>
                </extensions>
            </trkpt>
            <trkpt lat="47.2059442" lon="10.7537316">
                <ele>944.2</ele>
                <time>2019-03-22T12:45:06.000Z</time>
                <name>Position 37</name>
                <extensions>
                    <gpxtpx:TrackPointExtension>
                        <gpxtpx:hr>97</gpxtpx:hr>
                        <gpxtpx:cad>79</gpxtpx:cad>
                    </gpxtpx:TrackPointExtension>
                </extensions>
            </trkpt>
            <trkpt lat="47.2061008" lon="10.7536489">
                <ele>929.4</ele>
                <time>2019-03-22T12:46:16.000Z</time>
                <name>Position 38</name>
                <extensions>
                    <gpxtpx:TrackPointExtension>
                        <gpxtpx:hr>104</gpxtpx:hr>
                        <gpxtpx:cad>52</gpxtpx:cad>
                    </gpxtpx:TrackPointExtension>
                </extensions>
            </trkpt>
            <trkpt lat="47.206255" lon="10.7536522">
                <ele>917.6</ele>
                <time>2019-03-22T12:47:04.000Z</time>
                <name>Position 39</name>
                <extensions>
                    <gpxtpx:TrackPointExtension>
                        <gpxtpx:hr>96</gpxtpx:hr>
                        <gpxtpx:cad>58</gpxtpx:cad>
                    </gpxtpx:TrackPointExtension>
                </extensions>
            </trkpt>
            <trkpt lat="47.2064162" lon="10.7536314">
                <ele>908.2</ele>
                <time>2019-03-22T12:47:42.000Z</time>
                <name>Position 40</name>
                <extensions>
                    <gpxtpx:TrackPointExtension>
                        <gpxtpx:hr>101</gpxtpx:hr>
                        <gpxtpx:cad>61</gpxtpx:cad>
                    </gpxtpx:TrackPointExtension>
                </extensions>
            </trkpt>
            <trkpt lat="47.2065742" lon="10.753607">
                <ele>896.2</ele>
                <time>2019-03-22T12:48:32.000Z</time>
                <name>Position 41</name>
                <extensions>
                    <gpxtpx:TrackPointExtension>
                        <gpxtpx:hr>91</gpxtpx:hr>
                    </gpxtpx:TrackPointExtension>
                </extensions>
            </trkpt>
            <trkpt lat="47.2067453" lon="10.7536699">
                <ele>891.6</ele>
                <time>2019-03-22T12:48:51.000Z</time>
                <name>Position 42</name>
                <extensions>
                    <gpxtpx:TrackPointExtension>
                        <gpxtpx:hr>89</gpxtpx:hr>
                        <gpxtpx:cad>70</gpxtpx:cad>
                    </gpxtpx:TrackPointExtension>
                </extensions>
            </trkpt>
            <trkpt lat="47.206905" lon="10.7537174">
                <ele>886.0</ele>
                <time>2019-03-22T12:49:12.000Z</time>
                <name>Position 43</name>
                <extensions>
                    <gpxtpx:TrackPointExtension>
                        <gpxtpx:hr>88</gpxtpx:hr>
                        <gpxtpx:cad>66</gpxtpx:cad>
                    </gpxtpx:TrackPointExtension>
                </extensions>
            </trkpt>
            <trkpt lat="47.2070393" lon="10.7538494">
                <ele>881.6</ele>
                <time>2019-03-22T12:49:28.000Z</time>
                <name>Position 44</name>
                <extensions>
                    <gpxtpx:TrackPointExtension>
                        <gpxtpx:hr>111</gpxtpx:hr>
                        <gpxtpx:cad>69</gpxtpx:cad>
                    </gpxtpx:TrackPointExtension>
                </extensions>
            </trkpt>
            <trkpt lat="47.2071781" lon="10.7540035">
                <ele>876.6</ele>
                <time>2019-03-22T12:49:45.000Z</time>
                <name>Position 45</name>
                <extensions>
                    <gpxtpx:TrackPointExtension>
                        <gpxtpx:hr>102</gpxtpx:hr>
                        <gpxtpx:cad>59</gpxtpx:cad>
                    </gpxtpx:TrackPointExtension>
                </extensions>
            </trkpt>
            <trkpt lat="47.2071657" lon="10.7542426">
                <ele>873.8</ele>
                <time>2019-03-22T12:49:55.000Z</time>
                <name>Position 46</name>
                <extensions>
                    <gpxtpx:TrackPointExtension>
                        <gpxtpx:hr>102</gpxtpx:hr>
                        <gpxtpx:cad>59</gpxtpx:cad>
                    </gpxtpx:TrackPointExtension>
                </extensions>
            </trkpt>
            <trkpt lat="47.2071139" lon="10.754469">
                <ele>871.0</ele>
                <time>2019-03-22T12:50:05.000Z</time>
                <name>Position 47</name>
                <extensions>
                    <gpxtpx:TrackPointExtension>
                        <gpxtpx:hr>87</gpxtpx:hr>
                        <gpxtpx:cad>60</gpxtpx:cad>
                    </gpxtpx:TrackPointExtension>
                </extensions>
            </trkpt>
            <trkpt lat="47.2070791" lon="10.7547091">
                <ele>867.8</ele>
                <time>2019-03-22T12:50:17.000Z</time>
                <name>Position 48</name>
                <extensions>
                    <gpxtpx:TrackPointExtension>
                        <gpxtpx:hr>81</gpxtpx:hr>
                        <gpxtpx:cad>61</gpxtpx:cad>
                    </gpxtpx:TrackPointExtension>
                </extensions>
            </trkpt>
            <trkpt lat="47.2070511" lon="10.7549339">
                <ele>865.2</ele>
                <time>2019-03-22T12:50:28.000Z</time>
                <name>Position 49</name>
                <extensions>
                    <gpxtpx:TrackPointExtension>
                        <gpxtpx:hr>80</gpxtpx:hr>
                        <gpxtpx:cad>59</gpxtpx:cad>
                    </gpxtpx:TrackPointExtension>
                </extensions>
            </trkpt>
            <trkpt lat="47.207075" lon="10.755156">
                <ele>862.8</ele>
                <time>2019-03-22T12:50:39.000Z</time>
                <name>Position 50</name>
                <extensions>
                    <gpxtpx:TrackPointExtension>
                        <gpxtpx:hr>80</gpxtpx:hr>
                        <gpxtpx:cad>59</gpxtpx:cad>
                    </gpxtpx:TrackPointExtension>
                </extensions>
            </trkpt>
            <trkpt lat="47.2071058" lon="10.7554554">
                <ele>860.0</ele>
                <time>2019-03-22T12:50:53.000Z</time>
                <name>Position 51</name>
                <extensions>
                    <gpxtpx:TrackPointExtension>
                        <gpxtpx:hr>77</gpxtpx:hr>
                        <gpxtpx:cad>58</gpxtpx:cad>
                    </gpxtpx:TrackPointExtension>
                </extensions>
            </trkpt>
            <trkpt lat="47.2070375" lon="10.7556742">
                <ele>841.0</ele>
                <time>2019-03-22T12:51:04.000Z</time>
                <name>Position 52</name>
                <extensions>
                    <gpxtpx:TrackPointExtension>
                        <gpxtpx:hr>78</gpxtpx:hr>
                        <gpxtpx:cad>58</gpxtpx:cad>
                    </gpxtpx:TrackPointExtension>
                </extensions>
            </trkpt>
            <trkpt lat="47.2070478" lon="10.7559095">
                <ele>839.0</ele>
                <time>2019-03-22T12:51:16.000Z</time>
                <name>Position 53</name>
                <extensions>
                    <gpxtpx:TrackPointExtension>
                        <gpxtpx:hr>75</gpxtpx:hr>
                        <gpxtpx:cad>58</gpxtpx:cad>
                    </gpxtpx:TrackPointExtension>
                </extensions>
            </trkpt>
            <trkpt lat="47.2070579" lon="10.7562795">
                <ele>837.8</ele>
                <time>2019-03-22T12:51:32.000Z</time>
                <name>Position 54</name>
                <extensions>
                    <gpxtpx:TrackPointExtension>
                        <gpxtpx:hr>81</gpxtpx:hr>
                        <gpxtpx:cad>58</gpxtpx:cad>
                    </gpxtpx:TrackPointExtension>
                </extensions>
            </trkpt>
            <trkpt lat="47.2070896" lon="10.7566418">
                <ele>835.6</ele>
                <time>2019-03-22T12:51:49.000Z</time>
                <name>Position 55</name>
                <extensions>
                    <gpxtpx:TrackPointExtension>
                        <gpxtpx:hr>80</gpxtpx:hr>
                        <gpxtpx:cad>58</gpxtpx:cad>
                    </gpxtpx:TrackPointExtension>
                </extensions>
            </trkpt>
            <trkpt lat="47.2070118" lon="10.7569682">
                <ele>834.8</ele>
                <time>2019-03-22T12:52:07.000Z</time>
                <name>Position 56</name>
                <extensions>
                    <gpxtpx:TrackPointExtension>
                        <gpxtpx:hr>87</gpxtpx:hr>
                        <gpxtpx:cad>59</gpxtpx:cad>
                    </gpxtpx:TrackPointExtension>
                </extensions>
            </trkpt>
            <trkpt lat="47.2069766" lon="10.7572583">
                <ele>833.4</ele>
                <time>2019-03-22T12:52:22.000Z</time>
                <name>Position 57</name>
                <extensions>
                    <gpxtpx:TrackPointExtension>
                        <gpxtpx:hr>81</gpxtpx:hr>
                        <gpxtpx:cad>58</gpxtpx:cad>
                    </gpxtpx:TrackPointExtension>
                </extensions>
            </trkpt>
            <trkpt lat="47.2069803" lon="10.7575178">
                <ele>832.8</ele>
                <time>2019-03-22T12:52:34.000Z</time>
                <name>Position 58</name>
                <extensions>
                    <gpxtpx:TrackPointExtension>
                        <gpxtpx:hr>83</gpxtpx:hr>
                        <gpxtpx:cad>58</gpxtpx:cad>
                    </gpxtpx:TrackPointExtension>
                </extensions>
            </trkpt>
            <trkpt lat="47.2069575" lon="10.7577629">
                <ele>832.8</ele>
                <time>2019-03-22T12:52:45.000Z</time>
                <name>Position 59</name>
                <extensions>
                    <gpxtpx:TrackPointExtension>
                        <gpxtpx:hr>85</gpxtpx:hr>
                        <gpxtpx:cad>60</gpxtpx:cad>
                    </gpxtpx:TrackPointExtension>
                </extensions>
            </trkpt>
            <trkpt lat="47.2070393" lon="10.7579843">
                <ele>833.0</ele>
                <time>2019-03-22T12:52:57.000Z</time>
                <name>Position 60</name>
                <extensions>
                    <gpxtpx:TrackPointExtension>
                        <gpxtpx:hr>83</gpxtpx:hr>
                        <gpxtpx:cad>57</gpxtpx:cad>
                    </gpxtpx:TrackPointExtension>
                </extensions>
            </trkpt>
            <trkpt lat="47.2070512" lon="10.7582094">
                <ele>833.2</ele>
                <time>2019-03-22T12:53:07.000Z</time>
                <name>Position 61</name>
                <extensions>
                    <gpxtpx:TrackPointExtension>
                        <gpxtpx:hr>85</gpxtpx:hr>
                        <gpxtpx:cad>55</gpxtpx:cad>
                    </gpxtpx:TrackPointExtension>
                </extensions>
            </trkpt>
            <trkpt lat="47.2070684" lon="10.7584408">
                <ele>835.0</ele>
                <time>2019-03-22T12:53:21.000Z</time>
                <name>Position 62</name>
                <extensions>
                    <gpxtpx:TrackPointExtension>
                        <gpxtpx:hr>80</gpxtpx:hr>
                        <gpxtpx:cad>53</gpxtpx:cad>
                    </gpxtpx:TrackPointExtension>
                </extensions>
            </trkpt>
            <trkpt lat="47.2072907" lon="10.7585971">
                <ele>834.6</ele>
                <time>2019-03-22T12:53:38.000Z</time>
                <name>Position 63</name>
                <extensions>
                    <gpxtpx:TrackPointExtension>
                        <gpxtpx:hr>82</gpxtpx:hr>
                        <gpxtpx:cad>58</gpxtpx:cad>
                    </gpxtpx:TrackPointExtension>
                </extensions>
            </trkpt>
            <trkpt lat="47.2073715" lon="10.7587885">
                <ele>831.2</ele>
                <time>2019-03-22T12:53:52.000Z</time>
                <name>Position 64</name>
                <extensions>
                    <gpxtpx:TrackPointExtension>
                        <gpxtpx:hr>82</gpxtpx:hr>
                        <gpxtpx:cad>58</gpxtpx:cad>
                    </gpxtpx:TrackPointExtension>
                </extensions>
            </trkpt>
            <trkpt lat="47.2075079" lon="10.7589574">
                <ele>827.0</ele>
                <time>2019-03-22T12:54:11.000Z</time>
                <name>Position 65</name>
                <extensions>
                    <gpxtpx:TrackPointExtension>
                        <gpxtpx:hr>81</gpxtpx:hr>
                        <gpxtpx:cad>61</gpxtpx:cad>
                    </gpxtpx:TrackPointExtension>
                </extensions>
            </trkpt>
            <trkpt lat="47.2075893" lon="10.7591578">
                <ele>821.0</ele>
                <time>2019-03-22T12:55:07.000Z</time>
                <name>Position 66</name>
                <extensions>
                    <gpxtpx:TrackPointExtension>
                        <gpxtpx:hr>80</gpxtpx:hr>
                        <gpxtpx:cad>55</gpxtpx:cad>
                    </gpxtpx:TrackPointExtension>
                </extensions>
            </trkpt>
            <trkpt lat="47.2076674" lon="10.7591557">
                <ele>820.2</ele>
                <time>2019-03-22T12:57:06.000Z</time>
                <name>Position 67</name>
                <extensions>
                    <gpxtpx:TrackPointExtension>
                        <gpxtpx:hr>86</gpxtpx:hr>
                    </gpxtpx:TrackPointExtension>
                </extensions>
            </trkpt>
        </trkseg>
    </trk>
</gpx>
