<?xml version="1.0" encoding="UTF-8" standalone="yes"?>
<gpx xmlns:gpxtpx1="http://www.garmin.com/xmlschemas/TrackPointExtension/v1" xmlns="http://www.topografix.com/GPX/1/1" xmlns:trp="http://www.garmin.com/xmlschemas/TripExtensions/v1" xmlns:gpxx="http://www.garmin.com/xmlschemas/GpxExtensions/v3" xmlns:gpxtpx="http://www.garmin.com/xmlschemas/TrackPointExtension/v2" version="1.1" creator="Generated by Christian Pesch's RouteConverter. See http://www.routeconverter.com">
    <metadata>
        <name>ferrta-ettore-castiglioni</name>
        <link href="alpenkarte.eu">
            <text>Route von alpenkarte.eu</text>
        </link>
        <bounds minlat="46.1425100000000014688339433632791042327880859375" minlon="10.84758599999999972851583152078092098236083984375" maxlat="46.15044400000000024419932742603123188018798828125" maxlon="10.869806000000000523186827194876968860626220703125"/>
    </metadata>
    <trk>
        <name>ferrta-ettore-castiglioni</name>
        <trkseg>
            <trkpt lat="46.14251" lon="10.869806">
                <ele>2398.1</ele>
                <name>Position 1</name>
            </trkpt>
            <trkpt lat="46.142659" lon="10.869687">
                <ele>2407.6</ele>
                <name>Position 2</name>
            </trkpt>
            <trkpt lat="46.142743" lon="10.869459">
                <ele>2418.0</ele>
                <name>Position 3</name>
            </trkpt>
            <trkpt lat="46.142885" lon="10.86938">
                <ele>2424.7</ele>
                <name>Position 4</name>
            </trkpt>
            <trkpt lat="46.143078" lon="10.869093">
                <ele>2439.2</ele>
                <name>Position 5</name>
            </trkpt>
            <trkpt lat="46.143078" lon="10.86899">
                <ele>2443.7</ele>
                <name>Position 6</name>
            </trkpt>
            <trkpt lat="46.14291" lon="10.868868">
                <ele>2444.7</ele>
                <name>Position 7</name>
            </trkpt>
            <trkpt lat="46.142772" lon="10.868685">
                <ele>2449.2</ele>
                <name>Position 8</name>
            </trkpt>
            <trkpt lat="46.143039" lon="10.868585">
                <ele>2460.2</ele>
                <name>Position 9</name>
            </trkpt>
            <trkpt lat="46.142916" lon="10.868377">
                <ele>2466.1</ele>
                <name>Position 10</name>
            </trkpt>
            <trkpt lat="46.1431" lon="10.868242">
                <ele>2474.6</ele>
                <name>Position 11</name>
            </trkpt>
            <trkpt lat="46.143161" lon="10.868119">
                <ele>2478.8</ele>
                <name>Position 12</name>
            </trkpt>
            <trkpt lat="46.143199" lon="10.867984">
                <ele>2482.7</ele>
                <name>Position 13</name>
            </trkpt>
            <trkpt lat="46.143313" lon="10.867976">
                <ele>2485.7</ele>
                <name>Position 14</name>
            </trkpt>
            <trkpt lat="46.14343" lon="10.868017">
                <ele>2491.6</ele>
                <name>Position 15</name>
            </trkpt>
            <trkpt lat="46.143592" lon="10.867756">
                <ele>2509.9</ele>
                <name>Position 16</name>
            </trkpt>
            <trkpt lat="46.143784" lon="10.867396">
                <ele>2532.9</ele>
                <name>Position 17</name>
            </trkpt>
            <trkpt lat="46.143981" lon="10.867412">
                <ele>2548.7</ele>
                <name>Position 18</name>
            </trkpt>
            <trkpt lat="46.144124" lon="10.867341">
                <ele>2559.3</ele>
                <name>Position 19</name>
            </trkpt>
            <trkpt lat="46.14432" lon="10.867083">
                <ele>2568.3</ele>
                <name>Position 20</name>
            </trkpt>
            <trkpt lat="46.144504" lon="10.866875">
                <ele>2575.8</ele>
                <name>Position 21</name>
            </trkpt>
            <trkpt lat="46.144765" lon="10.866682">
                <ele>2587.1</ele>
                <name>Position 22</name>
            </trkpt>
            <trkpt lat="46.14482" lon="10.866496">
                <ele>2590.3</ele>
                <name>Position 23</name>
            </trkpt>
            <trkpt lat="46.144837" lon="10.866167">
                <ele>2592.3</ele>
                <name>Position 24</name>
            </trkpt>
            <trkpt lat="46.144888" lon="10.865829">
                <ele>2596.6</ele>
                <name>Position 25</name>
            </trkpt>
            <trkpt lat="46.144872" lon="10.865537">
                <ele>2603.5</ele>
                <name>Position 26</name>
            </trkpt>
            <trkpt lat="46.144808" lon="10.86519">
                <ele>2610.1</ele>
                <name>Position 27</name>
            </trkpt>
            <trkpt lat="46.144595" lon="10.864808">
                <ele>2616.9</ele>
                <name>Position 28</name>
            </trkpt>
            <trkpt lat="46.144514" lon="10.864492">
                <ele>2628.8</ele>
                <name>Position 29</name>
            </trkpt>
            <trkpt lat="46.144445" lon="10.864336">
                <ele>2633.6</ele>
                <name>Position 30</name>
            </trkpt>
            <trkpt lat="46.144356" lon="10.864242">
                <ele>2634.8</ele>
                <name>Position 31</name>
            </trkpt>
            <trkpt lat="46.144173" lon="10.864182">
                <ele>2631.0</ele>
                <name>Position 32</name>
            </trkpt>
            <trkpt lat="46.144036" lon="10.864">
                <ele>2632.8</ele>
                <name>Position 33</name>
            </trkpt>
            <trkpt lat="46.143867" lon="10.863714">
                <ele>2636.2</ele>
                <name>Position 34</name>
            </trkpt>
            <trkpt lat="46.143788" lon="10.863392">
                <ele>2643.6</ele>
                <name>Position 35</name>
            </trkpt>
            <trkpt lat="46.143779" lon="10.863054">
                <ele>2655.6</ele>
                <name>Position 36</name>
            </trkpt>
            <trkpt lat="46.143884" lon="10.862873">
                <ele>2666.8</ele>
                <name>Position 37</name>
            </trkpt>
            <trkpt lat="46.144364" lon="10.862795">
                <ele>2706.7</ele>
                <name>Position 38</name>
            </trkpt>
            <trkpt lat="46.1445003" lon="10.8625509">
                <ele>2721.5</ele>
                <name>Position 39</name>
            </trkpt>
            <trkpt lat="46.1443964" lon="10.8620902">
                <ele>2767.1</ele>
                <name>Position 40</name>
            </trkpt>
            <trkpt lat="46.14424" lon="10.86166">
                <ele>2816.0</ele>
                <name>Position 41</name>
            </trkpt>
            <trkpt lat="46.144503" lon="10.8615137">
                <ele>2817.0</ele>
                <name>Position 42</name>
            </trkpt>
            <trkpt lat="46.1447307" lon="10.8617702">
                <ele>2812.7</ele>
                <name>Position 43</name>
            </trkpt>
            <trkpt lat="46.144851" lon="10.861634">
                <ele>2819.4</ele>
                <name>Position 44</name>
            </trkpt>
            <trkpt lat="46.14517" lon="10.861232">
                <ele>2808.8</ele>
                <name>Position 45</name>
            </trkpt>
            <trkpt lat="46.145216" lon="10.861038">
                <ele>2799.3</ele>
                <name>Position 46</name>
            </trkpt>
            <trkpt lat="46.145211" lon="10.860752">
                <ele>2780.7</ele>
                <name>Position 47</name>
            </trkpt>
            <trkpt lat="46.145231" lon="10.860416">
                <ele>2766.4</ele>
                <name>Position 48</name>
            </trkpt>
            <trkpt lat="46.145389" lon="10.860211">
                <ele>2766.3</ele>
                <name>Position 49</name>
            </trkpt>
            <trkpt lat="46.145521" lon="10.859606">
                <ele>2738.1</ele>
                <name>Position 50</name>
            </trkpt>
            <trkpt lat="46.145394" lon="10.859516">
                <ele>2728.4</ele>
                <name>Position 51</name>
            </trkpt>
            <trkpt lat="46.145419" lon="10.85944">
                <ele>2725.0</ele>
                <name>Position 52</name>
            </trkpt>
            <trkpt lat="46.145511" lon="10.859371">
                <ele>2723.6</ele>
                <name>Position 53</name>
            </trkpt>
            <trkpt lat="46.145563" lon="10.859269">
                <ele>2718.7</ele>
                <name>Position 54</name>
            </trkpt>
            <trkpt lat="46.145538" lon="10.85919">
                <ele>2713.3</ele>
                <name>Position 55</name>
            </trkpt>
            <trkpt lat="46.14544" lon="10.859204">
                <ele>2712.1</ele>
                <name>Position 56</name>
            </trkpt>
            <trkpt lat="46.145137" lon="10.859159">
                <ele>2703.9</ele>
                <name>Position 57</name>
            </trkpt>
            <trkpt lat="46.144973" lon="10.859094">
                <ele>2699.8</ele>
                <name>Position 58</name>
            </trkpt>
            <trkpt lat="46.144702" lon="10.858928">
                <ele>2700.6</ele>
                <name>Position 59</name>
            </trkpt>
            <trkpt lat="46.14467" lon="10.858809">
                <ele>2697.4</ele>
                <name>Position 60</name>
            </trkpt>
            <trkpt lat="46.144923" lon="10.858894">
                <ele>2694.4</ele>
                <name>Position 61</name>
            </trkpt>
            <trkpt lat="46.144976" lon="10.858867">
                <ele>2692.3</ele>
                <name>Position 62</name>
            </trkpt>
            <trkpt lat="46.144991" lon="10.858754">
                <ele>2688.3</ele>
                <name>Position 63</name>
            </trkpt>
            <trkpt lat="46.144845" lon="10.858566">
                <ele>2685.6</ele>
                <name>Position 64</name>
            </trkpt>
            <trkpt lat="46.14484" lon="10.85847">
                <ele>2682.6</ele>
                <name>Position 65</name>
            </trkpt>
            <trkpt lat="46.144946" lon="10.858393">
                <ele>2677.7</ele>
                <name>Position 66</name>
            </trkpt>
            <trkpt lat="46.145265" lon="10.858259">
                <ele>2672.6</ele>
                <name>Position 67</name>
            </trkpt>
            <trkpt lat="46.145369" lon="10.858235">
                <ele>2672.0</ele>
                <name>Position 68</name>
            </trkpt>
            <trkpt lat="46.145573" lon="10.858263">
                <ele>2673.4</ele>
                <name>Position 69</name>
            </trkpt>
            <trkpt lat="46.145673" lon="10.858209">
                <ele>2671.6</ele>
                <name>Position 70</name>
            </trkpt>
            <trkpt lat="46.145767" lon="10.858108">
                <ele>2668.0</ele>
                <name>Position 71</name>
            </trkpt>
            <trkpt lat="46.145796" lon="10.85811">
                <ele>2668.2</ele>
                <name>Position 72</name>
            </trkpt>
            <trkpt lat="46.146022" lon="10.857917">
                <ele>2667.1</ele>
                <name>Position 73</name>
            </trkpt>
            <trkpt lat="46.146162" lon="10.857831">
                <ele>2668.4</ele>
                <name>Position 74</name>
            </trkpt>
            <trkpt lat="46.146379" lon="10.857496">
                <ele>2662.3</ele>
                <name>Position 75</name>
            </trkpt>
            <trkpt lat="46.146411" lon="10.857371">
                <ele>2657.0</ele>
                <name>Position 76</name>
            </trkpt>
            <trkpt lat="46.146757" lon="10.85691">
                <ele>2643.7</ele>
                <name>Position 77</name>
            </trkpt>
            <trkpt lat="46.146822" lon="10.856728">
                <ele>2637.7</ele>
                <name>Position 78</name>
            </trkpt>
            <trkpt lat="46.146843" lon="10.856574">
                <ele>2632.5</ele>
                <name>Position 79</name>
            </trkpt>
            <trkpt lat="46.146978" lon="10.856261">
                <ele>2628.0</ele>
                <name>Position 80</name>
            </trkpt>
            <trkpt lat="46.147222" lon="10.855542">
                <ele>2607.9</ele>
                <name>Position 81</name>
            </trkpt>
            <trkpt lat="46.147361" lon="10.855279">
                <ele>2601.6</ele>
                <name>Position 82</name>
            </trkpt>
            <trkpt lat="46.147353" lon="10.855205">
                <ele>2598.7</ele>
                <name>Position 83</name>
            </trkpt>
            <trkpt lat="46.147456" lon="10.855037">
                <ele>2594.2</ele>
                <name>Position 84</name>
            </trkpt>
            <trkpt lat="46.147477" lon="10.854963">
                <ele>2592.3</ele>
                <name>Position 85</name>
            </trkpt>
            <trkpt lat="46.147516" lon="10.854939">
                <ele>2592.5</ele>
                <name>Position 86</name>
            </trkpt>
            <trkpt lat="46.147795" lon="10.85444">
                <ele>2581.7</ele>
                <name>Position 87</name>
            </trkpt>
            <trkpt lat="46.148117" lon="10.854038">
                <ele>2566.5</ele>
                <name>Position 88</name>
            </trkpt>
            <trkpt lat="46.148348" lon="10.853665">
                <ele>2556.1</ele>
                <name>Position 89</name>
            </trkpt>
            <trkpt lat="46.148613" lon="10.853068">
                <ele>2541.4</ele>
                <name>Position 90</name>
            </trkpt>
            <trkpt lat="46.148754" lon="10.852636">
                <ele>2530.0</ele>
                <name>Position 91</name>
            </trkpt>
            <trkpt lat="46.14877" lon="10.852539">
                <ele>2527.5</ele>
                <name>Position 92</name>
            </trkpt>
            <trkpt lat="46.148751" lon="10.852313">
                <ele>2523.6</ele>
                <name>Position 93</name>
            </trkpt>
            <trkpt lat="46.148766" lon="10.852191">
                <ele>2521.6</ele>
                <name>Position 94</name>
            </trkpt>
            <trkpt lat="46.148883" lon="10.851872">
                <ele>2515.7</ele>
                <name>Position 95</name>
            </trkpt>
            <trkpt lat="46.148918" lon="10.851726">
                <ele>2512.9</ele>
                <name>Position 96</name>
            </trkpt>
            <trkpt lat="46.148935" lon="10.850785">
                <ele>2502.2</ele>
                <name>Position 97</name>
            </trkpt>
            <trkpt lat="46.149055" lon="10.850232">
                <ele>2500.9</ele>
                <name>Position 98</name>
            </trkpt>
            <trkpt lat="46.149368" lon="10.849251">
                <ele>2495.7</ele>
                <name>Position 99</name>
            </trkpt>
            <trkpt lat="46.149454" lon="10.84887">
                <ele>2495.1</ele>
                <name>Position 100</name>
            </trkpt>
            <trkpt lat="46.149757" lon="10.848043">
                <ele>2490.8</ele>
                <name>Position 101</name>
            </trkpt>
            <trkpt lat="46.149906" lon="10.847783">
                <ele>2487.0</ele>
                <name>Position 102</name>
            </trkpt>
            <trkpt lat="46.150128" lon="10.847586">
                <ele>2481.8</ele>
                <name>Position 103</name>
            </trkpt>
            <trkpt lat="46.150266" lon="10.847689">
                <ele>2479.1</ele>
                <name>Position 104</name>
            </trkpt>
            <trkpt lat="46.150444" lon="10.847635">
                <ele>2475.4</ele>
                <name>Position 105</name>
            </trkpt>
        </trkseg>
    </trk>
</gpx>
