<?xml version="1.0" encoding="UTF-8"?>
<gpx creator="https://gpx.studio" version="1.1" xmlns="http://www.topografix.com/GPX/1/1" xmlns:xsi="http://www.w3.org/2001/XMLSchema-instance" xsi:schemaLocation="http://www.topografix.com/GPX/1/1 http://www.topografix.com/GPX/1/1/gpx.xsd http://www.garmin.com/xmlschemas/GpxExtensions/v3 http://www.garmin.com/xmlschemas/GpxExtensionsv3.xsd http://www.garmin.com/xmlschemas/TrackPointExtension/v1 http://www.garmin.com/xmlschemas/TrackPointExtensionv1.xsd http://www.garmin.com/xmlschemas/PowerExtension/v1 http://www.garmin.com/xmlschemas/PowerExtensionv1.xsd http://www.topografix.com/GPX/gpx_style/0/2 http://www.topografix.com/GPX/gpx_style/0/2/gpx_style.xsd" xmlns:gpxtpx="http://www.garmin.com/xmlschemas/TrackPointExtension/v1" xmlns:gpxx="http://www.garmin.com/xmlschemas/GpxExtensions/v3" xmlns:gpxpx="http://www.garmin.com/xmlschemas/PowerExtension/v1" xmlns:gpx_style="http://www.topografix.com/GPX/gpx_style/0/2">
  <metadata>
    <name>Neue Datei 1</name>
    <author>
      <name>gpx.studio</name>
      <link href="https://gpx.studio"/>
    </author>
  </metadata>
  <trk>
    <name>Neue Datei 1</name>
    <trkseg>
      <trkpt lat="50.155812218561465" lon="7.7140528568641">
        <ele>75.46537102729825</ele>
      </trkpt>
      <trkpt lat="50.15610485352873" lon="7.7135199902132925">
        <ele>73.36651584571356</ele>
      </trkpt>
      <trkpt lat="50.156171013539904" lon="7.713399517721911">
        <ele>73.40067727104906</ele>
      </trkpt>
      <trkpt lat="50.156452067725866" lon="7.713670186794587">
        <ele>76.7080613917201</ele>
      </trkpt>
      <trkpt lat="50.156442" lon="7.713663">
        <ele>83.75</ele>
      </trkpt>
      <trkpt lat="50.156409" lon="7.713772">
        <ele>84.5</ele>
      </trkpt>
      <trkpt lat="50.156447" lon="7.713792">
        <ele>85.25</ele>
      </trkpt>
      <trkpt lat="50.156512" lon="7.713828">
        <ele>88.5</ele>
      </trkpt>
      <trkpt lat="50.156621" lon="7.713888">
        <ele>88.5</ele>
      </trkpt>
      <trkpt lat="50.156639" lon="7.713824">
        <ele>88.25</ele>
      </trkpt>
      <trkpt lat="50.156672" lon="7.7137">
        <ele>87.5</ele>
      </trkpt>
      <trkpt lat="50.156681" lon="7.713668">
        <ele>87.5</ele>
      </trkpt>
      <trkpt lat="50.156832" lon="7.713782">
        <ele>92.5</ele>
      </trkpt>
      <trkpt lat="50.156965" lon="7.713908">
        <ele>96.25</ele>
      </trkpt>
      <trkpt lat="50.157147" lon="7.714137">
        <ele>99.5</ele>
      </trkpt>
      <trkpt lat="50.157215" lon="7.714263">
        <ele>100</ele>
      </trkpt>
      <trkpt lat="50.15725" lon="7.714349">
        <ele>100</ele>
      </trkpt>
      <trkpt lat="50.157306" lon="7.714524">
        <ele>97.75</ele>
      </trkpt>
      <trkpt lat="50.157325119127734" lon="7.714510194263539">
        <ele>92.28752422131257</ele>
      </trkpt>
      <trkpt lat="50.157325119127734" lon="7.714510194263539">
        <ele>92.28752422131257</ele>
      </trkpt>
      <trkpt lat="50.157342" lon="7.714784">
        <ele>97</ele>
      </trkpt>
      <trkpt lat="50.157335" lon="7.714736">
        <ele>97.5</ele>
      </trkpt>
      <trkpt lat="50.157363" lon="7.714696">
        <ele>97.75</ele>
      </trkpt>
      <trkpt lat="50.157388" lon="7.714778">
        <ele>97</ele>
      </trkpt>
      <trkpt lat="50.157508" lon="7.714728">
        <ele>97.75</ele>
      </trkpt>
      <trkpt lat="50.157635" lon="7.714647">
        <ele>104.25</ele>
      </trkpt>
      <trkpt lat="50.157671" lon="7.714637">
        <ele>106</ele>
      </trkpt>
      <trkpt lat="50.157705" lon="7.71469">
        <ele>106.75</ele>
      </trkpt>
      <trkpt lat="50.157798" lon="7.714825">
        <ele>108.5</ele>
      </trkpt>
      <trkpt lat="50.157853" lon="7.714877">
        <ele>110</ele>
      </trkpt>
      <trkpt lat="50.157924" lon="7.71491">
        <ele>112.25</ele>
      </trkpt>
      <trkpt lat="50.157974" lon="7.714986">
        <ele>113</ele>
      </trkpt>
      <trkpt lat="50.158081" lon="7.715158">
        <ele>115</ele>
      </trkpt>
      <trkpt lat="50.158102" lon="7.715199">
        <ele>115</ele>
      </trkpt>
      <trkpt lat="50.158149" lon="7.715291">
        <ele>115.75</ele>
      </trkpt>
      <trkpt lat="50.158254" lon="7.715412">
        <ele>117.5</ele>
      </trkpt>
      <trkpt lat="50.158324" lon="7.715442">
        <ele>119.25</ele>
      </trkpt>
      <trkpt lat="50.158363" lon="7.715474">
        <ele>120.75</ele>
      </trkpt>
      <trkpt lat="50.158397" lon="7.715564">
        <ele>121.25</ele>
      </trkpt>
      <trkpt lat="50.158433" lon="7.715631">
        <ele>122.25</ele>
      </trkpt>
      <trkpt lat="50.158496" lon="7.715691">
        <ele>125</ele>
      </trkpt>
      <trkpt lat="50.158563" lon="7.715804">
        <ele>127.25</ele>
      </trkpt>
      <trkpt lat="50.158597" lon="7.715925">
        <ele>127.5</ele>
      </trkpt>
      <trkpt lat="50.158609" lon="7.716106">
        <ele>125.25</ele>
      </trkpt>
      <trkpt lat="50.158656" lon="7.716181">
        <ele>127</ele>
      </trkpt>
      <trkpt lat="50.158706" lon="7.716217">
        <ele>129.5</ele>
      </trkpt>
      <trkpt lat="50.158724" lon="7.716305">
        <ele>129.25</ele>
      </trkpt>
      <trkpt lat="50.158779" lon="7.716369">
        <ele>131.75</ele>
      </trkpt>
      <trkpt lat="50.158818" lon="7.716463">
        <ele>133</ele>
      </trkpt>
      <trkpt lat="50.158878" lon="7.716427">
        <ele>137.25</ele>
      </trkpt>
      <trkpt lat="50.15886" lon="7.71637">
        <ele>137</ele>
      </trkpt>
      <trkpt lat="50.158869" lon="7.716221">
        <ele>139.75</ele>
      </trkpt>
      <trkpt lat="50.158864" lon="7.716062">
        <ele>142</ele>
      </trkpt>
      <trkpt lat="50.158887" lon="7.715955">
        <ele>145</ele>
      </trkpt>
      <trkpt lat="50.158951" lon="7.715945">
        <ele>149</ele>
      </trkpt>
      <trkpt lat="50.158967" lon="7.715771">
        <ele>152.5</ele>
      </trkpt>
      <trkpt lat="50.159013" lon="7.715735">
        <ele>155.75</ele>
      </trkpt>
      <trkpt lat="50.159015" lon="7.715683">
        <ele>156.5</ele>
      </trkpt>
      <trkpt lat="50.159007" lon="7.715591">
        <ele>157.25</ele>
      </trkpt>
      <trkpt lat="50.159034" lon="7.715395">
        <ele>161.25</ele>
      </trkpt>
      <trkpt lat="50.159094" lon="7.715256">
        <ele>166.5</ele>
      </trkpt>
      <trkpt lat="50.159109" lon="7.715135">
        <ele>169</ele>
      </trkpt>
      <trkpt lat="50.159097" lon="7.715052">
        <ele>169.25</ele>
      </trkpt>
      <trkpt lat="50.159154" lon="7.715002">
        <ele>173</ele>
      </trkpt>
      <trkpt lat="50.159167" lon="7.714909">
        <ele>175.25</ele>
      </trkpt>
      <trkpt lat="50.15911" lon="7.714836">
        <ele>173.25</ele>
      </trkpt>
      <trkpt lat="50.159066" lon="7.714806">
        <ele>171.25</ele>
      </trkpt>
      <trkpt lat="50.159032" lon="7.714764">
        <ele>170.25</ele>
      </trkpt>
      <trkpt lat="50.159015" lon="7.71472">
        <ele>170</ele>
      </trkpt>
      <trkpt lat="50.159017" lon="7.714695">
        <ele>170.5</ele>
      </trkpt>
      <trkpt lat="50.159031" lon="7.714664">
        <ele>171.75</ele>
      </trkpt>
      <trkpt lat="50.159028" lon="7.714635">
        <ele>172</ele>
      </trkpt>
      <trkpt lat="50.159" lon="7.714593">
        <ele>171.25</ele>
      </trkpt>
      <trkpt lat="50.158933" lon="7.714534">
        <ele>168.75</ele>
      </trkpt>
      <trkpt lat="50.158885" lon="7.714474">
        <ele>167.25</ele>
      </trkpt>
      <trkpt lat="50.158874" lon="7.71442">
        <ele>167.5</ele>
      </trkpt>
      <trkpt lat="50.158896" lon="7.714386">
        <ele>169.25</ele>
      </trkpt>
      <trkpt lat="50.158887" lon="7.714349">
        <ele>169.5</ele>
      </trkpt>
      <trkpt lat="50.15884" lon="7.714326">
        <ele>167.5</ele>
      </trkpt>
      <trkpt lat="50.15881" lon="7.714218">
        <ele>168</ele>
      </trkpt>
      <trkpt lat="50.158775" lon="7.714212">
        <ele>166.25</ele>
      </trkpt>
      <trkpt lat="50.158742" lon="7.71409">
        <ele>166.75</ele>
      </trkpt>
      <trkpt lat="50.158736" lon="7.714066">
        <ele>167</ele>
      </trkpt>
      <trkpt lat="50.15873" lon="7.714051">
        <ele>167</ele>
      </trkpt>
      <trkpt lat="50.158725" lon="7.714035">
        <ele>167</ele>
      </trkpt>
      <trkpt lat="50.158702" lon="7.713993">
        <ele>166.5</ele>
      </trkpt>
      <trkpt lat="50.15867" lon="7.713985">
        <ele>165</ele>
      </trkpt>
      <trkpt lat="50.158657" lon="7.713963">
        <ele>164.75</ele>
      </trkpt>
      <trkpt lat="50.158638" lon="7.71391">
        <ele>165</ele>
      </trkpt>
      <trkpt lat="50.15862" lon="7.713886">
        <ele>164.5</ele>
      </trkpt>
      <trkpt lat="50.158596" lon="7.713877">
        <ele>163.5</ele>
      </trkpt>
      <trkpt lat="50.158584" lon="7.713842">
        <ele>163.5</ele>
      </trkpt>
      <trkpt lat="50.158568" lon="7.7138">
        <ele>163.5</ele>
      </trkpt>
      <trkpt lat="50.158533" lon="7.713776">
        <ele>162.25</ele>
      </trkpt>
      <trkpt lat="50.158511" lon="7.713758">
        <ele>161.5</ele>
      </trkpt>
      <trkpt lat="50.15849" lon="7.713792">
        <ele>160</ele>
      </trkpt>
      <trkpt lat="50.158461" lon="7.713788">
        <ele>158.75</ele>
      </trkpt>
      <trkpt lat="50.158421" lon="7.713751">
        <ele>157.5</ele>
      </trkpt>
      <trkpt lat="50.158427" lon="7.71371">
        <ele>158.5</ele>
      </trkpt>
      <trkpt lat="50.158416" lon="7.713683">
        <ele>158.5</ele>
      </trkpt>
      <trkpt lat="50.158397" lon="7.71366">
        <ele>158.25</ele>
      </trkpt>
      <trkpt lat="50.158375" lon="7.71365">
        <ele>157.25</ele>
      </trkpt>
      <trkpt lat="50.158355" lon="7.713621">
        <ele>157</ele>
      </trkpt>
      <trkpt lat="50.15834" lon="7.713628">
        <ele>156.25</ele>
      </trkpt>
      <trkpt lat="50.158312" lon="7.713588">
        <ele>155.5</ele>
      </trkpt>
      <trkpt lat="50.158273" lon="7.71353">
        <ele>154.5</ele>
      </trkpt>
      <trkpt lat="50.158263" lon="7.713488">
        <ele>155</ele>
      </trkpt>
      <trkpt lat="50.158247" lon="7.713455">
        <ele>154.75</ele>
      </trkpt>
      <trkpt lat="50.158159" lon="7.713363">
        <ele>151.75</ele>
      </trkpt>
      <trkpt lat="50.158109" lon="7.713417">
        <ele>148</ele>
      </trkpt>
      <trkpt lat="50.158062" lon="7.713447">
        <ele>144.75</ele>
      </trkpt>
      <trkpt lat="50.158033" lon="7.713474">
        <ele>142.75</ele>
      </trkpt>
      <trkpt lat="50.158014" lon="7.713484">
        <ele>141.5</ele>
      </trkpt>
      <trkpt lat="50.158002" lon="7.713539">
        <ele>140</ele>
      </trkpt>
      <trkpt lat="50.157979" lon="7.713531">
        <ele>138.75</ele>
      </trkpt>
      <trkpt lat="50.157942" lon="7.71349">
        <ele>137.5</ele>
      </trkpt>
      <trkpt lat="50.157905" lon="7.713448">
        <ele>136.25</ele>
      </trkpt>
      <trkpt lat="50.157884" lon="7.713393">
        <ele>136</ele>
      </trkpt>
      <trkpt lat="50.157872" lon="7.713336">
        <ele>136.25</ele>
      </trkpt>
      <trkpt lat="50.157884" lon="7.713298">
        <ele>136.25</ele>
      </trkpt>
      <trkpt lat="50.157862" lon="7.713249">
        <ele>134</ele>
      </trkpt>
      <trkpt lat="50.157858" lon="7.713238">
        <ele>133.5</ele>
      </trkpt>
      <trkpt lat="50.157854" lon="7.713226">
        <ele>133</ele>
      </trkpt>
      <trkpt lat="50.157838" lon="7.713186">
        <ele>131.25</ele>
      </trkpt>
      <trkpt lat="50.157838" lon="7.713139">
        <ele>130</ele>
      </trkpt>
      <trkpt lat="50.157824" lon="7.713103">
        <ele>128.5</ele>
      </trkpt>
      <trkpt lat="50.157836" lon="7.713042">
        <ele>127.75</ele>
      </trkpt>
      <trkpt lat="50.157838" lon="7.712977">
        <ele>126.5</ele>
      </trkpt>
      <trkpt lat="50.157788" lon="7.713003">
        <ele>124.5</ele>
      </trkpt>
      <trkpt lat="50.157752" lon="7.712954">
        <ele>121.5</ele>
      </trkpt>
      <trkpt lat="50.157727" lon="7.71295">
        <ele>120.25</ele>
      </trkpt>
      <trkpt lat="50.157696" lon="7.712908">
        <ele>117.75</ele>
      </trkpt>
      <trkpt lat="50.157669" lon="7.712912">
        <ele>116.25</ele>
      </trkpt>
      <trkpt lat="50.157646" lon="7.712916">
        <ele>115.25</ele>
      </trkpt>
      <trkpt lat="50.157631" lon="7.71293">
        <ele>114.75</ele>
      </trkpt>
      <trkpt lat="50.157605" lon="7.71291">
        <ele>113</ele>
      </trkpt>
      <trkpt lat="50.157598" lon="7.7129">
        <ele>112.5</ele>
      </trkpt>
      <trkpt lat="50.15757" lon="7.712902">
        <ele>111.25</ele>
      </trkpt>
      <trkpt lat="50.15754" lon="7.712894">
        <ele>109.5</ele>
      </trkpt>
      <trkpt lat="50.157496" lon="7.712847">
        <ele>106.5</ele>
      </trkpt>
      <trkpt lat="50.157446" lon="7.71281">
        <ele>104.25</ele>
      </trkpt>
      <trkpt lat="50.157423" lon="7.712771">
        <ele>102.75</ele>
      </trkpt>
      <trkpt lat="50.157446" lon="7.71281">
        <ele>104.25</ele>
      </trkpt>
      <trkpt lat="50.157496" lon="7.712847">
        <ele>106.5</ele>
      </trkpt>
      <trkpt lat="50.15754" lon="7.712894">
        <ele>109.5</ele>
      </trkpt>
      <trkpt lat="50.15757" lon="7.712902">
        <ele>111.25</ele>
      </trkpt>
      <trkpt lat="50.157598" lon="7.7129">
        <ele>112.5</ele>
      </trkpt>
      <trkpt lat="50.157605" lon="7.71291">
        <ele>113</ele>
      </trkpt>
      <trkpt lat="50.157631" lon="7.71293">
        <ele>114.75</ele>
      </trkpt>
      <trkpt lat="50.157646" lon="7.712916">
        <ele>115.25</ele>
      </trkpt>
      <trkpt lat="50.157669" lon="7.712912">
        <ele>116.25</ele>
      </trkpt>
      <trkpt lat="50.157696" lon="7.712908">
        <ele>117.75</ele>
      </trkpt>
      <trkpt lat="50.157727" lon="7.71295">
        <ele>120.25</ele>
      </trkpt>
      <trkpt lat="50.157752" lon="7.712954">
        <ele>121.5</ele>
      </trkpt>
      <trkpt lat="50.157788" lon="7.713003">
        <ele>124.5</ele>
      </trkpt>
      <trkpt lat="50.157838" lon="7.712977">
        <ele>126.5</ele>
      </trkpt>
      <trkpt lat="50.157862" lon="7.712924">
        <ele>126.5</ele>
      </trkpt>
      <trkpt lat="50.157889" lon="7.712905">
        <ele>127.5</ele>
      </trkpt>
      <trkpt lat="50.157909" lon="7.712917">
        <ele>128.75</ele>
      </trkpt>
      <trkpt lat="50.157942" lon="7.712898">
        <ele>130</ele>
      </trkpt>
      <trkpt lat="50.158012" lon="7.712851">
        <ele>132.25</ele>
      </trkpt>
      <trkpt lat="50.158051" lon="7.712859">
        <ele>134.5</ele>
      </trkpt>
      <trkpt lat="50.158067" lon="7.712889">
        <ele>136</ele>
      </trkpt>
      <trkpt lat="50.158067" lon="7.712914">
        <ele>136.75</ele>
      </trkpt>
      <trkpt lat="50.158077" lon="7.712932">
        <ele>137.75</ele>
      </trkpt>
      <trkpt lat="50.15812" lon="7.71295">
        <ele>140.25</ele>
      </trkpt>
      <trkpt lat="50.158141" lon="7.712927">
        <ele>140.75</ele>
      </trkpt>
      <trkpt lat="50.158164" lon="7.712917">
        <ele>141.75</ele>
      </trkpt>
      <trkpt lat="50.15818" lon="7.712896">
        <ele>142</ele>
      </trkpt>
      <trkpt lat="50.158215" lon="7.71288">
        <ele>143.25</ele>
      </trkpt>
      <trkpt lat="50.158233" lon="7.71284">
        <ele>143.25</ele>
      </trkpt>
      <trkpt lat="50.158259" lon="7.712815">
        <ele>143.75</ele>
      </trkpt>
      <trkpt lat="50.158273" lon="7.712781">
        <ele>143.5</ele>
      </trkpt>
      <trkpt lat="50.158306" lon="7.712739">
        <ele>144</ele>
      </trkpt>
      <trkpt lat="50.158328" lon="7.712734">
        <ele>145</ele>
      </trkpt>
      <trkpt lat="50.158338" lon="7.71274">
        <ele>145.75</ele>
      </trkpt>
      <trkpt lat="50.158344" lon="7.712774">
        <ele>146.75</ele>
      </trkpt>
      <trkpt lat="50.15836" lon="7.712829">
        <ele>149</ele>
      </trkpt>
      <trkpt lat="50.158379" lon="7.712825">
        <ele>149.75</ele>
      </trkpt>
      <trkpt lat="50.158415" lon="7.7128">
        <ele>150.75</ele>
      </trkpt>
      <trkpt lat="50.15842" lon="7.712876">
        <ele>153</ele>
      </trkpt>
      <trkpt lat="50.158455" lon="7.712872">
        <ele>154.25</ele>
      </trkpt>
      <trkpt lat="50.158464" lon="7.712894">
        <ele>155.25</ele>
      </trkpt>
      <trkpt lat="50.158497" lon="7.712914">
        <ele>157.25</ele>
      </trkpt>
      <trkpt lat="50.158524" lon="7.712946">
        <ele>159.5</ele>
      </trkpt>
      <trkpt lat="50.158575" lon="7.712967">
        <ele>162.25</ele>
      </trkpt>
      <trkpt lat="50.158586" lon="7.713015">
        <ele>164</ele>
      </trkpt>
      <trkpt lat="50.158602" lon="7.71303">
        <ele>165.25</ele>
      </trkpt>
      <trkpt lat="50.158632" lon="7.713014">
        <ele>166</ele>
      </trkpt>
      <trkpt lat="50.158633" lon="7.712979">
        <ele>165</ele>
      </trkpt>
      <trkpt lat="50.158632" lon="7.713014">
        <ele>166</ele>
      </trkpt>
      <trkpt lat="50.158641" lon="7.713054">
        <ele>167.5</ele>
      </trkpt>
      <trkpt lat="50.15866" lon="7.713083">
        <ele>169.25</ele>
      </trkpt>
      <trkpt lat="50.158771" lon="7.713177">
        <ele>176.75</ele>
      </trkpt>
      <trkpt lat="50.158887" lon="7.713298">
        <ele>185.5</ele>
      </trkpt>
      <trkpt lat="50.158983" lon="7.713423">
        <ele>189.25</ele>
      </trkpt>
      <trkpt lat="50.15906" lon="7.713545">
        <ele>191</ele>
      </trkpt>
      <trkpt lat="50.15919" lon="7.713752">
        <ele>193.25</ele>
      </trkpt>
      <trkpt lat="50.159173" lon="7.713842">
        <ele>191.75</ele>
      </trkpt>
      <trkpt lat="50.159174" lon="7.714013">
        <ele>189.25</ele>
      </trkpt>
      <trkpt lat="50.159166" lon="7.714082">
        <ele>188</ele>
      </trkpt>
      <trkpt lat="50.159182" lon="7.714105">
        <ele>188.25</ele>
      </trkpt>
      <trkpt lat="50.15922" lon="7.714212">
        <ele>187.75</ele>
      </trkpt>
      <trkpt lat="50.159243" lon="7.714246">
        <ele>187.75</ele>
      </trkpt>
      <trkpt lat="50.159277" lon="7.71427">
        <ele>188.5</ele>
      </trkpt>
      <trkpt lat="50.159328" lon="7.714332">
        <ele>189.25</ele>
      </trkpt>
      <trkpt lat="50.159341" lon="7.714394">
        <ele>189</ele>
      </trkpt>
      <trkpt lat="50.159348" lon="7.714478">
        <ele>188.5</ele>
      </trkpt>
      <trkpt lat="50.159345" lon="7.714603">
        <ele>187</ele>
      </trkpt>
      <trkpt lat="50.159333" lon="7.714707">
        <ele>185.5</ele>
      </trkpt>
      <trkpt lat="50.159268" lon="7.714946">
        <ele>179.75</ele>
      </trkpt>
      <trkpt lat="50.159264" lon="7.715016">
        <ele>178.75</ele>
      </trkpt>
      <trkpt lat="50.159238" lon="7.715038">
        <ele>177</ele>
      </trkpt>
      <trkpt lat="50.159214" lon="7.714973">
        <ele>176.75</ele>
      </trkpt>
      <trkpt lat="50.159167" lon="7.714909">
        <ele>175.25</ele>
      </trkpt>
      <trkpt lat="50.159154" lon="7.715002">
        <ele>173</ele>
      </trkpt>
      <trkpt lat="50.159097" lon="7.715052">
        <ele>169.25</ele>
      </trkpt>
      <trkpt lat="50.159109" lon="7.715135">
        <ele>169</ele>
      </trkpt>
      <trkpt lat="50.159094" lon="7.715256">
        <ele>166.5</ele>
      </trkpt>
      <trkpt lat="50.159034" lon="7.715395">
        <ele>161.25</ele>
      </trkpt>
      <trkpt lat="50.159007" lon="7.715591">
        <ele>157.25</ele>
      </trkpt>
      <trkpt lat="50.159015" lon="7.715683">
        <ele>156.5</ele>
      </trkpt>
      <trkpt lat="50.159013" lon="7.715735">
        <ele>155.75</ele>
      </trkpt>
      <trkpt lat="50.158967" lon="7.715771">
        <ele>152.5</ele>
      </trkpt>
      <trkpt lat="50.158951" lon="7.715945">
        <ele>149</ele>
      </trkpt>
      <trkpt lat="50.158887" lon="7.715955">
        <ele>145</ele>
      </trkpt>
      <trkpt lat="50.158864" lon="7.716062">
        <ele>142</ele>
      </trkpt>
      <trkpt lat="50.158869" lon="7.716221">
        <ele>139.75</ele>
      </trkpt>
      <trkpt lat="50.15886" lon="7.71637">
        <ele>137</ele>
      </trkpt>
      <trkpt lat="50.158878" lon="7.716427">
        <ele>137.25</ele>
      </trkpt>
      <trkpt lat="50.158818" lon="7.716463">
        <ele>133</ele>
      </trkpt>
      <trkpt lat="50.158779" lon="7.716369">
        <ele>131.75</ele>
      </trkpt>
      <trkpt lat="50.158724" lon="7.716305">
        <ele>129.25</ele>
      </trkpt>
      <trkpt lat="50.158706" lon="7.716217">
        <ele>129.5</ele>
      </trkpt>
      <trkpt lat="50.158656" lon="7.716181">
        <ele>127</ele>
      </trkpt>
      <trkpt lat="50.158609" lon="7.716106">
        <ele>125.25</ele>
      </trkpt>
      <trkpt lat="50.158597" lon="7.715925">
        <ele>127.5</ele>
      </trkpt>
      <trkpt lat="50.158563" lon="7.715804">
        <ele>127.25</ele>
      </trkpt>
      <trkpt lat="50.158496" lon="7.715691">
        <ele>125</ele>
      </trkpt>
      <trkpt lat="50.158433" lon="7.715631">
        <ele>122.25</ele>
      </trkpt>
      <trkpt lat="50.158397" lon="7.715564">
        <ele>121.25</ele>
      </trkpt>
      <trkpt lat="50.158363" lon="7.715474">
        <ele>120.75</ele>
      </trkpt>
      <trkpt lat="50.158324" lon="7.715442">
        <ele>119.25</ele>
      </trkpt>
      <trkpt lat="50.158254" lon="7.715412">
        <ele>117.5</ele>
      </trkpt>
      <trkpt lat="50.158149" lon="7.715291">
        <ele>115.75</ele>
      </trkpt>
      <trkpt lat="50.158081" lon="7.715158">
        <ele>115</ele>
      </trkpt>
      <trkpt lat="50.157974" lon="7.714986">
        <ele>113</ele>
      </trkpt>
      <trkpt lat="50.157924" lon="7.71491">
        <ele>112.25</ele>
      </trkpt>
      <trkpt lat="50.157853" lon="7.714877">
        <ele>110</ele>
      </trkpt>
      <trkpt lat="50.157798" lon="7.714825">
        <ele>108.5</ele>
      </trkpt>
      <trkpt lat="50.157705" lon="7.71469">
        <ele>106.75</ele>
      </trkpt>
      <trkpt lat="50.157671" lon="7.714637">
        <ele>106</ele>
      </trkpt>
      <trkpt lat="50.157635" lon="7.714647">
        <ele>104.25</ele>
      </trkpt>
      <trkpt lat="50.157508" lon="7.714728">
        <ele>97.75</ele>
      </trkpt>
      <trkpt lat="50.157388" lon="7.714778">
        <ele>97</ele>
      </trkpt>
      <trkpt lat="50.157363" lon="7.714696">
        <ele>97.75</ele>
      </trkpt>
      <trkpt lat="50.157335" lon="7.714736">
        <ele>97.5</ele>
      </trkpt>
      <trkpt lat="50.157351" lon="7.71484">
        <ele>96.5</ele>
      </trkpt>
      <trkpt lat="50.157335" lon="7.714736">
        <ele>97.5</ele>
      </trkpt>
      <trkpt lat="50.157363" lon="7.714696">
        <ele>97.75</ele>
      </trkpt>
      <trkpt lat="50.15725" lon="7.714349">
        <ele>100</ele>
      </trkpt>
      <trkpt lat="50.157215" lon="7.714263">
        <ele>100</ele>
      </trkpt>
      <trkpt lat="50.157147" lon="7.714137">
        <ele>99.5</ele>
      </trkpt>
      <trkpt lat="50.156989" lon="7.713938">
        <ele>96.5</ele>
      </trkpt>
      <trkpt lat="50.156965" lon="7.713908">
        <ele>96.25</ele>
      </trkpt>
      <trkpt lat="50.156832" lon="7.713782">
        <ele>92.5</ele>
      </trkpt>
      <trkpt lat="50.156737" lon="7.713711">
        <ele>89.25</ele>
      </trkpt>
      <trkpt lat="50.156681" lon="7.713668">
        <ele>87.5</ele>
      </trkpt>
      <trkpt lat="50.156672" lon="7.7137">
        <ele>87.5</ele>
      </trkpt>
      <trkpt lat="50.156639" lon="7.713824">
        <ele>88.25</ele>
      </trkpt>
      <trkpt lat="50.156481" lon="7.713715">
        <ele>86</ele>
      </trkpt>
      <trkpt lat="50.156321" lon="7.7136">
        <ele>83.75</ele>
      </trkpt>
      <trkpt lat="50.15615" lon="7.713446">
        <ele>81.5</ele>
      </trkpt>
      <trkpt lat="50.156034" lon="7.713704">
        <ele>79</ele>
      </trkpt>
      <trkpt lat="50.155954" lon="7.713911">
        <ele>79</ele>
      </trkpt>
      <trkpt lat="50.155913" lon="7.713875">
        <ele>78.25</ele>
      </trkpt>
      <trkpt lat="50.155882" lon="7.713848">
        <ele>77.75</ele>
      </trkpt>
      <trkpt lat="50.15588" lon="7.713851">
        <ele>77.75</ele>
      </trkpt>
    </trkseg>
  </trk>
</gpx>
