<?xml version="1.0" encoding="UTF-8" standalone="yes"?>
<gpx xmlns:gpxtpx1="http://www.garmin.com/xmlschemas/TrackPointExtension/v1" xmlns="http://www.topografix.com/GPX/1/1" xmlns:trp="http://www.garmin.com/xmlschemas/TripExtensions/v1" xmlns:gpxx="http://www.garmin.com/xmlschemas/GpxExtensions/v3" xmlns:gpxtpx="http://www.garmin.com/xmlschemas/TrackPointExtension/v2" version="1.1" creator="Generated by Christian Pesch's RouteConverter. See http://www.routeconverter.com">
    <metadata>
        <name>Leopold Klettersteig riegersburg</name>
        <link href="alpenkarte.eu">
            <text>Route von alpenkarte.eu</text>
        </link>
        <bounds minlat="47.00081399999999831607055966742336750030517578125" minlon="15.9322999999999996845190253225155174732208251953125" maxlat="47.0041920000000033041942515410482883453369140625" maxlon="15.9353420000000003398099579499103128910064697265625"/>
    </metadata>
    <trk>
        <name>Leopold Klettersteig riegersburg</name>
        <trkseg>
            <trkpt lat="47.000916" lon="15.935228">
                <ele>369.8</ele>
                <name>Position 1</name>
            </trkpt>
            <trkpt lat="47.000946" lon="15.935046">
                <ele>371.8</ele>
                <name>Position 2</name>
            </trkpt>
            <trkpt lat="47.00094" lon="15.934452">
                <ele>371.1</ele>
                <name>Position 3</name>
            </trkpt>
            <trkpt lat="47.000964" lon="15.934294">
                <ele>371.5</ele>
                <name>Position 4</name>
            </trkpt>
            <trkpt lat="47.001006" lon="15.934175">
                <ele>372.5</ele>
                <name>Position 5</name>
            </trkpt>
            <trkpt lat="47.001099" lon="15.934011">
                <ele>373.4</ele>
                <name>Position 6</name>
            </trkpt>
            <trkpt lat="47.001099" lon="15.934011">
                <ele>373.4</ele>
                <name>Position 7</name>
            </trkpt>
            <trkpt lat="47.001231" lon="15.933759">
                <ele>373.7</ele>
                <name>Position 8</name>
            </trkpt>
            <trkpt lat="47.001249" lon="15.933904">
                <ele>376.0</ele>
                <name>Position 9</name>
            </trkpt>
            <trkpt lat="47.001457" lon="15.934028">
                <ele>383.3</ele>
                <name>Position 10</name>
            </trkpt>
            <trkpt lat="47.001636" lon="15.933999">
                <ele>387.7</ele>
                <name>Position 11</name>
            </trkpt>
            <trkpt lat="47.001752" lon="15.933948">
                <ele>391.7</ele>
                <name>Position 12</name>
            </trkpt>
            <trkpt lat="47.001786" lon="15.933893">
                <ele>392.3</ele>
                <name>Position 13</name>
            </trkpt>
            <trkpt lat="47.00183" lon="15.933732">
                <ele>391.6</ele>
                <name>Position 14</name>
            </trkpt>
            <trkpt lat="47.00183" lon="15.933732">
                <ele>391.6</ele>
                <name>Position 15</name>
            </trkpt>
            <trkpt lat="47.001963" lon="15.933303">
                <ele>390.3</ele>
                <name>Position 16</name>
            </trkpt>
            <trkpt lat="47.002037" lon="15.933144">
                <ele>389.3</ele>
                <name>Position 17</name>
            </trkpt>
            <trkpt lat="47.002077" lon="15.933095">
                <ele>389.6</ele>
                <name>Position 18</name>
            </trkpt>
            <trkpt lat="47.002124" lon="15.933067">
                <ele>390.7</ele>
                <name>Position 19</name>
            </trkpt>
            <trkpt lat="47.002193" lon="15.933061">
                <ele>393.3</ele>
                <name>Position 20</name>
            </trkpt>
            <trkpt lat="47.002249" lon="15.933096">
                <ele>396.8</ele>
                <name>Position 21</name>
            </trkpt>
            <trkpt lat="47.00228" lon="15.933182">
                <ele>401.2</ele>
                <name>Position 22</name>
            </trkpt>
            <trkpt lat="47.002485" lon="15.933097">
                <ele>406.7</ele>
                <name>Position 23</name>
            </trkpt>
            <trkpt lat="47.002631" lon="15.933005">
                <ele>407.6</ele>
                <name>Position 24</name>
            </trkpt>
            <trkpt lat="47.002831" lon="15.93282">
                <ele>407.1</ele>
                <name>Position 25</name>
            </trkpt>
            <trkpt lat="47.0033" lon="15.93264">
                <ele>417.8</ele>
                <name>Position 26</name>
            </trkpt>
            <trkpt lat="47.0036" lon="15.93239">
                <ele>422.9</ele>
                <name>Position 27</name>
            </trkpt>
            <trkpt lat="47.00385" lon="15.9323">
                <ele>430.4</ele>
                <name>Position 28</name>
            </trkpt>
            <trkpt lat="47.00411" lon="15.93262">
                <ele>452.6</ele>
                <name>Position 29</name>
            </trkpt>
            <trkpt lat="47.004097" lon="15.932619">
                <ele>452.0</ele>
                <name>Position 30</name>
            </trkpt>
            <trkpt lat="47.004044" lon="15.932638">
                <ele>449.8</ele>
                <name>Position 31</name>
            </trkpt>
            <trkpt lat="47.004051" lon="15.932695">
                <ele>450.6</ele>
                <name>Position 32</name>
            </trkpt>
            <trkpt lat="47.004188" lon="15.932666">
                <ele>455.5</ele>
                <name>Position 33</name>
            </trkpt>
            <trkpt lat="47.004192" lon="15.932835">
                <ele>456.3</ele>
                <name>Position 34</name>
            </trkpt>
            <trkpt lat="47.004167" lon="15.933116">
                <ele>457.5</ele>
                <name>Position 35</name>
            </trkpt>
            <trkpt lat="47.003497" lon="15.933959">
                <ele>441.3</ele>
                <name>Position 36</name>
            </trkpt>
            <trkpt lat="47.003106" lon="15.934393">
                <ele>433.5</ele>
                <name>Position 37</name>
            </trkpt>
            <trkpt lat="47.003004" lon="15.934532">
                <ele>429.9</ele>
                <name>Position 38</name>
            </trkpt>
            <trkpt lat="47.002782" lon="15.934692">
                <ele>425.3</ele>
                <name>Position 39</name>
            </trkpt>
            <trkpt lat="47.002698" lon="15.934715">
                <ele>424.3</ele>
                <name>Position 40</name>
            </trkpt>
            <trkpt lat="47.002549" lon="15.934661">
                <ele>424.1</ele>
                <name>Position 41</name>
            </trkpt>
            <trkpt lat="47.00243" lon="15.934531">
                <ele>422.9</ele>
                <name>Position 42</name>
            </trkpt>
            <trkpt lat="47.002347" lon="15.934288">
                <ele>422.6</ele>
                <name>Position 43</name>
            </trkpt>
            <trkpt lat="47.002285" lon="15.934015">
                <ele>418.6</ele>
                <name>Position 44</name>
            </trkpt>
            <trkpt lat="47.002319" lon="15.933874">
                <ele>417.8</ele>
                <name>Position 45</name>
            </trkpt>
            <trkpt lat="47.002395" lon="15.933783">
                <ele>420.0</ele>
                <name>Position 46</name>
            </trkpt>
            <trkpt lat="47.002714" lon="15.93359">
                <ele>426.8</ele>
                <name>Position 47</name>
            </trkpt>
            <trkpt lat="47.002741" lon="15.933504">
                <ele>426.4</ele>
                <name>Position 48</name>
            </trkpt>
            <trkpt lat="47.002707" lon="15.933453">
                <ele>424.9</ele>
                <name>Position 49</name>
            </trkpt>
            <trkpt lat="47.002663" lon="15.933453">
                <ele>423.8</ele>
                <name>Position 50</name>
            </trkpt>
            <trkpt lat="47.002174" lon="15.933617">
                <ele>406.4</ele>
                <name>Position 51</name>
            </trkpt>
            <trkpt lat="47.002106" lon="15.933605">
                <ele>402.8</ele>
                <name>Position 52</name>
            </trkpt>
            <trkpt lat="47.002084" lon="15.933579">
                <ele>401.3</ele>
                <name>Position 53</name>
            </trkpt>
            <trkpt lat="47.002078" lon="15.93354">
                <ele>400.3</ele>
                <name>Position 54</name>
            </trkpt>
            <trkpt lat="47.00209" lon="15.933508">
                <ele>400.4</ele>
                <name>Position 55</name>
            </trkpt>
            <trkpt lat="47.00209" lon="15.933508">
                <ele>400.4</ele>
                <name>Position 56</name>
            </trkpt>
            <trkpt lat="47.002168" lon="15.933364">
                <ele>401.7</ele>
                <name>Position 57</name>
            </trkpt>
            <trkpt lat="47.002267" lon="15.933273">
                <ele>403.9</ele>
                <name>Position 58</name>
            </trkpt>
            <trkpt lat="47.002282" lon="15.93322">
                <ele>402.7</ele>
                <name>Position 59</name>
            </trkpt>
            <trkpt lat="47.002249" lon="15.933096">
                <ele>396.8</ele>
                <name>Position 60</name>
            </trkpt>
            <trkpt lat="47.002193" lon="15.933061">
                <ele>393.3</ele>
                <name>Position 61</name>
            </trkpt>
            <trkpt lat="47.002124" lon="15.933067">
                <ele>390.7</ele>
                <name>Position 62</name>
            </trkpt>
            <trkpt lat="47.002077" lon="15.933095">
                <ele>389.6</ele>
                <name>Position 63</name>
            </trkpt>
            <trkpt lat="47.002037" lon="15.933144">
                <ele>389.3</ele>
                <name>Position 64</name>
            </trkpt>
            <trkpt lat="47.001963" lon="15.933303">
                <ele>390.3</ele>
                <name>Position 65</name>
            </trkpt>
            <trkpt lat="47.001848" lon="15.933667">
                <ele>391.3</ele>
                <name>Position 66</name>
            </trkpt>
            <trkpt lat="47.001786" lon="15.933893">
                <ele>392.3</ele>
                <name>Position 67</name>
            </trkpt>
            <trkpt lat="47.001752" lon="15.933948">
                <ele>391.7</ele>
                <name>Position 68</name>
            </trkpt>
            <trkpt lat="47.001636" lon="15.933999">
                <ele>387.7</ele>
                <name>Position 69</name>
            </trkpt>
            <trkpt lat="47.001457" lon="15.934028">
                <ele>383.3</ele>
                <name>Position 70</name>
            </trkpt>
            <trkpt lat="47.001249" lon="15.933904">
                <ele>376.0</ele>
                <name>Position 71</name>
            </trkpt>
            <trkpt lat="47.001112" lon="15.934201">
                <ele>375.6</ele>
                <name>Position 72</name>
            </trkpt>
            <trkpt lat="47.001076" lon="15.934401">
                <ele>374.7</ele>
                <name>Position 73</name>
            </trkpt>
            <trkpt lat="47.001079" lon="15.935149">
                <ele>373.9</ele>
                <name>Position 74</name>
            </trkpt>
            <trkpt lat="47.001023" lon="15.935058">
                <ele>373.5</ele>
                <name>Position 75</name>
            </trkpt>
            <trkpt lat="47.000946" lon="15.935046">
                <ele>371.8</ele>
                <name>Position 76</name>
            </trkpt>
            <trkpt lat="47.00092" lon="15.935211">
                <ele>370.0</ele>
                <name>Position 77</name>
            </trkpt>
            <trkpt lat="47.000916" lon="15.935228">
                <ele>369.8</ele>
                <name>Position 78</name>
            </trkpt>
            <trkpt lat="47.000946" lon="15.935046">
                <ele>371.8</ele>
                <name>Position 79</name>
            </trkpt>
        </trkseg>
    </trk>
</gpx>
