<?xml version="1.0" encoding="UTF-8" standalone="yes"?>
<gpx xmlns:gpxtpx1="http://www.garmin.com/xmlschemas/TrackPointExtension/v1" xmlns="http://www.topografix.com/GPX/1/1" xmlns:trp="http://www.garmin.com/xmlschemas/TripExtensions/v1" xmlns:gpxx="http://www.garmin.com/xmlschemas/GpxExtensions/v3" xmlns:gpxtpx="http://www.garmin.com/xmlschemas/TrackPointExtension/v2" version="1.1" creator="RouteConverter 2.27.2">
    <metadata>
        <link href="http://www.garmin.com">
            <text>Garmin International</text>
        </link>
        <time>2010-08-25T21:07:24Z</time>
        <bounds minlat="46.9178408" minlon="10.0940527" maxlat="46.9429407" maxlon="10.1132903"/>
    </metadata>
    <trk>
        <name>Gr. Vallüla NW-Grat</name>
        <extensions>
            <gpxx:TrackExtension>
                <gpxx:DisplayColor>Red</gpxx:DisplayColor>
            </gpxx:TrackExtension>
        </extensions>
        <trkseg>
            <trkpt lat="46.9179926" lon="10.0955838">
                <ele>2042.9</ele>
                <name>Position 1</name>
            </trkpt>
            <trkpt lat="46.9183842" lon="10.0962302">
                <ele>2049.7</ele>
                <name>Position 2</name>
            </trkpt>
            <trkpt lat="46.9186752" lon="10.0958289">
                <ele>2055.0</ele>
                <name>Position 3</name>
            </trkpt>
            <trkpt lat="46.9187191" lon="10.0945022">
                <ele>2061.2</ele>
                <name>Position 4</name>
            </trkpt>
            <trkpt lat="46.9187458" lon="10.0941341">
                <ele>2064.1</ele>
                <name>Position 5</name>
            </trkpt>
            <trkpt lat="46.9189459" lon="10.0943309">
                <ele>2067.9</ele>
                <name>Position 6</name>
            </trkpt>
            <trkpt lat="46.9189797" lon="10.0946565">
                <ele>2068.4</ele>
                <name>Position 7</name>
            </trkpt>
            <trkpt lat="46.9192581" lon="10.0952494">
                <ele>2071.8</ele>
                <name>Position 8</name>
            </trkpt>
            <trkpt lat="46.9196449" lon="10.095535">
                <ele>2074.7</ele>
                <name>Position 9</name>
            </trkpt>
            <trkpt lat="46.9199551" lon="10.0958189">
                <ele>2076.6</ele>
                <name>Position 10</name>
            </trkpt>
            <trkpt lat="46.9200676" lon="10.0961297">
                <ele>2078.0</ele>
                <name>Position 11</name>
            </trkpt>
            <trkpt lat="46.9202228" lon="10.0969198">
                <ele>2077.1</ele>
                <name>Position 12</name>
            </trkpt>
            <trkpt lat="46.9208274" lon="10.0964158">
                <ele>2092.9</ele>
                <name>Position 13</name>
            </trkpt>
            <trkpt lat="46.9208828" lon="10.096756">
                <ele>2100.1</ele>
                <name>Position 14</name>
            </trkpt>
            <trkpt lat="46.9212547" lon="10.0963626">
                <ele>2117.9</ele>
                <name>Position 15</name>
            </trkpt>
            <trkpt lat="46.9215136" lon="10.0962707">
                <ele>2132.3</ele>
                <name>Position 16</name>
            </trkpt>
            <trkpt lat="46.9217489" lon="10.0963563">
                <ele>2145.3</ele>
                <name>Position 17</name>
            </trkpt>
            <trkpt lat="46.9219655" lon="10.0961475">
                <ele>2157.3</ele>
                <name>Position 18</name>
            </trkpt>
            <trkpt lat="46.9219784" lon="10.0968085">
                <ele>2174.2</ele>
                <name>Position 19</name>
            </trkpt>
            <trkpt lat="46.9218582" lon="10.097198">
                <ele>2186.7</ele>
                <name>Position 20</name>
            </trkpt>
            <trkpt lat="46.9221452" lon="10.097343">
                <ele>2200.1</ele>
                <name>Position 21</name>
            </trkpt>
            <trkpt lat="46.9220228" lon="10.0978393">
                <ele>2209.7</ele>
                <name>Position 22</name>
            </trkpt>
            <trkpt lat="46.9220722" lon="10.0982315">
                <ele>2220.8</ele>
                <name>Position 23</name>
            </trkpt>
            <trkpt lat="46.9223617" lon="10.0984698">
                <ele>2232.3</ele>
                <name>Position 24</name>
            </trkpt>
            <trkpt lat="46.9226393" lon="10.099252">
                <ele>2242.9</ele>
                <name>Position 25</name>
            </trkpt>
            <trkpt lat="46.9229347" lon="10.0996553">
                <ele>2249.1</ele>
                <name>Position 26</name>
            </trkpt>
            <trkpt lat="46.9233272" lon="10.1001901">
                <ele>2257.8</ele>
                <name>Position 27</name>
            </trkpt>
            <trkpt lat="46.9235754" lon="10.1006413">
                <ele>2262.6</ele>
                <name>Position 28</name>
            </trkpt>
            <trkpt lat="46.923789" lon="10.1010827">
                <ele>2266.4</ele>
                <name>Position 29</name>
            </trkpt>
            <trkpt lat="46.9239105" lon="10.101382">
                <ele>2266.0</ele>
                <name>Position 30</name>
            </trkpt>
            <trkpt lat="46.9239494" lon="10.1018926">
                <ele>2266.9</ele>
                <name>Position 31</name>
            </trkpt>
            <trkpt lat="46.9243545" lon="10.1020008">
                <ele>2263.1</ele>
                <name>Position 32</name>
            </trkpt>
            <trkpt lat="46.9246452" lon="10.1023335">
                <ele>2261.2</ele>
                <name>Position 33</name>
            </trkpt>
            <trkpt lat="46.9248933" lon="10.1027087">
                <ele>2264.5</ele>
                <name>Position 34</name>
            </trkpt>
            <trkpt lat="46.9250791" lon="10.1034816">
                <ele>2262.6</ele>
                <name>Position 35</name>
            </trkpt>
            <trkpt lat="46.9251424" lon="10.1041503">
                <ele>2267.4</ele>
                <name>Position 36</name>
            </trkpt>
            <trkpt lat="46.9249757" lon="10.1044792">
                <ele>2275.6</ele>
                <name>Position 37</name>
            </trkpt>
            <trkpt lat="46.9249166" lon="10.1048571">
                <ele>2279.4</ele>
                <name>Position 38</name>
            </trkpt>
            <trkpt lat="46.9247068" lon="10.1051364">
                <ele>2288.1</ele>
                <name>Position 39</name>
            </trkpt>
            <trkpt lat="46.9250528" lon="10.1051329">
                <ele>2296.2</ele>
                <name>Position 40</name>
            </trkpt>
            <trkpt lat="46.9249185" lon="10.1054691">
                <ele>2303.9</ele>
                <name>Position 41</name>
            </trkpt>
            <trkpt lat="46.9251578" lon="10.1053747">
                <ele>2312.6</ele>
                <name>Position 42</name>
            </trkpt>
            <trkpt lat="46.9249166" lon="10.1058897">
                <ele>2322.2</ele>
                <name>Position 43</name>
            </trkpt>
            <trkpt lat="46.9246898" lon="10.1060242">
                <ele>2328.9</ele>
                <name>Position 44</name>
            </trkpt>
            <trkpt lat="46.9251968" lon="10.1065792">
                <ele>2345.8</ele>
                <name>Position 45</name>
            </trkpt>
            <trkpt lat="46.925388" lon="10.1071734">
                <ele>2351.5</ele>
                <name>Position 46</name>
            </trkpt>
            <trkpt lat="46.9256878" lon="10.1077617">
                <ele>2355.8</ele>
                <name>Position 47</name>
            </trkpt>
            <trkpt lat="46.9259219" lon="10.1081156">
                <ele>2359.7</ele>
                <name>Position 48</name>
            </trkpt>
            <trkpt lat="46.9264673" lon="10.1088543">
                <ele>2361.1</ele>
                <name>Position 49</name>
            </trkpt>
            <trkpt lat="46.9268714" lon="10.1091956">
                <ele>2362.1</ele>
                <name>Position 50</name>
            </trkpt>
            <trkpt lat="46.9277412" lon="10.1095721">
                <ele>2365.5</ele>
                <name>Position 51</name>
            </trkpt>
            <trkpt lat="46.928581" lon="10.1100052">
                <ele>2375.1</ele>
                <name>Position 52</name>
            </trkpt>
            <trkpt lat="46.9291912" lon="10.1104704">
                <ele>2380.8</ele>
                <name>Position 53</name>
            </trkpt>
            <trkpt lat="46.929558" lon="10.1105347">
                <ele>2380.4</ele>
                <name>Position 54</name>
            </trkpt>
            <trkpt lat="46.9298655" lon="10.1104779">
                <ele>2387.6</ele>
                <name>Position 55</name>
            </trkpt>
            <trkpt lat="46.9303692" lon="10.1105425">
                <ele>2398.1</ele>
                <name>Position 56</name>
            </trkpt>
            <trkpt lat="46.9307747" lon="10.1105568">
                <ele>2401.0</ele>
                <name>Position 57</name>
            </trkpt>
            <trkpt lat="46.9311491" lon="10.1105948">
                <ele>2402.5</ele>
                <name>Position 58</name>
            </trkpt>
            <trkpt lat="46.9314304" lon="10.1107995">
                <ele>2410.2</ele>
                <name>Position 59</name>
            </trkpt>
            <trkpt lat="46.9316593" lon="10.1107039">
                <ele>2421.7</ele>
                <name>Position 60</name>
            </trkpt>
            <trkpt lat="46.9319312" lon="10.1109557">
                <ele>2431.8</ele>
                <name>Position 61</name>
            </trkpt>
            <trkpt lat="46.9319898" lon="10.1105337">
                <ele>2444.8</ele>
                <name>Position 62</name>
            </trkpt>
            <trkpt lat="46.9321343" lon="10.1102741">
                <ele>2464.0</ele>
                <name>Position 63</name>
            </trkpt>
            <trkpt lat="46.9325105" lon="10.1100652">
                <ele>2476.0</ele>
                <name>Position 64</name>
            </trkpt>
            <trkpt lat="46.9328099" lon="10.1100508">
                <ele>2485.6</ele>
                <name>Position 65</name>
            </trkpt>
            <trkpt lat="46.9332243" lon="10.109908">
                <ele>2498.1</ele>
                <name>Position 66</name>
            </trkpt>
            <trkpt lat="46.933484" lon="10.1100753">
                <ele>2500.5</ele>
                <name>Position 67</name>
            </trkpt>
            <trkpt lat="46.9337139" lon="10.1099815">
                <ele>2512.1</ele>
                <name>Position 68</name>
            </trkpt>
            <trkpt lat="46.9339662" lon="10.1095483">
                <ele>2501.0</ele>
                <name>Position 69</name>
            </trkpt>
            <trkpt lat="46.9343946" lon="10.1092444">
                <ele>2474.1</ele>
                <name>Position 70</name>
            </trkpt>
            <trkpt lat="46.9347608" lon="10.1089551">
                <ele>2457.7</ele>
                <name>Position 71</name>
            </trkpt>
            <trkpt lat="46.935013" lon="10.1084124">
                <ele>2448.1</ele>
                <name>Position 72</name>
            </trkpt>
            <trkpt lat="46.9351662" lon="10.1076582">
                <ele>2439.5</ele>
                <name>Position 73</name>
            </trkpt>
            <trkpt lat="46.9357056" lon="10.1068816">
                <ele>2421.7</ele>
                <name>Position 74</name>
            </trkpt>
            <trkpt lat="46.9359394" lon="10.1067134">
                <ele>2417.4</ele>
                <name>Position 75</name>
            </trkpt>
            <trkpt lat="46.9364723" lon="10.1064739">
                <ele>2415.9</ele>
                <name>Position 76</name>
            </trkpt>
            <trkpt lat="46.9368101" lon="10.1063062">
                <ele>2418.8</ele>
                <name>Position 77</name>
            </trkpt>
            <trkpt lat="46.9371036" lon="10.1063757">
                <ele>2424.6</ele>
                <name>Position 78</name>
            </trkpt>
            <trkpt lat="46.9374548" lon="10.1063745">
                <ele>2430.4</ele>
                <name>Position 79</name>
            </trkpt>
            <trkpt lat="46.937715" lon="10.1065695">
                <ele>2426.5</ele>
                <name>Position 80</name>
            </trkpt>
            <trkpt lat="46.9379207" lon="10.1067081">
                <ele>2421.7</ele>
                <name>Position 81</name>
            </trkpt>
            <trkpt lat="46.9381507" lon="10.1069098">
                <ele>2411.6</ele>
                <name>Position 82</name>
            </trkpt>
            <trkpt lat="46.9383904" lon="10.1070781">
                <ele>2406.8</ele>
                <name>Position 83</name>
            </trkpt>
            <trkpt lat="46.9389086" lon="10.1070146">
                <ele>2404.4</ele>
                <name>Position 84</name>
            </trkpt>
            <trkpt lat="46.9393352" lon="10.1070703">
                <ele>2403.9</ele>
                <name>Position 85</name>
            </trkpt>
            <trkpt lat="46.9397278" lon="10.1067771">
                <ele>2414.0</ele>
                <name>Position 86</name>
            </trkpt>
            <trkpt lat="46.9399739" lon="10.1068108">
                <ele>2421.2</ele>
                <name>Position 87</name>
            </trkpt>
            <trkpt lat="46.940301" lon="10.1067124">
                <ele>2428.4</ele>
                <name>Position 88</name>
            </trkpt>
            <trkpt lat="46.9405675" lon="10.1068639">
                <ele>2447.7</ele>
                <name>Position 89</name>
            </trkpt>
            <trkpt lat="46.940948" lon="10.10672">
                <ele>2459.2</ele>
                <name>Position 90</name>
            </trkpt>
            <trkpt lat="46.9411873" lon="10.1065357">
                <ele>2455.3</ele>
                <name>Position 91</name>
            </trkpt>
            <trkpt lat="46.9414292" lon="10.1062902">
                <ele>2453.4</ele>
                <name>Position 92</name>
            </trkpt>
            <trkpt lat="46.9416574" lon="10.1062906">
                <ele>2463.0</ele>
                <name>Position 93</name>
            </trkpt>
            <trkpt lat="46.9418747" lon="10.1064928">
                <ele>2481.3</ele>
                <name>Position 94</name>
            </trkpt>
            <trkpt lat="46.9420654" lon="10.1068126">
                <ele>2502.9</ele>
                <name>Position 95</name>
            </trkpt>
            <trkpt lat="46.9422117" lon="10.1065016">
                <ele>2494.3</ele>
                <name>Position 96</name>
            </trkpt>
            <trkpt lat="46.9423652" lon="10.1062036">
                <ele>2492.4</ele>
                <name>Position 97</name>
            </trkpt>
            <trkpt lat="46.9425693" lon="10.1060284">
                <ele>2490.4</ele>
                <name>Position 98</name>
            </trkpt>
            <trkpt lat="46.9428696" lon="10.1056794">
                <ele>2497.2</ele>
                <name>Position 99</name>
            </trkpt>
            <trkpt lat="46.9426859" lon="10.1061777">
                <ele>2521.7</ele>
                <name>Position 100</name>
            </trkpt>
            <trkpt lat="46.9425087" lon="10.106591">
                <ele>2536.6</ele>
                <name>Position 101</name>
            </trkpt>
            <trkpt lat="46.9423686" lon="10.106938">
                <ele>2541.9</ele>
                <name>Position 102</name>
            </trkpt>
            <trkpt lat="46.9421632" lon="10.107117">
                <ele>2550.0</ele>
                <name>Position 103</name>
            </trkpt>
            <trkpt lat="46.9422404" lon="10.1074892">
                <ele>2574.1</ele>
                <name>Position 104</name>
            </trkpt>
            <trkpt lat="46.9420016" lon="10.1075774">
                <ele>2583.7</ele>
                <name>Position 105</name>
            </trkpt>
            <trkpt lat="46.9418393" lon="10.1079773">
                <ele>2582.2</ele>
                <name>Position 106</name>
            </trkpt>
            <trkpt lat="46.9416333" lon="10.1081346">
                <ele>2603.9</ele>
                <name>Position 107</name>
            </trkpt>
            <trkpt lat="46.9415639" lon="10.1084915">
                <ele>2624.1</ele>
                <name>Position 108</name>
            </trkpt>
            <trkpt lat="46.9413318" lon="10.1083597">
                <ele>2618.8</ele>
                <name>Position 109</name>
            </trkpt>
            <trkpt lat="46.9411145" lon="10.1082615">
                <ele>2610.1</ele>
                <name>Position 110</name>
            </trkpt>
            <trkpt lat="46.9408526" lon="10.10844">
                <ele>2607.7</ele>
                <name>Position 111</name>
            </trkpt>
            <trkpt lat="46.9405665" lon="10.1086683">
                <ele>2626.5</ele>
                <name>Position 112</name>
            </trkpt>
            <trkpt lat="46.9402827" lon="10.108818">
                <ele>2644.2</ele>
                <name>Position 113</name>
            </trkpt>
            <trkpt lat="46.9402517" lon="10.1092467">
                <ele>2652.9</ele>
                <name>Position 114</name>
            </trkpt>
            <trkpt lat="46.9400487" lon="10.1094859">
                <ele>2667.8</ele>
                <name>Position 115</name>
            </trkpt>
            <trkpt lat="46.9399276" lon="10.1098308">
                <ele>2675.5</ele>
                <name>Position 116</name>
            </trkpt>
            <trkpt lat="46.9397523" lon="10.1100974">
                <ele>2690.4</ele>
                <name>Position 117</name>
            </trkpt>
            <trkpt lat="46.9395446" lon="10.1102903">
                <ele>2704.3</ele>
                <name>Position 118</name>
            </trkpt>
            <trkpt lat="46.939388" lon="10.1105544">
                <ele>2721.6</ele>
                <name>Position 119</name>
            </trkpt>
            <trkpt lat="46.9392283" lon="10.1108816">
                <ele>2736.0</ele>
                <name>Position 120</name>
            </trkpt>
            <trkpt lat="46.9389215" lon="10.1111708">
                <ele>2760.1</ele>
                <name>Position 121</name>
            </trkpt>
            <trkpt lat="46.9387123" lon="10.1112997">
                <ele>2764.9</ele>
                <name>Position 122</name>
            </trkpt>
            <trkpt lat="46.9384904" lon="10.111463">
                <ele>2753.4</ele>
                <name>Position 123</name>
            </trkpt>
            <trkpt lat="46.9382144" lon="10.1116987">
                <ele>2772.1</ele>
                <name>Position 124</name>
            </trkpt>
            <trkpt lat="46.938016" lon="10.1120732">
                <ele>2770.7</ele>
                <name>Position 125</name>
            </trkpt>
            <trkpt lat="46.9377944" lon="10.1121768">
                <ele>2768.7</ele>
                <name>Position 126</name>
            </trkpt>
            <trkpt lat="46.9375867" lon="10.1123798">
                <ele>2784.1</ele>
                <name>Position 127</name>
            </trkpt>
            <trkpt lat="46.9373768" lon="10.1125867">
                <ele>2800.5</ele>
                <name>Position 128</name>
            </trkpt>
            <trkpt lat="46.9372996" lon="10.112901">
                <ele>2812.5</ele>
                <name>Position 129</name>
            </trkpt>
            <trkpt lat="46.9371116" lon="10.1132346">
                <ele>2800.9</ele>
                <name>Position 130</name>
            </trkpt>
            <trkpt lat="46.9370296" lon="10.112783">
                <ele>2789.9</ele>
                <name>Position 131</name>
            </trkpt>
            <trkpt lat="46.9368178" lon="10.1124141">
                <ele>2763.0</ele>
                <name>Position 132</name>
            </trkpt>
            <trkpt lat="46.9369556" lon="10.111968">
                <ele>2733.2</ele>
                <name>Position 133</name>
            </trkpt>
            <trkpt lat="46.9367313" lon="10.1119281">
                <ele>2726.4</ele>
                <name>Position 134</name>
            </trkpt>
            <trkpt lat="46.9365296" lon="10.1117296">
                <ele>2721.1</ele>
                <name>Position 135</name>
            </trkpt>
            <trkpt lat="46.9367107" lon="10.112131">
                <ele>2704.3</ele>
                <name>Position 136</name>
            </trkpt>
            <trkpt lat="46.9364417" lon="10.1123255">
                <ele>2692.3</ele>
                <name>Position 137</name>
            </trkpt>
            <trkpt lat="46.9362594" lon="10.1125775">
                <ele>2660.6</ele>
                <name>Position 138</name>
            </trkpt>
            <trkpt lat="46.9359345" lon="10.1129257">
                <ele>2641.4</ele>
                <name>Position 139</name>
            </trkpt>
            <trkpt lat="46.9356592" lon="10.1128474">
                <ele>2604.8</ele>
                <name>Position 140</name>
            </trkpt>
            <trkpt lat="46.9354529" lon="10.1125368">
                <ele>2588.5</ele>
                <name>Position 141</name>
            </trkpt>
            <trkpt lat="46.9350974" lon="10.1123992">
                <ele>2578.4</ele>
                <name>Position 142</name>
            </trkpt>
            <trkpt lat="46.9346751" lon="10.1125347">
                <ele>2571.2</ele>
                <name>Position 143</name>
            </trkpt>
            <trkpt lat="46.9343407" lon="10.1124849">
                <ele>2562.1</ele>
                <name>Position 144</name>
            </trkpt>
            <trkpt lat="46.9339585" lon="10.1122297">
                <ele>2552.9</ele>
                <name>Position 145</name>
            </trkpt>
            <trkpt lat="46.9335889" lon="10.1109009">
                <ele>2530.8</ele>
                <name>Position 146</name>
            </trkpt>
            <trkpt lat="46.9334668" lon="10.1101574">
                <ele>2514.5</ele>
                <name>Position 147</name>
            </trkpt>
            <trkpt lat="46.9331999" lon="10.1099976">
                <ele>2511.1</ele>
                <name>Position 148</name>
            </trkpt>
            <trkpt lat="46.9325556" lon="10.1100342">
                <ele>2489.5</ele>
                <name>Position 149</name>
            </trkpt>
            <trkpt lat="46.9322977" lon="10.1101238">
                <ele>2483.7</ele>
                <name>Position 150</name>
            </trkpt>
            <trkpt lat="46.9320975" lon="10.1104254">
                <ele>2467.8</ele>
                <name>Position 151</name>
            </trkpt>
            <trkpt lat="46.9319387" lon="10.1108334">
                <ele>2442.8</ele>
                <name>Position 152</name>
            </trkpt>
            <trkpt lat="46.9316718" lon="10.1106562">
                <ele>2433.2</ele>
                <name>Position 153</name>
            </trkpt>
            <trkpt lat="46.9312077" lon="10.1105807">
                <ele>2415.9</ele>
                <name>Position 154</name>
            </trkpt>
            <trkpt lat="46.9309918" lon="10.110459">
                <ele>2416.4</ele>
                <name>Position 155</name>
            </trkpt>
            <trkpt lat="46.930354" lon="10.1104875">
                <ele>2411.1</ele>
                <name>Position 156</name>
            </trkpt>
            <trkpt lat="46.9299527" lon="10.1104571">
                <ele>2403.9</ele>
                <name>Position 157</name>
            </trkpt>
            <trkpt lat="46.9296438" lon="10.1104896">
                <ele>2394.3</ele>
                <name>Position 158</name>
            </trkpt>
            <trkpt lat="46.9292212" lon="10.1104684">
                <ele>2393.8</ele>
                <name>Position 159</name>
            </trkpt>
            <trkpt lat="46.9285944" lon="10.1099949">
                <ele>2387.6</ele>
                <name>Position 160</name>
            </trkpt>
            <trkpt lat="46.927578" lon="10.1094902">
                <ele>2378.0</ele>
                <name>Position 161</name>
            </trkpt>
            <trkpt lat="46.9273113" lon="10.1094132">
                <ele>2376.5</ele>
                <name>Position 162</name>
            </trkpt>
            <trkpt lat="46.9268209" lon="10.1091202">
                <ele>2375.1</ele>
                <name>Position 163</name>
            </trkpt>
            <trkpt lat="46.9264406" lon="10.1087417">
                <ele>2375.1</ele>
                <name>Position 164</name>
            </trkpt>
            <trkpt lat="46.9257422" lon="10.1077653">
                <ele>2369.3</ele>
                <name>Position 165</name>
            </trkpt>
            <trkpt lat="46.9254713" lon="10.1072272">
                <ele>2365.0</ele>
                <name>Position 166</name>
            </trkpt>
            <trkpt lat="46.9252546" lon="10.1065807">
                <ele>2359.7</ele>
                <name>Position 167</name>
            </trkpt>
            <trkpt lat="46.924828" lon="10.1062834">
                <ele>2346.2</ele>
                <name>Position 168</name>
            </trkpt>
            <trkpt lat="46.9249275" lon="10.1059529">
                <ele>2334.2</ele>
                <name>Position 169</name>
            </trkpt>
            <trkpt lat="46.9250878" lon="10.1054155">
                <ele>2322.7</ele>
                <name>Position 170</name>
            </trkpt>
            <trkpt lat="46.9247247" lon="10.1051593">
                <ele>2299.6</ele>
                <name>Position 171</name>
            </trkpt>
            <trkpt lat="46.9249528" lon="10.1049196">
                <ele>2291.0</ele>
                <name>Position 172</name>
            </trkpt>
            <trkpt lat="46.925006" lon="10.1045041">
                <ele>2286.6</ele>
                <name>Position 173</name>
            </trkpt>
            <trkpt lat="46.9251652" lon="10.104199">
                <ele>2280.4</ele>
                <name>Position 174</name>
            </trkpt>
            <trkpt lat="46.9251314" lon="10.1038633">
                <ele>2274.6</ele>
                <name>Position 175</name>
            </trkpt>
            <trkpt lat="46.9250449" lon="10.1030516">
                <ele>2274.6</ele>
                <name>Position 176</name>
            </trkpt>
            <trkpt lat="46.9248594" lon="10.1024118">
                <ele>2273.2</ele>
                <name>Position 177</name>
            </trkpt>
            <trkpt lat="46.9245871" lon="10.1022614">
                <ele>2272.7</ele>
                <name>Position 178</name>
            </trkpt>
            <trkpt lat="46.9242851" lon="10.1019385">
                <ele>2274.6</ele>
                <name>Position 179</name>
            </trkpt>
            <trkpt lat="46.9238919" lon="10.1018281">
                <ele>2278.5</ele>
                <name>Position 180</name>
            </trkpt>
            <trkpt lat="46.923918" lon="10.1013919">
                <ele>2276.5</ele>
                <name>Position 181</name>
            </trkpt>
            <trkpt lat="46.9238299" lon="10.101051">
                <ele>2278.0</ele>
                <name>Position 182</name>
            </trkpt>
            <trkpt lat="46.9237011" lon="10.1006957">
                <ele>2275.1</ele>
                <name>Position 183</name>
            </trkpt>
            <trkpt lat="46.9234465" lon="10.1003753">
                <ele>2272.2</ele>
                <name>Position 184</name>
            </trkpt>
            <trkpt lat="46.9230792" lon="10.0997662">
                <ele>2263.6</ele>
                <name>Position 185</name>
            </trkpt>
            <trkpt lat="46.9228944" lon="10.0995737">
                <ele>2257.8</ele>
                <name>Position 186</name>
            </trkpt>
            <trkpt lat="46.9226245" lon="10.0991643">
                <ele>2253.5</ele>
                <name>Position 187</name>
            </trkpt>
            <trkpt lat="46.922447" lon="10.0986214">
                <ele>2245.3</ele>
                <name>Position 188</name>
            </trkpt>
            <trkpt lat="46.9222353" lon="10.0981439">
                <ele>2237.6</ele>
                <name>Position 189</name>
            </trkpt>
            <trkpt lat="46.922022" lon="10.0979797">
                <ele>2226.6</ele>
                <name>Position 190</name>
            </trkpt>
            <trkpt lat="46.9221888" lon="10.0974093">
                <ele>2212.6</ele>
                <name>Position 191</name>
            </trkpt>
            <trkpt lat="46.9219565" lon="10.0973281">
                <ele>2202.0</ele>
                <name>Position 192</name>
            </trkpt>
            <trkpt lat="46.922" lon="10.0968541">
                <ele>2187.1</ele>
                <name>Position 193</name>
            </trkpt>
            <trkpt lat="46.9219922" lon="10.0963234">
                <ele>2172.7</ele>
                <name>Position 194</name>
            </trkpt>
            <trkpt lat="46.9217194" lon="10.0963424">
                <ele>2157.8</ele>
                <name>Position 195</name>
            </trkpt>
            <trkpt lat="46.9214297" lon="10.0964137">
                <ele>2141.0</ele>
                <name>Position 196</name>
            </trkpt>
            <trkpt lat="46.9208793" lon="10.0967675">
                <ele>2115.0</ele>
                <name>Position 197</name>
            </trkpt>
            <trkpt lat="46.9208264" lon="10.0964379">
                <ele>2106.4</ele>
                <name>Position 198</name>
            </trkpt>
            <trkpt lat="46.9204543" lon="10.0969539">
                <ele>2095.3</ele>
                <name>Position 199</name>
            </trkpt>
            <trkpt lat="46.9201258" lon="10.0968872">
                <ele>2092.0</ele>
                <name>Position 200</name>
            </trkpt>
            <trkpt lat="46.919782" lon="10.0963615">
                <ele>2094.9</ele>
                <name>Position 201</name>
            </trkpt>
            <trkpt lat="46.9193636" lon="10.0957668">
                <ele>2090.5</ele>
                <name>Position 202</name>
            </trkpt>
            <trkpt lat="46.9191201" lon="10.0958081">
                <ele>2085.7</ele>
                <name>Position 203</name>
            </trkpt>
            <trkpt lat="46.9189512" lon="10.0960755">
                <ele>2079.0</ele>
                <name>Position 204</name>
            </trkpt>
            <trkpt lat="46.9186759" lon="10.095878">
                <ele>2069.4</ele>
                <name>Position 205</name>
            </trkpt>
            <trkpt lat="46.9182487" lon="10.0958419">
                <ele>2060.2</ele>
                <name>Position 206</name>
            </trkpt>
            <trkpt lat="46.9181247" lon="10.0955003">
                <ele>2058.3</ele>
                <name>Position 207</name>
            </trkpt>
            <trkpt lat="46.9179386" lon="10.095529">
                <ele>2057.4</ele>
                <name>Position 208</name>
            </trkpt>
        </trkseg>
    </trk>
</gpx>
