<?xml version="1.0" encoding="UTF-8" standalone="yes"?>
<gpx xmlns="http://www.topografix.com/GPX/1/1" version="1.1" creator="alpenkarte.eu">
    <metadata>
        <name>CIRETTISSIMA neu</name>
        <link href="alpenkarte.eu">
            <text>Route von alpenkarte.eu</text>
        </link>
        <bounds minlat="47.574578999999999950887286104261875152587890625" minlon="14.1562099999999997379518390516750514507293701171875" maxlat="47.5869050000000015643308870494365692138671875" maxlon="14.1721260000000004453113433555699884891510009765625"/>
    </metadata>
    <trk>
        <name>CIRETTISSIMA neu</name>
        <trkseg>
            <trkpt lat="47.5746070000000003119566827081143856048583984375" lon="14.1717490000000001515445546829141676425933837890625">
                <ele>1138.541394079993551713414490222930908203125</ele>
            </trkpt>
            <trkpt lat="47.574578999999999950887286104261875152587890625" lon="14.17130399999999923466020845808088779449462890625">
                <ele>1141.329873920005638865404762327671051025390625</ele>
            </trkpt>
            <trkpt lat="47.574961000000001831722329370677471160888671875" lon="14.1704570000000007468088369932956993579864501953125">
                <ele>1138.464530239963323765550740063190460205078125</ele>
            </trkpt>
            <trkpt lat="47.57501800000000002910383045673370361328125" lon="14.1701770000000006888285497552715241909027099609375">
                <ele>1139.555175679995727477944456040859222412109375</ele>
            </trkpt>
            <trkpt lat="47.57493699999999847705112188123166561126708984375" lon="14.1693949999999997402255758061073720455169677734375">
                <ele>1143.01040000002694796421565115451812744140625</ele>
            </trkpt>
            <trkpt lat="47.5749739999999974315869621932506561279296875" lon="14.1690220000000000055706550483591854572296142578125">
                <ele>1142.93138368004338190075941383838653564453125</ele>
            </trkpt>
            <trkpt lat="47.57507600000000280715539702214300632476806640625" lon="14.1688449999999992456878317170776426792144775390625">
                <ele>1142.93520640001588617451488971710205078125</ele>
            </trkpt>
            <trkpt lat="47.57522800000000273712430498562753200531005859375" lon="14.16869200000000006411937647499144077301025390625">
                <ele>1143.9060851200165416230447590351104736328125</ele>
            </trkpt>
            <trkpt lat="47.57522800000000273712430498562753200531005859375" lon="14.16869200000000006411937647499144077301025390625">
                <ele>1143.9060851200165416230447590351104736328125</ele>
            </trkpt>
            <trkpt lat="47.57525799999999804867911734618246555328369140625" lon="14.1686610000000001718944986350834369659423828125">
                <ele>1144.11413055998718846240080893039703369140625</ele>
            </trkpt>
            <trkpt lat="47.57529799999999653437043889425694942474365234375" lon="14.16872599999999948749973555095493793487548828125">
                <ele>1144.30859775997896576882340013980865478515625</ele>
            </trkpt>
            <trkpt lat="47.57535399999999725650923210196197032928466796875" lon="14.1687519999999995690131981973536312580108642578125">
                <ele>1144.621960959983653083327226340770721435546875</ele>
            </trkpt>
            <trkpt lat="47.57542699999999769033820484764873981475830078125" lon="14.168710000000000803765942691825330257415771484375">
                <ele>1145.111190399984479881823062896728515625</ele>
            </trkpt>
            <trkpt lat="47.57548299999999841247699805535376071929931640625" lon="14.1686160000000000991349224932491779327392578125">
                <ele>1145.584399359989447475527413189411163330078125</ele>
            </trkpt>
            <trkpt lat="47.57566899999999776582626509480178356170654296875" lon="14.1684619999999998896100805723108351230621337890625">
                <ele>1147.068895359984480819548480212688446044921875</ele>
            </trkpt>
            <trkpt lat="47.57603199999999787905835546553134918212890625" lon="14.168310999999999211240719887427985668182373046875">
                <ele>1151.155589119972091793897561728954315185546875</ele>
            </trkpt>
            <trkpt lat="47.57627800000000206637196242809295654296875" lon="14.1684940000000008097913450910709798336029052734375">
                <ele>1153.881121920023133498034439980983734130859375</ele>
            </trkpt>
            <trkpt lat="47.57638299999999986766852089203894138336181640625" lon="14.168409000000000474983608000911772251129150390625">
                <ele>1155.514108319995784768252633512020111083984375</ele>
            </trkpt>
            <trkpt lat="47.57660800000000023146640160121023654937744140625" lon="14.1683000000000003382183422218076884746551513671875">
                <ele>1158.802784000001338426955044269561767578125</ele>
            </trkpt>
            <trkpt lat="47.5766849999999976716935634613037109375" lon="14.16834899999999919373294687829911708831787109375">
                <ele>1159.9715999999361883965320885181427001953125</ele>
            </trkpt>
            <trkpt lat="47.5769030000000014979377738200128078460693359375" lon="14.1683450000000004109779183636419475078582763671875">
                <ele>1166.264400000041860039345920085906982421875</ele>
            </trkpt>
            <trkpt lat="47.57712500000000233058017329312860965728759765625" lon="14.1684800000000006292566467891447246074676513671875">
                <ele>1172.1720000000650543370284140110015869140625</ele>
            </trkpt>
            <trkpt lat="47.5772690000000011423253454267978668212890625" lon="14.1683280000000006992877388256601989269256591796875">
                <ele>1176.86462592003090321668423712253570556640625</ele>
            </trkpt>
            <trkpt lat="47.577460000000002082742867060005664825439453125" lon="14.168276999999999787860360811464488506317138671875">
                <ele>1182.54755520006119695608504116535186767578125</ele>
            </trkpt>
            <trkpt lat="47.577866000000000212821760214865207672119140625" lon="14.1683959999999995460484569775871932506561279296875">
                <ele>1193.8152000000072803231887519359588623046875</ele>
            </trkpt>
            <trkpt lat="47.57803499999999985448084771633148193359375" lon="14.1684129999999992577386365155689418315887451171875">
                <ele>1198.621199999997998020262457430362701416015625</ele>
            </trkpt>
            <trkpt lat="47.578170000000000072759576141834259033203125" lon="14.16855699999999984584064804948866367340087890625">
                <ele>1201.9908000000023093889467418193817138671875</ele>
            </trkpt>
            <trkpt lat="47.57837500000000119371179607696831226348876953125" lon="14.168445999999999429519448312930762767791748046875">
                <ele>1208.35116000003699809894897043704986572265625</ele>
            </trkpt>
            <trkpt lat="47.57854300000000336012817570008337497711181640625" lon="14.1684549999999997993427314213477075099945068359375">
                <ele>1213.388733600100977128022350370883941650390625</ele>
            </trkpt>
            <trkpt lat="47.5787600000000026057023205794394016265869140625" lon="14.1683310000000002304432200617156922817230224609375">
                <ele>1220.307033600076692891889251768589019775390625</ele>
            </trkpt>
            <trkpt lat="47.57901700000000033696778700686991214752197265625" lon="14.1684029999999996363158061285503208637237548828125">
                <ele>1227.827785440010075035388581454753875732421875</ele>
            </trkpt>
            <trkpt lat="47.579127999999997200575307942926883697509765625" lon="14.168457000000000078898665378801524639129638671875">
                <ele>1231.036314239914418067201040685176849365234375</ele>
            </trkpt>
            <trkpt lat="47.5792009999999976344042806886136531829833984375" lon="14.168454000000000547743184142746031284332275390625">
                <ele>1233.48759999990897995303384959697723388671875</ele>
            </trkpt>
            <trkpt lat="47.5792000000000001591615728102624416351318359375" lon="14.1683229999999991122194842319004237651824951171875">
                <ele>1233.776704000007384820492006838321685791015625</ele>
            </trkpt>
            <trkpt lat="47.5793409999999994397512637078762054443359375" lon="14.1683369999999992927541825338266789913177490234375">
                <ele>1238.97639999997909399098716676235198974609375</ele>
            </trkpt>
            <trkpt lat="47.5793409999999994397512637078762054443359375" lon="14.1683369999999992927541825338266789913177490234375">
                <ele>1238.97639999997909399098716676235198974609375</ele>
            </trkpt>
            <trkpt lat="47.57947300000000012687451089732348918914794921875" lon="14.168350000000000221689333557151257991790771484375">
                <ele>1243.855600000002368688001297414302825927734375</ele>
            </trkpt>
            <trkpt lat="47.5796399999999977126208250410854816436767578125" lon="14.1682849999999991297272572410292923450469970703125">
                <ele>1250.249055999915754000539891421794891357421875</ele>
            </trkpt>
            <trkpt lat="47.57996700000000345198714057914912700653076171875" lon="14.1683420000000008798224371275864541530609130859375">
                <ele>1262.251600000124426514958031475543975830078125</ele>
            </trkpt>
            <trkpt lat="47.58022600000000323916538036428391933441162109375" lon="14.168310999999999211240719887427985668182373046875">
                <ele>1271.696868160116309809382073581218719482421875</ele>
            </trkpt>
            <trkpt lat="47.58039000000000129375621327199041843414306640625" lon="14.16855699999999984584064804948866367340087890625">
                <ele>1276.500755200043158765765838325023651123046875</ele>
            </trkpt>
            <trkpt lat="47.5805739999999985911927069537341594696044921875" lon="14.1686700000000005417177817435003817081451416015625">
                <ele>1282.242899199946577937225811183452606201171875</ele>
            </trkpt>
            <trkpt lat="47.58086399999999827059582457877695560455322265625" lon="14.168682000000000442696546087972819805145263671875">
                <ele>1291.45522303996904156520031392574310302734375</ele>
            </trkpt>
            <trkpt lat="47.581041999999996505721355788409709930419921875" lon="14.1687510000000003174136509187519550323486328125">
                <ele>1293.495196159945407998748123645782470703125</ele>
            </trkpt>
            <trkpt lat="47.5812489999999996825863490812480449676513671875" lon="14.1684140000000002856950231944210827350616455078125">
                <ele>1300.5137292799890929018147289752960205078125</ele>
            </trkpt>
            <trkpt lat="47.58147999999999910869519226253032684326171875" lon="14.168328999999999950887286104261875152587890625">
                <ele>1305.955811199981553727411665022373199462890625</ele>
            </trkpt>
            <trkpt lat="47.5818610000000035142875276505947113037109375" lon="14.1683009999999995898178895004093647003173828125">
                <ele>1313.33815184006743947975337505340576171875</ele>
            </trkpt>
            <trkpt lat="47.58208900000000340924088959582149982452392578125" lon="14.1680930000000007140670277294702827930450439453125">
                <ele>1319.551438880053183311247266829013824462890625</ele>
            </trkpt>
            <trkpt lat="47.58224200000000081445250543765723705291748046875" lon="14.1680440000000000821955836727283895015716552734375">
                <ele>1322.741093120013601946993730962276458740234375</ele>
            </trkpt>
            <trkpt lat="47.5823079999999976053004502318799495697021484375" lon="14.1678650000000008191136657842434942722320556640625">
                <ele>1325.6694847999506237101741135120391845703125</ele>
            </trkpt>
            <trkpt lat="47.58250699999999966394170769490301609039306640625" lon="14.1677219999999994826112015289254486560821533203125">
                <ele>1330.500411199998552547185681760311126708984375</ele>
            </trkpt>
            <trkpt lat="47.582763999999997395207174122333526611328125" lon="14.1674729999999993168557921308092772960662841796875">
                <ele>1338.175592959953746685641817748546600341796875</ele>
            </trkpt>
            <trkpt lat="47.582763999999997395207174122333526611328125" lon="14.1674729999999993168557921308092772960662841796875">
                <ele>1338.175592959953746685641817748546600341796875</ele>
            </trkpt>
            <trkpt lat="47.58282899999999671081241103820502758026123046875" lon="14.16740899999999925285010249353945255279541015625">
                <ele>1340.214536479939624769031070172786712646484375</ele>
            </trkpt>
            <trkpt lat="47.5827629999999999199644662439823150634765625" lon="14.1671589999999998354951458168216049671173095703125">
                <ele>1341.526230559999703473295085132122039794921875</ele>
            </trkpt>
            <trkpt lat="47.582706000000001722582965157926082611083984375" lon="14.1668590000000005346691978047601878643035888671875">
                <ele>1343.426438720033956997212953865528106689453125</ele>
            </trkpt>
            <trkpt lat="47.58265200000000305635694530792534351348876953125" lon="14.16623799999999988585841492749750614166259765625">
                <ele>1348.87142656007608820800669491291046142578125</ele>
            </trkpt>
            <trkpt lat="47.58248499999999836518327356316149234771728515625" lon="14.165537000000000489308149553835391998291015625">
                <ele>1352.3507967999566972139291465282440185546875</ele>
            </trkpt>
            <trkpt lat="47.58248499999999836518327356316149234771728515625" lon="14.165537000000000489308149553835391998291015625">
                <ele>1352.3507967999566972139291465282440185546875</ele>
            </trkpt>
            <trkpt lat="47.58253400000000254976839642040431499481201171875" lon="14.16572599999999937381289782933890819549560546875">
                <ele>1351.537020160072415819740854203701019287109375</ele>
            </trkpt>
            <trkpt lat="47.5825880000000012159944162704050540924072265625" lon="14.1655969999999999942019712761975824832916259765625">
                <ele>1354.389792640032055714982561767101287841796875</ele>
            </trkpt>
            <trkpt lat="47.5826670000000007121343514882028102874755859375" lon="14.1655239999999995603729985305108129978179931640625">
                <ele>1357.346753920023957107332535088062286376953125</ele>
            </trkpt>
            <trkpt lat="47.58268600000000247973730438388884067535400390625" lon="14.165454000000000434056346421130001544952392578125">
                <ele>1358.6904025600624663638882339000701904296875</ele>
            </trkpt>
            <trkpt lat="47.58270999999999872898115427233278751373291015625" lon="14.1654269999999993245864970958791673183441162109375">
                <ele>1359.671900799972718232311308383941650390625</ele>
            </trkpt>
            <trkpt lat="47.58275900000000291356627712957561016082763671875" lon="14.165442999999999784677129355259239673614501953125">
                <ele>1360.824714880082183299236930906772613525390625</ele>
            </trkpt>
            <trkpt lat="47.58277799999999757574187242425978183746337890625" lon="14.165345999999999548890627920627593994140625">
                <ele>1362.5491571199372629052959382534027099609375</ele>
            </trkpt>
            <trkpt lat="47.58292399999999844339981791563332080841064453125" lon="14.1652050000000002683009370230138301849365234375">
                <ele>1368.50534079995122738182544708251953125</ele>
            </trkpt>
            <trkpt lat="47.58299199999999729016053606756031513214111328125" lon="14.1652229999999992315906638395972549915313720703125">
                <ele>1370.219635839932152521214447915554046630859375</ele>
            </trkpt>
            <trkpt lat="47.58305200000000212412487599067389965057373046875" lon="14.1652070000000005478568709804676473140716552734375">
                <ele>1372.16623936005316863884218037128448486328125</ele>
            </trkpt>
            <trkpt lat="47.58328399999999902547642705030739307403564453125" lon="14.164899999999999380406734417192637920379638671875">
                <ele>1384.800543999985848131473176181316375732421875</ele>
            </trkpt>
            <trkpt lat="47.583337000000000216459739021956920623779296875" lon="14.164730999999999738747646915726363658905029296875">
                <ele>1391.433172160017193164094351232051849365234375</ele>
            </trkpt>
            <trkpt lat="47.58337199999999711508280597627162933349609375" lon="14.16452100000000058344085118733346462249755859375">
                <ele>1399.70068735980066776392050087451934814453125</ele>
            </trkpt>
            <trkpt lat="47.583382999999997764462023042142391204833984375" lon="14.1641670000000008400320439250208437442779541015625">
                <ele>1411.542294079788689487031660974025726318359375</ele>
            </trkpt>
            <trkpt lat="47.58341300000000018144419300369918346405029296875" lon="14.16402599999999978308551362715661525726318359375">
                <ele>1420.240255680022301021381281316280364990234375</ele>
            </trkpt>
            <trkpt lat="47.58337399999999917099557933397591114044189453125" lon="14.163895000000000123918653116561472415924072265625">
                <ele>1422.395572799913452399778179824352264404296875</ele>
            </trkpt>
            <trkpt lat="47.58337399999999917099557933397591114044189453125" lon="14.1635919999999995155803844681940972805023193359375">
                <ele>1435.30802687992763821966946125030517578125</ele>
            </trkpt>
            <trkpt lat="47.583336000000002741217031143605709075927734375" lon="14.16349100000000049703885451890528202056884765625">
                <ele>1435.365231360281768502318300306797027587890625</ele>
            </trkpt>
            <trkpt lat="47.5833420000000018035279936157166957855224609375" lon="14.1633230000000001069793142960406839847564697265625">
                <ele>1442.891392320206932708970271050930023193359375</ele>
            </trkpt>
            <trkpt lat="47.58337199999999711508280597627162933349609375" lon="14.16320999999999941110218060202896595001220703125">
                <ele>1450.5023423996653946232981979846954345703125</ele>
            </trkpt>
            <trkpt lat="47.58346800000000342834027833305299282073974609375" lon="14.163149000000000654608811601065099239349365234375">
                <ele>1464.52088064039344317279756069183349609375</ele>
            </trkpt>
            <trkpt lat="47.5834789999999969722921377979218959808349609375" lon="14.162819999999999964757080306299030780792236328125">
                <ele>1478.499705599598883054568432271480560302734375</ele>
            </trkpt>
            <trkpt lat="47.58350300000000032696334528736770153045654296875" lon="14.1627290000000005676383807440288364887237548828125">
                <ele>1485.19726224001669834251515567302703857421875</ele>
            </trkpt>
            <trkpt lat="47.583382999999997764462023042142391204833984375" lon="14.1623070000000002011120159295387566089630126953125">
                <ele>1484.323247039668103752774186432361602783203125</ele>
            </trkpt>
            <trkpt lat="47.58337800000000328282112604938447475433349609375" lon="14.1620690000000006847358235972933471202850341796875">
                <ele>1492.10450688045602873899042606353759765625</ele>
            </trkpt>
            <trkpt lat="47.583393999999998413841240108013153076171875" lon="14.1618610000000000326281224261038005352020263671875">
                <ele>1501.96352255975261869025416672229766845703125</ele>
            </trkpt>
            <trkpt lat="47.583359999999998990460881032049655914306640625" lon="14.1614020000000007115659172995947301387786865234375">
                <ele>1512.9720319998086779378354549407958984375</ele>
            </trkpt>
            <trkpt lat="47.58339699999999794499672134406864643096923828125" lon="14.1611379999999993373194229207001626491546630859375">
                <ele>1528.314281599682317391852848231792449951171875</ele>
            </trkpt>
            <trkpt lat="47.5834449999999975489117787219583988189697265625" lon="14.160987999999999686906448914669454097747802734375">
                <ele>1541.628895999599762944853864610195159912109375</ele>
            </trkpt>
            <trkpt lat="47.58340700000000111913323053158819675445556640625" lon="14.1608029999999995851567291538231074810028076171875">
                <ele>1541.971217760197077950579114258289337158203125</ele>
            </trkpt>
            <trkpt lat="47.58335199999999787223714520223438739776611328125" lon="14.1606690000000003948343874071724712848663330078125">
                <ele>1537.55641727962165532517246901988983154296875</ele>
            </trkpt>
            <trkpt lat="47.58324999999999960209606797434389591217041015625" lon="14.160270000000000578666004003025591373443603515625">
                <ele>1537.298399999923049108474515378475189208984375</ele>
            </trkpt>
            <trkpt lat="47.5829499999999967485564411617815494537353515625" lon="14.1596100000000006957634468562901020050048828125">
                <ele>1515.336959999475084259756840765476226806640625</ele>
            </trkpt>
            <trkpt lat="47.58281000000000204863681574352085590362548828125" lon="14.1592099999999998516386767732910811901092529296875">
                <ele>1504.65580800033831110340543091297149658203125</ele>
            </trkpt>
            <trkpt lat="47.58274999999999721467247582040727138519287109375" lon="14.1587399999999998811972545809112489223480224609375">
                <ele>1506.19119999950999044813215732574462890625</ele>
            </trkpt>
            <trkpt lat="47.58270999999999872898115427233278751373291015625" lon="14.1583600000000000562749846721999347209930419921875">
                <ele>1507.942911999760326580144464969635009765625</ele>
            </trkpt>
            <trkpt lat="47.58274999999999721467247582040727138519287109375" lon="14.1580999999999992411403582082130014896392822265625">
                <ele>1522.775999999487567038158886134624481201171875</ele>
            </trkpt>
            <trkpt lat="47.58270999999999872898115427233278751373291015625" lon="14.15784000000000020236257114447653293609619140625">
                <ele>1522.48857599974189724889583885669708251953125</ele>
            </trkpt>
            <trkpt lat="47.58281000000000204863681574352085590362548828125" lon="14.1579800000000002313527147634886205196380615234375">
                <ele>1537.848192000385324718081392347812652587890625</ele>
            </trkpt>
            <trkpt lat="47.58292999999999750571078038774430751800537109375" lon="14.1581899999999993866595104918815195560455322265625">
                <ele>1554.16252799954554575379006564617156982421875</ele>
            </trkpt>
            <trkpt lat="47.58319999999999794226823723874986171722412109375" lon="14.1584699999999994446397977299056947231292724609375">
                <ele>1594.89807999964114060276187956333160400390625</ele>
            </trkpt>
            <trkpt lat="47.58332999999999657347871107049286365509033203125" lon="14.158409999999999939745976007543504238128662109375">
                <ele>1620.942255999368853736086748540401458740234375</ele>
            </trkpt>
            <trkpt lat="47.58350999999999686451701563782989978790283203125" lon="14.1582799999999995321786627755500376224517822265625">
                <ele>1653.410047999537482610321603715419769287109375</ele>
            </trkpt>
            <trkpt lat="47.58366000000000184400050784461200237274169921875" lon="14.1578999999999997072563928668387234210968017578125">
                <ele>1689.11024000026964131393469870090484619140625</ele>
            </trkpt>
            <trkpt lat="47.58373000000000274667399935424327850341796875" lon="14.157650000000000289901436190120875835418701171875">
                <ele>1707.367520000366084786946885287761688232421875</ele>
            </trkpt>
            <trkpt lat="47.58393000000000228055796469561755657196044921875" lon="14.157360000000000610498318565078079700469970703125">
                <ele>1743.966848000282652719761244952678680419921875</ele>
            </trkpt>
            <trkpt lat="47.5840699999999969804775901138782501220703125" lon="14.1571200000000008145661922753788530826568603515625">
                <ele>1770.45958399956680295872502028942108154296875</ele>
            </trkpt>
            <trkpt lat="47.5840299999999984947862685658037662506103515625" lon="14.1565600000000006986056177993305027484893798828125">
                <ele>1778.146879999811289962963201105594635009765625</ele>
            </trkpt>
            <trkpt lat="47.58413999999999788315108162350952625274658203125" lon="14.156349999999999766941982670687139034271240234375">
                <ele>1788.874399999728893817518837749958038330078125</ele>
            </trkpt>
            <trkpt lat="47.58426999999999651436155545525252819061279296875" lon="14.1562099999999997379518390516750514507293701171875">
                <ele>1773.93219200053999884403310716152191162109375</ele>
            </trkpt>
            <trkpt lat="47.58440999999999831970853847451508045196533203125" lon="14.1562999999999998834709913353435695171356201171875">
                <ele>1754.03408000026365698431618511676788330078125</ele>
            </trkpt>
            <trkpt lat="47.58441499999999990677679306827485561370849609375" lon="14.15629799999999960391505737788975238800048828125">
                <ele>1753.23105920001535196206532418727874755859375</ele>
            </trkpt>
            <trkpt lat="47.58444200000000279260348179377615451812744140625" lon="14.156468000000000273530531558208167552947998046875">
                <ele>1752.216930559587808602373115718364715576171875</ele>
            </trkpt>
            <trkpt lat="47.5845020000000005211404641158878803253173828125" lon="14.15658799999999928331817500293254852294921875">
                <ele>1745.324053759915614136843942105770111083984375</ele>
            </trkpt>
            <trkpt lat="47.5845240000000018198988982476294040679931640625" lon="14.15681599999999917827153694815933704376220703125">
                <ele>1740.733023999757961064460687339305877685546875</ele>
            </trkpt>
            <trkpt lat="47.5846030000000013160388334654271602630615234375" lon="14.157211000000000211684891837649047374725341796875">
                <ele>1723.09358799983101562247611582279205322265625</ele>
            </trkpt>
            <trkpt lat="47.5845690000000018926584743894636631011962890625" lon="14.1573130000000002581828084657900035381317138671875">
                <ele>1725.86309199976085437810979783535003662109375</ele>
            </trkpt>
            <trkpt lat="47.58450400000000257705323747359216213226318359375" lon="14.1573890000000002231672624475322663784027099609375">
                <ele>1732.730415999680417371564544737339019775390625</ele>
            </trkpt>
            <trkpt lat="47.58452799999999882629708736203610897064208984375" lon="14.1574919999999995212647263542748987674713134765625">
                <ele>1727.851936000158502793055959045886993408203125</ele>
            </trkpt>
            <trkpt lat="47.58455000000000012505552149377763271331787109375" lon="14.1577649999999994889776644413359463214874267578125">
                <ele>1723.36095999999588457285426557064056396484375</ele>
            </trkpt>
            <trkpt lat="47.58455000000000012505552149377763271331787109375" lon="14.1577649999999994889776644413359463214874267578125">
                <ele>1723.36095999999588457285426557064056396484375</ele>
            </trkpt>
            <trkpt lat="47.5847499999999996589394868351519107818603515625" lon="14.158581999999999112560544745065271854400634765625">
                <ele>1701.469280000035723787732422351837158203125</ele>
            </trkpt>
            <trkpt lat="47.58473500000000200316208065487444400787353515625" lon="14.1587770000000006120899342931807041168212890625">
                <ele>1701.10491679986671442748047411441802978515625</ele>
            </trkpt>
            <trkpt lat="47.58478099999999955116436467505991458892822265625" lon="14.15892900000000054205884225666522979736328125">
                <ele>1697.1787145600274016032926738262176513671875</ele>
            </trkpt>
            <trkpt lat="47.58473000000000041609382606111466884613037109375" lon="14.159102000000000742829797673039138317108154296875">
                <ele>1698.930502399975011940114200115203857421875</ele>
            </trkpt>
            <trkpt lat="47.58479899999999673809725209139287471771240234375" lon="14.159413000000000693034962750971317291259765625">
                <ele>1691.753729440135430195368826389312744140625</ele>
            </trkpt>
            <trkpt lat="47.58468400000000286809154204092919826507568359375" lon="14.1596840000000003811919668805785477161407470703125">
                <ele>1692.287230719897024755482561886310577392578125</ele>
            </trkpt>
            <trkpt lat="47.58468400000000286809154204092919826507568359375" lon="14.1598009999999998598241290892474353313446044921875">
                <ele>1690.360718079916523493011482059955596923828125</ele>
            </trkpt>
            <trkpt lat="47.58479299999999767578628961928188800811767578125" lon="14.15989700000000084401108324527740478515625">
                <ele>1685.79215152005463096429593861103057861328125</ele>
            </trkpt>
            <trkpt lat="47.58498999999999767851477372460067272186279296875" lon="14.1606919999999991688355294172652065753936767578125">
                <ele>1679.431091199983939077355898916721343994140625</ele>
            </trkpt>
            <trkpt lat="47.58498300000000114096110337413847446441650390625" lon="14.1608129999999992065795595408417284488677978515625">
                <ele>1679.29103056001395088969729840755462646484375</ele>
            </trkpt>
            <trkpt lat="47.5849970000000013214958016760647296905517578125" lon="14.1609649999999991365484675043262541294097900390625">
                <ele>1678.808492000029445989639498293399810791015625</ele>
            </trkpt>
            <trkpt lat="47.5850659999999976434992277063429355621337890625" lon="14.1611349999999998061639416846446692943572998046875">
                <ele>1665.536974400461986078880727291107177734375</ele>
            </trkpt>
            <trkpt lat="47.5850659999999976434992277063429355621337890625" lon="14.1611349999999998061639416846446692943572998046875">
                <ele>1665.536974400461986078880727291107177734375</ele>
            </trkpt>
            <trkpt lat="47.5851329999999990150172379799187183380126953125" lon="14.16140599999999949432094581425189971923828125">
                <ele>1652.102448320197936482145451009273529052734375</ele>
            </trkpt>
            <trkpt lat="47.5852229999999991605363902635872364044189453125" lon="14.1616769999999991824779499438591301441192626953125">
                <ele>1634.852956000184576623723842203617095947265625</ele>
            </trkpt>
            <trkpt lat="47.5851339999999964902599458582699298858642578125" lon="14.1622350000000007952394298627041280269622802734375">
                <ele>1636.228840000555692313355393707752227783203125</ele>
            </trkpt>
            <trkpt lat="47.58511899999999883448253967799246311187744140625" lon="14.1624210000000001485886969021521508693695068359375">
                <ele>1633.63356400018756175995804369449615478515625</ele>
            </trkpt>
            <trkpt lat="47.5851559999999977890183799900114536285400390625" lon="14.1625309999999995369535099598579108715057373046875">
                <ele>1624.46622592036374044255353510379791259765625</ele>
            </trkpt>
            <trkpt lat="47.5851789999999965630195220001041889190673828125" lon="14.162845000000000794670995674096047878265380859375">
                <ele>1606.7704336004289871198125183582305908203125</ele>
            </trkpt>
            <trkpt lat="47.58510299999999659803506801836192607879638671875" lon="14.162974999999999425881469505839049816131591796875">
                <ele>1610.383576000464017852209508419036865234375</ele>
            </trkpt>
            <trkpt lat="47.58505600000000157479007611982524394989013671875" lon="14.1631560000000007448761607520282268524169921875">
                <ele>1606.8317939197886516922153532505035400390625</ele>
            </trkpt>
            <trkpt lat="47.585228000000000747604644857347011566162109375" lon="14.163489999999999469082467840053141117095947265625">
                <ele>1567.790361599973721240530721843242645263671875</ele>
            </trkpt>
            <trkpt lat="47.58516800000000301906766253523528575897216796875" lon="14.1637859999999999871533873374573886394500732421875">
                <ele>1550.700637439760839697555638849735260009765625</ele>
            </trkpt>
            <trkpt lat="47.58521600000000262298271991312503814697265625" lon="14.1641829999999995237658367841504514217376708984375">
                <ele>1517.204932479878834783448837697505950927734375</ele>
            </trkpt>
            <trkpt lat="47.58539400000000085810825112275779247283935546875" lon="14.164253999999999678038875572383403778076171875">
                <ele>1502.5076281599749563611112534999847412109375</ele>
            </trkpt>
            <trkpt lat="47.58566499999999876990841585211455821990966796875" lon="14.1642630000000000478621586808003485202789306640625">
                <ele>1486.885703200071702667628414928913116455078125</ele>
            </trkpt>
            <trkpt lat="47.5859779999999972233126754872500896453857421875" lon="14.164080999999999477267920156009495258331298828125">
                <ele>1476.35578720016565057449042797088623046875</ele>
            </trkpt>
            <trkpt lat="47.58682999999999907458914094604551792144775390625" lon="14.163954000000000377212927560321986675262451171875">
                <ele>1432.156115200041085699922405183315277099609375</ele>
            </trkpt>
            <trkpt lat="47.5869050000000015643308870494365692138671875" lon="14.1641040000000000276259015663526952266693115234375">
                <ele>1428.47504319992776800063438713550567626953125</ele>
            </trkpt>
            <trkpt lat="47.58686900000000008503775461576879024505615234375" lon="14.1644109999999994187191987293772399425506591796875">
                <ele>1422.73821232001455427962355315685272216796875</ele>
            </trkpt>
            <trkpt lat="47.5869050000000015643308870494365692138671875" lon="14.1645710000000004669118425226770341396331787109375">
                <ele>1416.634242399929235034505836665630340576171875</ele>
            </trkpt>
            <trkpt lat="47.58682900000000159934643306769430637359619140625" lon="14.164787000000000460886440123431384563446044921875">
                <ele>1412.7803550399357845890335738658905029296875</ele>
            </trkpt>
            <trkpt lat="47.58664300000000224599716602824628353118896484375" lon="14.1649639999999994444124240544624626636505126953125">
                <ele>1412.998719359900633207871578633785247802734375</ele>
            </trkpt>
            <trkpt lat="47.58642400000000094451024779118597507476806640625" lon="14.1652620000000002420392775093205273151397705078125">
                <ele>1416.960913919947643080377019941806793212890625</ele>
            </trkpt>
            <trkpt lat="47.58617799999999675719664082862436771392822265625" lon="14.1660640000000004334879122325219213962554931640625">
                <ele>1407.504974080095280442037619650363922119140625</ele>
            </trkpt>
            <trkpt lat="47.585914000000002488377504050731658935546875" lon="14.166354999999999364490577136166393756866455078125">
                <ele>1407.0501327999600107432343065738677978515625</ele>
            </trkpt>
            <trkpt lat="47.585745000000002846718416549265384674072265625" lon="14.1665820000000000078443918027915060520172119140625">
                <ele>1401.12203040000667897402308881282806396484375</ele>
            </trkpt>
            <trkpt lat="47.58552300000000201407601707614958286285400390625" lon="14.1665930000000006572236088686622679233551025390625">
                <ele>1400.197479839983088822918944060802459716796875</ele>
            </trkpt>
            <trkpt lat="47.585137000000003126842784695327281951904296875" lon="14.1665650000000002961542122648097574710845947265625">
                <ele>1400.142856799998071437585167586803436279296875</ele>
            </trkpt>
            <trkpt lat="47.58493299999999948113327263854444026947021484375" lon="14.166506999999999294459485099650919437408447265625">
                <ele>1399.880344320006543057388626039028167724609375</ele>
            </trkpt>
            <trkpt lat="47.584125000000000227373675443232059478759765625" lon="14.166650000000000630961949354968965053558349609375">
                <ele>1375.9949999999926149030216038227081298828125</ele>
            </trkpt>
            <trkpt lat="47.5840249999999969077180139720439910888671875" lon="14.1667100000000001358557710773311555385589599609375">
                <ele>1373.207999999938465407467447221279144287109375</ele>
            </trkpt>
            <trkpt lat="47.58377500000000281943357549607753753662109375" lon="14.1668509999999994164454619749449193477630615234375">
                <ele>1366.54680000006146656232886016368865966796875</ele>
            </trkpt>
            <trkpt lat="47.5836699999999979127096594311296939849853515625" lon="14.1668749999999992184029906638897955417633056640625">
                <ele>1364.213999999969701093505136668682098388671875</ele>
            </trkpt>
            <trkpt lat="47.58352099999999751389623270370066165924072265625" lon="14.1670400000000000773070496506989002227783203125">
                <ele>1359.175199999950791607261635363101959228515625</ele>
            </trkpt>
            <trkpt lat="47.58337000000000216459739021956920623779296875" lon="14.167080999999999590954757877625524997711181640625">
                <ele>1355.7348000000465617631562054157257080078125</ele>
            </trkpt>
            <trkpt lat="47.583202999999997473423718474805355072021484375" lon="14.16717799999999982674125931225717067718505859375">
                <ele>1350.910301119947007464361377060413360595703125</ele>
            </trkpt>
            <trkpt lat="47.583202999999997473423718474805355072021484375" lon="14.16717799999999982674125931225717067718505859375">
                <ele>1350.910301119947007464361377060413360595703125</ele>
            </trkpt>
            <trkpt lat="47.583077000000002954038791358470916748046875" lon="14.16728499999999968395059113390743732452392578125">
                <ele>1346.87071760006665499531663954257965087890625</ele>
            </trkpt>
            <trkpt lat="47.58291899999999685633156332187354564666748046875" lon="14.1673390000000001265334503841586410999298095703125">
                <ele>1342.884622879932067007757723331451416015625</ele>
            </trkpt>
            <trkpt lat="47.58250699999999966394170769490301609039306640625" lon="14.1677219999999994826112015289254486560821533203125">
                <ele>1330.500411199998552547185681760311126708984375</ele>
            </trkpt>
            <trkpt lat="47.5823079999999976053004502318799495697021484375" lon="14.1678650000000008191136657842434942722320556640625">
                <ele>1325.6694847999506237101741135120391845703125</ele>
            </trkpt>
            <trkpt lat="47.58224200000000081445250543765723705291748046875" lon="14.1680440000000000821955836727283895015716552734375">
                <ele>1322.741093120013601946993730962276458740234375</ele>
            </trkpt>
            <trkpt lat="47.58208900000000340924088959582149982452392578125" lon="14.1680930000000007140670277294702827930450439453125">
                <ele>1319.551438880053183311247266829013824462890625</ele>
            </trkpt>
            <trkpt lat="47.5818610000000035142875276505947113037109375" lon="14.1683009999999995898178895004093647003173828125">
                <ele>1313.33815184006743947975337505340576171875</ele>
            </trkpt>
            <trkpt lat="47.58147999999999910869519226253032684326171875" lon="14.168328999999999950887286104261875152587890625">
                <ele>1305.955811199981553727411665022373199462890625</ele>
            </trkpt>
            <trkpt lat="47.5812489999999996825863490812480449676513671875" lon="14.1684140000000002856950231944210827350616455078125">
                <ele>1300.5137292799890929018147289752960205078125</ele>
            </trkpt>
            <trkpt lat="47.581041999999996505721355788409709930419921875" lon="14.1687510000000003174136509187519550323486328125">
                <ele>1293.495196159945407998748123645782470703125</ele>
            </trkpt>
            <trkpt lat="47.58086399999999827059582457877695560455322265625" lon="14.168682000000000442696546087972819805145263671875">
                <ele>1291.45522303996904156520031392574310302734375</ele>
            </trkpt>
            <trkpt lat="47.5805739999999985911927069537341594696044921875" lon="14.1686700000000005417177817435003817081451416015625">
                <ele>1282.242899199946577937225811183452606201171875</ele>
            </trkpt>
            <trkpt lat="47.58039000000000129375621327199041843414306640625" lon="14.16855699999999984584064804948866367340087890625">
                <ele>1276.500755200043158765765838325023651123046875</ele>
            </trkpt>
            <trkpt lat="47.58022600000000323916538036428391933441162109375" lon="14.168310999999999211240719887427985668182373046875">
                <ele>1271.696868160116309809382073581218719482421875</ele>
            </trkpt>
            <trkpt lat="47.57996700000000345198714057914912700653076171875" lon="14.1683420000000008798224371275864541530609130859375">
                <ele>1262.251600000124426514958031475543975830078125</ele>
            </trkpt>
            <trkpt lat="47.5796399999999977126208250410854816436767578125" lon="14.1682849999999991297272572410292923450469970703125">
                <ele>1250.249055999915754000539891421794891357421875</ele>
            </trkpt>
            <trkpt lat="47.57947300000000012687451089732348918914794921875" lon="14.168350000000000221689333557151257991790771484375">
                <ele>1243.855600000002368688001297414302825927734375</ele>
            </trkpt>
            <trkpt lat="47.5792000000000001591615728102624416351318359375" lon="14.1683229999999991122194842319004237651824951171875">
                <ele>1233.776704000007384820492006838321685791015625</ele>
            </trkpt>
            <trkpt lat="47.5792009999999976344042806886136531829833984375" lon="14.168454000000000547743184142746031284332275390625">
                <ele>1233.48759999990897995303384959697723388671875</ele>
            </trkpt>
            <trkpt lat="47.579127999999997200575307942926883697509765625" lon="14.168457000000000078898665378801524639129638671875">
                <ele>1231.036314239914418067201040685176849365234375</ele>
            </trkpt>
            <trkpt lat="47.57901700000000033696778700686991214752197265625" lon="14.1684029999999996363158061285503208637237548828125">
                <ele>1227.827785440010075035388581454753875732421875</ele>
            </trkpt>
            <trkpt lat="47.5787600000000026057023205794394016265869140625" lon="14.1683310000000002304432200617156922817230224609375">
                <ele>1220.307033600076692891889251768589019775390625</ele>
            </trkpt>
            <trkpt lat="47.57854300000000336012817570008337497711181640625" lon="14.1684549999999997993427314213477075099945068359375">
                <ele>1213.388733600100977128022350370883941650390625</ele>
            </trkpt>
            <trkpt lat="47.57837500000000119371179607696831226348876953125" lon="14.168445999999999429519448312930762767791748046875">
                <ele>1208.35116000003699809894897043704986572265625</ele>
            </trkpt>
            <trkpt lat="47.578170000000000072759576141834259033203125" lon="14.16855699999999984584064804948866367340087890625">
                <ele>1201.9908000000023093889467418193817138671875</ele>
            </trkpt>
            <trkpt lat="47.5781539999999978363121044822037220001220703125" lon="14.16854000000000013415046851150691509246826171875">
                <ele>1201.591199999936861786409281194210052490234375</ele>
            </trkpt>
            <trkpt lat="47.5781539999999978363121044822037220001220703125" lon="14.16854000000000013415046851150691509246826171875">
                <ele>1201.591199999936861786409281194210052490234375</ele>
            </trkpt>
            <trkpt lat="47.57803499999999985448084771633148193359375" lon="14.1684129999999992577386365155689418315887451171875">
                <ele>1198.621199999997998020262457430362701416015625</ele>
            </trkpt>
            <trkpt lat="47.577866000000000212821760214865207672119140625" lon="14.1683959999999995460484569775871932506561279296875">
                <ele>1193.8152000000072803231887519359588623046875</ele>
            </trkpt>
            <trkpt lat="47.577460000000002082742867060005664825439453125" lon="14.168276999999999787860360811464488506317138671875">
                <ele>1182.54755520006119695608504116535186767578125</ele>
            </trkpt>
            <trkpt lat="47.5772690000000011423253454267978668212890625" lon="14.1683280000000006992877388256601989269256591796875">
                <ele>1176.86462592003090321668423712253570556640625</ele>
            </trkpt>
            <trkpt lat="47.57712500000000233058017329312860965728759765625" lon="14.1684800000000006292566467891447246074676513671875">
                <ele>1172.1720000000650543370284140110015869140625</ele>
            </trkpt>
            <trkpt lat="47.5769030000000014979377738200128078460693359375" lon="14.1683450000000004109779183636419475078582763671875">
                <ele>1166.264400000041860039345920085906982421875</ele>
            </trkpt>
            <trkpt lat="47.5766849999999976716935634613037109375" lon="14.16834899999999919373294687829911708831787109375">
                <ele>1159.9715999999361883965320885181427001953125</ele>
            </trkpt>
            <trkpt lat="47.57660800000000023146640160121023654937744140625" lon="14.1683000000000003382183422218076884746551513671875">
                <ele>1158.802784000001338426955044269561767578125</ele>
            </trkpt>
            <trkpt lat="47.57638299999999986766852089203894138336181640625" lon="14.168409000000000474983608000911772251129150390625">
                <ele>1155.514108319995784768252633512020111083984375</ele>
            </trkpt>
            <trkpt lat="47.57627800000000206637196242809295654296875" lon="14.1684940000000008097913450910709798336029052734375">
                <ele>1153.881121920023133498034439980983734130859375</ele>
            </trkpt>
            <trkpt lat="47.57603199999999787905835546553134918212890625" lon="14.168310999999999211240719887427985668182373046875">
                <ele>1151.155589119972091793897561728954315185546875</ele>
            </trkpt>
            <trkpt lat="47.57566899999999776582626509480178356170654296875" lon="14.1684619999999998896100805723108351230621337890625">
                <ele>1147.068895359984480819548480212688446044921875</ele>
            </trkpt>
            <trkpt lat="47.57548299999999841247699805535376071929931640625" lon="14.1686160000000000991349224932491779327392578125">
                <ele>1145.584399359989447475527413189411163330078125</ele>
            </trkpt>
            <trkpt lat="47.57542699999999769033820484764873981475830078125" lon="14.168710000000000803765942691825330257415771484375">
                <ele>1145.111190399984479881823062896728515625</ele>
            </trkpt>
            <trkpt lat="47.57535399999999725650923210196197032928466796875" lon="14.1687519999999995690131981973536312580108642578125">
                <ele>1144.621960959983653083327226340770721435546875</ele>
            </trkpt>
            <trkpt lat="47.57529799999999653437043889425694942474365234375" lon="14.16872599999999948749973555095493793487548828125">
                <ele>1144.30859775997896576882340013980865478515625</ele>
            </trkpt>
            <trkpt lat="47.57525799999999804867911734618246555328369140625" lon="14.1686610000000001718944986350834369659423828125">
                <ele>1144.11413055998718846240080893039703369140625</ele>
            </trkpt>
            <trkpt lat="47.57507600000000280715539702214300632476806640625" lon="14.1688449999999992456878317170776426792144775390625">
                <ele>1142.93520640001588617451488971710205078125</ele>
            </trkpt>
            <trkpt lat="47.5749739999999974315869621932506561279296875" lon="14.1690220000000000055706550483591854572296142578125">
                <ele>1142.93138368004338190075941383838653564453125</ele>
            </trkpt>
            <trkpt lat="47.57493699999999847705112188123166561126708984375" lon="14.1693949999999997402255758061073720455169677734375">
                <ele>1143.01040000002694796421565115451812744140625</ele>
            </trkpt>
            <trkpt lat="47.57501800000000002910383045673370361328125" lon="14.1701770000000006888285497552715241909027099609375">
                <ele>1139.555175679995727477944456040859222412109375</ele>
            </trkpt>
            <trkpt lat="47.574961000000001831722329370677471160888671875" lon="14.1704570000000007468088369932956993579864501953125">
                <ele>1138.464530239963323765550740063190460205078125</ele>
            </trkpt>
            <trkpt lat="47.574578999999999950887286104261875152587890625" lon="14.17130399999999923466020845808088779449462890625">
                <ele>1141.329873920005638865404762327671051025390625</ele>
            </trkpt>
            <trkpt lat="47.5746299999999990859578247182071208953857421875" lon="14.1721260000000004453113433555699884891510009765625">
                <ele>1135.980732800019040951156057417392730712890625</ele>
            </trkpt>
        </trkseg>
    </trk>
</gpx>
