<?xml version="1.0" encoding="UTF-8" standalone="yes"?>
<gpx xmlns:gpxtpx1="http://www.garmin.com/xmlschemas/TrackPointExtension/v1" xmlns="http://www.topografix.com/GPX/1/1" xmlns:trp="http://www.garmin.com/xmlschemas/TripExtensions/v1" xmlns:gpxx="http://www.garmin.com/xmlschemas/GpxExtensions/v3" xmlns:gpxtpx="http://www.garmin.com/xmlschemas/TrackPointExtension/v2" version="1.1" creator="RouteConverter 2.27.2">
    <metadata>
        <name>2023-04-04 11:16</name>
        <link href="https://www.oruxmaps.com">
            <text>OruxMaps</text>
        </link>
        <time>2023-04-04T09:16:05Z</time>
        <bounds minlat="45.9114588" minlon="10.8898011" maxlat="45.9278341" maxlon="10.9227545"/>
    </metadata>
    <trk>
        <name>2023-04-04 11:16</name>
        <desc>&lt;p&gt;Startzeit: 11:16 04.04.2023&lt;br/&gt;Zielzeit: 16:42 04.04.2023&lt;br/&gt;Strecke: 16,
8 km (05:26)&lt;br/&gt;Bewegungszeit: 00:57&lt;br/&gt;Ø-Geschwindigkeit: 3,
09 km/h&lt;br/&gt;Netto-Geschwindigkeit: 17,
61 km/h&lt;br/&gt;Max. Geschwindigkeit: 49,
18 km/h&lt;br/&gt;Minimale Höhe: 87 m&lt;br/&gt;Maximale Höhe: 751 m&lt;br/&gt;Steig-Geschw.: 190,
2 m/h&lt;br/&gt;Sink-Geschw.: -548,
5 m/h&lt;br/&gt;Aufstieg: 769 m&lt;br/&gt;Abstieg: -749 m&lt;br/&gt;Steigzeit: 04:02&lt;br/&gt;Sinkzeit: 01:22&lt;br/&gt;&lt;/p&gt;&lt;hr align="center" width="480" style="height: 2px; width: 517px"/&gt;</desc>
        <type>Berg/ Bergsteigen</type>
        <extensions>
            <om:oruxmapsextensions xmlns:om="http://www.oruxmaps.com/oruxmapsextensions/1/0" xmlns:gpxtpx="http://www.garmin.com/xmlschemas/TrackPointExtension/v1" xmlns:xsi="http://www.w3.org/2001/XMLSchema-instance">
                <om:ext subtype="0" type="TYPE">7</om:ext>
                <om:ext type="DIFFICULTY">0</om:ext>
</om:oruxmapsextensions>
        </extensions>
        <trkseg>
            <trkpt lat="45.916426" lon="10.9225722">
                <ele>462.1</ele>
                <time>2023-04-04T11:09:12.000Z</time>
                <name>Position 1</name>
            </trkpt>
            <trkpt lat="45.916608" lon="10.9227325">
                <ele>464.8</ele>
                <time>2023-04-04T11:09:16.000Z</time>
                <name>Position 2</name>
            </trkpt>
            <trkpt lat="45.9168416" lon="10.9227545">
                <ele>465.8</ele>
                <time>2023-04-04T11:09:30.000Z</time>
                <name>Position 3</name>
            </trkpt>
            <trkpt lat="45.9170377" lon="10.922576">
                <ele>468.3</ele>
                <time>2023-04-04T11:09:36.000Z</time>
                <name>Position 4</name>
            </trkpt>
            <trkpt lat="45.917192" lon="10.9223805">
                <ele>469.4</ele>
                <time>2023-04-04T11:09:40.000Z</time>
                <name>Position 5</name>
            </trkpt>
            <trkpt lat="45.9172618" lon="10.9221218">
                <ele>470.3</ele>
                <time>2023-04-04T11:09:44.000Z</time>
                <name>Position 6</name>
            </trkpt>
            <trkpt lat="45.9174808" lon="10.9220007">
                <ele>470.6</ele>
                <time>2023-04-04T11:09:50.000Z</time>
                <name>Position 7</name>
            </trkpt>
            <trkpt lat="45.9176938" lon="10.9220887">
                <ele>473.3</ele>
                <time>2023-04-04T11:09:56.000Z</time>
                <name>Position 8</name>
            </trkpt>
            <trkpt lat="45.9178642" lon="10.9219368">
                <ele>475.3</ele>
                <time>2023-04-04T11:10:02.000Z</time>
                <name>Position 9</name>
            </trkpt>
            <trkpt lat="45.9179931" lon="10.9217438">
                <ele>476.7</ele>
                <time>2023-04-04T11:10:58.000Z</time>
                <name>Position 10</name>
            </trkpt>
            <trkpt lat="45.917968" lon="10.9214842">
                <ele>475.2</ele>
                <time>2023-04-04T11:18:23.000Z</time>
                <name>Position 11</name>
            </trkpt>
            <trkpt lat="45.9179704" lon="10.9212254">
                <ele>472.5</ele>
                <time>2023-04-04T11:18:37.000Z</time>
                <name>Position 12</name>
            </trkpt>
            <trkpt lat="45.9180138" lon="10.9209613">
                <ele>469.1</ele>
                <time>2023-04-04T11:18:51.000Z</time>
                <name>Position 13</name>
            </trkpt>
            <trkpt lat="45.918135" lon="10.9207438">
                <ele>460.4</ele>
                <time>2023-04-04T11:19:11.000Z</time>
                <name>Position 14</name>
            </trkpt>
            <trkpt lat="45.9182105" lon="10.9204746">
                <ele>452.9</ele>
                <time>2023-04-04T11:19:27.000Z</time>
                <name>Position 15</name>
            </trkpt>
            <trkpt lat="45.9182864" lon="10.9202118">
                <ele>453.2</ele>
                <time>2023-04-04T11:19:43.000Z</time>
                <name>Position 16</name>
            </trkpt>
            <trkpt lat="45.9183727" lon="10.919941">
                <ele>457.4</ele>
                <time>2023-04-04T11:20:03.000Z</time>
                <name>Position 17</name>
            </trkpt>
            <trkpt lat="45.918402" lon="10.9196823">
                <ele>458.5</ele>
                <time>2023-04-04T11:20:17.000Z</time>
                <name>Position 18</name>
            </trkpt>
            <trkpt lat="45.9184192" lon="10.9194245">
                <ele>459.2</ele>
                <time>2023-04-04T11:20:35.000Z</time>
                <name>Position 19</name>
            </trkpt>
            <trkpt lat="45.9184586" lon="10.9191434">
                <ele>460.4</ele>
                <time>2023-04-04T11:20:57.000Z</time>
                <name>Position 20</name>
            </trkpt>
            <trkpt lat="45.9184968" lon="10.9188901">
                <ele>462.1</ele>
                <time>2023-04-04T11:21:15.000Z</time>
                <name>Position 21</name>
            </trkpt>
            <trkpt lat="45.9184788" lon="10.9185918">
                <ele>460.1</ele>
                <time>2023-04-04T11:21:32.000Z</time>
                <name>Position 22</name>
            </trkpt>
            <trkpt lat="45.9183614" lon="10.9183846">
                <ele>461.4</ele>
                <time>2023-04-04T11:21:50.000Z</time>
                <name>Position 23</name>
            </trkpt>
            <trkpt lat="45.9183516" lon="10.9181183">
                <ele>464.7</ele>
                <time>2023-04-04T11:22:08.000Z</time>
                <name>Position 24</name>
            </trkpt>
            <trkpt lat="45.9183569" lon="10.9178414">
                <ele>465.8</ele>
                <time>2023-04-04T11:22:28.000Z</time>
                <name>Position 25</name>
            </trkpt>
            <trkpt lat="45.9184022" lon="10.91758">
                <ele>470.4</ele>
                <time>2023-04-04T11:22:53.000Z</time>
                <name>Position 26</name>
            </trkpt>
            <trkpt lat="45.9184357" lon="10.9173197">
                <ele>476.5</ele>
                <time>2023-04-04T11:23:29.000Z</time>
                <name>Position 27</name>
            </trkpt>
            <trkpt lat="45.9185654" lon="10.9171322">
                <ele>482.3</ele>
                <time>2023-04-04T11:23:55.000Z</time>
                <name>Position 28</name>
            </trkpt>
            <trkpt lat="45.918727" lon="10.9170058">
                <ele>487.4</ele>
                <time>2023-04-04T11:24:21.000Z</time>
                <name>Position 29</name>
            </trkpt>
            <trkpt lat="45.9188896" lon="10.916882">
                <ele>489.8</ele>
                <time>2023-04-04T11:24:41.000Z</time>
                <name>Position 30</name>
            </trkpt>
            <trkpt lat="45.919058" lon="10.9167411">
                <ele>491.7</ele>
                <time>2023-04-04T11:24:57.000Z</time>
                <name>Position 31</name>
            </trkpt>
            <trkpt lat="45.9192229" lon="10.9166248">
                <ele>490.6</ele>
                <time>2023-04-04T11:25:13.000Z</time>
                <name>Position 32</name>
            </trkpt>
            <trkpt lat="45.9193498" lon="10.9164404">
                <ele>488.9</ele>
                <time>2023-04-04T11:25:29.000Z</time>
                <name>Position 33</name>
            </trkpt>
            <trkpt lat="45.9194895" lon="10.9162624">
                <ele>486.8</ele>
                <time>2023-04-04T11:25:47.000Z</time>
                <name>Position 34</name>
            </trkpt>
            <trkpt lat="45.9196988" lon="10.916192">
                <ele>483.3</ele>
                <time>2023-04-04T11:26:05.000Z</time>
                <name>Position 35</name>
            </trkpt>
            <trkpt lat="45.9198545" lon="10.9160355">
                <ele>483.7</ele>
                <time>2023-04-04T11:26:19.000Z</time>
                <name>Position 36</name>
            </trkpt>
            <trkpt lat="45.9200358" lon="10.9159639">
                <ele>484.2</ele>
                <time>2023-04-04T11:26:39.000Z</time>
                <name>Position 37</name>
            </trkpt>
            <trkpt lat="45.9202331" lon="10.9158702">
                <ele>481.0</ele>
                <time>2023-04-04T11:26:57.000Z</time>
                <name>Position 38</name>
            </trkpt>
            <trkpt lat="45.9203764" lon="10.9156573">
                <ele>481.8</ele>
                <time>2023-04-04T11:27:13.000Z</time>
                <name>Position 39</name>
            </trkpt>
            <trkpt lat="45.920517" lon="10.9154106">
                <ele>481.3</ele>
                <time>2023-04-04T11:27:31.000Z</time>
                <name>Position 40</name>
            </trkpt>
            <trkpt lat="45.9206587" lon="10.9151681">
                <ele>481.3</ele>
                <time>2023-04-04T11:27:45.000Z</time>
                <name>Position 41</name>
            </trkpt>
            <trkpt lat="45.9207323" lon="10.9149118">
                <ele>481.4</ele>
                <time>2023-04-04T11:27:59.000Z</time>
                <name>Position 42</name>
            </trkpt>
            <trkpt lat="45.9208103" lon="10.9146688">
                <ele>480.1</ele>
                <time>2023-04-04T11:28:11.000Z</time>
                <name>Position 43</name>
            </trkpt>
            <trkpt lat="45.9209847" lon="10.9147803">
                <ele>486.2</ele>
                <time>2023-04-04T11:28:48.000Z</time>
                <name>Position 44</name>
            </trkpt>
            <trkpt lat="45.9211557" lon="10.9146402">
                <ele>484.7</ele>
                <time>2023-04-04T11:29:02.000Z</time>
                <name>Position 45</name>
            </trkpt>
            <trkpt lat="45.921349" lon="10.9146549">
                <ele>481.9</ele>
                <time>2023-04-04T11:29:26.000Z</time>
                <name>Position 46</name>
            </trkpt>
            <trkpt lat="45.9215524" lon="10.9146588">
                <ele>480.8</ele>
                <time>2023-04-04T11:29:44.000Z</time>
                <name>Position 47</name>
            </trkpt>
            <trkpt lat="45.9217417" lon="10.9146016">
                <ele>480.3</ele>
                <time>2023-04-04T11:29:58.000Z</time>
                <name>Position 48</name>
            </trkpt>
            <trkpt lat="45.9219057" lon="10.9144192">
                <ele>479.3</ele>
                <time>2023-04-04T11:30:14.000Z</time>
                <name>Position 49</name>
            </trkpt>
            <trkpt lat="45.9220073" lon="10.9141964">
                <ele>477.4</ele>
                <time>2023-04-04T11:30:28.000Z</time>
                <name>Position 50</name>
            </trkpt>
            <trkpt lat="45.9221876" lon="10.9141789">
                <ele>481.3</ele>
                <time>2023-04-04T11:31:00.000Z</time>
                <name>Position 51</name>
            </trkpt>
            <trkpt lat="45.9223733" lon="10.9141432">
                <ele>488.0</ele>
                <time>2023-04-04T11:31:34.000Z</time>
                <name>Position 52</name>
            </trkpt>
            <trkpt lat="45.9225556" lon="10.9141278">
                <ele>489.6</ele>
                <time>2023-04-04T11:31:58.000Z</time>
                <name>Position 53</name>
            </trkpt>
            <trkpt lat="45.9227243" lon="10.9142325">
                <ele>495.8</ele>
                <time>2023-04-04T11:32:30.000Z</time>
                <name>Position 54</name>
            </trkpt>
            <trkpt lat="45.9229055" lon="10.9142643">
                <ele>501.8</ele>
                <time>2023-04-04T11:33:00.000Z</time>
                <name>Position 55</name>
            </trkpt>
            <trkpt lat="45.9230642" lon="10.9143889">
                <ele>508.8</ele>
                <time>2023-04-04T11:33:48.000Z</time>
                <name>Position 56</name>
            </trkpt>
            <trkpt lat="45.9232473" lon="10.9144292">
                <ele>512.7</ele>
                <time>2023-04-04T11:34:12.000Z</time>
                <name>Position 57</name>
            </trkpt>
            <trkpt lat="45.9234302" lon="10.9143348">
                <ele>516.4</ele>
                <time>2023-04-04T11:34:36.000Z</time>
                <name>Position 58</name>
            </trkpt>
            <trkpt lat="45.9236125" lon="10.9143403">
                <ele>525.9</ele>
                <time>2023-04-04T11:35:42.000Z</time>
                <name>Position 59</name>
            </trkpt>
            <trkpt lat="45.9237181" lon="10.9145653">
                <ele>539.9</ele>
                <time>2023-04-04T11:37:04.000Z</time>
                <name>Position 60</name>
            </trkpt>
            <trkpt lat="45.9236297" lon="10.914808">
                <ele>553.2</ele>
                <time>2023-04-04T11:38:26.000Z</time>
                <name>Position 61</name>
            </trkpt>
            <trkpt lat="45.9237185" lon="10.9150433">
                <ele>566.0</ele>
                <time>2023-04-04T11:39:36.000Z</time>
                <name>Position 62</name>
            </trkpt>
            <trkpt lat="45.9236302" lon="10.9152709">
                <ele>579.3</ele>
                <time>2023-04-04T11:41:01.000Z</time>
                <name>Position 63</name>
            </trkpt>
            <trkpt lat="45.9236928" lon="10.9155171">
                <ele>581.5</ele>
                <time>2023-04-04T11:50:58.000Z</time>
                <name>Position 64</name>
            </trkpt>
            <trkpt lat="45.9236852" lon="10.9157857">
                <ele>619.3</ele>
                <time>2023-04-04T12:23:12.000Z</time>
                <name>Position 65</name>
            </trkpt>
            <trkpt lat="45.9238539" lon="10.9158961">
                <ele>666.5</ele>
                <time>2023-04-04T13:10:34.000Z</time>
                <name>Position 66</name>
            </trkpt>
            <trkpt lat="45.9237162" lon="10.9157223">
                <ele>684.2</ele>
                <time>2023-04-04T13:16:44.000Z</time>
                <name>Position 67</name>
            </trkpt>
            <trkpt lat="45.9238971" lon="10.9157255">
                <ele>696.8</ele>
                <time>2023-04-04T13:33:06.000Z</time>
                <name>Position 68</name>
            </trkpt>
            <trkpt lat="45.9240748" lon="10.9158356">
                <ele>716.1</ele>
                <time>2023-04-04T13:36:51.000Z</time>
                <name>Position 69</name>
            </trkpt>
            <trkpt lat="45.9242305" lon="10.915704">
                <ele>709.7</ele>
                <time>2023-04-04T13:41:46.000Z</time>
                <name>Position 70</name>
            </trkpt>
            <trkpt lat="45.9243617" lon="10.9158914">
                <ele>741.8</ele>
                <time>2023-04-04T13:54:46.000Z</time>
                <name>Position 71</name>
            </trkpt>
            <trkpt lat="45.9244694" lon="10.9161233">
                <ele>749.2</ele>
                <time>2023-04-04T13:55:16.000Z</time>
                <name>Position 72</name>
            </trkpt>
            <trkpt lat="45.9244715" lon="10.9164016">
                <ele>751.8</ele>
                <time>2023-04-04T14:04:02.000Z</time>
                <name>Position 73</name>
            </trkpt>
            <trkpt lat="45.9243862" lon="10.9166414">
                <ele>745.8</ele>
                <time>2023-04-04T14:04:33.000Z</time>
                <name>Position 74</name>
            </trkpt>
            <trkpt lat="45.9242554" lon="10.9168397">
                <ele>738.1</ele>
                <time>2023-04-04T14:05:04.000Z</time>
                <name>Position 75</name>
            </trkpt>
            <trkpt lat="45.9241584" lon="10.9170756">
                <ele>729.6</ele>
                <time>2023-04-04T14:05:40.000Z</time>
                <name>Position 76</name>
            </trkpt>
            <trkpt lat="45.9240108" lon="10.9172378">
                <ele>723.8</ele>
                <time>2023-04-04T14:06:04.000Z</time>
                <name>Position 77</name>
            </trkpt>
            <trkpt lat="45.9238342" lon="10.9173216">
                <ele>716.4</ele>
                <time>2023-04-04T14:06:32.000Z</time>
                <name>Position 78</name>
            </trkpt>
            <trkpt lat="45.9236922" lon="10.9174837">
                <ele>711.0</ele>
                <time>2023-04-04T14:06:46.000Z</time>
                <name>Position 79</name>
            </trkpt>
            <trkpt lat="45.9235415" lon="10.9176304">
                <ele>697.6</ele>
                <time>2023-04-04T14:07:38.000Z</time>
                <name>Position 80</name>
            </trkpt>
            <trkpt lat="45.9233586" lon="10.9177383">
                <ele>690.0</ele>
                <time>2023-04-04T14:08:08.000Z</time>
                <name>Position 81</name>
            </trkpt>
            <trkpt lat="45.9231886" lon="10.9178879">
                <ele>686.3</ele>
                <time>2023-04-04T14:08:30.000Z</time>
                <name>Position 82</name>
            </trkpt>
            <trkpt lat="45.9230019" lon="10.9178639">
                <ele>675.8</ele>
                <time>2023-04-04T14:09:12.000Z</time>
                <name>Position 83</name>
            </trkpt>
            <trkpt lat="45.92282" lon="10.9178729">
                <ele>672.0</ele>
                <time>2023-04-04T14:09:28.000Z</time>
                <name>Position 84</name>
            </trkpt>
            <trkpt lat="45.9226398" lon="10.9178248">
                <ele>664.9</ele>
                <time>2023-04-04T14:10:02.000Z</time>
                <name>Position 85</name>
            </trkpt>
            <trkpt lat="45.9226545" lon="10.9175517">
                <ele>652.2</ele>
                <time>2023-04-04T14:10:30.000Z</time>
                <name>Position 86</name>
            </trkpt>
            <trkpt lat="45.9225307" lon="10.9173411">
                <ele>645.9</ele>
                <time>2023-04-04T14:10:50.000Z</time>
                <name>Position 87</name>
            </trkpt>
            <trkpt lat="45.9223651" lon="10.9172334">
                <ele>639.7</ele>
                <time>2023-04-04T14:11:06.000Z</time>
                <name>Position 88</name>
            </trkpt>
            <trkpt lat="45.9221864" lon="10.9171576">
                <ele>635.1</ele>
                <time>2023-04-04T14:11:22.000Z</time>
                <name>Position 89</name>
            </trkpt>
            <trkpt lat="45.9219794" lon="10.9171798">
                <ele>630.8</ele>
                <time>2023-04-04T14:11:36.000Z</time>
                <name>Position 90</name>
            </trkpt>
            <trkpt lat="45.9218049" lon="10.9172884">
                <ele>629.7</ele>
                <time>2023-04-04T14:11:48.000Z</time>
                <name>Position 91</name>
            </trkpt>
            <trkpt lat="45.9216443" lon="10.9174378">
                <ele>627.8</ele>
                <time>2023-04-04T14:12:10.000Z</time>
                <name>Position 92</name>
            </trkpt>
            <trkpt lat="45.9214729" lon="10.917521">
                <ele>623.6</ele>
                <time>2023-04-04T14:12:26.000Z</time>
                <name>Position 93</name>
            </trkpt>
            <trkpt lat="45.9213547" lon="10.9177283">
                <ele>618.8</ele>
                <time>2023-04-04T14:12:46.000Z</time>
                <name>Position 94</name>
            </trkpt>
            <trkpt lat="45.9212383" lon="10.9179471">
                <ele>615.5</ele>
                <time>2023-04-04T14:13:02.000Z</time>
                <name>Position 95</name>
            </trkpt>
            <trkpt lat="45.9211143" lon="10.9181392">
                <ele>613.9</ele>
                <time>2023-04-04T14:13:18.000Z</time>
                <name>Position 96</name>
            </trkpt>
            <trkpt lat="45.9209448" lon="10.9182883">
                <ele>611.2</ele>
                <time>2023-04-04T14:13:40.000Z</time>
                <name>Position 97</name>
            </trkpt>
            <trkpt lat="45.9207703" lon="10.9183536">
                <ele>609.4</ele>
                <time>2023-04-04T14:14:02.000Z</time>
                <name>Position 98</name>
            </trkpt>
            <trkpt lat="45.9205814" lon="10.9182531">
                <ele>603.6</ele>
                <time>2023-04-04T14:14:30.000Z</time>
                <name>Position 99</name>
            </trkpt>
            <trkpt lat="45.9204044" lon="10.9181064">
                <ele>598.1</ele>
                <time>2023-04-04T14:14:50.000Z</time>
                <name>Position 100</name>
            </trkpt>
            <trkpt lat="45.9202371" lon="10.9179869">
                <ele>592.3</ele>
                <time>2023-04-04T14:15:10.000Z</time>
                <name>Position 101</name>
            </trkpt>
            <trkpt lat="45.9200933" lon="10.9178167">
                <ele>588.6</ele>
                <time>2023-04-04T14:15:30.000Z</time>
                <name>Position 102</name>
            </trkpt>
            <trkpt lat="45.9201084" lon="10.9175222">
                <ele>576.7</ele>
                <time>2023-04-04T14:16:05.000Z</time>
                <name>Position 103</name>
            </trkpt>
            <trkpt lat="45.9199324" lon="10.9173845">
                <ele>568.4</ele>
                <time>2023-04-04T14:16:25.000Z</time>
                <name>Position 104</name>
            </trkpt>
            <trkpt lat="45.9197447" lon="10.9173321">
                <ele>561.0</ele>
                <time>2023-04-04T14:16:45.000Z</time>
                <name>Position 105</name>
            </trkpt>
            <trkpt lat="45.9195674" lon="10.9174047">
                <ele>554.3</ele>
                <time>2023-04-04T14:17:03.000Z</time>
                <name>Position 106</name>
            </trkpt>
            <trkpt lat="45.919381" lon="10.9173254">
                <ele>542.9</ele>
                <time>2023-04-04T14:17:37.000Z</time>
                <name>Position 107</name>
            </trkpt>
            <trkpt lat="45.9193119" lon="10.9170834">
                <ele>535.2</ele>
                <time>2023-04-04T14:17:55.000Z</time>
                <name>Position 108</name>
            </trkpt>
            <trkpt lat="45.9191219" lon="10.9170944">
                <ele>528.8</ele>
                <time>2023-04-04T14:18:09.000Z</time>
                <name>Position 109</name>
            </trkpt>
            <trkpt lat="45.9189401" lon="10.9171313">
                <ele>519.3</ele>
                <time>2023-04-04T14:18:37.000Z</time>
                <name>Position 110</name>
            </trkpt>
            <trkpt lat="45.9187608" lon="10.9170464">
                <ele>509.4</ele>
                <time>2023-04-04T14:19:01.000Z</time>
                <name>Position 111</name>
            </trkpt>
            <trkpt lat="45.9185793" lon="10.9171563">
                <ele>500.4</ele>
                <time>2023-04-04T14:19:25.000Z</time>
                <name>Position 112</name>
            </trkpt>
            <trkpt lat="45.9183788" lon="10.9172834">
                <ele>492.5</ele>
                <time>2023-04-04T14:19:47.000Z</time>
                <name>Position 113</name>
            </trkpt>
            <trkpt lat="45.9182812" lon="10.9175201">
                <ele>485.7</ele>
                <time>2023-04-04T14:20:05.000Z</time>
                <name>Position 114</name>
            </trkpt>
            <trkpt lat="45.918242" lon="10.9177808">
                <ele>479.2</ele>
                <time>2023-04-04T14:20:45.000Z</time>
                <name>Position 115</name>
            </trkpt>
            <trkpt lat="45.9182435" lon="10.9180399">
                <ele>475.5</ele>
                <time>2023-04-04T14:21:05.000Z</time>
                <name>Position 116</name>
            </trkpt>
            <trkpt lat="45.9183253" lon="10.9182807">
                <ele>474.5</ele>
                <time>2023-04-04T14:21:23.000Z</time>
                <name>Position 117</name>
            </trkpt>
            <trkpt lat="45.9183352" lon="10.918546">
                <ele>469.3</ele>
                <time>2023-04-04T14:21:46.000Z</time>
                <name>Position 118</name>
            </trkpt>
            <trkpt lat="45.9183457" lon="10.918808">
                <ele>471.0</ele>
                <time>2023-04-04T14:22:04.000Z</time>
                <name>Position 119</name>
            </trkpt>
            <trkpt lat="45.9183562" lon="10.9190861">
                <ele>471.5</ele>
                <time>2023-04-04T14:22:28.000Z</time>
                <name>Position 120</name>
            </trkpt>
            <trkpt lat="45.9182539" lon="10.9193303">
                <ele>470.0</ele>
                <time>2023-04-04T14:22:44.000Z</time>
                <name>Position 121</name>
            </trkpt>
            <trkpt lat="45.9182712" lon="10.9195949">
                <ele>468.1</ele>
                <time>2023-04-04T14:23:00.000Z</time>
                <name>Position 122</name>
            </trkpt>
            <trkpt lat="45.9182284" lon="10.9198483">
                <ele>467.5</ele>
                <time>2023-04-04T14:23:24.000Z</time>
                <name>Position 123</name>
            </trkpt>
            <trkpt lat="45.9181483" lon="10.9200919">
                <ele>464.3</ele>
                <time>2023-04-04T14:23:42.000Z</time>
                <name>Position 124</name>
            </trkpt>
            <trkpt lat="45.9180518" lon="10.9203196">
                <ele>463.8</ele>
                <time>2023-04-04T14:24:00.000Z</time>
                <name>Position 125</name>
            </trkpt>
            <trkpt lat="45.9179496" lon="10.9205354">
                <ele>464.2</ele>
                <time>2023-04-04T14:24:18.000Z</time>
                <name>Position 126</name>
            </trkpt>
            <trkpt lat="45.9179421" lon="10.9208021">
                <ele>471.4</ele>
                <time>2023-04-04T14:24:44.000Z</time>
                <name>Position 127</name>
            </trkpt>
            <trkpt lat="45.9178062" lon="10.9210115">
                <ele>477.0</ele>
                <time>2023-04-04T14:25:04.000Z</time>
                <name>Position 128</name>
            </trkpt>
            <trkpt lat="45.9177861" lon="10.9212937">
                <ele>481.6</ele>
                <time>2023-04-04T14:25:22.000Z</time>
                <name>Position 129</name>
            </trkpt>
            <trkpt lat="45.9178201" lon="10.9215683">
                <ele>482.3</ele>
                <time>2023-04-04T14:25:44.000Z</time>
                <name>Position 130</name>
            </trkpt>
            <trkpt lat="45.9179739" lon="10.921704">
                <ele>487.4</ele>
                <time>2023-04-04T14:26:14.000Z</time>
                <name>Position 131</name>
            </trkpt>
            <trkpt lat="45.9178299" lon="10.9219203">
                <ele>483.8</ele>
                <time>2023-04-04T14:28:25.000Z</time>
                <name>Position 132</name>
            </trkpt>
            <trkpt lat="45.9176108" lon="10.9219901">
                <ele>482.8</ele>
                <time>2023-04-04T14:28:33.000Z</time>
                <name>Position 133</name>
            </trkpt>
            <trkpt lat="45.9174178" lon="10.9219236">
                <ele>481.8</ele>
                <time>2023-04-04T14:29:09.000Z</time>
                <name>Position 134</name>
            </trkpt>
            <trkpt lat="45.9172521" lon="10.9220549">
                <ele>480.7</ele>
                <time>2023-04-04T14:29:15.000Z</time>
                <name>Position 135</name>
            </trkpt>
            <trkpt lat="45.9171582" lon="10.9223616">
                <ele>480.9</ele>
                <time>2023-04-04T14:29:21.000Z</time>
                <name>Position 136</name>
            </trkpt>
            <trkpt lat="45.9169455" lon="10.9225288">
                <ele>480.1</ele>
                <time>2023-04-04T14:29:27.000Z</time>
                <name>Position 137</name>
            </trkpt>
            <trkpt lat="45.9167548" lon="10.922661">
                <ele>477.9</ele>
                <time>2023-04-04T14:29:33.000Z</time>
                <name>Position 138</name>
            </trkpt>
            <trkpt lat="45.9165512" lon="10.9225571">
                <ele>475.5</ele>
                <time>2023-04-04T14:29:51.000Z</time>
                <name>Position 139</name>
            </trkpt>
        </trkseg>
    </trk>
</gpx>
