<?xml version="1.0" encoding="UTF-8" standalone="yes"?>
<gpx xmlns:gpxtpx1="http://www.garmin.com/xmlschemas/TrackPointExtension/v1" xmlns="http://www.topografix.com/GPX/1/1" xmlns:trp="http://www.garmin.com/xmlschemas/TripExtensions/v1" xmlns:gpxx="http://www.garmin.com/xmlschemas/GpxExtensions/v3" xmlns:gpxtpx="http://www.garmin.com/xmlschemas/TrackPointExtension/v2" version="1.1" creator="RouteConverter 2.27.2">
    <metadata>
        <name>Hallangerjoch-tannheim</name>
        <link href="alpenkarte.eu">
            <text>Route von alpenkarte.eu</text>
        </link>
        <bounds minlat="47.50466000000000121872290037572383880615234375" minlon="10.5962960000000006033360477886162698268890380859375" maxlat="47.513294999999999390638549812138080596923828125" maxlon="10.6005979999999997431814335868693888187408447265625"/>
    </metadata>
    <trk>
        <name>Hallangerjoch-tannheim</name>
        <trkseg>
            <trkpt lat="47.513295" lon="10.596296">
                <ele>1801.0</ele>
                <name>Position 1</name>
            </trkpt>
            <trkpt lat="47.51314" lon="10.596597">
                <ele>1804.0</ele>
                <name>Position 2</name>
            </trkpt>
            <trkpt lat="47.51311" lon="10.596816">
                <ele>1802.8</ele>
                <name>Position 3</name>
            </trkpt>
            <trkpt lat="47.513077" lon="10.597024">
                <ele>1801.3</ele>
                <name>Position 4</name>
            </trkpt>
            <trkpt lat="47.512849" lon="10.597249">
                <ele>1813.3</ele>
                <name>Position 5</name>
            </trkpt>
            <trkpt lat="47.512603" lon="10.597526">
                <ele>1814.1</ele>
                <name>Position 6</name>
            </trkpt>
            <trkpt lat="47.512586" lon="10.597624">
                <ele>1814.7</ele>
                <name>Position 7</name>
            </trkpt>
            <trkpt lat="47.512527" lon="10.59759">
                <ele>1815.3</ele>
                <name>Position 8</name>
            </trkpt>
            <trkpt lat="47.512499" lon="10.597677">
                <ele>1815.8</ele>
                <name>Position 9</name>
            </trkpt>
            <trkpt lat="47.512454" lon="10.597692">
                <ele>1816.0</ele>
                <name>Position 10</name>
            </trkpt>
            <trkpt lat="47.512373" lon="10.597665">
                <ele>1816.3</ele>
                <name>Position 11</name>
            </trkpt>
            <trkpt lat="47.512336" lon="10.597676">
                <ele>1816.4</ele>
                <name>Position 12</name>
            </trkpt>
            <trkpt lat="47.512315" lon="10.597774">
                <ele>1816.5</ele>
                <name>Position 13</name>
            </trkpt>
            <trkpt lat="47.512242" lon="10.597865">
                <ele>1816.7</ele>
                <name>Position 14</name>
            </trkpt>
            <trkpt lat="47.5122" lon="10.597846">
                <ele>1816.7</ele>
                <name>Position 15</name>
            </trkpt>
            <trkpt lat="47.512093" lon="10.597867">
                <ele>1816.6</ele>
                <name>Position 16</name>
            </trkpt>
            <trkpt lat="47.512019" lon="10.597932">
                <ele>1816.5</ele>
                <name>Position 17</name>
            </trkpt>
            <trkpt lat="47.511915" lon="10.597915">
                <ele>1816.2</ele>
                <name>Position 18</name>
            </trkpt>
            <trkpt lat="47.511842" lon="10.597929">
                <ele>1816.6</ele>
                <name>Position 19</name>
            </trkpt>
            <trkpt lat="47.511809" lon="10.597898">
                <ele>1826.4</ele>
                <name>Position 20</name>
            </trkpt>
            <trkpt lat="47.511655" lon="10.598052">
                <ele>1830.5</ele>
                <name>Position 21</name>
            </trkpt>
            <trkpt lat="47.511594" lon="10.598231">
                <ele>1831.0</ele>
                <name>Position 22</name>
            </trkpt>
            <trkpt lat="47.511543" lon="10.598282">
                <ele>1831.4</ele>
                <name>Position 23</name>
            </trkpt>
            <trkpt lat="47.51146" lon="10.598484">
                <ele>1830.4</ele>
                <name>Position 24</name>
            </trkpt>
            <trkpt lat="47.511448" lon="10.598611">
                <ele>1830.6</ele>
                <name>Position 25</name>
            </trkpt>
            <trkpt lat="47.511372" lon="10.598766">
                <ele>1830.8</ele>
                <name>Position 26</name>
            </trkpt>
            <trkpt lat="47.511361" lon="10.59885">
                <ele>1830.9</ele>
                <name>Position 27</name>
            </trkpt>
            <trkpt lat="47.511271" lon="10.598926">
                <ele>1831.1</ele>
                <name>Position 28</name>
            </trkpt>
            <trkpt lat="47.511239" lon="10.599079">
                <ele>1831.3</ele>
                <name>Position 29</name>
            </trkpt>
            <trkpt lat="47.511267" lon="10.599252">
                <ele>1831.1</ele>
                <name>Position 30</name>
            </trkpt>
            <trkpt lat="47.511253" lon="10.599349">
                <ele>1830.9</ele>
                <name>Position 31</name>
            </trkpt>
            <trkpt lat="47.511209" lon="10.599456">
                <ele>1830.6</ele>
                <name>Position 32</name>
            </trkpt>
            <trkpt lat="47.511214" lon="10.599546">
                <ele>1830.2</ele>
                <name>Position 33</name>
            </trkpt>
            <trkpt lat="47.511195" lon="10.599638">
                <ele>1829.7</ele>
                <name>Position 34</name>
            </trkpt>
            <trkpt lat="47.511089" lon="10.599799">
                <ele>1829.3</ele>
                <name>Position 35</name>
            </trkpt>
            <trkpt lat="47.51102" lon="10.600014">
                <ele>1828.6</ele>
                <name>Position 36</name>
            </trkpt>
            <trkpt lat="47.51076" lon="10.600533">
                <ele>1857.9</ele>
                <name>Position 37</name>
            </trkpt>
            <trkpt lat="47.510654" lon="10.600199">
                <ele>1866.3</ele>
                <name>Position 38</name>
            </trkpt>
            <trkpt lat="47.510646" lon="10.600019">
                <ele>1869.5</ele>
                <name>Position 39</name>
            </trkpt>
            <trkpt lat="47.5106" lon="10.599759">
                <ele>1873.0</ele>
                <name>Position 40</name>
            </trkpt>
            <trkpt lat="47.510461" lon="10.599173">
                <ele>1875.0</ele>
                <name>Position 41</name>
            </trkpt>
            <trkpt lat="47.510396" lon="10.599139">
                <ele>1874.6</ele>
                <name>Position 42</name>
            </trkpt>
            <trkpt lat="47.510234" lon="10.598869">
                <ele>1872.9</ele>
                <name>Position 43</name>
            </trkpt>
            <trkpt lat="47.510217" lon="10.598769">
                <ele>1874.2</ele>
                <name>Position 44</name>
            </trkpt>
            <trkpt lat="47.50995" lon="10.598567">
                <ele>1875.7</ele>
                <name>Position 45</name>
            </trkpt>
            <trkpt lat="47.509904" lon="10.598565">
                <ele>1875.2</ele>
                <name>Position 46</name>
            </trkpt>
            <trkpt lat="47.50983" lon="10.598608">
                <ele>1875.2</ele>
                <name>Position 47</name>
            </trkpt>
            <trkpt lat="47.509788" lon="10.598609">
                <ele>1874.7</ele>
                <name>Position 48</name>
            </trkpt>
            <trkpt lat="47.509628" lon="10.598501">
                <ele>1882.6</ele>
                <name>Position 49</name>
            </trkpt>
            <trkpt lat="47.509489" lon="10.598384">
                <ele>1882.0</ele>
                <name>Position 50</name>
            </trkpt>
            <trkpt lat="47.509289" lon="10.598128">
                <ele>1881.7</ele>
                <name>Position 51</name>
            </trkpt>
            <trkpt lat="47.509226" lon="10.59808">
                <ele>1881.5</ele>
                <name>Position 52</name>
            </trkpt>
            <trkpt lat="47.509197" lon="10.598098">
                <ele>1881.3</ele>
                <name>Position 53</name>
            </trkpt>
            <trkpt lat="47.509071" lon="10.598065">
                <ele>1881.1</ele>
                <name>Position 54</name>
            </trkpt>
            <trkpt lat="47.509024" lon="10.598011">
                <ele>1881.0</ele>
                <name>Position 55</name>
            </trkpt>
            <trkpt lat="47.508881" lon="10.597974">
                <ele>1880.8</ele>
                <name>Position 56</name>
            </trkpt>
            <trkpt lat="47.508825" lon="10.597927">
                <ele>1880.7</ele>
                <name>Position 57</name>
            </trkpt>
            <trkpt lat="47.508716" lon="10.597895">
                <ele>1880.6</ele>
                <name>Position 58</name>
            </trkpt>
            <trkpt lat="47.508587" lon="10.597825">
                <ele>1880.5</ele>
                <name>Position 59</name>
            </trkpt>
            <trkpt lat="47.508369" lon="10.597868">
                <ele>1880.4</ele>
                <name>Position 60</name>
            </trkpt>
            <trkpt lat="47.508339" lon="10.597864">
                <ele>1880.5</ele>
                <name>Position 61</name>
            </trkpt>
            <trkpt lat="47.508278" lon="10.597797">
                <ele>1876.4</ele>
                <name>Position 62</name>
            </trkpt>
            <trkpt lat="47.508264" lon="10.597798">
                <ele>1876.4</ele>
                <name>Position 63</name>
            </trkpt>
            <trkpt lat="47.50827" lon="10.597871">
                <ele>1876.9</ele>
                <name>Position 64</name>
            </trkpt>
            <trkpt lat="47.508258" lon="10.597925">
                <ele>1877.0</ele>
                <name>Position 65</name>
            </trkpt>
            <trkpt lat="47.508142" lon="10.598062">
                <ele>1878.1</ele>
                <name>Position 66</name>
            </trkpt>
            <trkpt lat="47.508046" lon="10.598114">
                <ele>1878.4</ele>
                <name>Position 67</name>
            </trkpt>
            <trkpt lat="47.507939" lon="10.59811">
                <ele>1878.8</ele>
                <name>Position 68</name>
            </trkpt>
            <trkpt lat="47.507816" lon="10.598173">
                <ele>1878.8</ele>
                <name>Position 69</name>
            </trkpt>
            <trkpt lat="47.507806" lon="10.598204">
                <ele>1878.9</ele>
                <name>Position 70</name>
            </trkpt>
            <trkpt lat="47.507275" lon="10.598538">
                <ele>1877.9</ele>
                <name>Position 71</name>
            </trkpt>
            <trkpt lat="47.507231" lon="10.598597">
                <ele>1877.7</ele>
                <name>Position 72</name>
            </trkpt>
            <trkpt lat="47.50706" lon="10.598689">
                <ele>1876.6</ele>
                <name>Position 73</name>
            </trkpt>
            <trkpt lat="47.507081" lon="10.598726">
                <ele>1876.7</ele>
                <name>Position 74</name>
            </trkpt>
            <trkpt lat="47.506978" lon="10.598791">
                <ele>1875.7</ele>
                <name>Position 75</name>
            </trkpt>
            <trkpt lat="47.506937" lon="10.598864">
                <ele>1875.4</ele>
                <name>Position 76</name>
            </trkpt>
            <trkpt lat="47.506871" lon="10.598853">
                <ele>1874.9</ele>
                <name>Position 77</name>
            </trkpt>
            <trkpt lat="47.506781" lon="10.59893">
                <ele>1873.8</ele>
                <name>Position 78</name>
            </trkpt>
            <trkpt lat="47.506699" lon="10.598893">
                <ele>1872.8</ele>
                <name>Position 79</name>
            </trkpt>
            <trkpt lat="47.506667" lon="10.598806">
                <ele>1872.6</ele>
                <name>Position 80</name>
            </trkpt>
            <trkpt lat="47.506656" lon="10.598809">
                <ele>1872.5</ele>
                <name>Position 81</name>
            </trkpt>
            <trkpt lat="47.506638" lon="10.598909">
                <ele>1872.0</ele>
                <name>Position 82</name>
            </trkpt>
            <trkpt lat="47.506624" lon="10.598918">
                <ele>1871.6</ele>
                <name>Position 83</name>
            </trkpt>
            <trkpt lat="47.506596" lon="10.598889">
                <ele>1871.0</ele>
                <name>Position 84</name>
            </trkpt>
            <trkpt lat="47.506591" lon="10.598986">
                <ele>1870.8</ele>
                <name>Position 85</name>
            </trkpt>
            <trkpt lat="47.506567" lon="10.599009">
                <ele>1870.5</ele>
                <name>Position 86</name>
            </trkpt>
            <trkpt lat="47.506529" lon="10.598916">
                <ele>1869.9</ele>
                <name>Position 87</name>
            </trkpt>
            <trkpt lat="47.50649" lon="10.598734">
                <ele>1870.2</ele>
                <name>Position 88</name>
            </trkpt>
            <trkpt lat="47.506431" lon="10.598822">
                <ele>1869.3</ele>
                <name>Position 89</name>
            </trkpt>
            <trkpt lat="47.506354" lon="10.598998">
                <ele>1867.8</ele>
                <name>Position 90</name>
            </trkpt>
            <trkpt lat="47.506337" lon="10.598989">
                <ele>1867.6</ele>
                <name>Position 91</name>
            </trkpt>
            <trkpt lat="47.506315" lon="10.598862">
                <ele>1867.6</ele>
                <name>Position 92</name>
            </trkpt>
            <trkpt lat="47.506293" lon="10.59885">
                <ele>1867.3</ele>
                <name>Position 93</name>
            </trkpt>
            <trkpt lat="47.506031" lon="10.598896">
                <ele>1865.4</ele>
                <name>Position 94</name>
            </trkpt>
            <trkpt lat="47.506031" lon="10.598896">
                <ele>1865.4</ele>
                <name>Position 95</name>
            </trkpt>
            <trkpt lat="47.505974" lon="10.598892">
                <ele>1865.3</ele>
                <name>Position 96</name>
            </trkpt>
            <trkpt lat="47.505932" lon="10.598947">
                <ele>1865.1</ele>
                <name>Position 97</name>
            </trkpt>
            <trkpt lat="47.505878" lon="10.598975">
                <ele>1864.9</ele>
                <name>Position 98</name>
            </trkpt>
            <trkpt lat="47.505846" lon="10.599054">
                <ele>1864.8</ele>
                <name>Position 99</name>
            </trkpt>
            <trkpt lat="47.505747" lon="10.599101">
                <ele>1863.6</ele>
                <name>Position 100</name>
            </trkpt>
            <trkpt lat="47.505522" lon="10.599318">
                <ele>1862.8</ele>
                <name>Position 101</name>
            </trkpt>
            <trkpt lat="47.505501" lon="10.59937">
                <ele>1862.9</ele>
                <name>Position 102</name>
            </trkpt>
            <trkpt lat="47.505384" lon="10.599493">
                <ele>1861.9</ele>
                <name>Position 103</name>
            </trkpt>
            <trkpt lat="47.505347" lon="10.599599">
                <ele>1861.8</ele>
                <name>Position 104</name>
            </trkpt>
            <trkpt lat="47.50528" lon="10.599626">
                <ele>1860.2</ele>
                <name>Position 105</name>
            </trkpt>
            <trkpt lat="47.505204" lon="10.599702">
                <ele>1860.7</ele>
                <name>Position 106</name>
            </trkpt>
            <trkpt lat="47.505149" lon="10.599827">
                <ele>1861.2</ele>
                <name>Position 107</name>
            </trkpt>
            <trkpt lat="47.505087" lon="10.599889">
                <ele>1860.3</ele>
                <name>Position 108</name>
            </trkpt>
            <trkpt lat="47.505043" lon="10.599988">
                <ele>1860.7</ele>
                <name>Position 109</name>
            </trkpt>
            <trkpt lat="47.505028" lon="10.600076">
                <ele>1861.3</ele>
                <name>Position 110</name>
            </trkpt>
            <trkpt lat="47.504969" lon="10.600148">
                <ele>1846.0</ele>
                <name>Position 111</name>
            </trkpt>
            <trkpt lat="47.504969" lon="10.600148">
                <ele>1846.0</ele>
                <name>Position 112</name>
            </trkpt>
            <trkpt lat="47.504956" lon="10.60016">
                <ele>1846.5</ele>
                <name>Position 113</name>
            </trkpt>
            <trkpt lat="47.504871" lon="10.600134">
                <ele>1847.8</ele>
                <name>Position 114</name>
            </trkpt>
            <trkpt lat="47.50484" lon="10.600083">
                <ele>1848.1</ele>
                <name>Position 115</name>
            </trkpt>
            <trkpt lat="47.504882" lon="10.600049">
                <ele>1848.1</ele>
                <name>Position 116</name>
            </trkpt>
            <trkpt lat="47.504876" lon="10.600014">
                <ele>1847.7</ele>
                <name>Position 117</name>
            </trkpt>
            <trkpt lat="47.504791" lon="10.599878">
                <ele>1846.6</ele>
                <name>Position 118</name>
            </trkpt>
            <trkpt lat="47.504731" lon="10.59968">
                <ele>1846.2</ele>
                <name>Position 119</name>
            </trkpt>
            <trkpt lat="47.504811" lon="10.599657">
                <ele>1845.4</ele>
                <name>Position 120</name>
            </trkpt>
            <trkpt lat="47.50477" lon="10.59954">
                <ele>1838.0</ele>
                <name>Position 121</name>
            </trkpt>
            <trkpt lat="47.50466" lon="10.59938">
                <ele>1831.0</ele>
                <name>Position 122</name>
            </trkpt>
            <trkpt lat="47.50474" lon="10.59947">
                <ele>1835.0</ele>
                <name>Position 123</name>
            </trkpt>
            <trkpt lat="47.50484" lon="10.59964">
                <ele>1841.0</ele>
                <name>Position 124</name>
            </trkpt>
            <trkpt lat="47.504826" lon="10.599657">
                <ele>1845.3</ele>
                <name>Position 125</name>
            </trkpt>
            <trkpt lat="47.504824" lon="10.599653">
                <ele>1844.5</ele>
                <name>Position 126</name>
            </trkpt>
            <trkpt lat="47.504731" lon="10.59968">
                <ele>1846.2</ele>
                <name>Position 127</name>
            </trkpt>
            <trkpt lat="47.504791" lon="10.599878">
                <ele>1846.6</ele>
                <name>Position 128</name>
            </trkpt>
            <trkpt lat="47.504854" lon="10.599978">
                <ele>1847.1</ele>
                <name>Position 129</name>
            </trkpt>
            <trkpt lat="47.504854" lon="10.599978">
                <ele>1847.1</ele>
                <name>Position 130</name>
            </trkpt>
            <trkpt lat="47.504876" lon="10.600014">
                <ele>1847.7</ele>
                <name>Position 131</name>
            </trkpt>
            <trkpt lat="47.504908" lon="10.600008">
                <ele>1847.2</ele>
                <name>Position 132</name>
            </trkpt>
            <trkpt lat="47.504937" lon="10.600069">
                <ele>1846.6</ele>
                <name>Position 133</name>
            </trkpt>
            <trkpt lat="47.504999" lon="10.600121">
                <ele>1845.5</ele>
                <name>Position 134</name>
            </trkpt>
            <trkpt lat="47.505028" lon="10.600076">
                <ele>1861.3</ele>
                <name>Position 135</name>
            </trkpt>
            <trkpt lat="47.505087" lon="10.599889">
                <ele>1860.3</ele>
                <name>Position 136</name>
            </trkpt>
            <trkpt lat="47.505149" lon="10.599827">
                <ele>1861.2</ele>
                <name>Position 137</name>
            </trkpt>
            <trkpt lat="47.505204" lon="10.599702">
                <ele>1860.7</ele>
                <name>Position 138</name>
            </trkpt>
            <trkpt lat="47.50528" lon="10.599626">
                <ele>1860.2</ele>
                <name>Position 139</name>
            </trkpt>
            <trkpt lat="47.505347" lon="10.599599">
                <ele>1861.8</ele>
                <name>Position 140</name>
            </trkpt>
            <trkpt lat="47.505384" lon="10.599493">
                <ele>1861.9</ele>
                <name>Position 141</name>
            </trkpt>
            <trkpt lat="47.505435" lon="10.599439">
                <ele>1862.4</ele>
                <name>Position 142</name>
            </trkpt>
            <trkpt lat="47.505435" lon="10.599439">
                <ele>1862.4</ele>
                <name>Position 143</name>
            </trkpt>
            <trkpt lat="47.505501" lon="10.59937">
                <ele>1862.9</ele>
                <name>Position 144</name>
            </trkpt>
            <trkpt lat="47.505522" lon="10.599318">
                <ele>1862.8</ele>
                <name>Position 145</name>
            </trkpt>
            <trkpt lat="47.505747" lon="10.599101">
                <ele>1863.6</ele>
                <name>Position 146</name>
            </trkpt>
            <trkpt lat="47.505846" lon="10.599054">
                <ele>1864.8</ele>
                <name>Position 147</name>
            </trkpt>
            <trkpt lat="47.505878" lon="10.598975">
                <ele>1864.9</ele>
                <name>Position 148</name>
            </trkpt>
            <trkpt lat="47.505932" lon="10.598947">
                <ele>1865.1</ele>
                <name>Position 149</name>
            </trkpt>
            <trkpt lat="47.505974" lon="10.598892">
                <ele>1865.3</ele>
                <name>Position 150</name>
            </trkpt>
            <trkpt lat="47.506047" lon="10.598898">
                <ele>1865.5</ele>
                <name>Position 151</name>
            </trkpt>
            <trkpt lat="47.506293" lon="10.59885">
                <ele>1867.3</ele>
                <name>Position 152</name>
            </trkpt>
            <trkpt lat="47.506315" lon="10.598862">
                <ele>1867.6</ele>
                <name>Position 153</name>
            </trkpt>
            <trkpt lat="47.506337" lon="10.598989">
                <ele>1867.6</ele>
                <name>Position 154</name>
            </trkpt>
            <trkpt lat="47.506354" lon="10.598998">
                <ele>1867.8</ele>
                <name>Position 155</name>
            </trkpt>
            <trkpt lat="47.506431" lon="10.598822">
                <ele>1869.3</ele>
                <name>Position 156</name>
            </trkpt>
            <trkpt lat="47.50649" lon="10.598734">
                <ele>1870.2</ele>
                <name>Position 157</name>
            </trkpt>
            <trkpt lat="47.506529" lon="10.598916">
                <ele>1869.9</ele>
                <name>Position 158</name>
            </trkpt>
            <trkpt lat="47.506567" lon="10.599009">
                <ele>1870.5</ele>
                <name>Position 159</name>
            </trkpt>
            <trkpt lat="47.506591" lon="10.598986">
                <ele>1870.8</ele>
                <name>Position 160</name>
            </trkpt>
            <trkpt lat="47.506596" lon="10.598889">
                <ele>1871.0</ele>
                <name>Position 161</name>
            </trkpt>
            <trkpt lat="47.506624" lon="10.598918">
                <ele>1871.6</ele>
                <name>Position 162</name>
            </trkpt>
            <trkpt lat="47.506638" lon="10.598909">
                <ele>1872.0</ele>
                <name>Position 163</name>
            </trkpt>
            <trkpt lat="47.506656" lon="10.598809">
                <ele>1872.5</ele>
                <name>Position 164</name>
            </trkpt>
            <trkpt lat="47.506667" lon="10.598806">
                <ele>1872.6</ele>
                <name>Position 165</name>
            </trkpt>
            <trkpt lat="47.506699" lon="10.598893">
                <ele>1872.8</ele>
                <name>Position 166</name>
            </trkpt>
            <trkpt lat="47.506781" lon="10.59893">
                <ele>1873.8</ele>
                <name>Position 167</name>
            </trkpt>
            <trkpt lat="47.506871" lon="10.598853">
                <ele>1874.9</ele>
                <name>Position 168</name>
            </trkpt>
            <trkpt lat="47.506937" lon="10.598864">
                <ele>1875.4</ele>
                <name>Position 169</name>
            </trkpt>
            <trkpt lat="47.506978" lon="10.598791">
                <ele>1875.7</ele>
                <name>Position 170</name>
            </trkpt>
            <trkpt lat="47.507081" lon="10.598726">
                <ele>1876.7</ele>
                <name>Position 171</name>
            </trkpt>
            <trkpt lat="47.50706" lon="10.598689">
                <ele>1876.6</ele>
                <name>Position 172</name>
            </trkpt>
            <trkpt lat="47.507231" lon="10.598597">
                <ele>1877.7</ele>
                <name>Position 173</name>
            </trkpt>
            <trkpt lat="47.507275" lon="10.598538">
                <ele>1877.9</ele>
                <name>Position 174</name>
            </trkpt>
            <trkpt lat="47.507806" lon="10.598204">
                <ele>1878.9</ele>
                <name>Position 175</name>
            </trkpt>
            <trkpt lat="47.507816" lon="10.598173">
                <ele>1878.8</ele>
                <name>Position 176</name>
            </trkpt>
            <trkpt lat="47.507939" lon="10.59811">
                <ele>1878.8</ele>
                <name>Position 177</name>
            </trkpt>
            <trkpt lat="47.508046" lon="10.598114">
                <ele>1878.4</ele>
                <name>Position 178</name>
            </trkpt>
            <trkpt lat="47.508142" lon="10.598062">
                <ele>1878.1</ele>
                <name>Position 179</name>
            </trkpt>
            <trkpt lat="47.508258" lon="10.597925">
                <ele>1877.0</ele>
                <name>Position 180</name>
            </trkpt>
            <trkpt lat="47.50827" lon="10.597871">
                <ele>1876.9</ele>
                <name>Position 181</name>
            </trkpt>
            <trkpt lat="47.508264" lon="10.597798">
                <ele>1876.4</ele>
                <name>Position 182</name>
            </trkpt>
            <trkpt lat="47.508278" lon="10.597797">
                <ele>1876.4</ele>
                <name>Position 183</name>
            </trkpt>
            <trkpt lat="47.508339" lon="10.597864">
                <ele>1880.5</ele>
                <name>Position 184</name>
            </trkpt>
            <trkpt lat="47.508369" lon="10.597868">
                <ele>1880.4</ele>
                <name>Position 185</name>
            </trkpt>
            <trkpt lat="47.508587" lon="10.597825">
                <ele>1880.5</ele>
                <name>Position 186</name>
            </trkpt>
            <trkpt lat="47.508716" lon="10.597895">
                <ele>1880.6</ele>
                <name>Position 187</name>
            </trkpt>
            <trkpt lat="47.508825" lon="10.597927">
                <ele>1880.7</ele>
                <name>Position 188</name>
            </trkpt>
            <trkpt lat="47.508881" lon="10.597974">
                <ele>1880.8</ele>
                <name>Position 189</name>
            </trkpt>
            <trkpt lat="47.509024" lon="10.598011">
                <ele>1881.0</ele>
                <name>Position 190</name>
            </trkpt>
            <trkpt lat="47.509071" lon="10.598065">
                <ele>1881.1</ele>
                <name>Position 191</name>
            </trkpt>
            <trkpt lat="47.509197" lon="10.598098">
                <ele>1881.3</ele>
                <name>Position 192</name>
            </trkpt>
            <trkpt lat="47.509226" lon="10.59808">
                <ele>1881.5</ele>
                <name>Position 193</name>
            </trkpt>
            <trkpt lat="47.509289" lon="10.598128">
                <ele>1881.7</ele>
                <name>Position 194</name>
            </trkpt>
            <trkpt lat="47.509489" lon="10.598384">
                <ele>1882.0</ele>
                <name>Position 195</name>
            </trkpt>
            <trkpt lat="47.509628" lon="10.598501">
                <ele>1882.6</ele>
                <name>Position 196</name>
            </trkpt>
            <trkpt lat="47.509788" lon="10.598609">
                <ele>1874.7</ele>
                <name>Position 197</name>
            </trkpt>
            <trkpt lat="47.50983" lon="10.598608">
                <ele>1875.2</ele>
                <name>Position 198</name>
            </trkpt>
            <trkpt lat="47.509904" lon="10.598565">
                <ele>1875.2</ele>
                <name>Position 199</name>
            </trkpt>
            <trkpt lat="47.50995" lon="10.598567">
                <ele>1875.7</ele>
                <name>Position 200</name>
            </trkpt>
            <trkpt lat="47.510217" lon="10.598769">
                <ele>1874.2</ele>
                <name>Position 201</name>
            </trkpt>
            <trkpt lat="47.510234" lon="10.598869">
                <ele>1872.9</ele>
                <name>Position 202</name>
            </trkpt>
            <trkpt lat="47.510396" lon="10.599139">
                <ele>1874.6</ele>
                <name>Position 203</name>
            </trkpt>
            <trkpt lat="47.510461" lon="10.599173">
                <ele>1875.0</ele>
                <name>Position 204</name>
            </trkpt>
            <trkpt lat="47.5106" lon="10.599759">
                <ele>1873.0</ele>
                <name>Position 205</name>
            </trkpt>
            <trkpt lat="47.510646" lon="10.600019">
                <ele>1869.5</ele>
                <name>Position 206</name>
            </trkpt>
            <trkpt lat="47.510654" lon="10.600199">
                <ele>1866.3</ele>
                <name>Position 207</name>
            </trkpt>
            <trkpt lat="47.51076" lon="10.600533">
                <ele>1857.9</ele>
                <name>Position 208</name>
            </trkpt>
            <trkpt lat="47.51102" lon="10.600014">
                <ele>1828.6</ele>
                <name>Position 209</name>
            </trkpt>
            <trkpt lat="47.511089" lon="10.599799">
                <ele>1829.3</ele>
                <name>Position 210</name>
            </trkpt>
            <trkpt lat="47.511195" lon="10.599638">
                <ele>1829.7</ele>
                <name>Position 211</name>
            </trkpt>
            <trkpt lat="47.511214" lon="10.599546">
                <ele>1830.2</ele>
                <name>Position 212</name>
            </trkpt>
            <trkpt lat="47.511209" lon="10.599456">
                <ele>1830.6</ele>
                <name>Position 213</name>
            </trkpt>
            <trkpt lat="47.511253" lon="10.599349">
                <ele>1830.9</ele>
                <name>Position 214</name>
            </trkpt>
            <trkpt lat="47.511267" lon="10.599252">
                <ele>1831.1</ele>
                <name>Position 215</name>
            </trkpt>
            <trkpt lat="47.511239" lon="10.599079">
                <ele>1831.3</ele>
                <name>Position 216</name>
            </trkpt>
            <trkpt lat="47.511249" lon="10.598999">
                <ele>1831.2</ele>
                <name>Position 217</name>
            </trkpt>
            <trkpt lat="47.511271" lon="10.598926">
                <ele>1831.1</ele>
                <name>Position 218</name>
            </trkpt>
            <trkpt lat="47.511361" lon="10.59885">
                <ele>1830.9</ele>
                <name>Position 219</name>
            </trkpt>
            <trkpt lat="47.511372" lon="10.598766">
                <ele>1830.8</ele>
                <name>Position 220</name>
            </trkpt>
            <trkpt lat="47.511448" lon="10.598611">
                <ele>1830.6</ele>
                <name>Position 221</name>
            </trkpt>
            <trkpt lat="47.51146" lon="10.598484">
                <ele>1830.4</ele>
                <name>Position 222</name>
            </trkpt>
            <trkpt lat="47.511543" lon="10.598282">
                <ele>1831.4</ele>
                <name>Position 223</name>
            </trkpt>
            <trkpt lat="47.511594" lon="10.598231">
                <ele>1831.0</ele>
                <name>Position 224</name>
            </trkpt>
            <trkpt lat="47.511655" lon="10.598052">
                <ele>1830.5</ele>
                <name>Position 225</name>
            </trkpt>
            <trkpt lat="47.511809" lon="10.597898">
                <ele>1826.4</ele>
                <name>Position 226</name>
            </trkpt>
            <trkpt lat="47.511842" lon="10.597929">
                <ele>1816.6</ele>
                <name>Position 227</name>
            </trkpt>
            <trkpt lat="47.511915" lon="10.597915">
                <ele>1816.2</ele>
                <name>Position 228</name>
            </trkpt>
            <trkpt lat="47.512019" lon="10.597932">
                <ele>1816.5</ele>
                <name>Position 229</name>
            </trkpt>
            <trkpt lat="47.512093" lon="10.597867">
                <ele>1816.6</ele>
                <name>Position 230</name>
            </trkpt>
            <trkpt lat="47.5122" lon="10.597846">
                <ele>1816.7</ele>
                <name>Position 231</name>
            </trkpt>
            <trkpt lat="47.512242" lon="10.597865">
                <ele>1816.7</ele>
                <name>Position 232</name>
            </trkpt>
            <trkpt lat="47.512315" lon="10.597774">
                <ele>1816.5</ele>
                <name>Position 233</name>
            </trkpt>
            <trkpt lat="47.512336" lon="10.597676">
                <ele>1816.4</ele>
                <name>Position 234</name>
            </trkpt>
            <trkpt lat="47.512373" lon="10.597665">
                <ele>1816.3</ele>
                <name>Position 235</name>
            </trkpt>
            <trkpt lat="47.512454" lon="10.597692">
                <ele>1816.0</ele>
                <name>Position 236</name>
            </trkpt>
            <trkpt lat="47.512499" lon="10.597677">
                <ele>1815.8</ele>
                <name>Position 237</name>
            </trkpt>
            <trkpt lat="47.512527" lon="10.59759">
                <ele>1815.3</ele>
                <name>Position 238</name>
            </trkpt>
            <trkpt lat="47.512586" lon="10.597624">
                <ele>1814.7</ele>
                <name>Position 239</name>
            </trkpt>
            <trkpt lat="47.512603" lon="10.597526">
                <ele>1814.1</ele>
                <name>Position 240</name>
            </trkpt>
            <trkpt lat="47.512849" lon="10.597249">
                <ele>1813.3</ele>
                <name>Position 241</name>
            </trkpt>
            <trkpt lat="47.513077" lon="10.597024">
                <ele>1801.3</ele>
                <name>Position 242</name>
            </trkpt>
            <trkpt lat="47.51314" lon="10.596597">
                <ele>1804.0</ele>
                <name>Position 243</name>
            </trkpt>
            <trkpt lat="47.513291" lon="10.596304">
                <ele>1804.2</ele>
                <name>Position 244</name>
            </trkpt>
        </trkseg>
    </trk>
</gpx>
