<?xml version="1.0" encoding="UTF-8" standalone="yes"?>
<gpx xmlns:gpxtpx1="http://www.garmin.com/xmlschemas/TrackPointExtension/v1" xmlns="http://www.topografix.com/GPX/1/1" xmlns:trp="http://www.garmin.com/xmlschemas/TripExtensions/v1" xmlns:gpxx="http://www.garmin.com/xmlschemas/GpxExtensions/v3" xmlns:gpxtpx="http://www.garmin.com/xmlschemas/TrackPointExtension/v2" version="1.1" creator="RouteConverter 2.27.2">
    <metadata>
        <name>2025-09-29 14:41</name>
        <link href="https://www.oruxmaps.com">
            <text>OruxMaps</text>
        </link>
        <time>2025-09-29T12:41:52Z</time>
        <bounds minlat="47.2422499" minlon="11.7532557" maxlat="47.2491630" maxlon="11.7595431"/>
    </metadata>
    <trk>
        <name>2025-09-29 14:41</name>
        <desc>&lt;p&gt;Startzeit: 14:41 29.09.2025&lt;br/&gt;Zielzeit: 16:01 29.09.2025&lt;br/&gt;Strecke: 1,
4 km (01:19)&lt;br/&gt;Bewegungszeit: 00:20&lt;br/&gt;Ø-Geschwindigkeit: 1,
02 km/h&lt;br/&gt;Netto-Geschwindigkeit: 3,
93 km/h&lt;br/&gt;Max. Geschwindigkeit: 6,
34 km/h&lt;br/&gt;Minimale Höhe: 2122 m&lt;br/&gt;Maximale Höhe: 2435 m&lt;br/&gt;Steig-Geschw.: 171 m/h&lt;br/&gt;Sink-Geschw.: -501,
8 m/h&lt;br/&gt;Aufstieg: 123 m&lt;br/&gt;Abstieg: -306 m&lt;br/&gt;Steigzeit: 00:43&lt;br/&gt;Sinkzeit: 00:36&lt;br/&gt;&lt;/p&gt;&lt;hr align="center" width="480" style="height: 2px; width: 517px"/&gt;</desc>
        <type>Berg/ Klettern</type>
        <extensions>
            <om:oruxmapsextensions xmlns:om="http://www.oruxmaps.com/oruxmapsextensions/1/0" xmlns:gpxtpx="http://www.garmin.com/xmlschemas/TrackPointExtension/v1" xmlns:xsi="http://www.w3.org/2001/XMLSchema-instance">
                <om:ext subtype="0" type="TYPE">36</om:ext>
                <om:ext type="DIFFICULTY">0</om:ext>
</om:oruxmapsextensions>
        </extensions>
        <trkseg>
            <trkpt lat="47.2435554" lon="11.7532557">
                <ele>2315.5</ele>
                <time>2025-09-29T12:43:14.000Z</time>
                <name>Position 1</name>
            </trkpt>
            <trkpt lat="47.243492" lon="11.7535074">
                <ele>2318.4</ele>
                <time>2025-09-29T12:43:48.000Z</time>
                <name>Position 2</name>
            </trkpt>
            <trkpt lat="47.24335" lon="11.7536805">
                <ele>2327.5</ele>
                <time>2025-09-29T12:44:47.000Z</time>
                <name>Position 3</name>
            </trkpt>
            <trkpt lat="47.2433578" lon="11.7539504">
                <ele>2360.1</ele>
                <time>2025-09-29T12:52:35.000Z</time>
                <name>Position 4</name>
            </trkpt>
            <trkpt lat="47.2431751" lon="11.7540078">
                <ele>2358.2</ele>
                <time>2025-09-29T12:54:46.000Z</time>
                <name>Position 5</name>
            </trkpt>
            <trkpt lat="47.2431319" lon="11.7542697">
                <ele>2367.5</ele>
                <time>2025-09-29T12:58:50.000Z</time>
                <name>Position 6</name>
            </trkpt>
            <trkpt lat="47.2429496" lon="11.7543112">
                <ele>2379.3</ele>
                <time>2025-09-29T13:03:05.000Z</time>
                <name>Position 7</name>
            </trkpt>
            <trkpt lat="47.2428408" lon="11.7545286">
                <ele>2383.4</ele>
                <time>2025-09-29T13:06:36.000Z</time>
                <name>Position 8</name>
            </trkpt>
            <trkpt lat="47.2426694" lon="11.7546126">
                <ele>2400.1</ele>
                <time>2025-09-29T13:09:21.000Z</time>
                <name>Position 9</name>
            </trkpt>
            <trkpt lat="47.242547" lon="11.7548181">
                <ele>2418.7</ele>
                <time>2025-09-29T13:14:24.000Z</time>
                <name>Position 10</name>
            </trkpt>
            <trkpt lat="47.2424084" lon="11.7550006">
                <ele>2426.6</ele>
                <time>2025-09-29T13:21:48.000Z</time>
                <name>Position 11</name>
            </trkpt>
            <trkpt lat="47.2423272" lon="11.7552393">
                <ele>2435.4</ele>
                <time>2025-09-29T13:25:02.000Z</time>
                <name>Position 12</name>
            </trkpt>
            <trkpt lat="47.2422499" lon="11.7549879">
                <ele>2425.7</ele>
                <time>2025-09-29T13:29:35.000Z</time>
                <name>Position 13</name>
            </trkpt>
            <trkpt lat="47.2424111" lon="11.7548695">
                <ele>2417.8</ele>
                <time>2025-09-29T13:32:28.000Z</time>
                <name>Position 14</name>
            </trkpt>
            <trkpt lat="47.2424703" lon="11.7546184">
                <ele>2414.6</ele>
                <time>2025-09-29T13:34:46.000Z</time>
                <name>Position 15</name>
            </trkpt>
            <trkpt lat="47.2425155" lon="11.7543566">
                <ele>2405.9</ele>
                <time>2025-09-29T13:35:38.000Z</time>
                <name>Position 16</name>
            </trkpt>
            <trkpt lat="47.2426726" lon="11.7542254">
                <ele>2391.0</ele>
                <time>2025-09-29T13:36:33.000Z</time>
                <name>Position 17</name>
            </trkpt>
            <trkpt lat="47.2428368" lon="11.7541015">
                <ele>2383.3</ele>
                <time>2025-09-29T13:37:56.000Z</time>
                <name>Position 18</name>
            </trkpt>
            <trkpt lat="47.2429836" lon="11.7539426">
                <ele>2372.4</ele>
                <time>2025-09-29T13:38:48.000Z</time>
                <name>Position 19</name>
            </trkpt>
            <trkpt lat="47.2431289" lon="11.7537762">
                <ele>2358.6</ele>
                <time>2025-09-29T13:40:17.000Z</time>
                <name>Position 20</name>
            </trkpt>
            <trkpt lat="47.2433098" lon="11.753742">
                <ele>2345.7</ele>
                <time>2025-09-29T13:42:01.000Z</time>
                <name>Position 21</name>
            </trkpt>
            <trkpt lat="47.2434763" lon="11.7536244">
                <ele>2334.6</ele>
                <time>2025-09-29T13:45:29.000Z</time>
                <name>Position 22</name>
            </trkpt>
            <trkpt lat="47.2435975" lon="11.7534273">
                <ele>2320.3</ele>
                <time>2025-09-29T13:46:04.000Z</time>
                <name>Position 23</name>
            </trkpt>
            <trkpt lat="47.2437441" lon="11.7535827">
                <ele>2307.3</ele>
                <time>2025-09-29T13:47:44.000Z</time>
                <name>Position 24</name>
            </trkpt>
        </trkseg>
    </trk>
</gpx>
