<?xml version="1.0" encoding="UTF-8" standalone="yes"?>
<gpx xmlns="http://www.topografix.com/GPX/1/1" creator="alpenkarte.eu">
    <metadata>
        <name>feistringstein</name>
        <link href="alpenkarte.eu">
            <text>Route von alpenkarte.eu</text>
        </link>
        <bounds minlat="47.571359000000001060470822267234325408935546875" minlon="15.2228989999999999582769305561669170856475830078125" maxlat="47.607472999999998819475877098739147186279296875" maxlon="15.23951100000000025147528504021465778350830078125"/>
    </metadata>
    <trk>
        <name>feistringstein</name>
        <trkseg>
            <trkpt lat="47.5718820000000022218955564312636852264404296875" lon="15.2274229999999999307647158275358378887176513671875">
                <ele>1529.1852000000044426997192203998565673828125</ele>
            </trkpt>
            <trkpt lat="47.5718930000000028712747734971344470977783203125" lon="15.2276600000000001955413608811795711517333984375">
                <ele>1529.9033472000073743402026593685150146484375</ele>
            </trkpt>
            <trkpt lat="47.57175500000000312184056383557617664337158203125" lon="15.2281320000000004455387170310132205486297607421875">
                <ele>1529.033990400009997756569646298885345458984375</ele>
            </trkpt>
            <trkpt lat="47.572260999999997466147760860621929168701171875" lon="15.2281910000000006988329914747737348079681396484375">
                <ele>1530.68858543999112953315488994121551513671875</ele>
            </trkpt>
            <trkpt lat="47.5726039999999983365341904573142528533935546875" lon="15.22755599999999986948751029558479785919189453125">
                <ele>1534.461653759952469044947065412998199462890625</ele>
            </trkpt>
            <trkpt lat="47.57334999999999780584403197281062602996826171875" lon="15.226248999999999256260707625187933444976806640625">
                <ele>1555.157599999910189580987207591533660888671875</ele>
            </trkpt>
            <trkpt lat="47.5735719999999986384864314459264278411865234375" lon="15.225763000000000602085492573678493499755859375">
                <ele>1563.4334278399410322890616953372955322265625</ele>
            </trkpt>
            <trkpt lat="47.57361399999999918009052635170519351959228515625" lon="15.2252829999999992338644005940295755863189697265625">
                <ele>1568.354377279972368341987021267414093017578125</ele>
            </trkpt>
            <trkpt lat="47.57361399999999918009052635170519351959228515625" lon="15.2252829999999992338644005940295755863189697265625">
                <ele>1568.354377279972368341987021267414093017578125</ele>
            </trkpt>
            <trkpt lat="47.57366300000000336467564920894801616668701171875" lon="15.2247129999999994964809957309626042842864990234375">
                <ele>1575.251223200140657354495488107204437255859375</ele>
            </trkpt>
            <trkpt lat="47.57365899999999925285010249353945255279541015625" lon="15.2245989999999995490043147583492100238800048828125">
                <ele>1576.3142647999729888397268950939178466796875</ele>
            </trkpt>
            <trkpt lat="47.574173999999999296051100827753543853759765625" lon="15.2245709999999991879349181544966995716094970703125">
                <ele>1597.9370697599852064740844070911407470703125</ele>
            </trkpt>
            <trkpt lat="47.574804999999997789927874691784381866455078125" lon="15.2239489999999992875245879986323416233062744140625">
                <ele>1626.453195999920581016340292990207672119140625</ele>
            </trkpt>
            <trkpt lat="47.57490200000000157842805492691695690155029296875" lon="15.2237559999999998439079718082211911678314208984375">
                <ele>1630.771033600058444790192879736423492431640625</ele>
            </trkpt>
            <trkpt lat="47.5752870000000029904185794293880462646484375" lon="15.2233420000000005956053428235463798046112060546875">
                <ele>1648.15009120011518461978994309902191162109375</ele>
            </trkpt>
            <trkpt lat="47.57552299999999689816831960342824459075927734375" lon="15.2232420000000008286633601528592407703399658203125">
                <ele>1655.90869471988526129280216991901397705078125</ele>
            </trkpt>
            <trkpt lat="47.57573000000000007503331289626657962799072265625" lon="15.2232420000000008286633601528592407703399658203125">
                <ele>1664.54486720001614230568520724773406982421875</ele>
            </trkpt>
            <trkpt lat="47.5762270000000029313014238141477108001708984375" lon="15.2228989999999999582769305561669170856475830078125">
                <ele>1679.48224464012082535191439092159271240234375</ele>
            </trkpt>
            <trkpt lat="47.5769489999999990459400578401982784271240234375" lon="15.2229569999999991836148183210752904415130615234375">
                <ele>1702.64375631996927040745504200458526611328125</ele>
            </trkpt>
            <trkpt lat="47.57718100000000305271896650083363056182861328125" lon="15.2230709999999991310914992936886847019195556640625">
                <ele>1708.98621424002294588717631995677947998046875</ele>
            </trkpt>
            <trkpt lat="47.577595999999999776264303363859653472900390625" lon="15.2234590000000000742375050322152674198150634765625">
                <ele>1725.903043199999729040428064763545989990234375</ele>
            </trkpt>
            <trkpt lat="47.577595999999999776264303363859653472900390625" lon="15.2234590000000000742375050322152674198150634765625">
                <ele>1725.903043199999729040428064763545989990234375</ele>
            </trkpt>
            <trkpt lat="47.57824500000000256250132224522531032562255859375" lon="15.2243990000000000151203494169749319553375244140625">
                <ele>1749.45193040006734008784405887126922607421875</ele>
            </trkpt>
            <trkpt lat="47.5795609999999982164808898232877254486083984375" lon="15.2254419999999992541006577084772288799285888671875">
                <ele>1762.279831999980842738295905292034149169921875</ele>
            </trkpt>
            <trkpt lat="47.5801000000000016143530956469476222991943359375" lon="15.225956000000000045702108764089643955230712890625">
                <ele>1773.739615999999614359694533050060272216796875</ele>
            </trkpt>
            <trkpt lat="47.58050999999999675083017791621387004852294921875" lon="15.225956000000000045702108764089643955230712890625">
                <ele>1773.63964160000114134163595736026763916015625</ele>
            </trkpt>
            <trkpt lat="47.58068800000000209138306672684848308563232421875" lon="15.2260279999999994515746948309242725372314453125">
                <ele>1774.519543039996278821490705013275146484375</ele>
            </trkpt>
            <trkpt lat="47.5810680000000019163053366355597972869873046875" lon="15.2259989999999998389057509484700858592987060546875">
                <ele>1770.505367039966813536011613905429840087890625</ele>
            </trkpt>
            <trkpt lat="47.58137099999999719557308708317577838897705078125" lon="15.2262590000000006540403774124570190906524658203125">
                <ele>1772.61238608004941852414049208164215087890625</ele>
            </trkpt>
            <trkpt lat="47.58155000000000001136868377216160297393798828125" lon="15.2262699999999995270627550780773162841796875">
                <ele>1770.934319999985973481670953333377838134765625</ele>
            </trkpt>
            <trkpt lat="47.58167999999999864257915760390460491180419921875" lon="15.2264700000000008373035598197020590305328369140625">
                <ele>1775.91712000004781657480634748935699462890625</ele>
            </trkpt>
            <trkpt lat="47.58213200000000142608769237995147705078125" lon="15.22677900000000050795279094018042087554931640625">
                <ele>1775.877923199982205915148369967937469482421875</ele>
            </trkpt>
            <trkpt lat="47.58287500000000136424205265939235687255859375" lon="15.226620000000000487716533825732767581939697265625">
                <ele>1765.057600000005322726792655885219573974609375</ele>
            </trkpt>
            <trkpt lat="47.58316899999999805004335939884185791015625" lon="15.2266490000000001003854777081869542598724365234375">
                <ele>1763.365161280021993661648593842983245849609375</ele>
            </trkpt>
            <trkpt lat="47.5832180000000022346284822560846805572509765625" lon="15.2266759999999994334984876331873238086700439453125">
                <ele>1763.701799679972964440821669995784759521484375</ele>
            </trkpt>
            <trkpt lat="47.5832180000000022346284822560846805572509765625" lon="15.2266759999999994334984876331873238086700439453125">
                <ele>1763.701799679972964440821669995784759521484375</ele>
            </trkpt>
            <trkpt lat="47.58359300000000047248249757103621959686279296875" lon="15.2268769999999999953388396534137427806854248046875">
                <ele>1761.89752623999493152950890362262725830078125</ele>
            </trkpt>
            <trkpt lat="47.584012000000001307853381149470806121826171875" lon="15.2271739999999997650093064294196665287017822265625">
                <ele>1763.660273919986366308876313269138336181640625</ele>
            </trkpt>
            <trkpt lat="47.58462999999999709643816458992660045623779296875" lon="15.2279959999999991993036019266583025455474853515625">
                <ele>1770.300012800013064406812191009521484375</ele>
            </trkpt>
            <trkpt lat="47.584834000000000742147676646709442138671875" lon="15.228030000000000399040800402872264385223388671875">
                <ele>1769.35214719999612498213537037372589111328125</ele>
            </trkpt>
            <trkpt lat="47.5849249999999983629095368087291717529296875" lon="15.2280730000000001922444425872527062892913818359375">
                <ele>1768.8085040000078151933848857879638671875</ele>
            </trkpt>
            <trkpt lat="47.586106999999998379280441440641880035400390625" lon="15.2279900000000001369926394545473158359527587890625">
                <ele>1757.033684800032688144710846245288848876953125</ele>
            </trkpt>
            <trkpt lat="47.58648500000000325371729559265077114105224609375" lon="15.2282729999999997261284079286269843578338623046875">
                <ele>1752.748280799956091868807561695575714111328125</ele>
            </trkpt>
            <trkpt lat="47.58692099999999669535100110806524753570556640625" lon="15.228249999999999175770426518283784389495849609375">
                <ele>1748.2077600000038728467188775539398193359375</ele>
            </trkpt>
            <trkpt lat="47.587456000000003086825017817318439483642578125" lon="15.228573000000000803311195340938866138458251953125">
                <ele>1747.574532479994331879424862563610076904296875</ele>
            </trkpt>
            <trkpt lat="47.58751300000000128420651890337467193603515625" lon="15.228573000000000803311195340938866138458251953125">
                <ele>1747.5068328000006658839993178844451904296875</ele>
            </trkpt>
            <trkpt lat="47.58761700000000161026036948896944522857666015625" lon="15.2286640000000002004298949032090604305267333984375">
                <ele>1747.63815360000216969638131558895111083984375</ele>
            </trkpt>
            <trkpt lat="47.58796699999999901820046943612396717071533203125" lon="15.22870999999999952478901832364499568939208984375">
                <ele>1748.206103999996912534697912633419036865234375</ele>
            </trkpt>
            <trkpt lat="47.5884769999999974743332131765782833099365234375" lon="15.228536999999999324018062907271087169647216796875">
                <ele>1746.07068384002332095406018197536468505859375</ele>
            </trkpt>
            <trkpt lat="47.5886169999999992796801961958408355712890625" lon="15.228666000000000479985828860662877559661865234375">
                <ele>1745.9732275200121875968761742115020751953125</ele>
            </trkpt>
            <trkpt lat="47.589055000000001882654032669961452484130859375" lon="15.2288499999999995537791619426570832729339599609375">
                <ele>1745.8588799999806724372319877147674560546875</ele>
            </trkpt>
            <trkpt lat="47.58945299999999889450918999500572681427001953125" lon="15.2291910000000001446096575818955898284912109375">
                <ele>1747.00689680002187742502428591251373291015625</ele>
            </trkpt>
            <trkpt lat="47.59064000000000049794834922067821025848388671875" lon="15.2298179999999998557314029312692582607269287109375">
                <ele>1741.032031999993705539964139461517333984375</ele>
            </trkpt>
            <trkpt lat="47.5917869999999965102688292972743511199951171875" lon="15.2302370000000006911022865097038447856903076171875">
                <ele>1740.883191679994752121274359524250030517578125</ele>
            </trkpt>
            <trkpt lat="47.591949999999997089616954326629638671875" lon="15.2302640000000000242152964347042143344879150390625">
                <ele>1740.0858560000060606398619711399078369140625</ele>
            </trkpt>
            <trkpt lat="47.591949999999997089616954326629638671875" lon="15.2302640000000000242152964347042143344879150390625">
                <ele>1740.0858560000060606398619711399078369140625</ele>
            </trkpt>
            <trkpt lat="47.59200100000000333011485054157674312591552734375" lon="15.230273000000000394038579543121159076690673828125">
                <ele>1739.7940025599846194381825625896453857421875</ele>
            </trkpt>
            <trkpt lat="47.59206100000000105865183286368846893310546875" lon="15.2302429999999997534132489818148314952850341796875">
                <ele>1740.29137856000352257979102432727813720703125</ele>
            </trkpt>
            <trkpt lat="47.5921000000000020691004465334117412567138671875" lon="15.230270000000000862883098307065665721893310546875">
                <ele>1739.630239999976538456394337117671966552734375</ele>
            </trkpt>
            <trkpt lat="47.59218299999999857163857086561620235443115234375" lon="15.2302809999999997359054759726859629154205322265625">
                <ele>1739.185650560009889886714518070220947265625</ele>
            </trkpt>
            <trkpt lat="47.5923709999999999809006112627685070037841796875" lon="15.2302429999999997534132489818148314952850341796875">
                <ele>1739.73367616000678026466630399227142333984375</ele>
            </trkpt>
            <trkpt lat="47.592534999999998035491444170475006103515625" lon="15.2302499999999998436805981327779591083526611328125">
                <ele>1738.79600000003347304300405085086822509765625</ele>
            </trkpt>
            <trkpt lat="47.59260499999999893816493568010628223419189453125" lon="15.2301929999999998699422576464712619781494140625">
                <ele>1739.429600000019718208932317793369293212890625</ele>
            </trkpt>
            <trkpt lat="47.5927760000000006357367965392768383026123046875" lon="15.2301369999999991478034644387662410736083984375">
                <ele>1738.580000000016070771380327641963958740234375</ele>
            </trkpt>
            <trkpt lat="47.5928669999999982564986567012965679168701171875" lon="15.2301769999999994098516253870911896228790283203125">
                <ele>1736.11760000004278481355868279933929443359375</ele>
            </trkpt>
            <trkpt lat="47.59307700000000096451913123019039630889892578125" lon="15.230176000000000158252078108489513397216796875">
                <ele>1733.122399999982235385687090456485748291015625</ele>
            </trkpt>
            <trkpt lat="47.59318400000000082172846305184066295623779296875" lon="15.2302079999999993020765032269991934299468994140625">
                <ele>1730.660000000008949427865445613861083984375</ele>
            </trkpt>
            <trkpt lat="47.59325700000000125555743579752743244171142578125" lon="15.2301920000000006183427103678695857524871826171875">
                <ele>1730.06959999996479382389225065708160400390625</ele>
            </trkpt>
            <trkpt lat="47.59332299999999804640538059175014495849609375" lon="15.230242000000000501813701703213155269622802734375">
                <ele>1727.679200000014361648936755955219268798828125</ele>
            </trkpt>
            <trkpt lat="47.59341100000000324143911711871623992919921875" lon="15.23020999999999958163243718445301055908203125">
                <ele>1728.91874560003134320140816271305084228515625</ele>
            </trkpt>
            <trkpt lat="47.59352700000000169211489264853298664093017578125" lon="15.230233999999999383589965873397886753082275390625">
                <ele>1728.951431680027553738909773528575897216796875</ele>
            </trkpt>
            <trkpt lat="47.5935649999999981218934408389031887054443359375" lon="15.2302040000000005193214747123420238494873046875">
                <ele>1730.00901759997441331506706774234771728515625</ele>
            </trkpt>
            <trkpt lat="47.5936889999999976907929521985352039337158203125" lon="15.230211000000000609588823863305151462554931640625">
                <ele>1730.56266303996972055756486952304840087890625</ele>
            </trkpt>
            <trkpt lat="47.593919999999997116901795379817485809326171875" lon="15.23008899999999954388840706087648868560791015625">
                <ele>1735.053548799996178786386735737323760986328125</ele>
            </trkpt>
            <trkpt lat="47.59396600000000177033143700100481510162353515625" lon="15.2301029999999997244231053628027439117431640625">
                <ele>1734.94574848001639111316762864589691162109375</ele>
            </trkpt>
            <trkpt lat="47.5941609999999997171471477486193180084228515625" lon="15.2299620000000004438334144651889801025390625">
                <ele>1736.9686201600152344326488673686981201171875</ele>
            </trkpt>
            <trkpt lat="47.59426899999999704959918744862079620361328125" lon="15.229974999999999596411726088263094425201416015625">
                <ele>1738.101895999965336159220896661281585693359375</ele>
            </trkpt>
            <trkpt lat="47.5942950000000024601831682957708835601806640625" lon="15.229995999999999867213773541152477264404296875">
                <ele>1739.107164800008149541099555790424346923828125</ele>
            </trkpt>
            <trkpt lat="47.59438300000000054978954722173511981964111328125" lon="15.22995399999999932560967863537371158599853515625">
                <ele>1737.890420479973954570596106350421905517578125</ele>
            </trkpt>
            <trkpt lat="47.59466499999999911096892901696264743804931640625" lon="15.2299729999999993168557921308092772960662841796875">
                <ele>1740.304548799963640703936107456684112548828125</ele>
            </trkpt>
            <trkpt lat="47.59481099999999997862687450833618640899658203125" lon="15.2300599999999999312194631784223020076751708984375">
                <ele>1741.92806719999998676939867436885833740234375</ele>
            </trkpt>
            <trkpt lat="47.5948709999999977071638568304479122161865234375" lon="15.230154999999999887450030655600130558013916015625">
                <ele>1741.835729599976957615581341087818145751953125</ele>
            </trkpt>
            <trkpt lat="47.5949719999999985020622261799871921539306640625" lon="15.230169000000000067984728957526385784149169921875">
                <ele>1742.803746559983437691698782145977020263671875</ele>
            </trkpt>
            <trkpt lat="47.59507800000000088402885012328624725341796875" lon="15.230126999999999526380634051747620105743408203125">
                <ele>1744.188258560011263398337177932262420654296875</ele>
            </trkpt>
            <trkpt lat="47.59519999999999839701558812521398067474365234375" lon="15.2301939999999991215418049250729382038116455078125">
                <ele>1745.657887999979038795572705566883087158203125</ele>
            </trkpt>
            <trkpt lat="47.59539500000000344925865647383034229278564453125" lon="15.2301929999999998699422576464712619781494140625">
                <ele>1748.21591360004413218121044337749481201171875</ele>
            </trkpt>
            <trkpt lat="47.59552699999999703095454606227576732635498046875" lon="15.2301289999999998059365680092014372348785400390625">
                <ele>1749.905982079960949704400263726711273193359375</ele>
            </trkpt>
            <trkpt lat="47.5957250000000016143530956469476222991943359375" lon="15.2300920000000008514007276971824467182159423828125">
                <ele>1752.36339200002066718298010528087615966796875</ele>
            </trkpt>
            <trkpt lat="47.59594899999999739748091087676584720611572265625" lon="15.229870999999999270357875502668321132659912109375">
                <ele>1750.066300959958198291133157908916473388671875</ele>
            </trkpt>
            <trkpt lat="47.596215999999998302882886491715908050537109375" lon="15.2297180000000000887894202605821192264556884765625">
                <ele>1749.44960511997715002507902681827545166015625</ele>
            </trkpt>
            <trkpt lat="47.5964699999999965029928716830909252166748046875" lon="15.229388000000000147338141687214374542236328125">
                <ele>1750.736166399903368073864839971065521240234375</ele>
            </trkpt>
            <trkpt lat="47.59653399999999834335540072061121463775634765625" lon="15.229333000000000453155735158361494541168212890625">
                <ele>1752.2867132799519822583533823490142822265625</ele>
            </trkpt>
            <trkpt lat="47.5965860000000020590960048139095306396484375" lon="15.22916599999999931469574221409857273101806640625">
                <ele>1753.477625600053897869656793773174285888671875</ele>
            </trkpt>
            <trkpt lat="47.59666200000000202408045879565179347991943359375" lon="15.2290820000000000078443918027915060520172119140625">
                <ele>1753.679110400077433951082639396190643310546875</ele>
            </trkpt>
            <trkpt lat="47.59679299999999813053364050574600696563720703125" lon="15.228849000000000302179614664055407047271728515625">
                <ele>1747.0879278399997929227538406848907470703125</ele>
            </trkpt>
            <trkpt lat="47.59705999999999903593561612069606781005859375" lon="15.2285699999999994957988747046329081058502197265625">
                <ele>1743.7047039999770277063362300395965576171875</ele>
            </trkpt>
            <trkpt lat="47.5971339999999969450072967447340488433837890625" lon="15.228384999999999394049154943786561489105224609375">
                <ele>1742.3892207999242600635625422000885009765625</ele>
            </trkpt>
            <trkpt lat="47.5972459999999983892848831601440906524658203125" lon="15.22825399999999973488229443319141864776611328125">
                <ele>1743.05391167995321666239760816097259521484375</ele>
            </trkpt>
            <trkpt lat="47.59734499999999712827047915197908878326416015625" lon="15.228014999999999190549715422093868255615234375">
                <ele>1742.1341159998964940314181149005889892578125</ele>
            </trkpt>
            <trkpt lat="47.59738899999999972578734741546213626861572265625" lon="15.2279630000000008038796295295469462871551513671875">
                <ele>1742.830100640001319334260188043117523193359375</ele>
            </trkpt>
            <trkpt lat="47.59739400000000131285560200922191143035888671875" lon="15.2279169999999997031636667088605463504791259765625">
                <ele>1742.37926496004047294263727962970733642578125</ele>
            </trkpt>
            <trkpt lat="47.597454999999996516635292209684848785400390625" lon="15.227812000000000125510268844664096832275390625">
                <ele>1743.215299199873015822959132492542266845703125</ele>
            </trkpt>
            <trkpt lat="47.59756900000000001682565198279917240142822265625" lon="15.2277170000000001692797013674862682819366455078125">
                <ele>1742.93024976000151582411490380764007568359375</ele>
            </trkpt>
            <trkpt lat="47.59796200000000254703991231508553028106689453125" lon="15.2274750000000000937916411203332245349884033203125">
                <ele>1739.13861599998972451430745422840118408203125</ele>
            </trkpt>
            <trkpt lat="47.5980550000000022237145458348095417022705078125" lon="15.227316999999999325154931284487247467041015625">
                <ele>1738.10209679999434229102917015552520751953125</ele>
            </trkpt>
            <trkpt lat="47.5980550000000022237145458348095417022705078125" lon="15.227316999999999325154931284487247467041015625">
                <ele>1738.10209679999434229102917015552520751953125</ele>
            </trkpt>
            <trkpt lat="47.59854399999999685633156332187354564666748046875" lon="15.22648099999999971032593748532235622406005859375">
                <ele>1734.04177216000607586465775966644287109375</ele>
            </trkpt>
            <trkpt lat="47.59926200000000306999936583451926708221435546875" lon="15.22557499999999919282345217652618885040283203125">
                <ele>1739.498496000038130659959279000759124755859375</ele>
            </trkpt>
            <trkpt lat="47.5996949999999969804775901138782501220703125" lon="15.225536999999999210331225185655057430267333984375">
                <ele>1744.89310559997420568834058940410614013671875</ele>
            </trkpt>
            <trkpt lat="47.5998299999999971987563185393810272216796875" lon="15.225459000000000742147676646709442138671875">
                <ele>1747.833484799948564614169299602508544921875</ele>
            </trkpt>
            <trkpt lat="47.6005660000000005993570084683597087860107421875" lon="15.2255020000000005353513188310898840427398681640625">
                <ele>1775.469799680011192322126589715480804443359375</ele>
            </trkpt>
            <trkpt lat="47.60074399999999883448253967799246311187744140625" lon="15.225628000000000383806764148175716400146484375">
                <ele>1780.602343679933483144850470125675201416015625</ele>
            </trkpt>
            <trkpt lat="47.60086700000000092813934315927326679229736328125" lon="15.2260390000000001009539118967950344085693359375">
                <ele>1776.576741440033629260142333805561065673828125</ele>
            </trkpt>
            <trkpt lat="47.6008589999999998099156073294579982757568359375" lon="15.226326000000000249201548285782337188720703125">
                <ele>1770.4408179199881487875245511531829833984375</ele>
            </trkpt>
            <trkpt lat="47.6009389999999967812982504256069660186767578125" lon="15.226563999999999765577740618027746677398681640625">
                <ele>1768.747556479878994650789536535739898681640625</ele>
            </trkpt>
            <trkpt lat="47.6009150000000005320544005371630191802978515625" lon="15.2266980000000007322569217649288475513458251953125">
                <ele>1766.0156240000278557999990880489349365234375</ele>
            </trkpt>
            <trkpt lat="47.6009549999999990177457220852375030517578125" lon="15.2267820000000000391082721762359142303466796875">
                <ele>1768.38783199996078110416419804096221923828125</ele>
            </trkpt>
            <trkpt lat="47.6009590000000031295712688006460666656494140625" lon="15.226915999999999229430613922886550426483154296875">
                <ele>1769.796396800122465720050968229770660400390625</ele>
            </trkpt>
            <trkpt lat="47.6010380000000026257112040184438228607177734375" lon="15.227045000000000385398379876278340816497802734375">
                <ele>1774.340312000115090995677746832370758056640625</ele>
            </trkpt>
            <trkpt lat="47.60119900000000114914655569009482860565185546875" lon="15.227090000000000458157956018112599849700927734375">
                <ele>1781.65095200005407605203799903392791748046875</ele>
            </trkpt>
            <trkpt lat="47.6013779999999968595147947780787944793701171875" lon="15.227064999999999628244040650315582752227783203125">
                <ele>1788.976903999862088312511332333087921142578125</ele>
            </trkpt>
            <trkpt lat="47.6015119999999996025508153252303600311279296875" lon="15.22687799999999924693838693201541900634765625">
                <ele>1792.18305919997374076046980917453765869140625</ele>
            </trkpt>
            <trkpt lat="47.60162100000000151567292050458490848541259765625" lon="15.22676799999999985857357387430965900421142578125">
                <ele>1795.117481600059136326308362185955047607421875</ele>
            </trkpt>
            <trkpt lat="47.6019170000000002573870006017386913299560546875" lon="15.2268249999999998323119143606163561344146728515625">
                <ele>1803.244276000002400905941613018512725830078125</ele>
            </trkpt>
            <trkpt lat="47.60221399999999647434378857724368572235107421875" lon="15.2267820000000000391082721762359142303466796875">
                <ele>1809.074101119923170699621550738811492919921875</ele>
            </trkpt>
            <trkpt lat="47.6024689999999992551238392479717731475830078125" lon="15.2268190000000007700009518885053694248199462890625">
                <ele>1815.199999839994916328578256070613861083984375</ele>
            </trkpt>
            <trkpt lat="47.60256799999999799410943523980677127838134765625" lon="15.22667200000000065074345911853015422821044921875">
                <ele>1812.68246656003657335531897842884063720703125</ele>
            </trkpt>
            <trkpt lat="47.60270100000000326190274790860712528228759765625" lon="15.226684999999999803321770741604268550872802734375">
                <ele>1811.100961599953961922437883913516998291015625</ele>
            </trkpt>
            <trkpt lat="47.60278000000000275804268312640488147735595703125" lon="15.2267659999999995790176399168558418750762939453125">
                <ele>1811.1132927999560706666670739650726318359375</ele>
            </trkpt>
            <trkpt lat="47.60293399999999763849700684659183025360107421875" lon="15.2268270000000001118678483180701732635498046875">
                <ele>1809.6711884800361076486296951770782470703125</ele>
            </trkpt>
            <trkpt lat="47.6029860000000013542376109398901462554931640625" lon="15.22689199999999942747308523394167423248291015625">
                <ele>1809.653816319973202553228475153446197509765625</ele>
            </trkpt>
            <trkpt lat="47.603126000000003159584593959152698516845703125" lon="15.227365999999999957026375341229140758514404296875">
                <ele>1812.36395775993923962232656776905059814453125</ele>
            </trkpt>
            <trkpt lat="47.60331599999999951933205011300742626190185546875" lon="15.227586999999999761712388135492801666259765625">
                <ele>1811.42177152000613205018453299999237060546875</ele>
            </trkpt>
            <trkpt lat="47.60350199999999887268131715245544910430908203125" lon="15.2279649999999993070787240867502987384796142578125">
                <ele>1813.887982400015744133270345628261566162109375</ele>
            </trkpt>
            <trkpt lat="47.6041069999999990614014677703380584716796875" lon="15.2286319999999992802486303844489157199859619140625">
                <ele>1813.39904831999456291669048368930816650390625</ele>
            </trkpt>
            <trkpt lat="47.60421099999999938745531835593283176422119140625" lon="15.2287750000000006167510946397669613361358642578125">
                <ele>1815.914228000030334442271851003170013427734375</ele>
            </trkpt>
            <trkpt lat="47.60432999999999736928657512180507183074951171875" lon="15.2288599999999991752019923296757042407989501953125">
                <ele>1816.080896000029269998776726424694061279296875</ele>
            </trkpt>
            <trkpt lat="47.60484100000000040608938434161245822906494140625" lon="15.2290130000000001331272869720123708248138427734375">
                <ele>1809.559715359995379913016222417354583740234375</ele>
            </trkpt>
            <trkpt lat="47.60498299999999716192178311757743358612060546875" lon="15.2291299999999996117594491806812584400177001953125">
                <ele>1809.089316800056394640705548226833343505859375</ele>
            </trkpt>
            <trkpt lat="47.60504900000000105819708551280200481414794921875" lon="15.229245999999999838792064110748469829559326171875">
                <ele>1809.2591977599722667946480214595794677734375</ele>
            </trkpt>
            <trkpt lat="47.60515500000000344016370945610105991363525390625" lon="15.229352999999999696001395932398736476898193359375">
                <ele>1807.909189599908359014079906046390533447265625</ele>
            </trkpt>
            <trkpt lat="47.60520100000000098816599347628653049468994140625" lon="15.2295730000000002490878614480607211589813232421875">
                <ele>1809.674809119979954630252905189990997314453125</ele>
            </trkpt>
            <trkpt lat="47.6053050000000013142198440618813037872314453125" lon="15.2298360000000005953779691481031477451324462890625">
                <ele>1810.577171199976646676077507436275482177734375</ele>
            </trkpt>
            <trkpt lat="47.6054409999999990077412803657352924346923828125" lon="15.230067999999999273086359607987105846405029296875">
                <ele>1808.743530880033858920796774327754974365234375</ele>
            </trkpt>
            <trkpt lat="47.6054749999999984311216394416987895965576171875" lon="15.230278999999999456349542015232145786285400390625">
                <ele>1805.9453440000443151802755892276763916015625</ele>
            </trkpt>
            <trkpt lat="47.60536900000000315458237309940159320831298828125" lon="15.2305080000000003792592906393110752105712890625">
                <ele>1806.184923519928133828216232359409332275390625</ele>
            </trkpt>
            <trkpt lat="47.6051870000000008076312951743602752685546875" lon="15.2309870000000007195239959401078522205352783203125">
                <ele>1804.968952319979280218831263482570648193359375</ele>
            </trkpt>
            <trkpt lat="47.60515099999999932833816274069249629974365234375" lon="15.2311169999999993507344697718508541584014892578125">
                <ele>1804.07496576001949506462551653385162353515625</ele>
            </trkpt>
            <trkpt lat="47.605153000000001384250936098396778106689453125" lon="15.2314570000000006899654181324876844882965087890625">
                <ele>1800.04687487997944117523729801177978515625</ele>
            </trkpt>
            <trkpt lat="47.60517800000000221416485146619379520416259765625" lon="15.2318709999999999382680471171624958515167236328125">
                <ele>1794.556294400000979294418357312679290771484375</ele>
            </trkpt>
            <trkpt lat="47.60517300000000062709659687243402004241943359375" lon="15.232265999999999195324562606401741504669189453125">
                <ele>1788.9409184000178356654942035675048828125</ele>
            </trkpt>
            <trkpt lat="47.605221000000000231011654250323772430419921875" lon="15.2326899999999998414068613783456385135650634765625">
                <ele>1783.215502400006471361848525702953338623046875</ele>
            </trkpt>
            <trkpt lat="47.60535800000000250520315603353083133697509765625" lon="15.233219999999999316742105293087661266326904296875">
                <ele>1780.7000576001237277523614466190338134765625</ele>
            </trkpt>
            <trkpt lat="47.6054979999999972051227814517915248870849609375" lon="15.2333909999999992379571267520077526569366455078125">
                <ele>1784.824801919867468313896097242832183837890625</ele>
            </trkpt>
            <trkpt lat="47.6055769999999967012627166695892810821533203125" lon="15.233574000000000836507751955650746822357177734375">
                <ele>1783.45749311976442186278291046619415283203125</ele>
            </trkpt>
            <trkpt lat="47.60563599999999695455699111334979534149169921875" lon="15.233636000000000620957507635466754436492919921875">
                <ele>1785.30705023978089229785837233066558837890625</ele>
            </trkpt>
            <trkpt lat="47.60582000000000135742084239609539508819580078125" lon="15.233610999999999791043592267669737339019775390625">
                <ele>1797.659788800084470494766719639301300048828125</ele>
            </trkpt>
            <trkpt lat="47.60614699999999999135980033315718173980712890625" lon="15.23391600000000067893779487349092960357666015625">
                <ele>1797.104504319989473515306599438190460205078125</ele>
            </trkpt>
            <trkpt lat="47.6061710000000033460310078226029872894287109375" lon="15.2340210000000002565911927376873791217803955078125">
                <ele>1795.9483945600586594082415103912353515625</ele>
            </trkpt>
            <trkpt lat="47.606234000000000605723471380770206451416015625" lon="15.23404000000000024783730623312294483184814453125">
                <ele>1796.867257600008315421291626989841461181640625</ele>
            </trkpt>
            <trkpt lat="47.6064530000000019072103896178305149078369140625" lon="15.2343829999999993418668964295648038387298583984375">
                <ele>1796.902826720072653188253752887248992919921875</ele>
            </trkpt>
            <trkpt lat="47.60665399999999891633706283755600452423095703125" lon="15.2348470000000002499973561498336493968963623046875">
                <ele>1802.134456639936615829356014728546142578125</ele>
            </trkpt>
            <trkpt lat="47.60687599999999974897946231067180633544921875" lon="15.2349890000000005585434337262995541095733642578125">
                <ele>1796.28619008000487156095914542675018310546875</ele>
            </trkpt>
            <trkpt lat="47.60692999999999841520548216067254543304443359375" lon="15.2350779999999996761061993311159312725067138671875">
                <ele>1793.9155968000477514578960835933685302734375</ele>
            </trkpt>
            <trkpt lat="47.60692000000000234649633057415485382080078125" lon="15.235198000000000462250682176090776920318603515625">
                <ele>1793.111347199938109042705036699771881103515625</ele>
            </trkpt>
            <trkpt lat="47.6069949999999977308107190765440464019775390625" lon="15.2355070000000001328999132965691387653350830078125">
                <ele>1789.055572800037907654768787324428558349609375</ele>
            </trkpt>
            <trkpt lat="47.6070169999999990295691532082855701446533203125" lon="15.2357239999999993784740581759251654148101806640625">
                <ele>1787.2699833600154306623153388500213623046875</ele>
            </trkpt>
            <trkpt lat="47.6070840000000004010871634818613529205322265625" lon="15.2359360000000005896936272620223462581634521484375">
                <ele>1784.7020812799901250400580465793609619140625</ele>
            </trkpt>
            <trkpt lat="47.60709899999999805686456966213881969451904296875" lon="15.2362739999999998730118022649548947811126708984375">
                <ele>1780.445238720001952970051206648349761962890625</ele>
            </trkpt>
            <trkpt lat="47.60705500000000256477505899965763092041015625" lon="15.2362389999999994216750565101392567157745361328125">
                <ele>1780.911434400005646239151246845722198486328125</ele>
            </trkpt>
            <trkpt lat="47.60696500000000241925590671598911285400390625" lon="15.23637899999999945066520012915134429931640625">
                <ele>1778.909839200012584115029312670230865478515625</ele>
            </trkpt>
            <trkpt lat="47.60695799999999877627487876452505588531494140625" lon="15.236515000000000696900315233506262302398681640625">
                <ele>1776.864446399984217350720427930355072021484375</ele>
            </trkpt>
            <trkpt lat="47.6068149999999974397724145092070102691650390625" lon="15.2366580000000002570459400885738432407379150390625">
                <ele>1773.720734399977345674415118992328643798828125</ele>
            </trkpt>
            <trkpt lat="47.60681799999999697092789574526250362396240234375" lon="15.2367539999999994648760548443533480167388916015625">
                <ele>1774.13313471998253589845262467861175537109375</ele>
            </trkpt>
            <trkpt lat="47.606887000000000398358679376542568206787109375" lon="15.2369280000000006936033969395793974399566650390625">
                <ele>1775.16756736000252203666605055332183837890625</ele>
            </trkpt>
            <trkpt lat="47.60692300000000187765181181021034717559814453125" lon="15.237154000000000309000824927352368831634521484375">
                <ele>1775.831225919986763983615674078464508056640625</ele>
            </trkpt>
            <trkpt lat="47.606932000000000471118255518376827239990234375" lon="15.2374349999999996185806594439782202243804931640625">
                <ele>1776.5435391999917555949650704860687255859375</ele>
            </trkpt>
            <trkpt lat="47.60700299999999884903445490635931491851806640625" lon="15.237740999999999758074409328401088714599609375">
                <ele>1778.92681120001316230627708137035369873046875</ele>
            </trkpt>
            <trkpt lat="47.60699699999999978672349243424832820892333984375" lon="15.23787300000000044519765651784837245941162109375">
                <ele>1780.9090864000090732588432729244232177734375</ele>
            </trkpt>
            <trkpt lat="47.60707099999999769579517305828630924224853515625" lon="15.2380739999999992306811691378243267536163330078125">
                <ele>1783.074457600010418900637887418270111083984375</ele>
            </trkpt>
            <trkpt lat="47.6071060000000016998455976136028766632080078125" lon="15.2383880000000004883986548520624637603759765625">
                <ele>1787.18927104000249528326094150543212890625</ele>
            </trkpt>
            <trkpt lat="47.60719300000000231420926866121590137481689453125" lon="15.2387010000000007181597538874484598636627197265625">
                <ele>1791.846058240084175849915482103824615478515625</ele>
            </trkpt>
            <trkpt lat="47.60735199999999878173184697516262531280517578125" lon="15.23888600000000081990947364829480648040771484375">
                <ele>1802.772328959961896543973125517368316650390625</ele>
            </trkpt>
            <trkpt lat="47.6074440000000009831637726165354251861572265625" lon="15.2390260000000008488996172673068940639495849609375">
                <ele>1813.23112192009784848778508603572845458984375</ele>
            </trkpt>
            <trkpt lat="47.607472999999998819475877098739147186279296875" lon="15.239492999999999511828718823380768299102783203125">
                <ele>1810.768687839920630722190253436565399169921875</ele>
            </trkpt>
            <trkpt lat="47.60746100000000069485395215451717376708984375" lon="15.23951100000000025147528504021465778350830078125">
                <ele>1809.22733776004679384641349315643310546875</ele>
            </trkpt>
            <trkpt lat="47.60746100000000069485395215451717376708984375" lon="15.23951100000000025147528504021465778350830078125">
                <ele>1809.22733776004679384641349315643310546875</ele>
            </trkpt>
            <trkpt lat="47.607472999999998819475877098739147186279296875" lon="15.239492999999999511828718823380768299102783203125">
                <ele>1810.768687839920630722190253436565399169921875</ele>
            </trkpt>
            <trkpt lat="47.6074440000000009831637726165354251861572265625" lon="15.2390260000000008488996172673068940639495849609375">
                <ele>1813.23112192009784848778508603572845458984375</ele>
            </trkpt>
            <trkpt lat="47.60735199999999878173184697516262531280517578125" lon="15.23888600000000081990947364829480648040771484375">
                <ele>1802.772328959961896543973125517368316650390625</ele>
            </trkpt>
            <trkpt lat="47.60719300000000231420926866121590137481689453125" lon="15.2387010000000007181597538874484598636627197265625">
                <ele>1791.846058240084175849915482103824615478515625</ele>
            </trkpt>
            <trkpt lat="47.6071060000000016998455976136028766632080078125" lon="15.2383880000000004883986548520624637603759765625">
                <ele>1787.18927104000249528326094150543212890625</ele>
            </trkpt>
            <trkpt lat="47.60707099999999769579517305828630924224853515625" lon="15.2380739999999992306811691378243267536163330078125">
                <ele>1783.074457600010418900637887418270111083984375</ele>
            </trkpt>
            <trkpt lat="47.60699699999999978672349243424832820892333984375" lon="15.23787300000000044519765651784837245941162109375">
                <ele>1780.9090864000090732588432729244232177734375</ele>
            </trkpt>
            <trkpt lat="47.60700299999999884903445490635931491851806640625" lon="15.237740999999999758074409328401088714599609375">
                <ele>1778.92681120001316230627708137035369873046875</ele>
            </trkpt>
            <trkpt lat="47.606932000000000471118255518376827239990234375" lon="15.2374349999999996185806594439782202243804931640625">
                <ele>1776.5435391999917555949650704860687255859375</ele>
            </trkpt>
            <trkpt lat="47.60692300000000187765181181021034717559814453125" lon="15.237154000000000309000824927352368831634521484375">
                <ele>1775.831225919986763983615674078464508056640625</ele>
            </trkpt>
            <trkpt lat="47.606887000000000398358679376542568206787109375" lon="15.2369280000000006936033969395793974399566650390625">
                <ele>1775.16756736000252203666605055332183837890625</ele>
            </trkpt>
            <trkpt lat="47.60681799999999697092789574526250362396240234375" lon="15.2367539999999994648760548443533480167388916015625">
                <ele>1774.13313471998253589845262467861175537109375</ele>
            </trkpt>
            <trkpt lat="47.6068149999999974397724145092070102691650390625" lon="15.2366580000000002570459400885738432407379150390625">
                <ele>1773.720734399977345674415118992328643798828125</ele>
            </trkpt>
            <trkpt lat="47.60695799999999877627487876452505588531494140625" lon="15.236515000000000696900315233506262302398681640625">
                <ele>1776.864446399984217350720427930355072021484375</ele>
            </trkpt>
            <trkpt lat="47.60696500000000241925590671598911285400390625" lon="15.23637899999999945066520012915134429931640625">
                <ele>1778.909839200012584115029312670230865478515625</ele>
            </trkpt>
            <trkpt lat="47.60705500000000256477505899965763092041015625" lon="15.2362389999999994216750565101392567157745361328125">
                <ele>1780.911434400005646239151246845722198486328125</ele>
            </trkpt>
            <trkpt lat="47.60709899999999805686456966213881969451904296875" lon="15.2362739999999998730118022649548947811126708984375">
                <ele>1780.445238720001952970051206648349761962890625</ele>
            </trkpt>
            <trkpt lat="47.6070840000000004010871634818613529205322265625" lon="15.2359360000000005896936272620223462581634521484375">
                <ele>1784.7020812799901250400580465793609619140625</ele>
            </trkpt>
            <trkpt lat="47.6070169999999990295691532082855701446533203125" lon="15.2357239999999993784740581759251654148101806640625">
                <ele>1787.2699833600154306623153388500213623046875</ele>
            </trkpt>
            <trkpt lat="47.6069949999999977308107190765440464019775390625" lon="15.2355070000000001328999132965691387653350830078125">
                <ele>1789.055572800037907654768787324428558349609375</ele>
            </trkpt>
            <trkpt lat="47.60692000000000234649633057415485382080078125" lon="15.235198000000000462250682176090776920318603515625">
                <ele>1793.111347199938109042705036699771881103515625</ele>
            </trkpt>
            <trkpt lat="47.60692999999999841520548216067254543304443359375" lon="15.2350779999999996761061993311159312725067138671875">
                <ele>1793.9155968000477514578960835933685302734375</ele>
            </trkpt>
            <trkpt lat="47.60687599999999974897946231067180633544921875" lon="15.2349890000000005585434337262995541095733642578125">
                <ele>1796.28619008000487156095914542675018310546875</ele>
            </trkpt>
            <trkpt lat="47.60665399999999891633706283755600452423095703125" lon="15.2348470000000002499973561498336493968963623046875">
                <ele>1802.134456639936615829356014728546142578125</ele>
            </trkpt>
            <trkpt lat="47.6064530000000019072103896178305149078369140625" lon="15.2343829999999993418668964295648038387298583984375">
                <ele>1796.902826720072653188253752887248992919921875</ele>
            </trkpt>
            <trkpt lat="47.606234000000000605723471380770206451416015625" lon="15.23404000000000024783730623312294483184814453125">
                <ele>1796.867257600008315421291626989841461181640625</ele>
            </trkpt>
            <trkpt lat="47.6061710000000033460310078226029872894287109375" lon="15.2340210000000002565911927376873791217803955078125">
                <ele>1795.9483945600586594082415103912353515625</ele>
            </trkpt>
            <trkpt lat="47.60614699999999999135980033315718173980712890625" lon="15.23391600000000067893779487349092960357666015625">
                <ele>1797.104504319989473515306599438190460205078125</ele>
            </trkpt>
            <trkpt lat="47.60582000000000135742084239609539508819580078125" lon="15.233610999999999791043592267669737339019775390625">
                <ele>1797.659788800084470494766719639301300048828125</ele>
            </trkpt>
            <trkpt lat="47.60563599999999695455699111334979534149169921875" lon="15.233636000000000620957507635466754436492919921875">
                <ele>1785.30705023978089229785837233066558837890625</ele>
            </trkpt>
            <trkpt lat="47.6055769999999967012627166695892810821533203125" lon="15.233574000000000836507751955650746822357177734375">
                <ele>1783.45749311976442186278291046619415283203125</ele>
            </trkpt>
            <trkpt lat="47.6054979999999972051227814517915248870849609375" lon="15.2333909999999992379571267520077526569366455078125">
                <ele>1784.824801919867468313896097242832183837890625</ele>
            </trkpt>
            <trkpt lat="47.60535800000000250520315603353083133697509765625" lon="15.233219999999999316742105293087661266326904296875">
                <ele>1780.7000576001237277523614466190338134765625</ele>
            </trkpt>
            <trkpt lat="47.605221000000000231011654250323772430419921875" lon="15.2326899999999998414068613783456385135650634765625">
                <ele>1783.215502400006471361848525702953338623046875</ele>
            </trkpt>
            <trkpt lat="47.60517300000000062709659687243402004241943359375" lon="15.232265999999999195324562606401741504669189453125">
                <ele>1788.9409184000178356654942035675048828125</ele>
            </trkpt>
            <trkpt lat="47.60517800000000221416485146619379520416259765625" lon="15.2318709999999999382680471171624958515167236328125">
                <ele>1794.556294400000979294418357312679290771484375</ele>
            </trkpt>
            <trkpt lat="47.605153000000001384250936098396778106689453125" lon="15.2314570000000006899654181324876844882965087890625">
                <ele>1800.04687487997944117523729801177978515625</ele>
            </trkpt>
            <trkpt lat="47.60515099999999932833816274069249629974365234375" lon="15.2311169999999993507344697718508541584014892578125">
                <ele>1804.07496576001949506462551653385162353515625</ele>
            </trkpt>
            <trkpt lat="47.6051870000000008076312951743602752685546875" lon="15.2309870000000007195239959401078522205352783203125">
                <ele>1804.968952319979280218831263482570648193359375</ele>
            </trkpt>
            <trkpt lat="47.60536900000000315458237309940159320831298828125" lon="15.2305080000000003792592906393110752105712890625">
                <ele>1806.184923519928133828216232359409332275390625</ele>
            </trkpt>
            <trkpt lat="47.6054749999999984311216394416987895965576171875" lon="15.230278999999999456349542015232145786285400390625">
                <ele>1805.9453440000443151802755892276763916015625</ele>
            </trkpt>
            <trkpt lat="47.6054409999999990077412803657352924346923828125" lon="15.230067999999999273086359607987105846405029296875">
                <ele>1808.743530880033858920796774327754974365234375</ele>
            </trkpt>
            <trkpt lat="47.6053050000000013142198440618813037872314453125" lon="15.2298360000000005953779691481031477451324462890625">
                <ele>1810.577171199976646676077507436275482177734375</ele>
            </trkpt>
            <trkpt lat="47.60520100000000098816599347628653049468994140625" lon="15.2295730000000002490878614480607211589813232421875">
                <ele>1809.674809119979954630252905189990997314453125</ele>
            </trkpt>
            <trkpt lat="47.60515500000000344016370945610105991363525390625" lon="15.229352999999999696001395932398736476898193359375">
                <ele>1807.909189599908359014079906046390533447265625</ele>
            </trkpt>
            <trkpt lat="47.60504900000000105819708551280200481414794921875" lon="15.229245999999999838792064110748469829559326171875">
                <ele>1809.2591977599722667946480214595794677734375</ele>
            </trkpt>
            <trkpt lat="47.60498299999999716192178311757743358612060546875" lon="15.2291299999999996117594491806812584400177001953125">
                <ele>1809.089316800056394640705548226833343505859375</ele>
            </trkpt>
            <trkpt lat="47.60484100000000040608938434161245822906494140625" lon="15.2290130000000001331272869720123708248138427734375">
                <ele>1809.559715359995379913016222417354583740234375</ele>
            </trkpt>
            <trkpt lat="47.60432999999999736928657512180507183074951171875" lon="15.2288599999999991752019923296757042407989501953125">
                <ele>1816.080896000029269998776726424694061279296875</ele>
            </trkpt>
            <trkpt lat="47.60421099999999938745531835593283176422119140625" lon="15.2287750000000006167510946397669613361358642578125">
                <ele>1815.914228000030334442271851003170013427734375</ele>
            </trkpt>
            <trkpt lat="47.6041069999999990614014677703380584716796875" lon="15.2286319999999992802486303844489157199859619140625">
                <ele>1813.39904831999456291669048368930816650390625</ele>
            </trkpt>
            <trkpt lat="47.60350199999999887268131715245544910430908203125" lon="15.2279649999999993070787240867502987384796142578125">
                <ele>1813.887982400015744133270345628261566162109375</ele>
            </trkpt>
            <trkpt lat="47.60331599999999951933205011300742626190185546875" lon="15.227586999999999761712388135492801666259765625">
                <ele>1811.42177152000613205018453299999237060546875</ele>
            </trkpt>
            <trkpt lat="47.603126000000003159584593959152698516845703125" lon="15.227365999999999957026375341229140758514404296875">
                <ele>1812.36395775993923962232656776905059814453125</ele>
            </trkpt>
            <trkpt lat="47.6029860000000013542376109398901462554931640625" lon="15.22689199999999942747308523394167423248291015625">
                <ele>1809.653816319973202553228475153446197509765625</ele>
            </trkpt>
            <trkpt lat="47.60293399999999763849700684659183025360107421875" lon="15.2268270000000001118678483180701732635498046875">
                <ele>1809.6711884800361076486296951770782470703125</ele>
            </trkpt>
            <trkpt lat="47.60278000000000275804268312640488147735595703125" lon="15.2267659999999995790176399168558418750762939453125">
                <ele>1811.1132927999560706666670739650726318359375</ele>
            </trkpt>
            <trkpt lat="47.60270100000000326190274790860712528228759765625" lon="15.226684999999999803321770741604268550872802734375">
                <ele>1811.100961599953961922437883913516998291015625</ele>
            </trkpt>
            <trkpt lat="47.60256799999999799410943523980677127838134765625" lon="15.22667200000000065074345911853015422821044921875">
                <ele>1812.68246656003657335531897842884063720703125</ele>
            </trkpt>
            <trkpt lat="47.6024689999999992551238392479717731475830078125" lon="15.2268190000000007700009518885053694248199462890625">
                <ele>1815.199999839994916328578256070613861083984375</ele>
            </trkpt>
            <trkpt lat="47.60221399999999647434378857724368572235107421875" lon="15.2267820000000000391082721762359142303466796875">
                <ele>1809.074101119923170699621550738811492919921875</ele>
            </trkpt>
            <trkpt lat="47.6019170000000002573870006017386913299560546875" lon="15.2268249999999998323119143606163561344146728515625">
                <ele>1803.244276000002400905941613018512725830078125</ele>
            </trkpt>
            <trkpt lat="47.60162100000000151567292050458490848541259765625" lon="15.22676799999999985857357387430965900421142578125">
                <ele>1795.117481600059136326308362185955047607421875</ele>
            </trkpt>
            <trkpt lat="47.6015119999999996025508153252303600311279296875" lon="15.22687799999999924693838693201541900634765625">
                <ele>1792.18305919997374076046980917453765869140625</ele>
            </trkpt>
            <trkpt lat="47.6013779999999968595147947780787944793701171875" lon="15.227064999999999628244040650315582752227783203125">
                <ele>1788.976903999862088312511332333087921142578125</ele>
            </trkpt>
            <trkpt lat="47.60131700000000165573510457761585712432861328125" lon="15.2270739999999999980673237587325274944305419921875">
                <ele>1786.493297600070263797533698379993438720703125</ele>
            </trkpt>
            <trkpt lat="47.60131700000000165573510457761585712432861328125" lon="15.2270739999999999980673237587325274944305419921875">
                <ele>1786.493297600070263797533698379993438720703125</ele>
            </trkpt>
            <trkpt lat="47.60119900000000114914655569009482860565185546875" lon="15.227090000000000458157956018112599849700927734375">
                <ele>1781.65095200005407605203799903392791748046875</ele>
            </trkpt>
            <trkpt lat="47.6010380000000026257112040184438228607177734375" lon="15.227045000000000385398379876278340816497802734375">
                <ele>1774.340312000115090995677746832370758056640625</ele>
            </trkpt>
            <trkpt lat="47.6009590000000031295712688006460666656494140625" lon="15.226915999999999229430613922886550426483154296875">
                <ele>1769.796396800122465720050968229770660400390625</ele>
            </trkpt>
            <trkpt lat="47.6009549999999990177457220852375030517578125" lon="15.2267820000000000391082721762359142303466796875">
                <ele>1768.38783199996078110416419804096221923828125</ele>
            </trkpt>
            <trkpt lat="47.6009150000000005320544005371630191802978515625" lon="15.2266980000000007322569217649288475513458251953125">
                <ele>1766.0156240000278557999990880489349365234375</ele>
            </trkpt>
            <trkpt lat="47.6009389999999967812982504256069660186767578125" lon="15.226563999999999765577740618027746677398681640625">
                <ele>1768.747556479878994650789536535739898681640625</ele>
            </trkpt>
            <trkpt lat="47.6008589999999998099156073294579982757568359375" lon="15.226326000000000249201548285782337188720703125">
                <ele>1770.4408179199881487875245511531829833984375</ele>
            </trkpt>
            <trkpt lat="47.60086700000000092813934315927326679229736328125" lon="15.2260390000000001009539118967950344085693359375">
                <ele>1776.576741440033629260142333805561065673828125</ele>
            </trkpt>
            <trkpt lat="47.60074399999999883448253967799246311187744140625" lon="15.225628000000000383806764148175716400146484375">
                <ele>1780.602343679933483144850470125675201416015625</ele>
            </trkpt>
            <trkpt lat="47.6005660000000005993570084683597087860107421875" lon="15.2255020000000005353513188310898840427398681640625">
                <ele>1775.469799680011192322126589715480804443359375</ele>
            </trkpt>
            <trkpt lat="47.5998299999999971987563185393810272216796875" lon="15.225459000000000742147676646709442138671875">
                <ele>1747.833484799948564614169299602508544921875</ele>
            </trkpt>
            <trkpt lat="47.5996949999999969804775901138782501220703125" lon="15.225536999999999210331225185655057430267333984375">
                <ele>1744.89310559997420568834058940410614013671875</ele>
            </trkpt>
            <trkpt lat="47.59926200000000306999936583451926708221435546875" lon="15.22557499999999919282345217652618885040283203125">
                <ele>1739.498496000038130659959279000759124755859375</ele>
            </trkpt>
            <trkpt lat="47.59854399999999685633156332187354564666748046875" lon="15.22648099999999971032593748532235622406005859375">
                <ele>1734.04177216000607586465775966644287109375</ele>
            </trkpt>
            <trkpt lat="47.59796200000000254703991231508553028106689453125" lon="15.2274750000000000937916411203332245349884033203125">
                <ele>1739.13861599998972451430745422840118408203125</ele>
            </trkpt>
            <trkpt lat="47.59777799999999814417606103233993053436279296875" lon="15.2278439999999992693346939631737768650054931640625">
                <ele>1740.162627840034474502317607402801513671875</ele>
            </trkpt>
            <trkpt lat="47.59769800000000117279341793619096279144287109375" lon="15.228179000000000797854227130301296710968017578125">
                <ele>1742.655695039966985859791748225688934326171875</ele>
            </trkpt>
            <trkpt lat="47.5976050000000014961187844164669513702392578125" lon="15.2283349999999995105781636084429919719696044921875">
                <ele>1746.587715999947477030218578875064849853515625</ele>
            </trkpt>
            <trkpt lat="47.597532000000001062289811670780181884765625" lon="15.2284050000000004132516551180742681026458740234375">
                <ele>1749.1674591999590120394714176654815673828125</ele>
            </trkpt>
            <trkpt lat="47.59743300000000232330421567894518375396728515625" lon="15.228562000000000153931978275068104267120361328125">
                <ele>1749.21326752003506044275127351284027099609375</ele>
            </trkpt>
            <trkpt lat="47.59739700000000084401108324527740478515625" lon="15.228666000000000479985828860662877559661865234375">
                <ele>1748.961010240010409688693471252918243408203125</ele>
            </trkpt>
            <trkpt lat="47.59731599999999929195837466977536678314208984375" lon="15.2288080000000007885319064371287822723388671875">
                <ele>1748.910127360000615226454101502895355224609375</ele>
            </trkpt>
            <trkpt lat="47.597250999999999976353137753903865814208984375" lon="15.2289849999999997720578903681598603725433349609375">
                <ele>1750.05086319999782062950544059276580810546875</ele>
            </trkpt>
            <trkpt lat="47.59696900000000141517375595867633819580078125" lon="15.2294169999999997600070855696685612201690673828125">
                <ele>1752.67913391998490624246187508106231689453125</ele>
            </trkpt>
            <trkpt lat="47.5968500000000034333424991928040981292724609375" lon="15.2295490000000004471303327591158449649810791015625">
                <ele>1753.59277599995266427868045866489410400390625</ele>
            </trkpt>
            <trkpt lat="47.59671300000000115915099740959703922271728515625" lon="15.2298270000000002255546860396862030029296875">
                <ele>1754.921883039980230023502372205257415771484375</ele>
            </trkpt>
            <trkpt lat="47.5965479999999985238900990225374698638916015625" lon="15.2300070000000005165929906070232391357421875">
                <ele>1755.1815731199940273654647171497344970703125</ele>
            </trkpt>
            <trkpt lat="47.596125999999998157363734208047389984130859375" lon="15.2303289999999993398205333505757153034210205078125">
                <ele>1754.0214236800020444206893444061279296875</ele>
            </trkpt>
            <trkpt lat="47.59577800000000280533640761859714984893798828125" lon="15.230636000000000507270669913850724697113037109375">
                <ele>1754.1596940800436641438864171504974365234375</ele>
            </trkpt>
            <trkpt lat="47.59552000000000049340087571181356906890869140625" lon="15.2305820000000000646878106635995209217071533203125">
                <ele>1750.086406400006353578646667301654815673828125</ele>
            </trkpt>
            <trkpt lat="47.59530300000000124782673083245754241943359375" lon="15.2306030000000003354898581164889037609100341796875">
                <ele>1746.741203840017760740010999143123626708984375</ele>
            </trkpt>
            <trkpt lat="47.5951290000000000190993887372314929962158203125" lon="15.230577000000000253976395470090210437774658203125">
                <ele>1744.09193407999873670632950961589813232421875</ele>
            </trkpt>
            <trkpt lat="47.5949930000000023255779524333775043487548828125" lon="15.2304990000000000094360075308941304683685302734375">
                <ele>1742.169861440042723188525997102260589599609375</ele>
            </trkpt>
            <trkpt lat="47.5949930000000023255779524333775043487548828125" lon="15.2304990000000000094360075308941304683685302734375">
                <ele>1742.169861440042723188525997102260589599609375</ele>
            </trkpt>
            <trkpt lat="47.59481199999999745386958238668739795684814453125" lon="15.230394000000000431782609666697680950164794921875">
                <ele>1739.5064537599546383717097342014312744140625</ele>
            </trkpt>
            <trkpt lat="47.59464700000000192403604160062968730926513671875" lon="15.2301850000000005280753612169064581394195556640625">
                <ele>1739.24529440001424518413841724395751953125</ele>
            </trkpt>
            <trkpt lat="47.59449500000000199406713363714516162872314453125" lon="15.2300839999999997331769918673671782016754150390625">
                <ele>1739.16887360002010609605349600315093994140625</ele>
            </trkpt>
            <trkpt lat="47.594391999999999143255990929901599884033203125" lon="15.23003800000000040881786844693124294281005859375">
                <ele>1739.161944319986332629923708736896514892578125</ele>
            </trkpt>
            <trkpt lat="47.59435799999999971987563185393810272216796875" lon="15.230048000000000030240698833949863910675048828125">
                <ele>1738.734049279996952463989146053791046142578125</ele>
            </trkpt>
            <trkpt lat="47.59426899999999704959918744862079620361328125" lon="15.229974999999999596411726088263094425201416015625">
                <ele>1738.101895999965336159220896661281585693359375</ele>
            </trkpt>
            <trkpt lat="47.5941609999999997171471477486193180084228515625" lon="15.2299620000000004438334144651889801025390625">
                <ele>1736.9686201600152344326488673686981201171875</ele>
            </trkpt>
            <trkpt lat="47.59396600000000177033143700100481510162353515625" lon="15.2301029999999997244231053628027439117431640625">
                <ele>1734.94574848001639111316762864589691162109375</ele>
            </trkpt>
            <trkpt lat="47.593919999999997116901795379817485809326171875" lon="15.23008899999999954388840706087648868560791015625">
                <ele>1735.053548799996178786386735737323760986328125</ele>
            </trkpt>
            <trkpt lat="47.5936889999999976907929521985352039337158203125" lon="15.230211000000000609588823863305151462554931640625">
                <ele>1730.56266303996972055756486952304840087890625</ele>
            </trkpt>
            <trkpt lat="47.5935649999999981218934408389031887054443359375" lon="15.2302040000000005193214747123420238494873046875">
                <ele>1730.00901759997441331506706774234771728515625</ele>
            </trkpt>
            <trkpt lat="47.59352700000000169211489264853298664093017578125" lon="15.230233999999999383589965873397886753082275390625">
                <ele>1728.951431680027553738909773528575897216796875</ele>
            </trkpt>
            <trkpt lat="47.59341100000000324143911711871623992919921875" lon="15.23020999999999958163243718445301055908203125">
                <ele>1728.91874560003134320140816271305084228515625</ele>
            </trkpt>
            <trkpt lat="47.59332299999999804640538059175014495849609375" lon="15.230242000000000501813701703213155269622802734375">
                <ele>1727.679200000014361648936755955219268798828125</ele>
            </trkpt>
            <trkpt lat="47.59325700000000125555743579752743244171142578125" lon="15.2301920000000006183427103678695857524871826171875">
                <ele>1730.06959999996479382389225065708160400390625</ele>
            </trkpt>
            <trkpt lat="47.59318400000000082172846305184066295623779296875" lon="15.2302079999999993020765032269991934299468994140625">
                <ele>1730.660000000008949427865445613861083984375</ele>
            </trkpt>
            <trkpt lat="47.59307700000000096451913123019039630889892578125" lon="15.230176000000000158252078108489513397216796875">
                <ele>1733.122399999982235385687090456485748291015625</ele>
            </trkpt>
            <trkpt lat="47.5928669999999982564986567012965679168701171875" lon="15.2301769999999994098516253870911896228790283203125">
                <ele>1736.11760000004278481355868279933929443359375</ele>
            </trkpt>
            <trkpt lat="47.5927760000000006357367965392768383026123046875" lon="15.2301369999999991478034644387662410736083984375">
                <ele>1738.580000000016070771380327641963958740234375</ele>
            </trkpt>
            <trkpt lat="47.59260499999999893816493568010628223419189453125" lon="15.2301929999999998699422576464712619781494140625">
                <ele>1739.429600000019718208932317793369293212890625</ele>
            </trkpt>
            <trkpt lat="47.592534999999998035491444170475006103515625" lon="15.2302499999999998436805981327779591083526611328125">
                <ele>1738.79600000003347304300405085086822509765625</ele>
            </trkpt>
            <trkpt lat="47.5923709999999999809006112627685070037841796875" lon="15.2302429999999997534132489818148314952850341796875">
                <ele>1739.73367616000678026466630399227142333984375</ele>
            </trkpt>
            <trkpt lat="47.59218299999999857163857086561620235443115234375" lon="15.2302809999999997359054759726859629154205322265625">
                <ele>1739.185650560009889886714518070220947265625</ele>
            </trkpt>
            <trkpt lat="47.5921000000000020691004465334117412567138671875" lon="15.230270000000000862883098307065665721893310546875">
                <ele>1739.630239999976538456394337117671966552734375</ele>
            </trkpt>
            <trkpt lat="47.59206100000000105865183286368846893310546875" lon="15.2302429999999997534132489818148314952850341796875">
                <ele>1740.29137856000352257979102432727813720703125</ele>
            </trkpt>
            <trkpt lat="47.59200100000000333011485054157674312591552734375" lon="15.230273000000000394038579543121159076690673828125">
                <ele>1739.7940025599846194381825625896453857421875</ele>
            </trkpt>
            <trkpt lat="47.5917869999999965102688292972743511199951171875" lon="15.2302370000000006911022865097038447856903076171875">
                <ele>1740.883191679994752121274359524250030517578125</ele>
            </trkpt>
            <trkpt lat="47.59164100000000274803824140690267086029052734375" lon="15.2301870000000008076312951743602752685546875">
                <ele>1741.87255759998151916079223155975341796875</ele>
            </trkpt>
            <trkpt lat="47.59064000000000049794834922067821025848388671875" lon="15.2298179999999998557314029312692582607269287109375">
                <ele>1741.032031999993705539964139461517333984375</ele>
            </trkpt>
            <trkpt lat="47.58945299999999889450918999500572681427001953125" lon="15.2291910000000001446096575818955898284912109375">
                <ele>1747.00689680002187742502428591251373291015625</ele>
            </trkpt>
            <trkpt lat="47.589055000000001882654032669961452484130859375" lon="15.2288499999999995537791619426570832729339599609375">
                <ele>1745.8588799999806724372319877147674560546875</ele>
            </trkpt>
            <trkpt lat="47.5886169999999992796801961958408355712890625" lon="15.228666000000000479985828860662877559661865234375">
                <ele>1745.9732275200121875968761742115020751953125</ele>
            </trkpt>
            <trkpt lat="47.5884769999999974743332131765782833099365234375" lon="15.228536999999999324018062907271087169647216796875">
                <ele>1746.07068384002332095406018197536468505859375</ele>
            </trkpt>
            <trkpt lat="47.58796699999999901820046943612396717071533203125" lon="15.22870999999999952478901832364499568939208984375">
                <ele>1748.206103999996912534697912633419036865234375</ele>
            </trkpt>
            <trkpt lat="47.58761700000000161026036948896944522857666015625" lon="15.2286640000000002004298949032090604305267333984375">
                <ele>1747.63815360000216969638131558895111083984375</ele>
            </trkpt>
            <trkpt lat="47.58751300000000128420651890337467193603515625" lon="15.228573000000000803311195340938866138458251953125">
                <ele>1747.5068328000006658839993178844451904296875</ele>
            </trkpt>
            <trkpt lat="47.587456000000003086825017817318439483642578125" lon="15.228573000000000803311195340938866138458251953125">
                <ele>1747.574532479994331879424862563610076904296875</ele>
            </trkpt>
            <trkpt lat="47.58692099999999669535100110806524753570556640625" lon="15.228249999999999175770426518283784389495849609375">
                <ele>1748.2077600000038728467188775539398193359375</ele>
            </trkpt>
            <trkpt lat="47.58648500000000325371729559265077114105224609375" lon="15.2282729999999997261284079286269843578338623046875">
                <ele>1752.748280799956091868807561695575714111328125</ele>
            </trkpt>
            <trkpt lat="47.586106999999998379280441440641880035400390625" lon="15.2279900000000001369926394545473158359527587890625">
                <ele>1757.033684800032688144710846245288848876953125</ele>
            </trkpt>
            <trkpt lat="47.5849249999999983629095368087291717529296875" lon="15.2280730000000001922444425872527062892913818359375">
                <ele>1768.8085040000078151933848857879638671875</ele>
            </trkpt>
            <trkpt lat="47.584834000000000742147676646709442138671875" lon="15.228030000000000399040800402872264385223388671875">
                <ele>1769.35214719999612498213537037372589111328125</ele>
            </trkpt>
            <trkpt lat="47.58462999999999709643816458992660045623779296875" lon="15.2279959999999991993036019266583025455474853515625">
                <ele>1770.300012800013064406812191009521484375</ele>
            </trkpt>
            <trkpt lat="47.584012000000001307853381149470806121826171875" lon="15.2271739999999997650093064294196665287017822265625">
                <ele>1763.660273919986366308876313269138336181640625</ele>
            </trkpt>
            <trkpt lat="47.58359300000000047248249757103621959686279296875" lon="15.2268769999999999953388396534137427806854248046875">
                <ele>1761.89752623999493152950890362262725830078125</ele>
            </trkpt>
            <trkpt lat="47.58316899999999805004335939884185791015625" lon="15.2266490000000001003854777081869542598724365234375">
                <ele>1763.365161280021993661648593842983245849609375</ele>
            </trkpt>
            <trkpt lat="47.58287500000000136424205265939235687255859375" lon="15.226620000000000487716533825732767581939697265625">
                <ele>1765.057600000005322726792655885219573974609375</ele>
            </trkpt>
            <trkpt lat="47.58213200000000142608769237995147705078125" lon="15.22677900000000050795279094018042087554931640625">
                <ele>1775.877923199982205915148369967937469482421875</ele>
            </trkpt>
            <trkpt lat="47.58167999999999864257915760390460491180419921875" lon="15.2264700000000008373035598197020590305328369140625">
                <ele>1775.91712000004781657480634748935699462890625</ele>
            </trkpt>
            <trkpt lat="47.58155000000000001136868377216160297393798828125" lon="15.2262699999999995270627550780773162841796875">
                <ele>1770.934319999985973481670953333377838134765625</ele>
            </trkpt>
            <trkpt lat="47.58137099999999719557308708317577838897705078125" lon="15.2262590000000006540403774124570190906524658203125">
                <ele>1772.61238608004941852414049208164215087890625</ele>
            </trkpt>
            <trkpt lat="47.5810680000000019163053366355597972869873046875" lon="15.2259989999999998389057509484700858592987060546875">
                <ele>1770.505367039966813536011613905429840087890625</ele>
            </trkpt>
            <trkpt lat="47.58068800000000209138306672684848308563232421875" lon="15.2260279999999994515746948309242725372314453125">
                <ele>1774.519543039996278821490705013275146484375</ele>
            </trkpt>
            <trkpt lat="47.58050999999999675083017791621387004852294921875" lon="15.225956000000000045702108764089643955230712890625">
                <ele>1773.63964160000114134163595736026763916015625</ele>
            </trkpt>
            <trkpt lat="47.5801000000000016143530956469476222991943359375" lon="15.225956000000000045702108764089643955230712890625">
                <ele>1773.739615999999614359694533050060272216796875</ele>
            </trkpt>
            <trkpt lat="47.57943399999999911642589722760021686553955078125" lon="15.2261469999999992097627909970469772815704345703125">
                <ele>1759.11414559998593176715075969696044921875</ele>
            </trkpt>
            <trkpt lat="47.57881400000000127192834042944014072418212890625" lon="15.2264110000000005840092853759415447711944580078125">
                <ele>1740.776951040023050154559314250946044921875</ele>
            </trkpt>
            <trkpt lat="47.57751499999999822421159478835761547088623046875" lon="15.2266770000000004614548743120394647121429443359375">
                <ele>1703.777683999950795623590238392353057861328125</ele>
            </trkpt>
            <trkpt lat="47.57690699999999850433596293441951274871826171875" lon="15.22671199999999913643478066660463809967041015625">
                <ele>1684.75675519995866125100292265415191650390625</ele>
            </trkpt>
            <trkpt lat="47.57610799999999784404280944727361202239990234375" lon="15.226800000000000778754838393069803714752197265625">
                <ele>1660.125919999932420978439040482044219970703125</ele>
            </trkpt>
            <trkpt lat="47.57573800000000119325704872608184814453125" lon="15.22658799999999956753526930697262287139892578125">
                <ele>1647.75080320003735323552973568439483642578125</ele>
            </trkpt>
            <trkpt lat="47.57536900000000201771399588324129581451416015625" lon="15.2262699999999995270627550780773162841796875">
                <ele>1632.11106400006929106893949210643768310546875</ele>
            </trkpt>
            <trkpt lat="47.57495099999999865758582018315792083740234375" lon="15.2260399999999993525534591753967106342315673828125">
                <ele>1614.042323199945030864910222589969635009765625</ele>
            </trkpt>
            <trkpt lat="47.57454599999999800274963490664958953857421875" lon="15.2260229999999996408632796374149620532989501953125">
                <ele>1599.97082463992728662560693919658660888671875</ele>
            </trkpt>
            <trkpt lat="47.5742479999999972051227814517915248870849609375" lon="15.22644700000000028694557840935885906219482421875">
                <ele>1591.1111084798912997939623892307281494140625</ele>
            </trkpt>
            <trkpt lat="47.57396200000000163754521054215729236602783203125" lon="15.22708300000000036789060686714947223663330078125">
                <ele>1579.641403520061203380464576184749603271484375</ele>
            </trkpt>
            <trkpt lat="47.5736279999999993606252246536314487457275390625" lon="15.2276489999999995461621438153088092803955078125">
                <ele>1565.4302815999790254863910377025604248046875</ele>
            </trkpt>
            <trkpt lat="47.573115000000001373336999677121639251708984375" lon="15.228002000000000037971403799019753932952880859375">
                <ele>1547.433715200035294401459395885467529296875</ele>
            </trkpt>
            <trkpt lat="47.57257899999999750662027508951723575592041015625" lon="15.228567999999999216242940747179090976715087890625">
                <ele>1532.391025919948560840566642582416534423828125</ele>
            </trkpt>
            <trkpt lat="47.57213800000000247791831498034298419952392578125" lon="15.2290670000000005757101462222635746002197265625">
                <ele>1527.9380457600045701838098466396331787109375</ele>
            </trkpt>
            <trkpt lat="47.57171000000000304908098769374191761016845703125" lon="15.228894000000000374939190805889666080474853515625">
                <ele>1527.27541440000777583918534219264984130859375</ele>
            </trkpt>
            <trkpt lat="47.57153000000000275804268312640488147735595703125" lon="15.228849000000000302179614664055407047271728515625">
                <ele>1527.801500799988616563496179878711700439453125</ele>
            </trkpt>
            <trkpt lat="47.571359000000001060470822267234325408935546875" lon="15.22876600000000024692781153135001659393310546875">
                <ele>1528.89586815999427926726639270782470703125</ele>
            </trkpt>
            <trkpt lat="47.57143500000000102545527624897658824920654296875" lon="15.228600000000000136424205265939235687255859375">
                <ele>1529.2722399999938716064207255840301513671875</ele>
            </trkpt>
            <trkpt lat="47.57175500000000312184056383557617664337158203125" lon="15.2281320000000004455387170310132205486297607421875">
                <ele>1529.033990400009997756569646298885345458984375</ele>
            </trkpt>
            <trkpt lat="47.57188000000000016598278307355940341949462890625" lon="15.227721999999999979991116560995578765869140625">
                <ele>1529.813798400000450783409178256988525390625</ele>
            </trkpt>
            <trkpt lat="47.57183500000000009322320693172514438629150390625" lon="15.227686999999999528654370806179940700531005859375">
                <ele>1529.72492880000072545954026281833648681640625</ele>
            </trkpt>
            <trkpt lat="47.571765999999996665792423300445079803466796875" lon="15.227562999999999959754859446547925472259521484375">
                <ele>1529.671811519991706518339924514293670654296875</ele>
            </trkpt>
            <trkpt lat="47.5717360000000013542376109398901462554931640625" lon="15.2274239999999991823642631061375141143798828125">
                <ele>1528.8455999999941923306323587894439697265625</ele>
            </trkpt>
            <trkpt lat="47.57162000000000290356183541007339954376220703125" lon="15.227194000000000784211806603707373142242431640625">
                <ele>1527.199705599947037626407109200954437255859375</ele>
            </trkpt>
        </trkseg>
    </trk>
</gpx>
