<?xml version="1.0" encoding="UTF-8" standalone="yes"?>
<gpx xmlns:gpxtpx1="http://www.garmin.com/xmlschemas/TrackPointExtension/v1" xmlns="http://www.topografix.com/GPX/1/1" xmlns:trp="http://www.garmin.com/xmlschemas/TripExtensions/v1" xmlns:gpxx="http://www.garmin.com/xmlschemas/GpxExtensions/v3" xmlns:gpxtpx="http://www.garmin.com/xmlschemas/TrackPointExtension/v2" version="1.1" creator="RouteConverter 2.27.2">
    <metadata>
        <name>2016-12-16 13:07</name>
        <desc></desc>
        <link href="http://www.oruxmaps.com">
            <text>OruxMaps</text>
        </link>
        <time>2016-12-16T12:07:28Z</time>
        <bounds minlat="47.2669110" minlon="11.2628831" maxlat="47.2690998" maxlon="11.2811896"/>
    </metadata>
    <trk>
        <name>2016-12-16 13:07</name>
        <desc>&lt;p&gt;Startzeit: 12/16/2016 13:07&lt;/p&gt;&lt;p&gt;Zielzeit: 12/16/2016 16:46&lt;/p&gt;&lt;p&gt;Strecke: 3,
6 km (03:39)&lt;/p&gt;&lt;p&gt;Bewegungszeit: 01:03&lt;/p&gt;&lt;p&gt;Ø-Geschwindigkeit: 0,
99 km/h&lt;/p&gt;&lt;p&gt;Netto-Geschwindigkeit: 3,
4 km/h&lt;/p&gt;&lt;p&gt;Max. Geschwindigkeit: 7,
09km/h&lt;/p&gt;&lt;p&gt;Minimale Höhe: 580 m&lt;/p&gt;&lt;p&gt;Maximale Höhe: 820 m&lt;/p&gt;&lt;p&gt;Steig-Geschw.: 91,
6 m/h&lt;/p&gt;&lt;p&gt;Sink-Geschw.: -439,
4 m/h&lt;/p&gt;&lt;p&gt;Aufstieg: 271 m&lt;/p&gt;&lt;p&gt;Abstieg: -262 m&lt;/p&gt;&lt;p&gt;Steigzeit: 02:57&lt;/p&gt;&lt;p&gt;Sinkzeit: 00:35&lt;/p&gt;&lt;hr align="center" width="480" style="height: 2px; width: 517px"/&gt;</desc>
        <type>Unbestimmt</type>
        <extensions>
            <om:oruxmapsextensions xmlns:om="http://www.oruxmaps.com/oruxmapsextensions/1/0" xmlns:gpxtpx="http://www.garmin.com/xmlschemas/TrackPointExtension/v1" xmlns:gpxtrx="http://www.garmin.com/xmlschemas/GpxExtensions/v3" xmlns:gpxx="http://www.garmin.com/xmlschemas/WaypointExtension/v1" xmlns:nmea="http://trekbuddy.net/2009/01/gpx/nmea" xmlns:rcxx="http://www.routeconverter.de/xmlschemas/RouteCatalogExtensions/1.0" xmlns:xsi="http://www.w3.org/2001/XMLSchema-instance">
                <om:ext subtype="0" type="TYPE">0</om:ext>
                <om:ext type="DIFFICULTY">0</om:ext>
</om:oruxmapsextensions>
        </extensions>
        <trkseg>
            <trkpt lat="47.2666725" lon="11.2806304">
                <ele>592.9</ele>
                <time>2016-12-16T12:23:33.000Z</time>
                <name>Position 1</name>
            </trkpt>
            <trkpt lat="47.2669166" lon="11.2795057">
                <ele>596.1</ele>
                <time>2016-12-16T12:24:11.020Z</time>
                <name>Position 2</name>
            </trkpt>
            <trkpt lat="47.2673081" lon="11.2783841">
                <ele>609.9</ele>
                <time>2016-12-16T12:25:15.003Z</time>
                <name>Position 3</name>
            </trkpt>
            <trkpt lat="47.2675003" lon="11.278524">
                <ele>642.1</ele>
                <time>2016-12-16T12:25:31.000Z</time>
                <name>Position 4</name>
            </trkpt>
            <trkpt lat="47.2676816" lon="11.2784627">
                <ele>662.1</ele>
                <time>2016-12-16T12:26:56.000Z</time>
                <name>Position 5</name>
            </trkpt>
            <trkpt lat="47.2678534" lon="11.2783763">
                <ele>662.3</ele>
                <time>2016-12-16T12:28:26.000Z</time>
                <name>Position 6</name>
            </trkpt>
            <trkpt lat="47.2679457" lon="11.2781416">
                <ele>667.3</ele>
                <time>2016-12-16T12:28:51.000Z</time>
                <name>Position 7</name>
            </trkpt>
            <trkpt lat="47.2679926" lon="11.2778802">
                <ele>677.1</ele>
                <time>2016-12-16T12:29:35.000Z</time>
                <name>Position 8</name>
            </trkpt>
            <trkpt lat="47.2679885" lon="11.277606">
                <ele>683.5</ele>
                <time>2016-12-16T12:30:13.000Z</time>
                <name>Position 9</name>
            </trkpt>
            <trkpt lat="47.2679848" lon="11.2773784">
                <ele>681.1</ele>
                <time>2016-12-16T12:30:47.000Z</time>
                <name>Position 10</name>
            </trkpt>
            <trkpt lat="47.2681686" lon="11.2773111">
                <ele>703.1</ele>
                <time>2016-12-16T12:53:06.000Z</time>
                <name>Position 11</name>
            </trkpt>
            <trkpt lat="47.2681872" lon="11.277319">
                <ele>733.1</ele>
                <time>2016-12-16T13:48:26.000Z</time>
                <name>Position 12</name>
            </trkpt>
            <trkpt lat="47.2682505" lon="11.2773119">
                <ele>755.8</ele>
                <time>2016-12-16T14:11:41.000Z</time>
                <name>Position 13</name>
            </trkpt>
            <trkpt lat="47.268399" lon="11.2772697">
                <ele>758.9</ele>
                <time>2016-12-16T14:19:19.000Z</time>
                <name>Position 14</name>
            </trkpt>
            <trkpt lat="47.2685541" lon="11.2772221">
                <ele>807.1</ele>
                <time>2016-12-16T14:53:33.000Z</time>
                <name>Position 15</name>
            </trkpt>
            <trkpt lat="47.268651" lon="11.2772983">
                <ele>809.1</ele>
                <time>2016-12-16T15:01:55.000Z</time>
                <name>Position 16</name>
            </trkpt>
            <trkpt lat="47.2687204" lon="11.2775488">
                <ele>811.1</ele>
                <time>2016-12-16T15:03:52.000Z</time>
                <name>Position 17</name>
            </trkpt>
            <trkpt lat="47.268727" lon="11.2778167">
                <ele>814.1</ele>
                <time>2016-12-16T15:04:30.000Z</time>
                <name>Position 18</name>
            </trkpt>
            <trkpt lat="47.2686994" lon="11.2780837">
                <ele>818.1</ele>
                <time>2016-12-16T15:05:02.000Z</time>
                <name>Position 19</name>
            </trkpt>
            <trkpt lat="47.2686834" lon="11.2783489">
                <ele>813.9</ele>
                <time>2016-12-16T15:06:20.000Z</time>
                <name>Position 20</name>
            </trkpt>
            <trkpt lat="47.268772" lon="11.278583">
                <ele>812.3</ele>
                <time>2016-12-16T15:07:22.000Z</time>
                <name>Position 21</name>
            </trkpt>
            <trkpt lat="47.2688628" lon="11.2788192">
                <ele>820.1</ele>
                <time>2016-12-16T15:08:36.000Z</time>
                <name>Position 22</name>
            </trkpt>
            <trkpt lat="47.268858" lon="11.2790882">
                <ele>816.1</ele>
                <time>2016-12-16T15:09:24.000Z</time>
                <name>Position 23</name>
            </trkpt>
            <trkpt lat="47.2688893" lon="11.2793523">
                <ele>814.1</ele>
                <time>2016-12-16T15:10:13.000Z</time>
                <name>Position 24</name>
            </trkpt>
            <trkpt lat="47.2690286" lon="11.2795245">
                <ele>816.1</ele>
                <time>2016-12-16T15:10:58.000Z</time>
                <name>Position 25</name>
            </trkpt>
            <trkpt lat="47.2690987" lon="11.2797748">
                <ele>819.9</ele>
                <time>2016-12-16T15:11:20.000Z</time>
                <name>Position 26</name>
            </trkpt>
            <trkpt lat="47.2690998" lon="11.2800419">
                <ele>812.0</ele>
                <time>2016-12-16T15:12:18.000Z</time>
                <name>Position 27</name>
            </trkpt>
            <trkpt lat="47.2689989" lon="11.2802757">
                <ele>802.4</ele>
                <time>2016-12-16T15:13:25.000Z</time>
                <name>Position 28</name>
            </trkpt>
            <trkpt lat="47.2689756" lon="11.2805426">
                <ele>796.1</ele>
                <time>2016-12-16T15:13:53.000Z</time>
                <name>Position 29</name>
            </trkpt>
            <trkpt lat="47.2688869" lon="11.2807734">
                <ele>784.3</ele>
                <time>2016-12-16T15:14:23.000Z</time>
                <name>Position 30</name>
            </trkpt>
            <trkpt lat="47.2688" lon="11.2810101">
                <ele>775.1</ele>
                <time>2016-12-16T15:15:20.000Z</time>
                <name>Position 31</name>
            </trkpt>
            <trkpt lat="47.2686409" lon="11.2811357">
                <ele>768.1</ele>
                <time>2016-12-16T15:16:18.000Z</time>
                <name>Position 32</name>
            </trkpt>
            <trkpt lat="47.2684617" lon="11.2811896">
                <ele>759.1</ele>
                <time>2016-12-16T15:16:49.000Z</time>
                <name>Position 33</name>
            </trkpt>
            <trkpt lat="47.268387" lon="11.2809434">
                <ele>749.1</ele>
                <time>2016-12-16T15:17:40.000Z</time>
                <name>Position 34</name>
            </trkpt>
            <trkpt lat="47.2684265" lon="11.2806775">
                <ele>737.1</ele>
                <time>2016-12-16T15:18:53.000Z</time>
                <name>Position 35</name>
            </trkpt>
            <trkpt lat="47.2683358" lon="11.2804481">
                <ele>728.3</ele>
                <time>2016-12-16T15:19:24.000Z</time>
                <name>Position 36</name>
            </trkpt>
            <trkpt lat="47.268181" lon="11.2803083">
                <ele>717.1</ele>
                <time>2016-12-16T15:22:21.000Z</time>
                <name>Position 37</name>
            </trkpt>
            <trkpt lat="47.268032" lon="11.2801454">
                <ele>707.2</ele>
                <time>2016-12-16T15:23:09.000Z</time>
                <name>Position 38</name>
            </trkpt>
            <trkpt lat="47.2679863" lon="11.2798821">
                <ele>694.1</ele>
                <time>2016-12-16T15:23:44.000Z</time>
                <name>Position 39</name>
            </trkpt>
            <trkpt lat="47.2679395" lon="11.2796228">
                <ele>689.3</ele>
                <time>2016-12-16T15:24:05.000Z</time>
                <name>Position 40</name>
            </trkpt>
            <trkpt lat="47.2678968" lon="11.2793628">
                <ele>686.1</ele>
                <time>2016-12-16T15:24:25.000Z</time>
                <name>Position 41</name>
            </trkpt>
            <trkpt lat="47.2678344" lon="11.2791062">
                <ele>679.3</ele>
                <time>2016-12-16T15:24:51.000Z</time>
                <name>Position 42</name>
            </trkpt>
            <trkpt lat="47.2677428" lon="11.2788676">
                <ele>671.1</ele>
                <time>2016-12-16T15:25:25.000Z</time>
                <name>Position 43</name>
            </trkpt>
            <trkpt lat="47.2676273" lon="11.2786585">
                <ele>664.1</ele>
                <time>2016-12-16T15:26:04.000Z</time>
                <name>Position 44</name>
            </trkpt>
            <trkpt lat="47.2674671" lon="11.2785334">
                <ele>650.3</ele>
                <time>2016-12-16T15:27:02.000Z</time>
                <name>Position 45</name>
            </trkpt>
            <trkpt lat="47.2673586" lon="11.2783121">
                <ele>644.1</ele>
                <time>2016-12-16T15:27:30.000Z</time>
                <name>Position 46</name>
            </trkpt>
            <trkpt lat="47.2672158" lon="11.2784842">
                <ele>634.9</ele>
                <time>2016-12-16T15:28:11.000Z</time>
                <name>Position 47</name>
            </trkpt>
            <trkpt lat="47.2671549" lon="11.278738">
                <ele>631.1</ele>
                <time>2016-12-16T15:28:31.000Z</time>
                <name>Position 48</name>
            </trkpt>
            <trkpt lat="47.2671527" lon="11.2790083">
                <ele>630.9</ele>
                <time>2016-12-16T15:28:54.000Z</time>
                <name>Position 49</name>
            </trkpt>
            <trkpt lat="47.2670516" lon="11.2792416">
                <ele>617.3</ele>
                <time>2016-12-16T15:29:28.000Z</time>
                <name>Position 50</name>
            </trkpt>
            <trkpt lat="47.2669128" lon="11.2795203">
                <ele>596.1</ele>
                <time>2016-12-16T15:29:37.596Z</time>
                <name>Position 51</name>
            </trkpt>
            <trkpt lat="47.2666687" lon="11.2806301">
                <ele>592.8</ele>
                <time>2016-12-16T15:30:10.000Z</time>
                <name>Position 52</name>
            </trkpt>
        </trkseg>
    </trk>
</gpx>
