<?xml version="1.0" encoding="UTF-8" standalone="yes"?>
<gpx xmlns="http://www.topografix.com/GPX/1/1" creator="alpenkarte.eu">
    <metadata>
        <name>Ferrata del 25° Venticinquennale</name>
        <link href="alpenkarte.eu">
            <text>Route von alpenkarte.eu</text>
        </link>
        <bounds minlat="45.86182999999999765350366942584514617919921875" minlon="9.315974000000000643240127828903496265411376953125" maxlat="45.87966999999999728743205196224153041839599609375" maxlon="9.325013999999999469991962541826069355010986328125"/>
    </metadata>
    <trk>
        <name>Ferrata del 25° Venticinquennale</name>
        <trkseg>
            <trkpt lat="45.8795089999999987639967002905905246734619140625" lon="9.3160340000000001481339495512656867504119873046875">
                <ele>699.3953968000449776809546165168285369873046875</ele>
            </trkpt>
            <trkpt lat="45.87917800000000312365955323912203311920166015625" lon="9.315974000000000643240127828903496265411376953125">
                <ele>710.4589215999002362877945415675640106201171875</ele>
            </trkpt>
            <trkpt lat="45.8791030000000006339178071357309818267822265625" lon="9.315977000000000174395609064958989620208740234375">
                <ele>712.5071417599859842084697447717189788818359375</ele>
            </trkpt>
            <trkpt lat="45.87903099999999767533154226839542388916015625" lon="9.31601500000000015688783605583012104034423828125">
                <ele>714.5970464000655510972137562930583953857421875</ele>
            </trkpt>
            <trkpt lat="45.87897600000000153386281454004347324371337890625" lon="9.316109000000000861518856254406273365020751953125">
                <ele>716.7197926399632024185848422348499298095703125</ele>
            </trkpt>
            <trkpt lat="45.8788789999999977453626343049108982086181640625" lon="9.3164239999999995944790498469956219196319580078125">
                <ele>722.39124416008098705788142979145050048828125</ele>
            </trkpt>
            <trkpt lat="45.8788669999999996207407093606889247894287109375" lon="9.3165239999999993614210325176827609539031982421875">
                <ele>723.758583680011497563100419938564300537109375</ele>
            </trkpt>
            <trkpt lat="45.87905500000000103000274975784122943878173828125" lon="9.3168620000000004210960469208657741546630859375">
                <ele>714.5656575999531696652411483228206634521484375</ele>
            </trkpt>
            <trkpt lat="45.87908800000000297814040095545351505279541015625" lon="9.3170610000000007033804649836383759975433349609375">
                <ele>710.3936204798591234066407196223735809326171875</ele>
            </trkpt>
            <trkpt lat="45.879064999999997098711901344358921051025390625" lon="9.317237999999999686906448914669454097747802734375">
                <ele>709.0446592001445651476387865841388702392578125</ele>
            </trkpt>
            <trkpt lat="45.879063000000002148226485587656497955322265625" lon="9.3174440000000000594582161284051835536956787109375">
                <ele>706.3566419198988342031952925026416778564453125</ele>
            </trkpt>
            <trkpt lat="45.87908999999999792862581671215593814849853515625" lon="9.3175939999999997098711901344358921051025390625">
                <ele>702.9080224001096439678804017603397369384765625</ele>
            </trkpt>
            <trkpt lat="45.87908800000000297814040095545351505279541015625" lon="9.3179540000000002919477992691099643707275390625">
                <ele>697.7813708798549896528129465878009796142578125</ele>
            </trkpt>
            <trkpt lat="45.8788789999999977453626343049108982086181640625" lon="9.318578999999999723513610661029815673828125">
                <ele>699.360000000115405782707966864109039306640625</ele>
            </trkpt>
            <trkpt lat="45.8788210000000020727384253405034542083740234375" lon="9.318692999999999670990291633643209934234619140625">
                <ele>700.77599999990843571140430867671966552734375</ele>
            </trkpt>
            <trkpt lat="45.8787829999999985375325195491313934326171875" lon="9.3187270000000008707274901098571717739105224609375">
                <ele>702.1920000000636719050817191600799560546875</ele>
            </trkpt>
            <trkpt lat="45.8787080000000031532181310467422008514404296875" lon="9.3186970000000002301021595485508441925048828125">
                <ele>706.151999999849749656277708709239959716796875</ele>
            </trkpt>
            <trkpt lat="45.8786860000000018544596969150006771087646484375" lon="9.3186370000000007252083378261886537075042724609375">
                <ele>707.9279999999062056303955614566802978515625</ele>
            </trkpt>
            <trkpt lat="45.8786309999999986075636115856468677520751953125" lon="9.318217000000000638237906969152390956878662109375">
                <ele>715.976934880061207877588458359241485595703125</ele>
            </trkpt>
            <trkpt lat="45.8785519999999991114236763678491115570068359375" lon="9.318039999999999878355083637870848178863525390625">
                <ele>722.4876352000486576798721216619014739990234375</ele>
            </trkpt>
            <trkpt lat="45.878095000000001846274244599044322967529296875" lon="9.3174589999999994915924617089331150054931640625">
                <ele>753.9243455999106799936271272599697113037109375</ele>
            </trkpt>
            <trkpt lat="45.8780000000000001136868377216160297393798828125" lon="9.3173720000000006535856300615705549716949462890625">
                <ele>758.8843199999963644586387090384960174560546875</ele>
            </trkpt>
            <trkpt lat="45.87795100000000303452907246537506580352783203125" lon="9.3173720000000006535856300615705549716949462890625">
                <ele>761.3043398398525596348918043076992034912109375</ele>
            </trkpt>
            <trkpt lat="45.8779260000000022046151570975780487060546875" lon="9.3174100000000006360778570524416863918304443359375">
                <ele>762.5329151998924999134032987058162689208984375</ele>
            </trkpt>
            <trkpt lat="45.87792499999999762394509161822497844696044921875" lon="9.3174499999999991217691786005161702632904052734375">
                <ele>762.577200000123639256344176828861236572265625</ele>
            </trkpt>
            <trkpt lat="45.87800200000000216959961107932031154632568359375" lon="9.3176199999999997913846527808345854282379150390625">
                <ele>757.1255807998910540845827199518680572509765625</ele>
            </trkpt>
            <trkpt lat="45.87805800000000289173840428702533245086669921875" lon="9.3178929999999997590975908678956329822540283203125">
                <ele>750.667116479845617504906840622425079345703125</ele>
            </trkpt>
            <trkpt lat="45.878051999999996724000084213912487030029296875" lon="9.3179899999999999948840923025272786617279052734375">
                <ele>749.762361600188569354941137135028839111328125</ele>
            </trkpt>
            <trkpt lat="45.877971999999999752617441117763519287109375" lon="9.3182869999999997645545590785332024097442626953125">
                <ele>750.734042880020979282562620937824249267578125</ele>
            </trkpt>
            <trkpt lat="45.87787800000000260070009971968829631805419921875" lon="9.3188709999999996824726622435264289379119873046875">
                <ele>750.4256118398449189044185914099216461181640625</ele>
            </trkpt>
            <trkpt lat="45.877916999999996505721355788409709930419921875" lon="9.319129000000000218051354750059545040130615234375">
                <ele>745.3630542402232777021708898246288299560546875</ele>
            </trkpt>
            <trkpt lat="45.877915000000001555235940031707286834716796875" lon="9.3192280000000007333937901421450078487396240234375">
                <ele>744.5907999998988771039876155555248260498046875</ele>
            </trkpt>
            <trkpt lat="45.87788900000000325007931678555905818939208984375" lon="9.319295000000000328554961015470325946807861328125">
                <ele>745.681599999794570976519025862216949462890625</ele>
            </trkpt>
            <trkpt lat="45.8778379999999970095814205706119537353515625" lon="9.31930200000000041882231016643345355987548828125">
                <ele>748.866400000190651553566567599773406982421875</ele>
            </trkpt>
            <trkpt lat="45.87779400000000151749190990813076496124267578125" lon="9.3192819999999993996198099921457469463348388671875">
                <ele>751.8327999999124813257367350161075592041015625</ele>
            </trkpt>
            <trkpt lat="45.87779400000000151749190990813076496124267578125" lon="9.3192819999999993996198099921457469463348388671875">
                <ele>751.8327999999124813257367350161075592041015625</ele>
            </trkpt>
            <trkpt lat="45.87774999999999891997504164464771747589111328125" lon="9.3192620000000001567741492181085050106048583984375">
                <ele>754.7992000000713233021087944507598876953125</ele>
            </trkpt>
            <trkpt lat="45.87769200000000324735083268024027347564697265625" lon="9.3191860000000001917896952363662421703338623046875">
                <ele>759.1263999997958080712123773992061614990234375</ele>
            </trkpt>
            <trkpt lat="45.87763600000000252521203947253525257110595703125" lon="9.3190200000000000812860889709554612636566162109375">
                <ele>764.1685695998440905896131880581378936767578125</ele>
            </trkpt>
            <trkpt lat="45.87759299999999740293787908740341663360595703125" lon="9.3187949999999997174882082617841660976409912109375">
                <ele>768.8565208001672317550401203334331512451171875</ele>
            </trkpt>
            <trkpt lat="45.8774480000000011159499990753829479217529296875" lon="9.318218999999999141437001526355743408203125">
                <ele>782.084774399947718848125077784061431884765625</ele>
            </trkpt>
            <trkpt lat="45.8772909999999995989128365181386470794677734375" lon="9.3178140000000002629576556500978767871856689453125">
                <ele>790.900828800017961839330382645130157470703125</ele>
            </trkpt>
            <trkpt lat="45.877195999999997866325429640710353851318359375" lon="9.31768699999999938654582365415990352630615234375">
                <ele>794.6404224000810927464044652879238128662109375</ele>
            </trkpt>
            <trkpt lat="45.87707000000000334694050252437591552734375" lon="9.3176059999999996108499544789083302021026611328125">
                <ele>798.98150399988071512780152261257171630859375</ele>
            </trkpt>
            <trkpt lat="45.87695099999999825968188815750181674957275390625" lon="9.317598000000000268983058049343526363372802734375">
                <ele>803.1314976000649039633572101593017578125</ele>
            </trkpt>
            <trkpt lat="45.87678700000000020509105524979531764984130859375" lon="9.3176609999999993050323610077612102031707763671875">
                <ele>809.7480383999844661957467906177043914794921875</ele>
            </trkpt>
            <trkpt lat="45.87670700000000323370841215364634990692138671875" lon="9.317764000000000379486664314754307270050048828125">
                <ele>814.3217375998780198642634786665439605712890625</ele>
            </trkpt>
            <trkpt lat="45.8766839999999973542799125425517559051513671875" lon="9.3178929999999997590975908678956329822540283203125">
                <ele>817.3446144001133006895543076097965240478515625</ele>
            </trkpt>
            <trkpt lat="45.876700999999997065970092080533504486083984375" lon="9.3180770000000006092477633501403033733367919921875">
                <ele>819.510662400155297291348688304424285888671875</ele>
            </trkpt>
            <trkpt lat="45.87666800000000222325979848392307758331298828125" lon="9.3183009999999999450892573804594576358795166015625">
                <ele>824.882841599877792759798467159271240234375</ele>
            </trkpt>
            <trkpt lat="45.87655000000000171667124959640204906463623046875" lon="9.3187309999999996534825186245143413543701171875">
                <ele>828.9197200000013481258065439760684967041015625</ele>
            </trkpt>
            <trkpt lat="45.876429000000001678927219472825527191162109375" lon="9.3189899999999994406607584096491336822509765625">
                <ele>832.3230639999877666923566721379756927490234375</ele>
            </trkpt>
            <trkpt lat="45.87622999999999962028596200980246067047119140625" lon="9.319278000000000616864781477488577365875244140625">
                <ele>837.8001536000125497594126500189304351806640625</ele>
            </trkpt>
            <trkpt lat="45.87608999999999781493897899053990840911865234375" lon="9.3194339999999993295887179556302726268768310546875">
                <ele>842.287846400019361681188456714153289794921875</ele>
            </trkpt>
            <trkpt lat="45.8759170000000011668817023746669292449951171875" lon="9.31958900000000056706994655542075634002685546875">
                <ele>848.94001471998990382417105138301849365234375</ele>
            </trkpt>
            <trkpt lat="45.875753000000003112290869466960430145263671875" lon="9.319644000000000261252353084273636341094970703125">
                <ele>852.16391040000917200814001262187957763671875</ele>
            </trkpt>
            <trkpt lat="45.87561699999999831334207556210458278656005859375" lon="9.3196460000000005408082870417274534702301025390625">
                <ele>852.0773904000116090173833072185516357421875</ele>
            </trkpt>
            <trkpt lat="45.8755019999999973379090079106390476226806640625" lon="9.319646999999999792407834320329129695892333984375">
                <ele>851.9829167999904484531725756824016571044921875</ele>
            </trkpt>
            <trkpt lat="45.87536200000000263798938249237835407257080078125" lon="9.3196910000000006135678631835617125034332275390625">
                <ele>852.9526224000179581707925535738468170166015625</ele>
            </trkpt>
            <trkpt lat="45.87496999999999758301783003844320774078369140625" lon="9.31987099999999912824932835064828395843505859375">
                <ele>857.3289552000438789036707021296024322509765625</ele>
            </trkpt>
            <trkpt lat="45.874786000000000285581336356699466705322265625" lon="9.3199850000000008520828487235121428966522216796875">
                <ele>864.3356016000115005226689390838146209716796875</ele>
            </trkpt>
            <trkpt lat="45.87474499999999721921994932927191257476806640625" lon="9.320085999999999870624378672800958156585693359375">
                <ele>868.91620800006012359517626464366912841796875</ele>
            </trkpt>
            <trkpt lat="45.8747740000000021609594114124774932861328125" lon="9.32019700000000028694557840935885906219482421875">
                <ele>872.5568831999670464938390068709850311279296875</ele>
            </trkpt>
            <trkpt lat="45.87485699999999866349753574468195438385009765625" lon="9.3202890000000007120206646504811942577362060546875">
                <ele>874.4748912000565042035304941236972808837890625</ele>
            </trkpt>
            <trkpt lat="45.875101999999998270141077227890491485595703125" lon="9.320496999999999587771526421420276165008544921875">
                <ele>879.135214080006107906228862702846527099609375</ele>
            </trkpt>
            <trkpt lat="45.87517700000000075988282333128154277801513671875" lon="9.320598000000000382669895770959556102752685546875">
                <ele>881.8999987200037367074401117861270904541015625</ele>
            </trkpt>
            <trkpt lat="45.87521199999999765850589028559625148773193359375" lon="9.3206900000000008077449820120818912982940673828125">
                <ele>884.6090496000730354353436268866062164306640625</ele>
            </trkpt>
            <trkpt lat="45.87520099999999700912667321972548961639404296875" lon="9.3207989999999991681534083909355103969573974609375">
                <ele>888.69382368003743977169506251811981201171875</ele>
            </trkpt>
            <trkpt lat="45.87514399999999881174517213366925716400146484375" lon="9.320859999999999701003616792149841785430908203125">
                <ele>890.634092800037024062476120889186859130859375</ele>
            </trkpt>
            <trkpt lat="45.87503600000000147929313243366777896881103515625" lon="9.3208920000000006211848813109099864959716796875">
                <ele>892.4611110399556537231546826660633087158203125</ele>
            </trkpt>
            <trkpt lat="45.8748920000000026675479602999985218048095703125" lon="9.3209029999999994942072589765302836894989013671875">
                <ele>894.7431750399683778596227057278156280517578125</ele>
            </trkpt>
            <trkpt lat="45.87466100000000324143911711871623992919921875" lon="9.32076299999999946521711535751819610595703125">
                <ele>895.9573391999389286866062320768833160400390625</ele>
            </trkpt>
            <trkpt lat="45.87423700000000081899997894652187824249267578125" lon="9.3203779999999998295834302552975714206695556640625">
                <ele>889.534838399981026668683625757694244384765625</ele>
            </trkpt>
            <trkpt lat="45.873818999999997458871803246438503265380859375" lon="9.320035000000000735553840058855712413787841796875">
                <ele>891.292065600100386291160248219966888427734375</ele>
            </trkpt>
            <trkpt lat="45.8734189999999983911038725636899471282958984375" lon="9.3197489999999998389057509484700858592987060546875">
                <ele>897.383070240042570731020532548427581787109375</ele>
            </trkpt>
            <trkpt lat="45.87323599999999856891008676029741764068603515625" lon="9.319648000000000820364220999181270599365234375">
                <ele>900.3501094400625106572988443076610565185546875</ele>
            </trkpt>
            <trkpt lat="45.87297699999999878173184697516262531280517578125" lon="9.319556999999999646888682036660611629486083984375">
                <ele>905.5539027200255759453284554183483123779296875</ele>
            </trkpt>
            <trkpt lat="45.87264499999999856072463444434106349945068359375" lon="9.319535999999999376086634583771228790283203125">
                <ele>914.3694656000217264590901322662830352783203125</ele>
            </trkpt>
            <trkpt lat="45.87241000000000212821760214865207672119140625" lon="9.3195490000000003050217856070958077907562255859375">
                <ele>919.9320031999844786696485243737697601318359375</ele>
            </trkpt>
            <trkpt lat="45.87236299999999999954525264911353588104248046875" lon="9.3195689999999995478674463811330497264862060546875">
                <ele>921.15697855998359955265186727046966552734375</ele>
            </trkpt>
            <trkpt lat="45.87233400000000216323314816690981388092041015625" lon="9.3196220000000007388507583527825772762298583984375">
                <ele>923.318743039997343657887540757656097412109375</ele>
            </trkpt>
            <trkpt lat="45.8721129999999988058334565721452236175537109375" lon="9.319511999999999574129105894826352596282958984375">
                <ele>922.0147788799964700956479646265506744384765625</ele>
            </trkpt>
            <trkpt lat="45.87200599999999894862412475049495697021484375" lon="9.31948799999999977217157720588147640228271484375">
                <ele>922.29666944000155126559548079967498779296875</ele>
            </trkpt>
            <trkpt lat="45.87081299999999828287400305271148681640625" lon="9.3194210000000001770104063325561583042144775390625">
                <ele>928.6598124799810420881840400397777557373046875</ele>
            </trkpt>
            <trkpt lat="45.87057399999999773854142404161393642425537109375" lon="9.31943700000000063710103859193623065948486328125">
                <ele>926.1077868799848147318698465824127197265625</ele>
            </trkpt>
            <trkpt lat="45.8704579999999992878656485117971897125244140625" lon="9.319463999999999970214048516936600208282470703125">
                <ele>925.2963891199880208660033531486988067626953125</ele>
            </trkpt>
            <trkpt lat="45.8703679999999991423464962281286716461181640625" lon="9.319523000000000223508322960697114467620849609375">
                <ele>925.498912639991658579674549400806427001953125</ele>
            </trkpt>
            <trkpt lat="45.870170000000001664375304244458675384521484375" lon="9.319843999999999795136318425647914409637451171875">
                <ele>929.8168448000175203560502268373966217041015625</ele>
            </trkpt>
            <trkpt lat="45.86997600000000119280230137519538402557373046875" lon="9.3200640000000003482227839413098990917205810546875">
                <ele>932.64894079997202425147406756877899169921875</ele>
            </trkpt>
            <trkpt lat="45.869923999999997477061697281897068023681640625" lon="9.320088999999999401779859908856451511383056640625">
                <ele>934.8360992000701799042872153222560882568359375</ele>
            </trkpt>
            <trkpt lat="45.86984499999999798092176206409931182861328125" lon="9.320074999999999221245161606930196285247802734375">
                <ele>937.05830000005107649485580623149871826171875</ele>
            </trkpt>
            <trkpt lat="45.86972999999999700548869441263377666473388671875" lon="9.3199950000000004735056791105307638645172119140625">
                <ele>939.15572000010797637514770030975341796875</ele>
            </trkpt>
            <trkpt lat="45.8694550000000020872903405688703060150146484375" lon="9.3195630000000004855564839090220630168914794921875">
                <ele>940.957987999936221967800520360469818115234375</ele>
            </trkpt>
            <trkpt lat="45.86940299999999837154973647557199001312255859375" lon="9.319525999999999754663804196752607822418212890625">
                <ele>942.2106416000568742674659006297588348388671875</ele>
            </trkpt>
            <trkpt lat="45.86925899999999955980456434190273284912109375" lon="9.319342999999999932470018393360078334808349609375">
                <ele>944.6108264000180270159034989774227142333984375</ele>
            </trkpt>
            <trkpt lat="45.8692070000000029494913178496062755584716796875" lon="9.3193110000000007886455932748503983020782470703125">
                <ele>946.0715143999041174538433551788330078125</ele>
            </trkpt>
            <trkpt lat="45.86915400000000175850800587795674800872802734375" lon="9.3193160000000005993570084683597087860107421875">
                <ele>947.7302668799974298963206820189952850341796875</ele>
            </trkpt>
            <trkpt lat="45.8691189999999977544575813226401805877685546875" lon="9.3193479999999997431814335868693888187408447265625">
                <ele>948.42712704001087331562303006649017333984375</ele>
            </trkpt>
            <trkpt lat="45.8691170000000028039721655659377574920654296875" lon="9.319407999999999248075255309231579303741455078125">
                <ele>949.3344211199683968516183085739612579345703125</ele>
            </trkpt>
            <trkpt lat="45.8691900000000032378011383116245269775390625" lon="9.3196250000000002700062395888380706310272216796875">
                <ele>951.2809999998927423803252167999744415283203125</ele>
            </trkpt>
            <trkpt lat="45.869044000000002370143192820250988006591796875" lon="9.3195630000000004855564839090220630168914794921875">
                <ele>952.28605823998668711283244192600250244140625</ele>
            </trkpt>
            <trkpt lat="45.86895799999999923102222965098917484283447265625" lon="9.319585000000000007958078640513122081756591796875">
                <ele>953.40550560000701807439327239990234375</ele>
            </trkpt>
            <trkpt lat="45.86890199999999850888343644328415393829345703125" lon="9.3196349999999998914290699758566915988922119140625">
                <ele>954.763838400012218698975630104541778564453125</ele>
            </trkpt>
            <trkpt lat="45.868797999999998182829585857689380645751953125" lon="9.3198899999999991194954418460838496685028076171875">
                <ele>960.373622400006070165545679628849029541015625</ele>
            </trkpt>
            <trkpt lat="45.86877100000000240243025473318994045257568359375" lon="9.3202739999999995035295796697027981281280517578125">
                <ele>968.870570879946853892761282622814178466796875</ele>
            </trkpt>
            <trkpt lat="45.8687230000000027985151973553001880645751953125" lon="9.3202949999999997743316271225921809673309326171875">
                <ele>970.2200351999446183981490321457386016845703125</ele>
            </trkpt>
            <trkpt lat="45.8686950000000024374458007514476776123046875" lon="9.320375999999999550027496297843754291534423828125">
                <ele>972.6561503999424758148961700499057769775390625</ele>
            </trkpt>
            <trkpt lat="45.868706000000003086825017817318439483642578125" lon="9.3204189999999993432311384822241961956024169921875">
                <ele>973.4525740799226696253754198551177978515625</ele>
            </trkpt>
            <trkpt lat="45.868661000000003014065441675484180450439453125" lon="9.3206170000000003739160092663951218128204345703125">
                <ele>979.1912966399386277771554887294769287109375</ele>
            </trkpt>
            <trkpt lat="45.8686519999999973151716403663158416748046875" lon="9.32085599999999914189174887724220752716064453125">
                <ele>985.4671833600474428749294020235538482666015625</ele>
            </trkpt>
            <trkpt lat="45.86858699999999799956640345044434070587158203125" lon="9.321118999999999488181856577284634113311767578125">
                <ele>996.4546718400494000889011658728122711181640625</ele>
            </trkpt>
            <trkpt lat="45.8684760000000011359588825143873691558837890625" lon="9.3214939999999995023927112924866378307342529296875">
                <ele>1013.96034431993803082150407135486602783203125</ele>
            </trkpt>
            <trkpt lat="45.8683309999999977435436449013650417327880859375" lon="9.3217710000000000292175172944553196430206298828125">
                <ele>1030.053901120047157746739685535430908203125</ele>
            </trkpt>
            <trkpt lat="45.86827699999999907731762505136430263519287109375" lon="9.3219130000000003377635948709212243556976318359375">
                <ele>1035.96596512003043244476430118083953857421875</ele>
            </trkpt>
            <trkpt lat="45.8682469999999966603354550898075103759765625" lon="9.3220439999999999969304553815163671970367431640625">
                <ele>1041.033420160071045756922103464603424072265625</ele>
            </trkpt>
            <trkpt lat="45.868211000000002286469680257141590118408203125" lon="9.3221089999999993125356922973878681659698486328125">
                <ele>1044.013842879926642126520164310932159423828125</ele>
            </trkpt>
            <trkpt lat="45.86818099999999986948751029558479785919189453125" lon="9.3222430000000002792148734442889690399169921875">
                <ele>1049.22524896001186789362691342830657958984375</ele>
            </trkpt>
            <trkpt lat="45.86797200000000174213710124604403972625732421875" lon="9.3226820000000003574314177967607975006103515625">
                <ele>1068.2060876799687321181409060955047607421875</ele>
            </trkpt>
            <trkpt lat="45.867851000000001704393071122467517852783203125" lon="9.3228220000000003864215614157728850841522216796875">
                <ele>1075.563538239968693233095109462738037109375</ele>
            </trkpt>
            <trkpt lat="45.8677780000000012705640983767807483673095703125" lon="9.3229500000000005144329406903125345706939697265625">
                <ele>1081.560591999982761990395374596118927001953125</ele>
            </trkpt>
            <trkpt lat="45.86775399999999791589289088733494281768798828125" lon="9.323066000000000741465555620379745960235595703125">
                <ele>1085.95645888008448309847153723239898681640625</ele>
            </trkpt>
            <trkpt lat="45.86765299999999712099452153779566287994384765625" lon="9.323237999999999914280124357901513576507568359375">
                <ele>1094.55582688008553304825909435749053955078125</ele>
            </trkpt>
            <trkpt lat="45.86764000000000152112988871522247791290283203125" lon="9.3233580000000007004246072028763592243194580078125">
                <ele>1098.862054399973885665531270205974578857421875</ele>
            </trkpt>
            <trkpt lat="45.86761299999999863530319998972117900848388671875" lon="9.323404000000000024783730623312294483184814453125">
                <ele>1101.071402240044335485436022281646728515625</ele>
            </trkpt>
            <trkpt lat="45.86757999999999668716554879210889339447021484375" lon="9.3234230000000000160298441187478601932525634765625">
                <ele>1102.67334080010550678707659244537353515625</ele>
            </trkpt>
            <trkpt lat="45.86752899999999755209501017816364765167236328125" lon="9.3235189999999992238599588745273649692535400390625">
                <ele>1107.149693120055189865524880588054656982421875</ele>
            </trkpt>
            <trkpt lat="45.86749999999999971578290569595992565155029296875" lon="9.3235440000000000537738742423243820667266845703125">
                <ele>1108.820000000014488250599242746829986572265625</ele>
            </trkpt>
            <trkpt lat="45.86731499999999783767634653486311435699462890625" lon="9.3236030000000003070681486860848963260650634765625">
                <ele>1118.3270552000985844642855226993560791015625</ele>
            </trkpt>
            <trkpt lat="45.867288999999999532519723288714885711669921875" lon="9.323634999999999450892573804594576358795166015625">
                <ele>1120.18969040000638415222056210041046142578125</ele>
            </trkpt>
            <trkpt lat="45.86726800000000281443135463632643222808837890625" lon="9.3237850000000008776623872108757495880126953125">
                <ele>1124.59743679991743192658759653568267822265625</ele>
            </trkpt>
            <trkpt lat="45.86727599999999682722773286513984203338623046875" lon="9.323871000000000464069671579636633396148681640625">
                <ele>1126.355634560120734022348187863826751708984375</ele>
            </trkpt>
            <trkpt lat="45.8673169999999998935891198925673961639404296875" lon="9.32400799999999918554749456234276294708251953125">
                <ele>1128.36562495998305166722275316715240478515625</ele>
            </trkpt>
            <trkpt lat="45.86765100000000217050910578109323978424072265625" lon="9.32445500000000038198777474462985992431640625">
                <ele>1124.126228799925456769415177404880523681640625</ele>
            </trkpt>
            <trkpt lat="45.86768099999999748206391814164817333221435546875" lon="9.32451999999999969759301166050136089324951171875">
                <ele>1123.409843200092154802405275404453277587890625</ele>
            </trkpt>
            <trkpt lat="45.86768500000000159388946485705673694610595703125" lon="9.3245979999999999421333995996974408626556396484375">
                <ele>1123.70015679994185120449401438236236572265625</ele>
            </trkpt>
            <trkpt lat="45.867649000000000114596332423388957977294921875" lon="9.3245850000000007895550879766233265399932861328125">
                <ele>1124.967054400001870817504823207855224609375</ele>
            </trkpt>
            <trkpt lat="45.867604999999997517079464159905910491943359375" lon="9.324614000000000402224031859077513217926025390625">
                <ele>1126.78697920009699373622424900531768798828125</ele>
            </trkpt>
            <trkpt lat="45.8675640000000015561454347334802150726318359375" lon="9.3246990000000007370317689492367208003997802734375">
                <ele>1128.8880409599469203385524451732635498046875</ele>
            </trkpt>
            <trkpt lat="45.8673950000000019144863472320139408111572265625" lon="9.324714000000000169166014529764652252197265625">
                <ele>1134.70934079994231069576926529407501220703125</ele>
            </trkpt>
            <trkpt lat="45.8671709999999990259311744011938571929931640625" lon="9.3246289999999998343582774396054446697235107421875">
                <ele>1140.828610240028183397953398525714874267578125</ele>
            </trkpt>
            <trkpt lat="45.8669909999999987348928698338568210601806640625" lon="9.324628000000000582758730161003768444061279296875">
                <ele>1146.28803328004551076446659862995147705078125</ele>
            </trkpt>
            <trkpt lat="45.866770000000002482920535840094089508056640625" lon="9.3247309999999998808561940677464008331298828125">
                <ele>1154.39456319992086719139479100704193115234375</ele>
            </trkpt>
            <trkpt lat="45.86659499999999667352312826551496982574462890625" lon="9.3248639999999998195789885357953608036041259765625">
                <ele>1161.18963520007355327834375202655792236328125</ele>
            </trkpt>
            <trkpt lat="45.86639600000000172030922840349376201629638671875" lon="9.324963000000000334921423927880823612213134765625">
                <ele>1167.152821119964983154204674065113067626953125</ele>
            </trkpt>
            <trkpt lat="45.8662709999999975707396515645086765289306640625" lon="9.3249809999999992982111507444642484188079833984375">
                <ele>1170.2584254400453573907725512981414794921875</ele>
            </trkpt>
            <trkpt lat="45.86622100000000301633917842991650104522705078125" lon="9.3250100000000006872369340271688997745513916015625">
                <ele>1171.622123199928637404809705913066864013671875</ele>
            </trkpt>
            <trkpt lat="45.866095999999998866769601590931415557861328125" lon="9.325013999999999469991962541826069355010986328125">
                <ele>1174.474132480027719793724827468395233154296875</ele>
            </trkpt>
            <trkpt lat="45.86570900000000250429366133175790309906005859375" lon="9.324875999999999720557752880267798900604248046875">
                <ele>1181.85340671993844807730056345462799072265625</ele>
            </trkpt>
            <trkpt lat="45.8654530000000022482709027826786041259765625" lon="9.324830999999999647798176738433539867401123046875">
                <ele>1187.5887054399436237872578203678131103515625</ele>
            </trkpt>
            <trkpt lat="45.8653240000000010923031368292868137359619140625" lon="9.3247440000000008097913450910709798336029052734375">
                <ele>1190.047924479981020340346731245517730712890625</ele>
            </trkpt>
            <trkpt lat="45.8652230000000002974047674797475337982177734375" lon="9.32463500000000067302607931196689605712890625">
                <ele>1191.84313839999913398060016334056854248046875</ele>
            </trkpt>
            <trkpt lat="45.8651559999999989258867572061717510223388671875" lon="9.32451400000000063528204918839037418365478515625">
                <ele>1192.846174720036287908442318439483642578125</ele>
            </trkpt>
            <trkpt lat="45.86507900000000148565959534607827663421630859375" lon="9.324417000000000399495547753758728504180908203125">
                <ele>1194.436145439962274394929409027099609375</ele>
            </trkpt>
            <trkpt lat="45.8650200000000012323653209023177623748779296875" lon="9.3243740000000006062919055693782866001129150390625">
                <ele>1195.912998399969865204184316098690032958984375</ele>
            </trkpt>
            <trkpt lat="45.8649750000000011596057447604835033416748046875" lon="9.324386000000000507270669913850724697113037109375">
                <ele>1197.553839999958881890051998198032379150390625</ele>
            </trkpt>
            <trkpt lat="45.86493699999999762439983896911144256591796875" lon="9.32445500000000038198777474462985992431640625">
                <ele>1199.3440240000973062706179916858673095703125</ele>
            </trkpt>
            <trkpt lat="45.86486699999999672172634745948016643524169921875" lon="9.3248569999999997293116393848322331905364990234375">
                <ele>1203.23707360011076161754317581653594970703125</ele>
            </trkpt>
            <trkpt lat="45.86483100000000234786057262681424617767333984375" lon="9.3248979999999992429593476117588579654693603515625">
                <ele>1204.5314271999241100274957716464996337890625</ele>
            </trkpt>
            <trkpt lat="45.86478600000000227510099648497998714447021484375" lon="9.32489699999999999135980033315718173980712890625">
                <ele>1205.999804799928142529097385704517364501953125</ele>
            </trkpt>
            <trkpt lat="45.8647330000000010841176845133304595947265625" lon="9.324842000000000297177393804304301738739013671875">
                <ele>1207.679478399966683355160057544708251953125</ele>
            </trkpt>
            <trkpt lat="45.86457300000000003592504072003066539764404296875" lon="9.324488999999999805368133820593357086181640625">
                <ele>1213.51163680000217937049455940723419189453125</ele>
            </trkpt>
            <trkpt lat="45.86453999999999808778738952241837978363037109375" lon="9.324467999999999534566086367703974246978759765625">
                <ele>1214.822368000078540717368014156818389892578125</ele>
            </trkpt>
            <trkpt lat="45.8644900000000035333869163878262042999267578125" lon="9.3244939999999996160795490141026675701141357421875">
                <ele>1216.699263999868207974941469728946685791015625</ele>
            </trkpt>
            <trkpt lat="45.8644249999999971123543218709528446197509765625" lon="9.324583000000000509999154019169509410858154296875">
                <ele>1218.89116000010881180060096085071563720703125</ele>
            </trkpt>
            <trkpt lat="45.864362999999997327904566191136837005615234375" lon="9.324709999999999610054146614857017993927001953125">
                <ele>1220.642512000099259239505045115947723388671875</ele>
            </trkpt>
            <trkpt lat="45.8643280000000004292814992368221282958984375" lon="9.3248529999999991701997714699245989322662353515625">
                <ele>1221.183289599992576768272556364536285400390625</ele>
            </trkpt>
            <trkpt lat="45.8643229999999988422132446430623531341552734375" lon="9.3248160000000002156639311579056084156036376953125">
                <ele>1221.53297920004115439951419830322265625</ele>
            </trkpt>
            <trkpt lat="45.8643229999999988422132446430623531341552734375" lon="9.3248160000000002156639311579056084156036376953125">
                <ele>1221.53297920004115439951419830322265625</ele>
            </trkpt>
            <trkpt lat="45.86428500000000241243469645269215106964111328125" lon="9.324543999999999499550540349446237087249755859375">
                <ele>1224.314175999915050851996056735515594482421875</ele>
            </trkpt>
            <trkpt lat="45.86449900000000212685336009599268436431884765625" lon="9.3239409999999995903863236890174448490142822265625">
                <ele>1218.766375199918229554896242916584014892578125</ele>
            </trkpt>
            <trkpt lat="45.86443899999999729288902017287909984588623046875" lon="9.32362499999999982946974341757595539093017578125">
                <ele>1223.39730000011104493751190602779388427734375</ele>
            </trkpt>
            <trkpt lat="45.86441099999999693181962356902658939361572265625" lon="9.3235489999999998644852894358336925506591796875">
                <ele>1224.99619920012310103629715740680694580078125</ele>
            </trkpt>
            <trkpt lat="45.86448200000000241516318055801093578338623046875" lon="9.323187000000000779209585743956267833709716796875">
                <ele>1220.92207039993309081182815134525299072265625</ele>
            </trkpt>
            <trkpt lat="45.8644579999999990604919730685651302337646484375" lon="9.32283100000000075624484452418982982635498046875">
                <ele>1214.713788800045449534081853926181793212890625</ele>
            </trkpt>
            <trkpt lat="45.8642669999999981200744514353573322296142578125" lon="9.3222140000000006665459295618347823619842529296875">
                <ele>1199.574170240072135129594244062900543212890625</ele>
            </trkpt>
            <trkpt lat="45.863967000000002371962182223796844482421875" lon="9.3216230000000006583604772458784282207489013671875">
                <ele>1178.944865119964333644020371139049530029296875</ele>
            </trkpt>
            <trkpt lat="45.863967000000002371962182223796844482421875" lon="9.3216230000000006583604772458784282207489013671875">
                <ele>1178.944865119964333644020371139049530029296875</ele>
            </trkpt>
            <trkpt lat="45.86366699999999951842255541123449802398681640625" lon="9.32103000000000037061909097246825695037841796875">
                <ele>1165.781883200027323255199007689952850341796875</ele>
            </trkpt>
            <trkpt lat="45.8633329999999972415025695227086544036865234375" lon="9.3202510000000007295284376596100628376007080078125">
                <ele>1151.0519614402064689784310758113861083984375</ele>
            </trkpt>
            <trkpt lat="45.8630399999999980309439706616103649139404296875" lon="9.3197910000000003805098458542488515377044677734375">
                <ele>1157.742800000138231553137302398681640625</ele>
            </trkpt>
            <trkpt lat="45.86296200000000311547410092316567897796630859375" lon="9.31958900000000056706994655542075634002685546875">
                <ele>1158.191599999812979149282909929752349853515625</ele>
            </trkpt>
            <trkpt lat="45.862808999999998604835127480328083038330078125" lon="9.3193999999999999062083588796667754650115966796875">
                <ele>1163.796800000090343019110150635242462158203125</ele>
            </trkpt>
            <trkpt lat="45.862741999999997233317117206752300262451171875" lon="9.3193800000000006633626981056295335292816162109375">
                <ele>1167.682400000196366818272508680820465087890625</ele>
            </trkpt>
            <trkpt lat="45.862627000000003363311407156288623809814453125" lon="9.3195139999999998536850398522801697254180908203125">
                <ele>1178.189599999780739381094463169574737548828125</ele>
            </trkpt>
            <trkpt lat="45.86241700000000065529093262739479541778564453125" lon="9.3195910000000008466258805128745734691619873046875">
                <ele>1185.871171520034522472997196018695831298828125</ele>
            </trkpt>
            <trkpt lat="45.86236999999999852661858312785625457763671875" lon="9.319416000000000366298991139046847820281982421875">
                <ele>1181.03534719997014690306968986988067626953125</ele>
            </trkpt>
            <trkpt lat="45.862133999999997513441485352814197540283203125" lon="9.3194409999999994198560671065934002399444580078125">
                <ele>1175.703415039928358964971266686916351318359375</ele>
            </trkpt>
            <trkpt lat="45.861998999999997295162756927311420440673828125" lon="9.319233000000000544105205335654318332672119140625">
                <ele>1169.723222719950399550725705921649932861328125</ele>
            </trkpt>
            <trkpt lat="45.8618960000000015497789718210697174072265625" lon="9.3192149999999998044586391188204288482666015625">
                <ele>1167.4166624000281444750726222991943359375</ele>
            </trkpt>
            <trkpt lat="45.8619699999999994588506524451076984405517578125" lon="9.3197799999999997311306287883780896663665771484375">
                <ele>1175.7546559999782402883283793926239013671875</ele>
            </trkpt>
            <trkpt lat="45.8619800000000026329871616326272487640380859375" lon="9.320499999999999118927007657475769519805908203125">
                <ele>1189.96400000010225994628854095935821533203125</ele>
            </trkpt>
            <trkpt lat="45.86182999999999765350366942584514617919921875" lon="9.321020000000000749196260585449635982513427734375">
                <ele>1197.5551359998980842647142708301544189453125</ele>
            </trkpt>
            <trkpt lat="45.86211999999999733290678705088794231414794921875" lon="9.3213799999999995549160303198732435703277587890625">
                <ele>1231.151775999813025919138453900814056396484375</ele>
            </trkpt>
            <trkpt lat="45.8624300000000033605829230509698390960693359375" lon="9.3220100000000005735500963055528700351715087890625">
                <ele>1283.365568000250959812547080218791961669921875</ele>
            </trkpt>
            <trkpt lat="45.8625200000000035061020753346383571624755859375" lon="9.323209999999999553210727754049003124237060546875">
                <ele>1331.03206399975306339911185204982757568359375</ele>
            </trkpt>
            <trkpt lat="45.86276000000000152567736222408711910247802734375" lon="9.3233399999999999607780409860424697399139404296875">
                <ele>1318.530399999905739605310373008251190185546875</ele>
            </trkpt>
            <trkpt lat="45.86285000000000167119651450775563716888427734375" lon="9.32291000000000025238477974198758602142333984375">
                <ele>1298.31151999988514944561757147312164306640625</ele>
            </trkpt>
            <trkpt lat="45.862920000000002573870006017386913299560546875" lon="9.322350000000000136424205265939235687255859375">
                <ele>1270.021279999785974723636172711849212646484375</ele>
            </trkpt>
            <trkpt lat="45.86305999999999727378963143564760684967041015625" lon="9.3219399999999996708766047959215939044952392578125">
                <ele>1235.424416000221071954001672565937042236328125</ele>
            </trkpt>
            <trkpt lat="45.86294000000000181671566679142415523529052734375" lon="9.321490000000000719637682777829468250274658203125">
                <ele>1223.4189759998816953157074749469757080078125</ele>
            </trkpt>
            <trkpt lat="45.862740000000002282831701450049877166748046875" lon="9.321059999999999234887582133524119853973388671875">
                <ele>1219.79862399979765541502274572849273681640625</ele>
            </trkpt>
            <trkpt lat="45.86270999999999986584953148849308490753173828125" lon="9.3207299999999992934363035601563751697540283203125">
                <ele>1207.757743999988861105521209537982940673828125</ele>
            </trkpt>
            <trkpt lat="45.8628599999999977399056660942733287811279296875" lon="9.3206299999999995264943208894692361354827880859375">
                <ele>1194.360224000140078715048730373382568359375</ele>
            </trkpt>
            <trkpt lat="45.86289000000000015688783605583012104034423828125" lon="9.319990000000000662794263917021453380584716796875">
                <ele>1172.00000000000682121026329696178436279296875</ele>
            </trkpt>
            <trkpt lat="45.863079999999996516635292209684848785400390625" lon="9.3197600000000004882849680143408477306365966796875">
                <ele>1154.444000000238929715123958885669708251953125</ele>
            </trkpt>
            <trkpt lat="45.86304700000000167392499861307442188262939453125" lon="9.31980300000000028148861019872128963470458984375">
                <ele>1157.562799999899880276643671095371246337890625</ele>
            </trkpt>
            <trkpt lat="45.8633329999999972415025695227086544036865234375" lon="9.3202510000000007295284376596100628376007080078125">
                <ele>1151.0519614402064689784310758113861083984375</ele>
            </trkpt>
            <trkpt lat="45.86366699999999951842255541123449802398681640625" lon="9.32103000000000037061909097246825695037841796875">
                <ele>1165.781883200027323255199007689952850341796875</ele>
            </trkpt>
            <trkpt lat="45.8642669999999981200744514353573322296142578125" lon="9.3222140000000006665459295618347823619842529296875">
                <ele>1199.574170240072135129594244062900543212890625</ele>
            </trkpt>
            <trkpt lat="45.8644579999999990604919730685651302337646484375" lon="9.32283100000000075624484452418982982635498046875">
                <ele>1214.713788800045449534081853926181793212890625</ele>
            </trkpt>
            <trkpt lat="45.86448200000000241516318055801093578338623046875" lon="9.323187000000000779209585743956267833709716796875">
                <ele>1220.92207039993309081182815134525299072265625</ele>
            </trkpt>
            <trkpt lat="45.86441099999999693181962356902658939361572265625" lon="9.3235489999999998644852894358336925506591796875">
                <ele>1224.99619920012310103629715740680694580078125</ele>
            </trkpt>
            <trkpt lat="45.86443899999999729288902017287909984588623046875" lon="9.32362499999999982946974341757595539093017578125">
                <ele>1223.39730000011104493751190602779388427734375</ele>
            </trkpt>
            <trkpt lat="45.86449900000000212685336009599268436431884765625" lon="9.3239409999999995903863236890174448490142822265625">
                <ele>1218.766375199918229554896242916584014892578125</ele>
            </trkpt>
            <trkpt lat="45.86428500000000241243469645269215106964111328125" lon="9.324543999999999499550540349446237087249755859375">
                <ele>1224.314175999915050851996056735515594482421875</ele>
            </trkpt>
            <trkpt lat="45.8643280000000004292814992368221282958984375" lon="9.3248529999999991701997714699245989322662353515625">
                <ele>1221.183289599992576768272556364536285400390625</ele>
            </trkpt>
            <trkpt lat="45.86429700000000053705662139691412448883056640625" lon="9.3249809999999992982111507444642484188079833984375">
                <ele>1221.534740799989549486781470477581024169921875</ele>
            </trkpt>
            <trkpt lat="45.86429700000000053705662139691412448883056640625" lon="9.3249809999999992982111507444642484188079833984375">
                <ele>1221.534740799989549486781470477581024169921875</ele>
            </trkpt>
            <trkpt lat="45.8643280000000004292814992368221282958984375" lon="9.3248529999999991701997714699245989322662353515625">
                <ele>1221.183289599992576768272556364536285400390625</ele>
            </trkpt>
            <trkpt lat="45.864362999999997327904566191136837005615234375" lon="9.324709999999999610054146614857017993927001953125">
                <ele>1220.642512000099259239505045115947723388671875</ele>
            </trkpt>
            <trkpt lat="45.8644249999999971123543218709528446197509765625" lon="9.324583000000000509999154019169509410858154296875">
                <ele>1218.89116000010881180060096085071563720703125</ele>
            </trkpt>
            <trkpt lat="45.8644900000000035333869163878262042999267578125" lon="9.3244939999999996160795490141026675701141357421875">
                <ele>1216.699263999868207974941469728946685791015625</ele>
            </trkpt>
            <trkpt lat="45.86453999999999808778738952241837978363037109375" lon="9.324467999999999534566086367703974246978759765625">
                <ele>1214.822368000078540717368014156818389892578125</ele>
            </trkpt>
            <trkpt lat="45.86457300000000003592504072003066539764404296875" lon="9.324488999999999805368133820593357086181640625">
                <ele>1213.51163680000217937049455940723419189453125</ele>
            </trkpt>
            <trkpt lat="45.8647330000000010841176845133304595947265625" lon="9.324842000000000297177393804304301738739013671875">
                <ele>1207.679478399966683355160057544708251953125</ele>
            </trkpt>
            <trkpt lat="45.86478600000000227510099648497998714447021484375" lon="9.32489699999999999135980033315718173980712890625">
                <ele>1205.999804799928142529097385704517364501953125</ele>
            </trkpt>
            <trkpt lat="45.86483100000000234786057262681424617767333984375" lon="9.3248979999999992429593476117588579654693603515625">
                <ele>1204.5314271999241100274957716464996337890625</ele>
            </trkpt>
            <trkpt lat="45.86486699999999672172634745948016643524169921875" lon="9.3248569999999997293116393848322331905364990234375">
                <ele>1203.23707360011076161754317581653594970703125</ele>
            </trkpt>
            <trkpt lat="45.86493699999999762439983896911144256591796875" lon="9.32445500000000038198777474462985992431640625">
                <ele>1199.3440240000973062706179916858673095703125</ele>
            </trkpt>
            <trkpt lat="45.8649750000000011596057447604835033416748046875" lon="9.324386000000000507270669913850724697113037109375">
                <ele>1197.553839999958881890051998198032379150390625</ele>
            </trkpt>
            <trkpt lat="45.8650200000000012323653209023177623748779296875" lon="9.3243740000000006062919055693782866001129150390625">
                <ele>1195.912998399969865204184316098690032958984375</ele>
            </trkpt>
            <trkpt lat="45.86507900000000148565959534607827663421630859375" lon="9.324417000000000399495547753758728504180908203125">
                <ele>1194.436145439962274394929409027099609375</ele>
            </trkpt>
            <trkpt lat="45.8651559999999989258867572061717510223388671875" lon="9.32451400000000063528204918839037418365478515625">
                <ele>1192.846174720036287908442318439483642578125</ele>
            </trkpt>
            <trkpt lat="45.8652230000000002974047674797475337982177734375" lon="9.32463500000000067302607931196689605712890625">
                <ele>1191.84313839999913398060016334056854248046875</ele>
            </trkpt>
            <trkpt lat="45.8653240000000010923031368292868137359619140625" lon="9.3247440000000008097913450910709798336029052734375">
                <ele>1190.047924479981020340346731245517730712890625</ele>
            </trkpt>
            <trkpt lat="45.8654530000000022482709027826786041259765625" lon="9.324830999999999647798176738433539867401123046875">
                <ele>1187.5887054399436237872578203678131103515625</ele>
            </trkpt>
            <trkpt lat="45.86570900000000250429366133175790309906005859375" lon="9.324875999999999720557752880267798900604248046875">
                <ele>1181.85340671993844807730056345462799072265625</ele>
            </trkpt>
            <trkpt lat="45.866095999999998866769601590931415557861328125" lon="9.325013999999999469991962541826069355010986328125">
                <ele>1174.474132480027719793724827468395233154296875</ele>
            </trkpt>
            <trkpt lat="45.86622100000000301633917842991650104522705078125" lon="9.3250100000000006872369340271688997745513916015625">
                <ele>1171.622123199928637404809705913066864013671875</ele>
            </trkpt>
            <trkpt lat="45.8662709999999975707396515645086765289306640625" lon="9.3249809999999992982111507444642484188079833984375">
                <ele>1170.2584254400453573907725512981414794921875</ele>
            </trkpt>
            <trkpt lat="45.86639600000000172030922840349376201629638671875" lon="9.324963000000000334921423927880823612213134765625">
                <ele>1167.152821119964983154204674065113067626953125</ele>
            </trkpt>
            <trkpt lat="45.86659499999999667352312826551496982574462890625" lon="9.3248639999999998195789885357953608036041259765625">
                <ele>1161.18963520007355327834375202655792236328125</ele>
            </trkpt>
            <trkpt lat="45.866770000000002482920535840094089508056640625" lon="9.3247309999999998808561940677464008331298828125">
                <ele>1154.39456319992086719139479100704193115234375</ele>
            </trkpt>
            <trkpt lat="45.8669909999999987348928698338568210601806640625" lon="9.324628000000000582758730161003768444061279296875">
                <ele>1146.28803328004551076446659862995147705078125</ele>
            </trkpt>
            <trkpt lat="45.8671709999999990259311744011938571929931640625" lon="9.3246289999999998343582774396054446697235107421875">
                <ele>1140.828610240028183397953398525714874267578125</ele>
            </trkpt>
            <trkpt lat="45.8673950000000019144863472320139408111572265625" lon="9.324714000000000169166014529764652252197265625">
                <ele>1134.70934079994231069576926529407501220703125</ele>
            </trkpt>
            <trkpt lat="45.8675640000000015561454347334802150726318359375" lon="9.3246990000000007370317689492367208003997802734375">
                <ele>1128.8880409599469203385524451732635498046875</ele>
            </trkpt>
            <trkpt lat="45.867604999999997517079464159905910491943359375" lon="9.324614000000000402224031859077513217926025390625">
                <ele>1126.78697920009699373622424900531768798828125</ele>
            </trkpt>
            <trkpt lat="45.867649000000000114596332423388957977294921875" lon="9.3245850000000007895550879766233265399932861328125">
                <ele>1124.967054400001870817504823207855224609375</ele>
            </trkpt>
            <trkpt lat="45.86768500000000159388946485705673694610595703125" lon="9.3245979999999999421333995996974408626556396484375">
                <ele>1123.70015679994185120449401438236236572265625</ele>
            </trkpt>
            <trkpt lat="45.86768099999999748206391814164817333221435546875" lon="9.32451999999999969759301166050136089324951171875">
                <ele>1123.409843200092154802405275404453277587890625</ele>
            </trkpt>
            <trkpt lat="45.86765100000000217050910578109323978424072265625" lon="9.32445500000000038198777474462985992431640625">
                <ele>1124.126228799925456769415177404880523681640625</ele>
            </trkpt>
            <trkpt lat="45.8673169999999998935891198925673961639404296875" lon="9.32400799999999918554749456234276294708251953125">
                <ele>1128.36562495998305166722275316715240478515625</ele>
            </trkpt>
            <trkpt lat="45.86727599999999682722773286513984203338623046875" lon="9.323871000000000464069671579636633396148681640625">
                <ele>1126.355634560120734022348187863826751708984375</ele>
            </trkpt>
            <trkpt lat="45.86726800000000281443135463632643222808837890625" lon="9.3237850000000008776623872108757495880126953125">
                <ele>1124.59743679991743192658759653568267822265625</ele>
            </trkpt>
            <trkpt lat="45.867288999999999532519723288714885711669921875" lon="9.323634999999999450892573804594576358795166015625">
                <ele>1120.18969040000638415222056210041046142578125</ele>
            </trkpt>
            <trkpt lat="45.86731499999999783767634653486311435699462890625" lon="9.3236030000000003070681486860848963260650634765625">
                <ele>1118.3270552000985844642855226993560791015625</ele>
            </trkpt>
            <trkpt lat="45.86749999999999971578290569595992565155029296875" lon="9.3235440000000000537738742423243820667266845703125">
                <ele>1108.820000000014488250599242746829986572265625</ele>
            </trkpt>
            <trkpt lat="45.86752899999999755209501017816364765167236328125" lon="9.3235189999999992238599588745273649692535400390625">
                <ele>1107.149693120055189865524880588054656982421875</ele>
            </trkpt>
            <trkpt lat="45.86757999999999668716554879210889339447021484375" lon="9.3234230000000000160298441187478601932525634765625">
                <ele>1102.67334080010550678707659244537353515625</ele>
            </trkpt>
            <trkpt lat="45.86761299999999863530319998972117900848388671875" lon="9.323404000000000024783730623312294483184814453125">
                <ele>1101.071402240044335485436022281646728515625</ele>
            </trkpt>
            <trkpt lat="45.86764000000000152112988871522247791290283203125" lon="9.3233580000000007004246072028763592243194580078125">
                <ele>1098.862054399973885665531270205974578857421875</ele>
            </trkpt>
            <trkpt lat="45.86765299999999712099452153779566287994384765625" lon="9.323237999999999914280124357901513576507568359375">
                <ele>1094.55582688008553304825909435749053955078125</ele>
            </trkpt>
            <trkpt lat="45.86775399999999791589289088733494281768798828125" lon="9.323066000000000741465555620379745960235595703125">
                <ele>1085.95645888008448309847153723239898681640625</ele>
            </trkpt>
            <trkpt lat="45.8677780000000012705640983767807483673095703125" lon="9.3229500000000005144329406903125345706939697265625">
                <ele>1081.560591999982761990395374596118927001953125</ele>
            </trkpt>
            <trkpt lat="45.867851000000001704393071122467517852783203125" lon="9.3228220000000003864215614157728850841522216796875">
                <ele>1075.563538239968693233095109462738037109375</ele>
            </trkpt>
            <trkpt lat="45.86797200000000174213710124604403972625732421875" lon="9.3226820000000003574314177967607975006103515625">
                <ele>1068.2060876799687321181409060955047607421875</ele>
            </trkpt>
            <trkpt lat="45.86818099999999986948751029558479785919189453125" lon="9.3222430000000002792148734442889690399169921875">
                <ele>1049.22524896001186789362691342830657958984375</ele>
            </trkpt>
            <trkpt lat="45.868211000000002286469680257141590118408203125" lon="9.3221089999999993125356922973878681659698486328125">
                <ele>1044.013842879926642126520164310932159423828125</ele>
            </trkpt>
            <trkpt lat="45.8682469999999966603354550898075103759765625" lon="9.3220439999999999969304553815163671970367431640625">
                <ele>1041.033420160071045756922103464603424072265625</ele>
            </trkpt>
            <trkpt lat="45.86827699999999907731762505136430263519287109375" lon="9.3219130000000003377635948709212243556976318359375">
                <ele>1035.96596512003043244476430118083953857421875</ele>
            </trkpt>
            <trkpt lat="45.8683309999999977435436449013650417327880859375" lon="9.3217710000000000292175172944553196430206298828125">
                <ele>1030.053901120047157746739685535430908203125</ele>
            </trkpt>
            <trkpt lat="45.8684760000000011359588825143873691558837890625" lon="9.3214939999999995023927112924866378307342529296875">
                <ele>1013.96034431993803082150407135486602783203125</ele>
            </trkpt>
            <trkpt lat="45.86858699999999799956640345044434070587158203125" lon="9.321118999999999488181856577284634113311767578125">
                <ele>996.4546718400494000889011658728122711181640625</ele>
            </trkpt>
            <trkpt lat="45.8686519999999973151716403663158416748046875" lon="9.32085599999999914189174887724220752716064453125">
                <ele>985.4671833600474428749294020235538482666015625</ele>
            </trkpt>
            <trkpt lat="45.868661000000003014065441675484180450439453125" lon="9.3206170000000003739160092663951218128204345703125">
                <ele>979.1912966399386277771554887294769287109375</ele>
            </trkpt>
            <trkpt lat="45.868706000000003086825017817318439483642578125" lon="9.3204189999999993432311384822241961956024169921875">
                <ele>973.4525740799226696253754198551177978515625</ele>
            </trkpt>
            <trkpt lat="45.8686950000000024374458007514476776123046875" lon="9.320375999999999550027496297843754291534423828125">
                <ele>972.6561503999424758148961700499057769775390625</ele>
            </trkpt>
            <trkpt lat="45.8687230000000027985151973553001880645751953125" lon="9.3202949999999997743316271225921809673309326171875">
                <ele>970.2200351999446183981490321457386016845703125</ele>
            </trkpt>
            <trkpt lat="45.86877100000000240243025473318994045257568359375" lon="9.3202739999999995035295796697027981281280517578125">
                <ele>968.870570879946853892761282622814178466796875</ele>
            </trkpt>
            <trkpt lat="45.868797999999998182829585857689380645751953125" lon="9.3198899999999991194954418460838496685028076171875">
                <ele>960.373622400006070165545679628849029541015625</ele>
            </trkpt>
            <trkpt lat="45.86890199999999850888343644328415393829345703125" lon="9.3196349999999998914290699758566915988922119140625">
                <ele>954.763838400012218698975630104541778564453125</ele>
            </trkpt>
            <trkpt lat="45.86895799999999923102222965098917484283447265625" lon="9.319585000000000007958078640513122081756591796875">
                <ele>953.40550560000701807439327239990234375</ele>
            </trkpt>
            <trkpt lat="45.869044000000002370143192820250988006591796875" lon="9.3195630000000004855564839090220630168914794921875">
                <ele>952.28605823998668711283244192600250244140625</ele>
            </trkpt>
            <trkpt lat="45.8691900000000032378011383116245269775390625" lon="9.3196250000000002700062395888380706310272216796875">
                <ele>951.2809999998927423803252167999744415283203125</ele>
            </trkpt>
            <trkpt lat="45.8691170000000028039721655659377574920654296875" lon="9.319407999999999248075255309231579303741455078125">
                <ele>949.3344211199683968516183085739612579345703125</ele>
            </trkpt>
            <trkpt lat="45.8691189999999977544575813226401805877685546875" lon="9.3193479999999997431814335868693888187408447265625">
                <ele>948.42712704001087331562303006649017333984375</ele>
            </trkpt>
            <trkpt lat="45.86915400000000175850800587795674800872802734375" lon="9.3193160000000005993570084683597087860107421875">
                <ele>947.7302668799974298963206820189952850341796875</ele>
            </trkpt>
            <trkpt lat="45.8692070000000029494913178496062755584716796875" lon="9.3193110000000007886455932748503983020782470703125">
                <ele>946.0715143999041174538433551788330078125</ele>
            </trkpt>
            <trkpt lat="45.86925899999999955980456434190273284912109375" lon="9.319342999999999932470018393360078334808349609375">
                <ele>944.6108264000180270159034989774227142333984375</ele>
            </trkpt>
            <trkpt lat="45.86940299999999837154973647557199001312255859375" lon="9.319525999999999754663804196752607822418212890625">
                <ele>942.2106416000568742674659006297588348388671875</ele>
            </trkpt>
            <trkpt lat="45.8694550000000020872903405688703060150146484375" lon="9.3195630000000004855564839090220630168914794921875">
                <ele>940.957987999936221967800520360469818115234375</ele>
            </trkpt>
            <trkpt lat="45.86972999999999700548869441263377666473388671875" lon="9.3199950000000004735056791105307638645172119140625">
                <ele>939.15572000010797637514770030975341796875</ele>
            </trkpt>
            <trkpt lat="45.86984499999999798092176206409931182861328125" lon="9.320074999999999221245161606930196285247802734375">
                <ele>937.05830000005107649485580623149871826171875</ele>
            </trkpt>
            <trkpt lat="45.869923999999997477061697281897068023681640625" lon="9.320088999999999401779859908856451511383056640625">
                <ele>934.8360992000701799042872153222560882568359375</ele>
            </trkpt>
            <trkpt lat="45.86997600000000119280230137519538402557373046875" lon="9.3200640000000003482227839413098990917205810546875">
                <ele>932.64894079997202425147406756877899169921875</ele>
            </trkpt>
            <trkpt lat="45.870170000000001664375304244458675384521484375" lon="9.319843999999999795136318425647914409637451171875">
                <ele>929.8168448000175203560502268373966217041015625</ele>
            </trkpt>
            <trkpt lat="45.8703679999999991423464962281286716461181640625" lon="9.319523000000000223508322960697114467620849609375">
                <ele>925.498912639991658579674549400806427001953125</ele>
            </trkpt>
            <trkpt lat="45.8704579999999992878656485117971897125244140625" lon="9.319463999999999970214048516936600208282470703125">
                <ele>925.2963891199880208660033531486988067626953125</ele>
            </trkpt>
            <trkpt lat="45.87057399999999773854142404161393642425537109375" lon="9.31943700000000063710103859193623065948486328125">
                <ele>926.1077868799848147318698465824127197265625</ele>
            </trkpt>
            <trkpt lat="45.87081299999999828287400305271148681640625" lon="9.3194210000000001770104063325561583042144775390625">
                <ele>928.6598124799810420881840400397777557373046875</ele>
            </trkpt>
            <trkpt lat="45.87200599999999894862412475049495697021484375" lon="9.31948799999999977217157720588147640228271484375">
                <ele>922.29666944000155126559548079967498779296875</ele>
            </trkpt>
            <trkpt lat="45.8721129999999988058334565721452236175537109375" lon="9.319511999999999574129105894826352596282958984375">
                <ele>922.0147788799964700956479646265506744384765625</ele>
            </trkpt>
            <trkpt lat="45.87233400000000216323314816690981388092041015625" lon="9.3196220000000007388507583527825772762298583984375">
                <ele>923.318743039997343657887540757656097412109375</ele>
            </trkpt>
            <trkpt lat="45.87236299999999999954525264911353588104248046875" lon="9.3195689999999995478674463811330497264862060546875">
                <ele>921.15697855998359955265186727046966552734375</ele>
            </trkpt>
            <trkpt lat="45.87241000000000212821760214865207672119140625" lon="9.3195490000000003050217856070958077907562255859375">
                <ele>919.9320031999844786696485243737697601318359375</ele>
            </trkpt>
            <trkpt lat="45.87264499999999856072463444434106349945068359375" lon="9.319535999999999376086634583771228790283203125">
                <ele>914.3694656000217264590901322662830352783203125</ele>
            </trkpt>
            <trkpt lat="45.87297699999999878173184697516262531280517578125" lon="9.319556999999999646888682036660611629486083984375">
                <ele>905.5539027200255759453284554183483123779296875</ele>
            </trkpt>
            <trkpt lat="45.87323599999999856891008676029741764068603515625" lon="9.319648000000000820364220999181270599365234375">
                <ele>900.3501094400625106572988443076610565185546875</ele>
            </trkpt>
            <trkpt lat="45.8734189999999983911038725636899471282958984375" lon="9.3197489999999998389057509484700858592987060546875">
                <ele>897.383070240042570731020532548427581787109375</ele>
            </trkpt>
            <trkpt lat="45.873818999999997458871803246438503265380859375" lon="9.320035000000000735553840058855712413787841796875">
                <ele>891.292065600100386291160248219966888427734375</ele>
            </trkpt>
            <trkpt lat="45.87423700000000081899997894652187824249267578125" lon="9.3203779999999998295834302552975714206695556640625">
                <ele>889.534838399981026668683625757694244384765625</ele>
            </trkpt>
            <trkpt lat="45.87466100000000324143911711871623992919921875" lon="9.32076299999999946521711535751819610595703125">
                <ele>895.9573391999389286866062320768833160400390625</ele>
            </trkpt>
            <trkpt lat="45.8748920000000026675479602999985218048095703125" lon="9.3209029999999994942072589765302836894989013671875">
                <ele>894.7431750399683778596227057278156280517578125</ele>
            </trkpt>
            <trkpt lat="45.87503600000000147929313243366777896881103515625" lon="9.3208920000000006211848813109099864959716796875">
                <ele>892.4611110399556537231546826660633087158203125</ele>
            </trkpt>
            <trkpt lat="45.87514399999999881174517213366925716400146484375" lon="9.320859999999999701003616792149841785430908203125">
                <ele>890.634092800037024062476120889186859130859375</ele>
            </trkpt>
            <trkpt lat="45.87520099999999700912667321972548961639404296875" lon="9.3207989999999991681534083909355103969573974609375">
                <ele>888.69382368003743977169506251811981201171875</ele>
            </trkpt>
            <trkpt lat="45.87521199999999765850589028559625148773193359375" lon="9.3206900000000008077449820120818912982940673828125">
                <ele>884.6090496000730354353436268866062164306640625</ele>
            </trkpt>
            <trkpt lat="45.87517700000000075988282333128154277801513671875" lon="9.320598000000000382669895770959556102752685546875">
                <ele>881.8999987200037367074401117861270904541015625</ele>
            </trkpt>
            <trkpt lat="45.875101999999998270141077227890491485595703125" lon="9.320496999999999587771526421420276165008544921875">
                <ele>879.135214080006107906228862702846527099609375</ele>
            </trkpt>
            <trkpt lat="45.87485699999999866349753574468195438385009765625" lon="9.3202890000000007120206646504811942577362060546875">
                <ele>874.4748912000565042035304941236972808837890625</ele>
            </trkpt>
            <trkpt lat="45.8747740000000021609594114124774932861328125" lon="9.32019700000000028694557840935885906219482421875">
                <ele>872.5568831999670464938390068709850311279296875</ele>
            </trkpt>
            <trkpt lat="45.87474499999999721921994932927191257476806640625" lon="9.320085999999999870624378672800958156585693359375">
                <ele>868.91620800006012359517626464366912841796875</ele>
            </trkpt>
            <trkpt lat="45.874786000000000285581336356699466705322265625" lon="9.3199850000000008520828487235121428966522216796875">
                <ele>864.3356016000115005226689390838146209716796875</ele>
            </trkpt>
            <trkpt lat="45.87496999999999758301783003844320774078369140625" lon="9.31987099999999912824932835064828395843505859375">
                <ele>857.3289552000438789036707021296024322509765625</ele>
            </trkpt>
            <trkpt lat="45.87536200000000263798938249237835407257080078125" lon="9.3196910000000006135678631835617125034332275390625">
                <ele>852.9526224000179581707925535738468170166015625</ele>
            </trkpt>
            <trkpt lat="45.8755019999999973379090079106390476226806640625" lon="9.319646999999999792407834320329129695892333984375">
                <ele>851.9829167999904484531725756824016571044921875</ele>
            </trkpt>
            <trkpt lat="45.875753000000003112290869466960430145263671875" lon="9.319644000000000261252353084273636341094970703125">
                <ele>852.16391040000917200814001262187957763671875</ele>
            </trkpt>
            <trkpt lat="45.8759170000000011668817023746669292449951171875" lon="9.31958900000000056706994655542075634002685546875">
                <ele>848.94001471998990382417105138301849365234375</ele>
            </trkpt>
            <trkpt lat="45.87608999999999781493897899053990840911865234375" lon="9.3194339999999993295887179556302726268768310546875">
                <ele>842.287846400019361681188456714153289794921875</ele>
            </trkpt>
            <trkpt lat="45.87622999999999962028596200980246067047119140625" lon="9.319278000000000616864781477488577365875244140625">
                <ele>837.8001536000125497594126500189304351806640625</ele>
            </trkpt>
            <trkpt lat="45.876429000000001678927219472825527191162109375" lon="9.3189899999999994406607584096491336822509765625">
                <ele>832.3230639999877666923566721379756927490234375</ele>
            </trkpt>
            <trkpt lat="45.87655000000000171667124959640204906463623046875" lon="9.3187309999999996534825186245143413543701171875">
                <ele>828.9197200000013481258065439760684967041015625</ele>
            </trkpt>
            <trkpt lat="45.87666800000000222325979848392307758331298828125" lon="9.3183009999999999450892573804594576358795166015625">
                <ele>824.882841599877792759798467159271240234375</ele>
            </trkpt>
            <trkpt lat="45.876700999999997065970092080533504486083984375" lon="9.3180770000000006092477633501403033733367919921875">
                <ele>819.510662400155297291348688304424285888671875</ele>
            </trkpt>
            <trkpt lat="45.8766839999999973542799125425517559051513671875" lon="9.3178929999999997590975908678956329822540283203125">
                <ele>817.3446144001133006895543076097965240478515625</ele>
            </trkpt>
            <trkpt lat="45.87670700000000323370841215364634990692138671875" lon="9.317764000000000379486664314754307270050048828125">
                <ele>814.3217375998780198642634786665439605712890625</ele>
            </trkpt>
            <trkpt lat="45.87678700000000020509105524979531764984130859375" lon="9.3176609999999993050323610077612102031707763671875">
                <ele>809.7480383999844661957467906177043914794921875</ele>
            </trkpt>
            <trkpt lat="45.87695099999999825968188815750181674957275390625" lon="9.317598000000000268983058049343526363372802734375">
                <ele>803.1314976000649039633572101593017578125</ele>
            </trkpt>
            <trkpt lat="45.87707000000000334694050252437591552734375" lon="9.3176059999999996108499544789083302021026611328125">
                <ele>798.98150399988071512780152261257171630859375</ele>
            </trkpt>
            <trkpt lat="45.877195999999997866325429640710353851318359375" lon="9.31768699999999938654582365415990352630615234375">
                <ele>794.6404224000810927464044652879238128662109375</ele>
            </trkpt>
            <trkpt lat="45.8772909999999995989128365181386470794677734375" lon="9.3178140000000002629576556500978767871856689453125">
                <ele>790.900828800017961839330382645130157470703125</ele>
            </trkpt>
            <trkpt lat="45.8774480000000011159499990753829479217529296875" lon="9.318218999999999141437001526355743408203125">
                <ele>782.084774399947718848125077784061431884765625</ele>
            </trkpt>
            <trkpt lat="45.87759299999999740293787908740341663360595703125" lon="9.3187949999999997174882082617841660976409912109375">
                <ele>768.8565208001672317550401203334331512451171875</ele>
            </trkpt>
            <trkpt lat="45.87763600000000252521203947253525257110595703125" lon="9.3190200000000000812860889709554612636566162109375">
                <ele>764.1685695998440905896131880581378936767578125</ele>
            </trkpt>
            <trkpt lat="45.87769200000000324735083268024027347564697265625" lon="9.3191860000000001917896952363662421703338623046875">
                <ele>759.1263999997958080712123773992061614990234375</ele>
            </trkpt>
            <trkpt lat="45.87774999999999891997504164464771747589111328125" lon="9.3192620000000001567741492181085050106048583984375">
                <ele>754.7992000000713233021087944507598876953125</ele>
            </trkpt>
            <trkpt lat="45.8778379999999970095814205706119537353515625" lon="9.31930200000000041882231016643345355987548828125">
                <ele>748.866400000190651553566567599773406982421875</ele>
            </trkpt>
            <trkpt lat="45.87788900000000325007931678555905818939208984375" lon="9.319295000000000328554961015470325946807861328125">
                <ele>745.681599999794570976519025862216949462890625</ele>
            </trkpt>
            <trkpt lat="45.877915000000001555235940031707286834716796875" lon="9.3192280000000007333937901421450078487396240234375">
                <ele>744.5907999998988771039876155555248260498046875</ele>
            </trkpt>
            <trkpt lat="45.877916999999996505721355788409709930419921875" lon="9.319129000000000218051354750059545040130615234375">
                <ele>745.3630542402232777021708898246288299560546875</ele>
            </trkpt>
            <trkpt lat="45.87787800000000260070009971968829631805419921875" lon="9.3188709999999996824726622435264289379119873046875">
                <ele>750.4256118398449189044185914099216461181640625</ele>
            </trkpt>
            <trkpt lat="45.877971999999999752617441117763519287109375" lon="9.3182869999999997645545590785332024097442626953125">
                <ele>750.734042880020979282562620937824249267578125</ele>
            </trkpt>
            <trkpt lat="45.878051999999996724000084213912487030029296875" lon="9.3179899999999999948840923025272786617279052734375">
                <ele>749.762361600188569354941137135028839111328125</ele>
            </trkpt>
            <trkpt lat="45.87805800000000289173840428702533245086669921875" lon="9.3178929999999997590975908678956329822540283203125">
                <ele>750.667116479845617504906840622425079345703125</ele>
            </trkpt>
            <trkpt lat="45.87800200000000216959961107932031154632568359375" lon="9.3176199999999997913846527808345854282379150390625">
                <ele>757.1255807998910540845827199518680572509765625</ele>
            </trkpt>
            <trkpt lat="45.87792499999999762394509161822497844696044921875" lon="9.3174499999999991217691786005161702632904052734375">
                <ele>762.577200000123639256344176828861236572265625</ele>
            </trkpt>
            <trkpt lat="45.8779260000000022046151570975780487060546875" lon="9.3174100000000006360778570524416863918304443359375">
                <ele>762.5329151998924999134032987058162689208984375</ele>
            </trkpt>
            <trkpt lat="45.87795100000000303452907246537506580352783203125" lon="9.3173720000000006535856300615705549716949462890625">
                <ele>761.3043398398525596348918043076992034912109375</ele>
            </trkpt>
            <trkpt lat="45.8780000000000001136868377216160297393798828125" lon="9.3173720000000006535856300615705549716949462890625">
                <ele>758.8843199999963644586387090384960174560546875</ele>
            </trkpt>
            <trkpt lat="45.878095000000001846274244599044322967529296875" lon="9.3174589999999994915924617089331150054931640625">
                <ele>753.9243455999106799936271272599697113037109375</ele>
            </trkpt>
            <trkpt lat="45.8785519999999991114236763678491115570068359375" lon="9.318039999999999878355083637870848178863525390625">
                <ele>722.4876352000486576798721216619014739990234375</ele>
            </trkpt>
            <trkpt lat="45.8786309999999986075636115856468677520751953125" lon="9.318217000000000638237906969152390956878662109375">
                <ele>715.976934880061207877588458359241485595703125</ele>
            </trkpt>
            <trkpt lat="45.8786860000000018544596969150006771087646484375" lon="9.3186370000000007252083378261886537075042724609375">
                <ele>707.9279999999062056303955614566802978515625</ele>
            </trkpt>
            <trkpt lat="45.8787080000000031532181310467422008514404296875" lon="9.3186970000000002301021595485508441925048828125">
                <ele>706.151999999849749656277708709239959716796875</ele>
            </trkpt>
            <trkpt lat="45.8787829999999985375325195491313934326171875" lon="9.3187270000000008707274901098571717739105224609375">
                <ele>702.1920000000636719050817191600799560546875</ele>
            </trkpt>
            <trkpt lat="45.8788210000000020727384253405034542083740234375" lon="9.318692999999999670990291633643209934234619140625">
                <ele>700.77599999990843571140430867671966552734375</ele>
            </trkpt>
            <trkpt lat="45.8788789999999977453626343049108982086181640625" lon="9.318578999999999723513610661029815673828125">
                <ele>699.360000000115405782707966864109039306640625</ele>
            </trkpt>
            <trkpt lat="45.87908800000000297814040095545351505279541015625" lon="9.3179540000000002919477992691099643707275390625">
                <ele>697.7813708798549896528129465878009796142578125</ele>
            </trkpt>
            <trkpt lat="45.87908999999999792862581671215593814849853515625" lon="9.3175939999999997098711901344358921051025390625">
                <ele>702.9080224001096439678804017603397369384765625</ele>
            </trkpt>
            <trkpt lat="45.879063000000002148226485587656497955322265625" lon="9.3174440000000000594582161284051835536956787109375">
                <ele>706.3566419198988342031952925026416778564453125</ele>
            </trkpt>
            <trkpt lat="45.879064999999997098711901344358921051025390625" lon="9.317237999999999686906448914669454097747802734375">
                <ele>709.0446592001445651476387865841388702392578125</ele>
            </trkpt>
            <trkpt lat="45.87908800000000297814040095545351505279541015625" lon="9.3170610000000007033804649836383759975433349609375">
                <ele>710.3936204798591234066407196223735809326171875</ele>
            </trkpt>
            <trkpt lat="45.87905500000000103000274975784122943878173828125" lon="9.3168620000000004210960469208657741546630859375">
                <ele>714.5656575999531696652411483228206634521484375</ele>
            </trkpt>
            <trkpt lat="45.8788669999999996207407093606889247894287109375" lon="9.3165239999999993614210325176827609539031982421875">
                <ele>723.758583680011497563100419938564300537109375</ele>
            </trkpt>
            <trkpt lat="45.8788789999999977453626343049108982086181640625" lon="9.3164239999999995944790498469956219196319580078125">
                <ele>722.39124416008098705788142979145050048828125</ele>
            </trkpt>
            <trkpt lat="45.87897600000000153386281454004347324371337890625" lon="9.316109000000000861518856254406273365020751953125">
                <ele>716.7197926399632024185848422348499298095703125</ele>
            </trkpt>
            <trkpt lat="45.87903099999999767533154226839542388916015625" lon="9.31601500000000015688783605583012104034423828125">
                <ele>714.5970464000655510972137562930583953857421875</ele>
            </trkpt>
            <trkpt lat="45.8791030000000006339178071357309818267822265625" lon="9.315977000000000174395609064958989620208740234375">
                <ele>712.5071417599859842084697447717189788818359375</ele>
            </trkpt>
            <trkpt lat="45.87917800000000312365955323912203311920166015625" lon="9.315974000000000643240127828903496265411376953125">
                <ele>710.4589215999002362877945415675640106201171875</ele>
            </trkpt>
            <trkpt lat="45.87944300000000197314875549636781215667724609375" lon="9.3160299999999995890220816363580524921417236328125">
                <ele>701.6275119999362459566327743232250213623046875</ele>
            </trkpt>
            <trkpt lat="45.87966999999999728743205196224153041839599609375" lon="9.3160450000000007975131666171364486217498779296875">
                <ele>693.93292000009432740625925362110137939453125</ele>
            </trkpt>
        </trkseg>
    </trk>
</gpx>
