<?xml version="1.0" encoding="UTF-8" standalone="yes"?>
<gpx xmlns:gpxtpx1="http://www.garmin.com/xmlschemas/TrackPointExtension/v1" xmlns="http://www.topografix.com/GPX/1/1" xmlns:trp="http://www.garmin.com/xmlschemas/TripExtensions/v1" xmlns:gpxx="http://www.garmin.com/xmlschemas/GpxExtensions/v3" xmlns:gpxtpx="http://www.garmin.com/xmlschemas/TrackPointExtension/v2" version="1.1" creator="RouteConverter 2.27.2">
    <metadata>
        <name>2022-01-01 10:38</name>
        <link href="https://www.oruxmaps.com">
            <text>OruxMaps</text>
        </link>
        <time>2022-01-01T09:38:50Z</time>
        <bounds minlat="45.9162085" minlon="10.9141065" maxlat="45.9246070" maxlon="10.9228460"/>
    </metadata>
    <trk>
        <name>2022-01-01 10:38</name>
        <desc>&lt;p&gt;Startzeit: 10:38 01.01.2022&lt;br/&gt;Zielzeit: 14:53 01.01.2022&lt;br/&gt;Strecke: 3 km (04:14)&lt;br/&gt;Bewegungszeit: 00:55&lt;br/&gt;Ø-Geschwindigkeit: 0,
71 km/h&lt;br/&gt;Netto-Geschwindigkeit: 3,
27 km/h&lt;br/&gt;Max. Geschwindigkeit: 8,
65 km/h&lt;br/&gt;Minimale Höhe: 438 m&lt;br/&gt;Maximale Höhe: 729 m&lt;br/&gt;Steig-Geschw.: 95,
2 m/h&lt;br/&gt;Sink-Geschw.: -441,
1 m/h&lt;br/&gt;Aufstieg: 334 m&lt;br/&gt;Abstieg: -321 m&lt;br/&gt;Steigzeit: 03:30&lt;br/&gt;Sinkzeit: 00:43&lt;br/&gt;&lt;/p&gt;&lt;hr align="center" width="480" style="height: 2px; width: 517px"/&gt;</desc>
        <type>Berg/ Bergsteigen</type>
        <extensions>
            <om:oruxmapsextensions xmlns:om="http://www.oruxmaps.com/oruxmapsextensions/1/0" xmlns:gpxtpx="http://www.garmin.com/xmlschemas/TrackPointExtension/v1" xmlns:xsi="http://www.w3.org/2001/XMLSchema-instance">
                <om:ext subtype="0" type="TYPE">7</om:ext>
                <om:ext type="DIFFICULTY">0</om:ext>
</om:oruxmapsextensions>
        </extensions>
        <trkseg>
            <trkpt lat="45.9163459" lon="10.9223989">
                <ele>445.2</ele>
                <time>2022-01-01T09:41:04.000Z</time>
                <name>Position 1</name>
            </trkpt>
            <trkpt lat="45.9164759" lon="10.922595">
                <ele>448.2</ele>
                <time>2022-01-01T09:41:22.000Z</time>
                <name>Position 2</name>
            </trkpt>
            <trkpt lat="45.9166476" lon="10.9227526">
                <ele>451.8</ele>
                <time>2022-01-01T09:41:40.000Z</time>
                <name>Position 3</name>
            </trkpt>
            <trkpt lat="45.9168223" lon="10.922846">
                <ele>453.3</ele>
                <time>2022-01-01T09:42:06.000Z</time>
                <name>Position 4</name>
            </trkpt>
            <trkpt lat="45.9169798" lon="10.9226812">
                <ele>454.7</ele>
                <time>2022-01-01T09:42:26.000Z</time>
                <name>Position 5</name>
            </trkpt>
            <trkpt lat="45.917136" lon="10.9225325">
                <ele>454.4</ele>
                <time>2022-01-01T09:42:42.000Z</time>
                <name>Position 6</name>
            </trkpt>
            <trkpt lat="45.9172559" lon="10.9223394">
                <ele>455.4</ele>
                <time>2022-01-01T09:42:56.000Z</time>
                <name>Position 7</name>
            </trkpt>
            <trkpt lat="45.9173419" lon="10.9220715">
                <ele>455.6</ele>
                <time>2022-01-01T09:43:14.000Z</time>
                <name>Position 8</name>
            </trkpt>
            <trkpt lat="45.91753" lon="10.922002">
                <ele>456.5</ele>
                <time>2022-01-01T09:43:38.000Z</time>
                <name>Position 9</name>
            </trkpt>
            <trkpt lat="45.9177109" lon="10.9220852">
                <ele>459.2</ele>
                <time>2022-01-01T09:43:56.000Z</time>
                <name>Position 10</name>
            </trkpt>
            <trkpt lat="45.9178841" lon="10.9219757">
                <ele>460.5</ele>
                <time>2022-01-01T09:44:12.000Z</time>
                <name>Position 11</name>
            </trkpt>
            <trkpt lat="45.9179654" lon="10.9217307">
                <ele>461.3</ele>
                <time>2022-01-01T09:44:30.000Z</time>
                <name>Position 12</name>
            </trkpt>
            <trkpt lat="45.917953" lon="10.9214519">
                <ele>459.2</ele>
                <time>2022-01-01T09:44:50.000Z</time>
                <name>Position 13</name>
            </trkpt>
            <trkpt lat="45.9179438" lon="10.9211928">
                <ele>455.1</ele>
                <time>2022-01-01T09:45:12.000Z</time>
                <name>Position 14</name>
            </trkpt>
            <trkpt lat="45.9180531" lon="10.9209698">
                <ele>449.6</ele>
                <time>2022-01-01T09:45:30.000Z</time>
                <name>Position 15</name>
            </trkpt>
            <trkpt lat="45.9181324" lon="10.9207225">
                <ele>442.4</ele>
                <time>2022-01-01T09:45:58.000Z</time>
                <name>Position 16</name>
            </trkpt>
            <trkpt lat="45.9182309" lon="10.9204895">
                <ele>438.8</ele>
                <time>2022-01-01T09:46:16.000Z</time>
                <name>Position 17</name>
            </trkpt>
            <trkpt lat="45.9182966" lon="10.9202344">
                <ele>438.9</ele>
                <time>2022-01-01T09:46:38.000Z</time>
                <name>Position 18</name>
            </trkpt>
            <trkpt lat="45.9183775" lon="10.9199906">
                <ele>442.4</ele>
                <time>2022-01-01T09:47:12.000Z</time>
                <name>Position 19</name>
            </trkpt>
            <trkpt lat="45.9184266" lon="10.9197283">
                <ele>444.1</ele>
                <time>2022-01-01T09:47:28.000Z</time>
                <name>Position 20</name>
            </trkpt>
            <trkpt lat="45.9184502" lon="10.919462">
                <ele>444.3</ele>
                <time>2022-01-01T09:47:48.000Z</time>
                <name>Position 21</name>
            </trkpt>
            <trkpt lat="45.9184778" lon="10.919185">
                <ele>445.6</ele>
                <time>2022-01-01T09:48:10.000Z</time>
                <name>Position 22</name>
            </trkpt>
            <trkpt lat="45.9185443" lon="10.9189181">
                <ele>447.4</ele>
                <time>2022-01-01T09:48:38.000Z</time>
                <name>Position 23</name>
            </trkpt>
            <trkpt lat="45.9185296" lon="10.9186376">
                <ele>446.1</ele>
                <time>2022-01-01T09:49:06.000Z</time>
                <name>Position 24</name>
            </trkpt>
            <trkpt lat="45.9184679" lon="10.9183925">
                <ele>446.0</ele>
                <time>2022-01-01T09:50:04.000Z</time>
                <name>Position 25</name>
            </trkpt>
            <trkpt lat="45.9184241" lon="10.9181378">
                <ele>449.1</ele>
                <time>2022-01-01T09:50:49.000Z</time>
                <name>Position 26</name>
            </trkpt>
            <trkpt lat="45.9183788" lon="10.9178865">
                <ele>451.6</ele>
                <time>2022-01-01T09:51:27.000Z</time>
                <name>Position 27</name>
            </trkpt>
            <trkpt lat="45.9184257" lon="10.9176302">
                <ele>455.4</ele>
                <time>2022-01-01T09:51:59.000Z</time>
                <name>Position 28</name>
            </trkpt>
            <trkpt lat="45.9184629" lon="10.9173713">
                <ele>461.9</ele>
                <time>2022-01-01T09:52:41.000Z</time>
                <name>Position 29</name>
            </trkpt>
            <trkpt lat="45.9186012" lon="10.9171788">
                <ele>465.8</ele>
                <time>2022-01-01T09:53:13.000Z</time>
                <name>Position 30</name>
            </trkpt>
            <trkpt lat="45.9187617" lon="10.9170421">
                <ele>469.7</ele>
                <time>2022-01-01T09:53:45.000Z</time>
                <name>Position 31</name>
            </trkpt>
            <trkpt lat="45.9189204" lon="10.9168651">
                <ele>477.1</ele>
                <time>2022-01-01T09:54:11.000Z</time>
                <name>Position 32</name>
            </trkpt>
            <trkpt lat="45.9191029" lon="10.9167379">
                <ele>476.9</ele>
                <time>2022-01-01T09:54:31.000Z</time>
                <name>Position 33</name>
            </trkpt>
            <trkpt lat="45.9192809" lon="10.9166056">
                <ele>476.3</ele>
                <time>2022-01-01T09:54:49.000Z</time>
                <name>Position 34</name>
            </trkpt>
            <trkpt lat="45.9194142" lon="10.916394">
                <ele>474.8</ele>
                <time>2022-01-01T09:55:11.000Z</time>
                <name>Position 35</name>
            </trkpt>
            <trkpt lat="45.9195975" lon="10.9162437">
                <ele>469.8</ele>
                <time>2022-01-01T09:55:35.000Z</time>
                <name>Position 36</name>
            </trkpt>
            <trkpt lat="45.9197854" lon="10.9162061">
                <ele>469.5</ele>
                <time>2022-01-01T09:55:51.000Z</time>
                <name>Position 37</name>
            </trkpt>
            <trkpt lat="45.9199623" lon="10.9160894">
                <ele>469.8</ele>
                <time>2022-01-01T09:56:07.000Z</time>
                <name>Position 38</name>
            </trkpt>
            <trkpt lat="45.9201279" lon="10.9159558">
                <ele>468.2</ele>
                <time>2022-01-01T09:56:33.000Z</time>
                <name>Position 39</name>
            </trkpt>
            <trkpt lat="45.9202781" lon="10.9158088">
                <ele>466.8</ele>
                <time>2022-01-01T09:56:49.000Z</time>
                <name>Position 40</name>
            </trkpt>
            <trkpt lat="45.9204329" lon="10.9156345">
                <ele>467.5</ele>
                <time>2022-01-01T09:57:05.000Z</time>
                <name>Position 41</name>
            </trkpt>
            <trkpt lat="45.9205407" lon="10.9154056">
                <ele>466.8</ele>
                <time>2022-01-01T09:57:23.000Z</time>
                <name>Position 42</name>
            </trkpt>
            <trkpt lat="45.92066" lon="10.9151835">
                <ele>466.2</ele>
                <time>2022-01-01T09:57:37.000Z</time>
                <name>Position 43</name>
            </trkpt>
            <trkpt lat="45.9207353" lon="10.9149175">
                <ele>466.1</ele>
                <time>2022-01-01T09:57:53.000Z</time>
                <name>Position 44</name>
            </trkpt>
            <trkpt lat="45.9208012" lon="10.9146642">
                <ele>466.3</ele>
                <time>2022-01-01T09:58:07.000Z</time>
                <name>Position 45</name>
            </trkpt>
            <trkpt lat="45.9208828" lon="10.9144239">
                <ele>467.2</ele>
                <time>2022-01-01T09:58:41.000Z</time>
                <name>Position 46</name>
            </trkpt>
            <trkpt lat="45.9210665" lon="10.9144414">
                <ele>467.0</ele>
                <time>2022-01-01T10:01:51.000Z</time>
                <name>Position 47</name>
            </trkpt>
            <trkpt lat="45.921046" lon="10.9147001">
                <ele>471.6</ele>
                <time>2022-01-01T10:03:09.000Z</time>
                <name>Position 48</name>
            </trkpt>
            <trkpt lat="45.9212402" lon="10.9146193">
                <ele>469.5</ele>
                <time>2022-01-01T10:03:49.000Z</time>
                <name>Position 49</name>
            </trkpt>
            <trkpt lat="45.9214223" lon="10.9145993">
                <ele>467.7</ele>
                <time>2022-01-01T10:04:11.000Z</time>
                <name>Position 50</name>
            </trkpt>
            <trkpt lat="45.9216053" lon="10.9146644">
                <ele>466.8</ele>
                <time>2022-01-01T10:04:27.000Z</time>
                <name>Position 51</name>
            </trkpt>
            <trkpt lat="45.9217787" lon="10.9145864">
                <ele>466.2</ele>
                <time>2022-01-01T10:04:57.000Z</time>
                <name>Position 52</name>
            </trkpt>
            <trkpt lat="45.9219302" lon="10.9143649">
                <ele>465.9</ele>
                <time>2022-01-01T10:05:07.000Z</time>
                <name>Position 53</name>
            </trkpt>
            <trkpt lat="45.9220641" lon="10.9141759">
                <ele>463.8</ele>
                <time>2022-01-01T10:05:23.000Z</time>
                <name>Position 54</name>
            </trkpt>
            <trkpt lat="45.9222427" lon="10.9141223">
                <ele>467.1</ele>
                <time>2022-01-01T10:05:53.000Z</time>
                <name>Position 55</name>
            </trkpt>
            <trkpt lat="45.9224335" lon="10.9141065">
                <ele>471.3</ele>
                <time>2022-01-01T10:06:31.000Z</time>
                <name>Position 56</name>
            </trkpt>
            <trkpt lat="45.9226236" lon="10.9141156">
                <ele>477.1</ele>
                <time>2022-01-01T10:07:07.000Z</time>
                <name>Position 57</name>
            </trkpt>
            <trkpt lat="45.9228082" lon="10.9141911">
                <ele>481.3</ele>
                <time>2022-01-01T10:07:39.000Z</time>
                <name>Position 58</name>
            </trkpt>
            <trkpt lat="45.9229823" lon="10.9142649">
                <ele>487.1</ele>
                <time>2022-01-01T10:08:17.000Z</time>
                <name>Position 59</name>
            </trkpt>
            <trkpt lat="45.9231605" lon="10.9143663">
                <ele>493.4</ele>
                <time>2022-01-01T10:08:55.000Z</time>
                <name>Position 60</name>
            </trkpt>
            <trkpt lat="45.9233556" lon="10.9143463">
                <ele>501.6</ele>
                <time>2022-01-01T10:09:37.000Z</time>
                <name>Position 61</name>
            </trkpt>
            <trkpt lat="45.9235457" lon="10.9143322">
                <ele>505.2</ele>
                <time>2022-01-01T10:10:04.000Z</time>
                <name>Position 62</name>
            </trkpt>
            <trkpt lat="45.9237074" lon="10.9143819">
                <ele>511.8</ele>
                <time>2022-01-01T10:11:20.000Z</time>
                <name>Position 63</name>
            </trkpt>
            <trkpt lat="45.9238961" lon="10.914294">
                <ele>516.6</ele>
                <time>2022-01-01T10:12:12.000Z</time>
                <name>Position 64</name>
            </trkpt>
            <trkpt lat="45.9239857" lon="10.9145225">
                <ele>544.9</ele>
                <time>2022-01-01T10:34:56.000Z</time>
                <name>Position 65</name>
            </trkpt>
            <trkpt lat="45.9239999" lon="10.9147874">
                <ele>576.8</ele>
                <time>2022-01-01T11:01:24.000Z</time>
                <name>Position 66</name>
            </trkpt>
            <trkpt lat="45.9241149" lon="10.9149896">
                <ele>628.7</ele>
                <time>2022-01-01T11:51:26.000Z</time>
                <name>Position 67</name>
            </trkpt>
            <trkpt lat="45.9241959" lon="10.915226">
                <ele>661.0</ele>
                <time>2022-01-01T12:14:05.000Z</time>
                <name>Position 68</name>
            </trkpt>
            <trkpt lat="45.9242395" lon="10.9154818">
                <ele>695.5</ele>
                <time>2022-01-01T13:08:28.000Z</time>
                <name>Position 69</name>
            </trkpt>
            <trkpt lat="45.9244188" lon="10.915506">
                <ele>704.0</ele>
                <time>2022-01-01T13:09:32.000Z</time>
                <name>Position 70</name>
            </trkpt>
            <trkpt lat="45.924418" lon="10.9157763">
                <ele>719.7</ele>
                <time>2022-01-01T13:11:16.000Z</time>
                <name>Position 71</name>
            </trkpt>
            <trkpt lat="45.9244928" lon="10.9160242">
                <ele>725.1</ele>
                <time>2022-01-01T13:11:54.000Z</time>
                <name>Position 72</name>
            </trkpt>
            <trkpt lat="45.924604" lon="10.916228">
                <ele>728.7</ele>
                <time>2022-01-01T13:12:48.000Z</time>
                <name>Position 73</name>
            </trkpt>
            <trkpt lat="45.924607" lon="10.9164871">
                <ele>726.3</ele>
                <time>2022-01-01T13:13:14.000Z</time>
                <name>Position 74</name>
            </trkpt>
            <trkpt lat="45.9244995" lon="10.916721">
                <ele>729.8</ele>
                <time>2022-01-01T13:13:38.000Z</time>
                <name>Position 75</name>
            </trkpt>
            <trkpt lat="45.9243818" lon="10.9169333">
                <ele>715.0</ele>
                <time>2022-01-01T13:14:24.000Z</time>
                <name>Position 76</name>
            </trkpt>
            <trkpt lat="45.9242345" lon="10.9171003">
                <ele>710.9</ele>
                <time>2022-01-01T13:14:56.000Z</time>
                <name>Position 77</name>
            </trkpt>
            <trkpt lat="45.9240951" lon="10.9173097">
                <ele>701.5</ele>
                <time>2022-01-01T13:15:24.000Z</time>
                <name>Position 78</name>
            </trkpt>
            <trkpt lat="45.9239144" lon="10.9173694">
                <ele>700.5</ele>
                <time>2022-01-01T13:16:02.000Z</time>
                <name>Position 79</name>
            </trkpt>
            <trkpt lat="45.9237808" lon="10.9175434">
                <ele>691.1</ele>
                <time>2022-01-01T13:16:26.000Z</time>
                <name>Position 80</name>
            </trkpt>
            <trkpt lat="45.9236152" lon="10.9176726">
                <ele>680.8</ele>
                <time>2022-01-01T13:17:12.000Z</time>
                <name>Position 81</name>
            </trkpt>
            <trkpt lat="45.9234386" lon="10.9178168">
                <ele>672.2</ele>
                <time>2022-01-01T13:17:43.000Z</time>
                <name>Position 82</name>
            </trkpt>
            <trkpt lat="45.9232726" lon="10.9179565">
                <ele>665.5</ele>
                <time>2022-01-01T13:18:13.000Z</time>
                <name>Position 83</name>
            </trkpt>
            <trkpt lat="45.923088" lon="10.9179795">
                <ele>658.8</ele>
                <time>2022-01-01T13:18:45.000Z</time>
                <name>Position 84</name>
            </trkpt>
            <trkpt lat="45.9228899" lon="10.9180413">
                <ele>653.6</ele>
                <time>2022-01-01T13:19:19.000Z</time>
                <name>Position 85</name>
            </trkpt>
            <trkpt lat="45.9227009" lon="10.9180155">
                <ele>650.5</ele>
                <time>2022-01-01T13:19:47.000Z</time>
                <name>Position 86</name>
            </trkpt>
            <trkpt lat="45.9226095" lon="10.9177649">
                <ele>639.8</ele>
                <time>2022-01-01T13:20:27.000Z</time>
                <name>Position 87</name>
            </trkpt>
            <trkpt lat="45.9225727" lon="10.917498">
                <ele>631.8</ele>
                <time>2022-01-01T13:21:07.000Z</time>
                <name>Position 88</name>
            </trkpt>
            <trkpt lat="45.9224045" lon="10.9173807">
                <ele>622.9</ele>
                <time>2022-01-01T13:21:43.000Z</time>
                <name>Position 89</name>
            </trkpt>
            <trkpt lat="45.9221958" lon="10.9173587">
                <ele>618.1</ele>
                <time>2022-01-01T13:22:05.000Z</time>
                <name>Position 90</name>
            </trkpt>
            <trkpt lat="45.9220016" lon="10.9173738">
                <ele>616.1</ele>
                <time>2022-01-01T13:22:19.000Z</time>
                <name>Position 91</name>
            </trkpt>
            <trkpt lat="45.9218209" lon="10.9174839">
                <ele>614.2</ele>
                <time>2022-01-01T13:22:33.000Z</time>
                <name>Position 92</name>
            </trkpt>
            <trkpt lat="45.9216355" lon="10.9175247">
                <ele>610.6</ele>
                <time>2022-01-01T13:22:53.000Z</time>
                <name>Position 93</name>
            </trkpt>
            <trkpt lat="45.9214953" lon="10.917692">
                <ele>605.9</ele>
                <time>2022-01-01T13:23:17.000Z</time>
                <name>Position 94</name>
            </trkpt>
            <trkpt lat="45.9213968" lon="10.9179327">
                <ele>602.1</ele>
                <time>2022-01-01T13:23:37.000Z</time>
                <name>Position 95</name>
            </trkpt>
            <trkpt lat="45.9212544" lon="10.9181319">
                <ele>598.8</ele>
                <time>2022-01-01T13:23:59.000Z</time>
                <name>Position 96</name>
            </trkpt>
            <trkpt lat="45.921101" lon="10.9182772">
                <ele>596.4</ele>
                <time>2022-01-01T13:24:15.000Z</time>
                <name>Position 97</name>
            </trkpt>
            <trkpt lat="45.9209364" lon="10.9184486">
                <ele>594.6</ele>
                <time>2022-01-01T13:24:39.000Z</time>
                <name>Position 98</name>
            </trkpt>
            <trkpt lat="45.920752" lon="10.9184628">
                <ele>591.5</ele>
                <time>2022-01-01T13:25:03.000Z</time>
                <name>Position 99</name>
            </trkpt>
            <trkpt lat="45.9205855" lon="10.9183504">
                <ele>586.2</ele>
                <time>2022-01-01T13:26:13.000Z</time>
                <name>Position 100</name>
            </trkpt>
            <trkpt lat="45.9204173" lon="10.9182355">
                <ele>581.7</ele>
                <time>2022-01-01T13:26:39.000Z</time>
                <name>Position 101</name>
            </trkpt>
            <trkpt lat="45.9202356" lon="10.9180798">
                <ele>577.3</ele>
                <time>2022-01-01T13:26:55.000Z</time>
                <name>Position 102</name>
            </trkpt>
            <trkpt lat="45.9200905" lon="10.9179051">
                <ele>572.0</ele>
                <time>2022-01-01T13:27:09.000Z</time>
                <name>Position 103</name>
            </trkpt>
            <trkpt lat="45.9201299" lon="10.9176426">
                <ele>561.0</ele>
                <time>2022-01-01T13:28:01.000Z</time>
                <name>Position 104</name>
            </trkpt>
            <trkpt lat="45.9199849" lon="10.9174542">
                <ele>554.7</ele>
                <time>2022-01-01T13:28:33.000Z</time>
                <name>Position 105</name>
            </trkpt>
            <trkpt lat="45.9198027" lon="10.9173995">
                <ele>546.7</ele>
                <time>2022-01-01T13:28:53.000Z</time>
                <name>Position 106</name>
            </trkpt>
            <trkpt lat="45.9196101" lon="10.9174647">
                <ele>537.4</ele>
                <time>2022-01-01T13:29:27.000Z</time>
                <name>Position 107</name>
            </trkpt>
            <trkpt lat="45.9194336" lon="10.9173992">
                <ele>529.8</ele>
                <time>2022-01-01T13:29:47.000Z</time>
                <name>Position 108</name>
            </trkpt>
            <trkpt lat="45.919358" lon="10.9171568">
                <ele>522.5</ele>
                <time>2022-01-01T13:30:13.000Z</time>
                <name>Position 109</name>
            </trkpt>
            <trkpt lat="45.9191757" lon="10.9171597">
                <ele>515.2</ele>
                <time>2022-01-01T13:30:33.000Z</time>
                <name>Position 110</name>
            </trkpt>
            <trkpt lat="45.9189949" lon="10.9171826">
                <ele>504.6</ele>
                <time>2022-01-01T13:31:11.000Z</time>
                <name>Position 111</name>
            </trkpt>
            <trkpt lat="45.9188013" lon="10.9171038">
                <ele>496.2</ele>
                <time>2022-01-01T13:31:33.000Z</time>
                <name>Position 112</name>
            </trkpt>
            <trkpt lat="45.9186306" lon="10.9171978">
                <ele>486.4</ele>
                <time>2022-01-01T13:32:23.000Z</time>
                <name>Position 113</name>
            </trkpt>
            <trkpt lat="45.9184671" lon="10.9173215">
                <ele>479.4</ele>
                <time>2022-01-01T13:32:54.000Z</time>
                <name>Position 114</name>
            </trkpt>
            <trkpt lat="45.9183915" lon="10.9175614">
                <ele>471.0</ele>
                <time>2022-01-01T13:42:42.000Z</time>
                <name>Position 115</name>
            </trkpt>
            <trkpt lat="45.9183548" lon="10.9178251">
                <ele>463.2</ele>
                <time>2022-01-01T13:43:12.000Z</time>
                <name>Position 116</name>
            </trkpt>
            <trkpt lat="45.9183554" lon="10.9180956">
                <ele>462.1</ele>
                <time>2022-01-01T13:43:38.000Z</time>
                <name>Position 117</name>
            </trkpt>
            <trkpt lat="45.9184505" lon="10.9183236">
                <ele>461.9</ele>
                <time>2022-01-01T13:44:08.000Z</time>
                <name>Position 118</name>
            </trkpt>
            <trkpt lat="45.9184473" lon="10.9185882">
                <ele>457.9</ele>
                <time>2022-01-01T13:44:48.000Z</time>
                <name>Position 119</name>
            </trkpt>
            <trkpt lat="45.9184819" lon="10.9188422">
                <ele>459.3</ele>
                <time>2022-01-01T13:45:06.000Z</time>
                <name>Position 120</name>
            </trkpt>
            <trkpt lat="45.9184494" lon="10.9191188">
                <ele>458.3</ele>
                <time>2022-01-01T13:45:28.000Z</time>
                <name>Position 121</name>
            </trkpt>
            <trkpt lat="45.9184203" lon="10.9194019">
                <ele>457.5</ele>
                <time>2022-01-01T13:45:44.000Z</time>
                <name>Position 122</name>
            </trkpt>
            <trkpt lat="45.9184265" lon="10.9196638">
                <ele>457.3</ele>
                <time>2022-01-01T13:46:06.000Z</time>
                <name>Position 123</name>
            </trkpt>
            <trkpt lat="45.9183695" lon="10.9199095">
                <ele>455.3</ele>
                <time>2022-01-01T13:46:28.000Z</time>
                <name>Position 124</name>
            </trkpt>
            <trkpt lat="45.9182647" lon="10.9201273">
                <ele>452.5</ele>
                <time>2022-01-01T13:46:46.000Z</time>
                <name>Position 125</name>
            </trkpt>
            <trkpt lat="45.9182127" lon="10.9203904">
                <ele>452.3</ele>
                <time>2022-01-01T13:47:04.000Z</time>
                <name>Position 126</name>
            </trkpt>
            <trkpt lat="45.9181464" lon="10.9206338">
                <ele>451.1</ele>
                <time>2022-01-01T13:47:26.000Z</time>
                <name>Position 127</name>
            </trkpt>
            <trkpt lat="45.9180553" lon="10.9208787">
                <ele>460.0</ele>
                <time>2022-01-01T13:48:09.000Z</time>
                <name>Position 128</name>
            </trkpt>
            <trkpt lat="45.9179407" lon="10.9211203">
                <ele>469.9</ele>
                <time>2022-01-01T13:48:37.000Z</time>
                <name>Position 129</name>
            </trkpt>
            <trkpt lat="45.9179495" lon="10.921396">
                <ele>470.8</ele>
                <time>2022-01-01T13:48:59.000Z</time>
                <name>Position 130</name>
            </trkpt>
            <trkpt lat="45.9179482" lon="10.9216863">
                <ele>472.9</ele>
                <time>2022-01-01T13:49:21.000Z</time>
                <name>Position 131</name>
            </trkpt>
            <trkpt lat="45.9178805" lon="10.9219378">
                <ele>474.2</ele>
                <time>2022-01-01T13:49:41.000Z</time>
                <name>Position 132</name>
            </trkpt>
            <trkpt lat="45.9177197" lon="10.9220594">
                <ele>472.0</ele>
                <time>2022-01-01T13:49:55.000Z</time>
                <name>Position 133</name>
            </trkpt>
            <trkpt lat="45.9175469" lon="10.9219722">
                <ele>469.5</ele>
                <time>2022-01-01T13:50:15.000Z</time>
                <name>Position 134</name>
            </trkpt>
            <trkpt lat="45.9173652" lon="10.9220247">
                <ele>468.7</ele>
                <time>2022-01-01T13:50:29.000Z</time>
                <name>Position 135</name>
            </trkpt>
            <trkpt lat="45.9172685" lon="10.9222717">
                <ele>466.2</ele>
                <time>2022-01-01T13:50:45.000Z</time>
                <name>Position 136</name>
            </trkpt>
            <trkpt lat="45.9171294" lon="10.9224619">
                <ele>466.3</ele>
                <time>2022-01-01T13:51:03.000Z</time>
                <name>Position 137</name>
            </trkpt>
            <trkpt lat="45.9169581" lon="10.9225856">
                <ele>467.1</ele>
                <time>2022-01-01T13:51:19.000Z</time>
                <name>Position 138</name>
            </trkpt>
            <trkpt lat="45.9168028" lon="10.922776">
                <ele>465.6</ele>
                <time>2022-01-01T13:51:39.000Z</time>
                <name>Position 139</name>
            </trkpt>
            <trkpt lat="45.9166148" lon="10.9227024">
                <ele>461.2</ele>
                <time>2022-01-01T13:52:00.000Z</time>
                <name>Position 140</name>
            </trkpt>
            <trkpt lat="45.9164876" lon="10.922509">
                <ele>460.1</ele>
                <time>2022-01-01T13:52:26.000Z</time>
                <name>Position 141</name>
            </trkpt>
            <trkpt lat="45.9163681" lon="10.9222917">
                <ele>458.6</ele>
                <time>2022-01-01T13:52:46.000Z</time>
                <name>Position 142</name>
            </trkpt>
            <trkpt lat="45.9162349" lon="10.922116">
                <ele>454.3</ele>
                <time>2022-01-01T13:53:04.000Z</time>
                <name>Position 143</name>
            </trkpt>
        </trkseg>
    </trk>
</gpx>
