<?xml version="1.0" encoding="UTF-8" standalone="yes"?>
<gpx xmlns:gpxtpx1="http://www.garmin.com/xmlschemas/TrackPointExtension/v1" xmlns="http://www.topografix.com/GPX/1/1" xmlns:trp="http://www.garmin.com/xmlschemas/TripExtensions/v1" xmlns:gpxx="http://www.garmin.com/xmlschemas/GpxExtensions/v3" xmlns:gpxtpx="http://www.garmin.com/xmlschemas/TrackPointExtension/v2" version="1.1" creator="RouteConverter 2.27.2">
    <metadata>
        <name>2025-10-17 09:59</name>
        <link href="https://www.oruxmaps.com">
            <text>OruxMaps</text>
        </link>
        <time>2025-10-17T07:59:29Z</time>
        <bounds minlat="45.6303726" minlon="10.8550497" maxlat="45.6493739" maxlon="10.8725584"/>
    </metadata>
    <trk>
        <name>2025-10-17 09:59</name>
        <desc>&lt;p&gt;Startzeit: 09:59 17.10.2025&lt;br/&gt;Zielzeit: 16:23 17.10.2025&lt;br/&gt;Strecke: 7,
9 km (06:24)&lt;br/&gt;Bewegungszeit: 01:45&lt;br/&gt;Ø-Geschwindigkeit: 1,
23 km/h&lt;br/&gt;Netto-Geschwindigkeit: 4,
48 km/h&lt;br/&gt;Max. Geschwindigkeit: 56,
16 km/h&lt;br/&gt;Minimale Höhe: 127 m&lt;br/&gt;Maximale Höhe: 768 m&lt;br/&gt;Steig-Geschw.: 136,
6 m/h&lt;br/&gt;Sink-Geschw.: -528,
5 m/h&lt;br/&gt;Aufstieg: 693 m&lt;br/&gt;Abstieg: -688 m&lt;br/&gt;Steigzeit: 05:04&lt;br/&gt;Sinkzeit: 01:18&lt;br/&gt;&lt;/p&gt;&lt;hr align="center" width="480" style="height: 2px; width: 517px"/&gt;</desc>
        <type>Berg/ Klettern</type>
        <extensions>
            <om:oruxmapsextensions xmlns:om="http://www.oruxmaps.com/oruxmapsextensions/1/0" xmlns:gpxtpx="http://www.garmin.com/xmlschemas/TrackPointExtension/v1" xmlns:xsi="http://www.w3.org/2001/XMLSchema-instance">
                <om:ext subtype="0" type="TYPE">36</om:ext>
                <om:ext type="DIFFICULTY">0</om:ext>
</om:oruxmapsextensions>
        </extensions>
        <trkseg>
            <trkpt lat="45.6333841" lon="10.8680807">
                <ele>133.3</ele>
                <time>2025-10-17T08:00:06.000Z</time>
                <name>Position 1</name>
            </trkpt>
            <trkpt lat="45.63315" lon="10.8678385">
                <ele>135.3</ele>
                <time>2025-10-17T08:00:29.000Z</time>
                <name>Position 2</name>
            </trkpt>
            <trkpt lat="45.6326407" lon="10.8673183">
                <ele>137.0</ele>
                <time>2025-10-17T08:00:46.000Z</time>
                <name>Position 3</name>
            </trkpt>
            <trkpt lat="45.631396" lon="10.866186">
                <ele>130.4</ele>
                <time>2025-10-17T08:01:03.000Z</time>
                <name>Position 4</name>
            </trkpt>
            <trkpt lat="45.631409" lon="10.8659152">
                <ele>129.3</ele>
                <time>2025-10-17T08:01:19.000Z</time>
                <name>Position 5</name>
            </trkpt>
            <trkpt lat="45.6314535" lon="10.8656646">
                <ele>131.5</ele>
                <time>2025-10-17T08:01:36.000Z</time>
                <name>Position 6</name>
            </trkpt>
            <trkpt lat="45.6315671" lon="10.8654479">
                <ele>137.9</ele>
                <time>2025-10-17T08:01:58.000Z</time>
                <name>Position 7</name>
            </trkpt>
            <trkpt lat="45.6316307" lon="10.8652063">
                <ele>139.3</ele>
                <time>2025-10-17T08:02:15.000Z</time>
                <name>Position 8</name>
            </trkpt>
            <trkpt lat="45.6315718" lon="10.8649445">
                <ele>138.0</ele>
                <time>2025-10-17T08:02:35.000Z</time>
                <name>Position 9</name>
            </trkpt>
            <trkpt lat="45.6316246" lon="10.8646972">
                <ele>149.7</ele>
                <time>2025-10-17T08:03:48.000Z</time>
                <name>Position 10</name>
            </trkpt>
            <trkpt lat="45.6316233" lon="10.86443">
                <ele>157.4</ele>
                <time>2025-10-17T08:04:03.000Z</time>
                <name>Position 11</name>
            </trkpt>
            <trkpt lat="45.6315862" lon="10.8641773">
                <ele>164.8</ele>
                <time>2025-10-17T08:04:26.000Z</time>
                <name>Position 12</name>
            </trkpt>
            <trkpt lat="45.6315614" lon="10.8639177">
                <ele>165.9</ele>
                <time>2025-10-17T08:05:55.000Z</time>
                <name>Position 13</name>
            </trkpt>
            <trkpt lat="45.6314982" lon="10.8636602">
                <ele>167.2</ele>
                <time>2025-10-17T08:06:44.000Z</time>
                <name>Position 14</name>
            </trkpt>
            <trkpt lat="45.6315843" lon="10.8634187">
                <ele>179.4</ele>
                <time>2025-10-17T08:07:00.000Z</time>
                <name>Position 15</name>
            </trkpt>
            <trkpt lat="45.6314885" lon="10.8631991">
                <ele>196.3</ele>
                <time>2025-10-17T08:09:03.000Z</time>
                <name>Position 16</name>
            </trkpt>
            <trkpt lat="45.6315728" lon="10.8629615">
                <ele>214.1</ele>
                <time>2025-10-17T08:09:12.000Z</time>
                <name>Position 17</name>
            </trkpt>
            <trkpt lat="45.631491" lon="10.8627227">
                <ele>218.6</ele>
                <time>2025-10-17T08:09:53.000Z</time>
                <name>Position 18</name>
            </trkpt>
            <trkpt lat="45.6314502" lon="10.8624687">
                <ele>219.9</ele>
                <time>2025-10-17T08:10:27.000Z</time>
                <name>Position 19</name>
            </trkpt>
            <trkpt lat="45.6316173" lon="10.8623702">
                <ele>227.8</ele>
                <time>2025-10-17T08:10:47.000Z</time>
                <name>Position 20</name>
            </trkpt>
            <trkpt lat="45.6317617" lon="10.8622137">
                <ele>268.5</ele>
                <time>2025-10-17T08:14:41.000Z</time>
                <name>Position 21</name>
            </trkpt>
            <trkpt lat="45.6319629" lon="10.8622645">
                <ele>278.2</ele>
                <time>2025-10-17T08:15:42.000Z</time>
                <name>Position 22</name>
            </trkpt>
            <trkpt lat="45.632145" lon="10.8622033">
                <ele>290.2</ele>
                <time>2025-10-17T08:15:50.000Z</time>
                <name>Position 23</name>
            </trkpt>
            <trkpt lat="45.6321357" lon="10.8619139">
                <ele>287.0</ele>
                <time>2025-10-17T08:17:22.000Z</time>
                <name>Position 24</name>
            </trkpt>
            <trkpt lat="45.6320954" lon="10.8616617">
                <ele>288.6</ele>
                <time>2025-10-17T08:18:31.000Z</time>
                <name>Position 25</name>
            </trkpt>
            <trkpt lat="45.6320101" lon="10.8614326">
                <ele>306.6</ele>
                <time>2025-10-17T08:21:45.000Z</time>
                <name>Position 26</name>
            </trkpt>
            <trkpt lat="45.6320334" lon="10.861177">
                <ele>316.9</ele>
                <time>2025-10-17T08:21:59.000Z</time>
                <name>Position 27</name>
            </trkpt>
            <trkpt lat="45.6320787" lon="10.8609">
                <ele>350.2</ele>
                <time>2025-10-17T08:25:10.000Z</time>
                <name>Position 28</name>
            </trkpt>
            <trkpt lat="45.6321891" lon="10.8606727">
                <ele>373.2</ele>
                <time>2025-10-17T08:27:21.000Z</time>
                <name>Position 29</name>
            </trkpt>
            <trkpt lat="45.6323991" lon="10.860655">
                <ele>386.8</ele>
                <time>2025-10-17T08:27:29.000Z</time>
                <name>Position 30</name>
            </trkpt>
            <trkpt lat="45.6325279" lon="10.8604729">
                <ele>411.9</ele>
                <time>2025-10-17T08:29:09.000Z</time>
                <name>Position 31</name>
            </trkpt>
            <trkpt lat="45.6323445" lon="10.860386">
                <ele>427.5</ele>
                <time>2025-10-17T08:33:30.000Z</time>
                <name>Position 32</name>
            </trkpt>
            <trkpt lat="45.6323116" lon="10.8601197">
                <ele>436.7</ele>
                <time>2025-10-17T08:33:39.000Z</time>
                <name>Position 33</name>
            </trkpt>
            <trkpt lat="45.6324184" lon="10.8599063">
                <ele>449.4</ele>
                <time>2025-10-17T08:34:12.000Z</time>
                <name>Position 34</name>
            </trkpt>
            <trkpt lat="45.6325175" lon="10.8601514">
                <ele>463.4</ele>
                <time>2025-10-17T08:36:01.000Z</time>
                <name>Position 35</name>
            </trkpt>
            <trkpt lat="45.6325896" lon="10.8603466">
                <ele>464.4</ele>
                <time>2025-10-17T08:37:18.000Z</time>
                <name>Position 36</name>
            </trkpt>
            <trkpt lat="45.6329004" lon="10.8607162">
                <ele>462.4</ele>
                <time>2025-10-17T08:38:30.000Z</time>
                <name>Position 37</name>
            </trkpt>
            <trkpt lat="45.6329217" lon="10.8607448">
                <ele>460.0</ele>
                <time>2025-10-17T08:39:11.000Z</time>
                <name>Position 38</name>
            </trkpt>
            <trkpt lat="45.6330825" lon="10.8608607">
                <ele>460.2</ele>
                <time>2025-10-17T08:39:58.000Z</time>
                <name>Position 39</name>
            </trkpt>
            <trkpt lat="45.6332276" lon="10.8611026">
                <ele>467.1</ele>
                <time>2025-10-17T08:40:52.000Z</time>
                <name>Position 40</name>
            </trkpt>
            <trkpt lat="45.6334165" lon="10.8611285">
                <ele>457.2</ele>
                <time>2025-10-17T08:42:22.000Z</time>
                <name>Position 41</name>
            </trkpt>
            <trkpt lat="45.633538" lon="10.8613364">
                <ele>458.3</ele>
                <time>2025-10-17T08:42:37.000Z</time>
                <name>Position 42</name>
            </trkpt>
            <trkpt lat="45.633818" lon="10.8615788">
                <ele>474.0</ele>
                <time>2025-10-17T08:43:35.000Z</time>
                <name>Position 43</name>
            </trkpt>
            <trkpt lat="45.6339619" lon="10.8617616">
                <ele>471.2</ele>
                <time>2025-10-17T08:44:09.000Z</time>
                <name>Position 44</name>
            </trkpt>
            <trkpt lat="45.6339359" lon="10.8619779">
                <ele>474.5</ele>
                <time>2025-10-17T08:44:12.000Z</time>
                <name>Position 45</name>
            </trkpt>
            <trkpt lat="45.6340934" lon="10.8621149">
                <ele>476.9</ele>
                <time>2025-10-17T08:44:47.000Z</time>
                <name>Position 46</name>
            </trkpt>
            <trkpt lat="45.6342727" lon="10.8621908">
                <ele>471.4</ele>
                <time>2025-10-17T08:46:35.000Z</time>
                <name>Position 47</name>
            </trkpt>
            <trkpt lat="45.63446" lon="10.8621974">
                <ele>474.8</ele>
                <time>2025-10-17T08:46:48.000Z</time>
                <name>Position 48</name>
            </trkpt>
            <trkpt lat="45.6346061" lon="10.8623518">
                <ele>480.1</ele>
                <time>2025-10-17T08:47:16.000Z</time>
                <name>Position 49</name>
            </trkpt>
            <trkpt lat="45.6347809" lon="10.8622847">
                <ele>469.7</ele>
                <time>2025-10-17T08:47:38.000Z</time>
                <name>Position 50</name>
            </trkpt>
            <trkpt lat="45.6349451" lon="10.8623902">
                <ele>480.9</ele>
                <time>2025-10-17T09:03:10.000Z</time>
                <name>Position 51</name>
            </trkpt>
            <trkpt lat="45.6348796" lon="10.8621483">
                <ele>513.4</ele>
                <time>2025-10-17T09:53:16.000Z</time>
                <name>Position 52</name>
            </trkpt>
            <trkpt lat="45.6347225" lon="10.8620192">
                <ele>522.6</ele>
                <time>2025-10-17T10:36:51.000Z</time>
                <name>Position 53</name>
            </trkpt>
            <trkpt lat="45.6346442" lon="10.8617868">
                <ele>546.9</ele>
                <time>2025-10-17T11:08:57.000Z</time>
                <name>Position 54</name>
            </trkpt>
            <trkpt lat="45.6347656" lon="10.8615921">
                <ele>609.1</ele>
                <time>2025-10-17T12:17:22.000Z</time>
                <name>Position 55</name>
            </trkpt>
            <trkpt lat="45.6349158" lon="10.8614436">
                <ele>616.5</ele>
                <time>2025-10-17T12:26:42.000Z</time>
                <name>Position 56</name>
            </trkpt>
            <trkpt lat="45.6350946" lon="10.8614133">
                <ele>614.0</ele>
                <time>2025-10-17T12:27:08.000Z</time>
                <name>Position 57</name>
            </trkpt>
            <trkpt lat="45.635277" lon="10.8613637">
                <ele>608.0</ele>
                <time>2025-10-17T12:27:42.000Z</time>
                <name>Position 58</name>
            </trkpt>
            <trkpt lat="45.6354653" lon="10.8613378">
                <ele>608.6</ele>
                <time>2025-10-17T12:27:59.000Z</time>
                <name>Position 59</name>
            </trkpt>
            <trkpt lat="45.635646" lon="10.8612856">
                <ele>605.8</ele>
                <time>2025-10-17T12:28:33.000Z</time>
                <name>Position 60</name>
            </trkpt>
            <trkpt lat="45.6358299" lon="10.86132">
                <ele>604.7</ele>
                <time>2025-10-17T12:29:01.000Z</time>
                <name>Position 61</name>
            </trkpt>
            <trkpt lat="45.6360155" lon="10.8613232">
                <ele>598.2</ele>
                <time>2025-10-17T12:29:26.000Z</time>
                <name>Position 62</name>
            </trkpt>
            <trkpt lat="45.6361805" lon="10.8611746">
                <ele>599.6</ele>
                <time>2025-10-17T12:30:30.000Z</time>
                <name>Position 63</name>
            </trkpt>
            <trkpt lat="45.6363421" lon="10.8613192">
                <ele>596.8</ele>
                <time>2025-10-17T12:30:51.000Z</time>
                <name>Position 64</name>
            </trkpt>
            <trkpt lat="45.6365295" lon="10.8613526">
                <ele>598.8</ele>
                <time>2025-10-17T12:31:03.000Z</time>
                <name>Position 65</name>
            </trkpt>
            <trkpt lat="45.6366646" lon="10.8611795">
                <ele>591.3</ele>
                <time>2025-10-17T12:31:48.000Z</time>
                <name>Position 66</name>
            </trkpt>
            <trkpt lat="45.6367723" lon="10.8609644">
                <ele>602.6</ele>
                <time>2025-10-17T12:34:14.000Z</time>
                <name>Position 67</name>
            </trkpt>
            <trkpt lat="45.636963" lon="10.8608454">
                <ele>607.4</ele>
                <time>2025-10-17T12:35:08.000Z</time>
                <name>Position 68</name>
            </trkpt>
            <trkpt lat="45.6371566" lon="10.8609066">
                <ele>610.0</ele>
                <time>2025-10-17T12:35:20.000Z</time>
                <name>Position 69</name>
            </trkpt>
            <trkpt lat="45.6372734" lon="10.8611047">
                <ele>607.1</ele>
                <time>2025-10-17T12:35:30.000Z</time>
                <name>Position 70</name>
            </trkpt>
            <trkpt lat="45.6374429" lon="10.8610118">
                <ele>609.0</ele>
                <time>2025-10-17T12:35:38.000Z</time>
                <name>Position 71</name>
            </trkpt>
            <trkpt lat="45.6376281" lon="10.8610681">
                <ele>609.6</ele>
                <time>2025-10-17T12:36:03.000Z</time>
                <name>Position 72</name>
            </trkpt>
            <trkpt lat="45.6378087" lon="10.8610806">
                <ele>616.7</ele>
                <time>2025-10-17T12:36:21.000Z</time>
                <name>Position 73</name>
            </trkpt>
            <trkpt lat="45.637965" lon="10.8612119">
                <ele>617.4</ele>
                <time>2025-10-17T12:36:52.000Z</time>
                <name>Position 74</name>
            </trkpt>
            <trkpt lat="45.6380995" lon="10.8613906">
                <ele>618.1</ele>
                <time>2025-10-17T12:37:04.000Z</time>
                <name>Position 75</name>
            </trkpt>
            <trkpt lat="45.6382661" lon="10.8612821">
                <ele>619.4</ele>
                <time>2025-10-17T12:37:17.000Z</time>
                <name>Position 76</name>
            </trkpt>
            <trkpt lat="45.6383788" lon="10.8614894">
                <ele>621.5</ele>
                <time>2025-10-17T12:37:47.000Z</time>
                <name>Position 77</name>
            </trkpt>
            <trkpt lat="45.6385616" lon="10.8614583">
                <ele>623.5</ele>
                <time>2025-10-17T12:38:15.000Z</time>
                <name>Position 78</name>
            </trkpt>
            <trkpt lat="45.6387473" lon="10.8614506">
                <ele>622.5</ele>
                <time>2025-10-17T12:38:33.000Z</time>
                <name>Position 79</name>
            </trkpt>
            <trkpt lat="45.6389305" lon="10.8614212">
                <ele>621.9</ele>
                <time>2025-10-17T12:38:48.000Z</time>
                <name>Position 80</name>
            </trkpt>
            <trkpt lat="45.6391167" lon="10.8614764">
                <ele>626.1</ele>
                <time>2025-10-17T12:39:21.000Z</time>
                <name>Position 81</name>
            </trkpt>
            <trkpt lat="45.6393094" lon="10.8614983">
                <ele>628.7</ele>
                <time>2025-10-17T12:40:14.000Z</time>
                <name>Position 82</name>
            </trkpt>
            <trkpt lat="45.6394708" lon="10.861629">
                <ele>622.7</ele>
                <time>2025-10-17T12:40:30.000Z</time>
                <name>Position 83</name>
            </trkpt>
            <trkpt lat="45.6395517" lon="10.861874">
                <ele>623.6</ele>
                <time>2025-10-17T12:41:41.000Z</time>
                <name>Position 84</name>
            </trkpt>
            <trkpt lat="45.6396719" lon="10.8620759">
                <ele>618.8</ele>
                <time>2025-10-17T12:43:00.000Z</time>
                <name>Position 85</name>
            </trkpt>
            <trkpt lat="45.6398449" lon="10.8621471">
                <ele>626.0</ele>
                <time>2025-10-17T12:43:22.000Z</time>
                <name>Position 86</name>
            </trkpt>
            <trkpt lat="45.6400048" lon="10.8620285">
                <ele>626.9</ele>
                <time>2025-10-17T12:43:40.000Z</time>
                <name>Position 87</name>
            </trkpt>
            <trkpt lat="45.6401876" lon="10.8620612">
                <ele>625.4</ele>
                <time>2025-10-17T12:44:22.000Z</time>
                <name>Position 88</name>
            </trkpt>
            <trkpt lat="45.64037" lon="10.8621132">
                <ele>628.5</ele>
                <time>2025-10-17T12:44:37.000Z</time>
                <name>Position 89</name>
            </trkpt>
            <trkpt lat="45.640535" lon="10.8622184">
                <ele>635.0</ele>
                <time>2025-10-17T12:44:53.000Z</time>
                <name>Position 90</name>
            </trkpt>
            <trkpt lat="45.6407115" lon="10.8622733">
                <ele>634.1</ele>
                <time>2025-10-17T12:45:18.000Z</time>
                <name>Position 91</name>
            </trkpt>
            <trkpt lat="45.6408624" lon="10.86243">
                <ele>635.5</ele>
                <time>2025-10-17T12:45:41.000Z</time>
                <name>Position 92</name>
            </trkpt>
            <trkpt lat="45.640967" lon="10.8626584">
                <ele>639.6</ele>
                <time>2025-10-17T12:46:25.000Z</time>
                <name>Position 93</name>
            </trkpt>
            <trkpt lat="45.6411494" lon="10.8627402">
                <ele>642.1</ele>
                <time>2025-10-17T12:46:41.000Z</time>
                <name>Position 94</name>
            </trkpt>
            <trkpt lat="45.6413298" lon="10.8626877">
                <ele>648.3</ele>
                <time>2025-10-17T12:47:00.000Z</time>
                <name>Position 95</name>
            </trkpt>
            <trkpt lat="45.6414682" lon="10.862856">
                <ele>648.3</ele>
                <time>2025-10-17T12:47:24.000Z</time>
                <name>Position 96</name>
            </trkpt>
            <trkpt lat="45.6416501" lon="10.8629217">
                <ele>651.9</ele>
                <time>2025-10-17T12:47:51.000Z</time>
                <name>Position 97</name>
            </trkpt>
            <trkpt lat="45.6418179" lon="10.8630217">
                <ele>651.5</ele>
                <time>2025-10-17T12:48:18.000Z</time>
                <name>Position 98</name>
            </trkpt>
            <trkpt lat="45.6419866" lon="10.8629085">
                <ele>647.9</ele>
                <time>2025-10-17T12:48:41.000Z</time>
                <name>Position 99</name>
            </trkpt>
            <trkpt lat="45.6421633" lon="10.8628436">
                <ele>645.8</ele>
                <time>2025-10-17T12:49:02.000Z</time>
                <name>Position 100</name>
            </trkpt>
            <trkpt lat="45.6422554" lon="10.8630759">
                <ele>650.1</ele>
                <time>2025-10-17T12:49:14.000Z</time>
                <name>Position 101</name>
            </trkpt>
            <trkpt lat="45.6424384" lon="10.8630897">
                <ele>647.1</ele>
                <time>2025-10-17T12:49:38.000Z</time>
                <name>Position 102</name>
            </trkpt>
            <trkpt lat="45.642603" lon="10.8631968">
                <ele>649.2</ele>
                <time>2025-10-17T12:50:00.000Z</time>
                <name>Position 103</name>
            </trkpt>
            <trkpt lat="45.6427892" lon="10.863247">
                <ele>647.0</ele>
                <time>2025-10-17T12:50:24.000Z</time>
                <name>Position 104</name>
            </trkpt>
            <trkpt lat="45.642963" lon="10.8631476">
                <ele>647.4</ele>
                <time>2025-10-17T12:50:44.000Z</time>
                <name>Position 105</name>
            </trkpt>
            <trkpt lat="45.6431364" lon="10.8630581">
                <ele>644.0</ele>
                <time>2025-10-17T12:51:18.000Z</time>
                <name>Position 106</name>
            </trkpt>
            <trkpt lat="45.6433174" lon="10.8630131">
                <ele>645.1</ele>
                <time>2025-10-17T12:51:31.000Z</time>
                <name>Position 107</name>
            </trkpt>
            <trkpt lat="45.643475" lon="10.862874">
                <ele>648.3</ele>
                <time>2025-10-17T12:51:45.000Z</time>
                <name>Position 108</name>
            </trkpt>
            <trkpt lat="45.6435096" lon="10.8631463">
                <ele>647.6</ele>
                <time>2025-10-17T12:52:14.000Z</time>
                <name>Position 109</name>
            </trkpt>
            <trkpt lat="45.6435873" lon="10.8633949">
                <ele>649.5</ele>
                <time>2025-10-17T12:52:43.000Z</time>
                <name>Position 110</name>
            </trkpt>
            <trkpt lat="45.6437591" lon="10.8634796">
                <ele>649.2</ele>
                <time>2025-10-17T12:53:19.000Z</time>
                <name>Position 111</name>
            </trkpt>
            <trkpt lat="45.6439369" lon="10.8634367">
                <ele>658.9</ele>
                <time>2025-10-17T12:53:50.000Z</time>
                <name>Position 112</name>
            </trkpt>
            <trkpt lat="45.6441231" lon="10.8633919">
                <ele>662.9</ele>
                <time>2025-10-17T12:54:11.000Z</time>
                <name>Position 113</name>
            </trkpt>
            <trkpt lat="45.6443147" lon="10.8633806">
                <ele>666.9</ele>
                <time>2025-10-17T12:54:37.000Z</time>
                <name>Position 114</name>
            </trkpt>
            <trkpt lat="45.6444971" lon="10.8634742">
                <ele>667.4</ele>
                <time>2025-10-17T12:54:52.000Z</time>
                <name>Position 115</name>
            </trkpt>
            <trkpt lat="45.6446695" lon="10.8633936">
                <ele>666.4</ele>
                <time>2025-10-17T12:55:18.000Z</time>
                <name>Position 116</name>
            </trkpt>
            <trkpt lat="45.6448403" lon="10.8633062">
                <ele>665.2</ele>
                <time>2025-10-17T12:55:46.000Z</time>
                <name>Position 117</name>
            </trkpt>
            <trkpt lat="45.6450168" lon="10.8632404">
                <ele>660.6</ele>
                <time>2025-10-17T12:56:07.000Z</time>
                <name>Position 118</name>
            </trkpt>
            <trkpt lat="45.6451705" lon="10.8630928">
                <ele>662.4</ele>
                <time>2025-10-17T12:56:24.000Z</time>
                <name>Position 119</name>
            </trkpt>
            <trkpt lat="45.6453387" lon="10.8629574">
                <ele>667.3</ele>
                <time>2025-10-17T12:56:41.000Z</time>
                <name>Position 120</name>
            </trkpt>
            <trkpt lat="45.6455217" lon="10.8629682">
                <ele>666.0</ele>
                <time>2025-10-17T12:57:02.000Z</time>
                <name>Position 121</name>
            </trkpt>
            <trkpt lat="45.6456992" lon="10.8628867">
                <ele>663.8</ele>
                <time>2025-10-17T12:57:34.000Z</time>
                <name>Position 122</name>
            </trkpt>
            <trkpt lat="45.645875" lon="10.8627399">
                <ele>663.8</ele>
                <time>2025-10-17T12:57:42.000Z</time>
                <name>Position 123</name>
            </trkpt>
            <trkpt lat="45.6460453" lon="10.8626275">
                <ele>662.9</ele>
                <time>2025-10-17T12:57:54.000Z</time>
                <name>Position 124</name>
            </trkpt>
            <trkpt lat="45.6461735" lon="10.8624388">
                <ele>659.1</ele>
                <time>2025-10-17T12:58:36.000Z</time>
                <name>Position 125</name>
            </trkpt>
            <trkpt lat="45.6463602" lon="10.8623361">
                <ele>661.2</ele>
                <time>2025-10-17T12:58:53.000Z</time>
                <name>Position 126</name>
            </trkpt>
            <trkpt lat="45.6465056" lon="10.8621698">
                <ele>658.3</ele>
                <time>2025-10-17T12:59:09.000Z</time>
                <name>Position 127</name>
            </trkpt>
            <trkpt lat="45.64671" lon="10.8621173">
                <ele>653.9</ele>
                <time>2025-10-17T12:59:21.000Z</time>
                <name>Position 128</name>
            </trkpt>
            <trkpt lat="45.6468562" lon="10.8619637">
                <ele>651.7</ele>
                <time>2025-10-17T12:59:56.000Z</time>
                <name>Position 129</name>
            </trkpt>
            <trkpt lat="45.6469244" lon="10.8617027">
                <ele>649.0</ele>
                <time>2025-10-17T13:00:22.000Z</time>
                <name>Position 130</name>
            </trkpt>
            <trkpt lat="45.6470428" lon="10.861499">
                <ele>650.7</ele>
                <time>2025-10-17T13:00:30.000Z</time>
                <name>Position 131</name>
            </trkpt>
            <trkpt lat="45.6472349" lon="10.8614257">
                <ele>651.5</ele>
                <time>2025-10-17T13:00:38.000Z</time>
                <name>Position 132</name>
            </trkpt>
            <trkpt lat="45.6473573" lon="10.8612271">
                <ele>652.3</ele>
                <time>2025-10-17T13:00:50.000Z</time>
                <name>Position 133</name>
            </trkpt>
            <trkpt lat="45.6472417" lon="10.8610185">
                <ele>634.6</ele>
                <time>2025-10-17T13:03:40.000Z</time>
                <name>Position 134</name>
            </trkpt>
            <trkpt lat="45.6472773" lon="10.8607639">
                <ele>630.9</ele>
                <time>2025-10-17T13:03:47.000Z</time>
                <name>Position 135</name>
            </trkpt>
            <trkpt lat="45.6473562" lon="10.8605163">
                <ele>634.3</ele>
                <time>2025-10-17T13:03:54.000Z</time>
                <name>Position 136</name>
            </trkpt>
            <trkpt lat="45.6475173" lon="10.8603477">
                <ele>634.1</ele>
                <time>2025-10-17T13:04:04.000Z</time>
                <name>Position 137</name>
            </trkpt>
            <trkpt lat="45.6476777" lon="10.8601875">
                <ele>636.8</ele>
                <time>2025-10-17T13:04:32.000Z</time>
                <name>Position 138</name>
            </trkpt>
            <trkpt lat="45.6475379" lon="10.8599939">
                <ele>637.9</ele>
                <time>2025-10-17T13:04:44.000Z</time>
                <name>Position 139</name>
            </trkpt>
            <trkpt lat="45.6476822" lon="10.859813">
                <ele>642.9</ele>
                <time>2025-10-17T13:05:04.000Z</time>
                <name>Position 140</name>
            </trkpt>
            <trkpt lat="45.6477936" lon="10.8595927">
                <ele>657.2</ele>
                <time>2025-10-17T13:05:38.000Z</time>
                <name>Position 141</name>
            </trkpt>
            <trkpt lat="45.6479353" lon="10.859392">
                <ele>668.3</ele>
                <time>2025-10-17T13:06:06.000Z</time>
                <name>Position 142</name>
            </trkpt>
            <trkpt lat="45.6479291" lon="10.8591148">
                <ele>671.9</ele>
                <time>2025-10-17T13:06:34.000Z</time>
                <name>Position 143</name>
            </trkpt>
            <trkpt lat="45.647813" lon="10.8589116">
                <ele>669.2</ele>
                <time>2025-10-17T13:06:50.000Z</time>
                <name>Position 144</name>
            </trkpt>
            <trkpt lat="45.6479371" lon="10.8587027">
                <ele>667.5</ele>
                <time>2025-10-17T13:07:05.000Z</time>
                <name>Position 145</name>
            </trkpt>
            <trkpt lat="45.6480395" lon="10.8584769">
                <ele>661.0</ele>
                <time>2025-10-17T13:07:24.000Z</time>
                <name>Position 146</name>
            </trkpt>
            <trkpt lat="45.6480762" lon="10.8582017">
                <ele>667.1</ele>
                <time>2025-10-17T13:07:40.000Z</time>
                <name>Position 147</name>
            </trkpt>
            <trkpt lat="45.6482241" lon="10.858041">
                <ele>669.9</ele>
                <time>2025-10-17T13:07:54.000Z</time>
                <name>Position 148</name>
            </trkpt>
            <trkpt lat="45.6481535" lon="10.8577993">
                <ele>676.4</ele>
                <time>2025-10-17T13:08:15.000Z</time>
                <name>Position 149</name>
            </trkpt>
            <trkpt lat="45.6482681" lon="10.8575687">
                <ele>680.0</ele>
                <time>2025-10-17T13:08:33.000Z</time>
                <name>Position 150</name>
            </trkpt>
            <trkpt lat="45.6483949" lon="10.8573816">
                <ele>681.1</ele>
                <time>2025-10-17T13:08:44.000Z</time>
                <name>Position 151</name>
            </trkpt>
            <trkpt lat="45.6484828" lon="10.8571545">
                <ele>685.6</ele>
                <time>2025-10-17T13:09:37.000Z</time>
                <name>Position 152</name>
            </trkpt>
            <trkpt lat="45.6484243" lon="10.8568764">
                <ele>695.3</ele>
                <time>2025-10-17T13:10:27.000Z</time>
                <name>Position 153</name>
            </trkpt>
            <trkpt lat="45.6483901" lon="10.8566024">
                <ele>699.7</ele>
                <time>2025-10-17T13:10:32.000Z</time>
                <name>Position 154</name>
            </trkpt>
            <trkpt lat="45.6484833" lon="10.8563515">
                <ele>701.5</ele>
                <time>2025-10-17T13:10:37.000Z</time>
                <name>Position 155</name>
            </trkpt>
            <trkpt lat="45.6486602" lon="10.8559908">
                <ele>702.9</ele>
                <time>2025-10-17T13:10:42.000Z</time>
                <name>Position 156</name>
            </trkpt>
            <trkpt lat="45.6487015" lon="10.8559234">
                <ele>701.2</ele>
                <time>2025-10-17T13:10:57.000Z</time>
                <name>Position 157</name>
            </trkpt>
            <trkpt lat="45.6485346" lon="10.8558114">
                <ele>699.9</ele>
                <time>2025-10-17T13:11:15.000Z</time>
                <name>Position 158</name>
            </trkpt>
            <trkpt lat="45.6483883" lon="10.8556536">
                <ele>696.2</ele>
                <time>2025-10-17T13:11:20.000Z</time>
                <name>Position 159</name>
            </trkpt>
            <trkpt lat="45.6483546" lon="10.8553836">
                <ele>696.8</ele>
                <time>2025-10-17T13:11:26.000Z</time>
                <name>Position 160</name>
            </trkpt>
            <trkpt lat="45.6489768" lon="10.8557649">
                <ele>741.3</ele>
                <time>2025-10-17T13:15:04.000Z</time>
                <name>Position 161</name>
            </trkpt>
            <trkpt lat="45.6487124" lon="10.8556111">
                <ele>735.4</ele>
                <time>2025-10-17T13:15:28.000Z</time>
                <name>Position 162</name>
            </trkpt>
            <trkpt lat="45.6488809" lon="10.8557215">
                <ele>741.4</ele>
                <time>2025-10-17T13:15:49.000Z</time>
                <name>Position 163</name>
            </trkpt>
            <trkpt lat="45.649065" lon="10.8559482">
                <ele>745.0</ele>
                <time>2025-10-17T13:16:12.000Z</time>
                <name>Position 164</name>
            </trkpt>
            <trkpt lat="45.6491896" lon="10.856161">
                <ele>756.0</ele>
                <time>2025-10-17T13:16:24.000Z</time>
                <name>Position 165</name>
            </trkpt>
            <trkpt lat="45.6493739" lon="10.8561721">
                <ele>753.3</ele>
                <time>2025-10-17T13:18:15.000Z</time>
                <name>Position 166</name>
            </trkpt>
            <trkpt lat="45.6491936" lon="10.8562332">
                <ele>766.9</ele>
                <time>2025-10-17T13:28:37.000Z</time>
                <name>Position 167</name>
            </trkpt>
            <trkpt lat="45.6490147" lon="10.8561986">
                <ele>767.0</ele>
                <time>2025-10-17T13:28:51.000Z</time>
                <name>Position 168</name>
            </trkpt>
            <trkpt lat="45.6489196" lon="10.8559756">
                <ele>768.6</ele>
                <time>2025-10-17T13:29:05.000Z</time>
                <name>Position 169</name>
            </trkpt>
            <trkpt lat="45.648899" lon="10.855686">
                <ele>762.9</ele>
                <time>2025-10-17T13:31:21.000Z</time>
                <name>Position 170</name>
            </trkpt>
            <trkpt lat="45.6486221" lon="10.855612">
                <ele>763.9</ele>
                <time>2025-10-17T13:31:30.000Z</time>
                <name>Position 171</name>
            </trkpt>
            <trkpt lat="45.6485612" lon="10.8556295">
                <ele>737.3</ele>
                <time>2025-10-17T13:32:16.000Z</time>
                <name>Position 172</name>
            </trkpt>
            <trkpt lat="45.6486677" lon="10.8558504">
                <ele>731.0</ele>
                <time>2025-10-17T13:32:32.000Z</time>
                <name>Position 173</name>
            </trkpt>
            <trkpt lat="45.648652" lon="10.8561199">
                <ele>725.0</ele>
                <time>2025-10-17T13:32:41.000Z</time>
                <name>Position 174</name>
            </trkpt>
            <trkpt lat="45.648612" lon="10.856373">
                <ele>724.0</ele>
                <time>2025-10-17T13:33:10.000Z</time>
                <name>Position 175</name>
            </trkpt>
            <trkpt lat="45.6485719" lon="10.856629">
                <ele>715.4</ele>
                <time>2025-10-17T13:33:46.000Z</time>
                <name>Position 176</name>
            </trkpt>
            <trkpt lat="45.6484533" lon="10.8568413">
                <ele>702.6</ele>
                <time>2025-10-17T13:33:56.000Z</time>
                <name>Position 177</name>
            </trkpt>
            <trkpt lat="45.6483606" lon="10.8570621">
                <ele>695.5</ele>
                <time>2025-10-17T13:34:11.000Z</time>
                <name>Position 178</name>
            </trkpt>
            <trkpt lat="45.6484207" lon="10.857319">
                <ele>698.3</ele>
                <time>2025-10-17T13:34:29.000Z</time>
                <name>Position 179</name>
            </trkpt>
            <trkpt lat="45.6483717" lon="10.8575778">
                <ele>694.7</ele>
                <time>2025-10-17T13:34:46.000Z</time>
                <name>Position 180</name>
            </trkpt>
            <trkpt lat="45.6482828" lon="10.8578301">
                <ele>694.6</ele>
                <time>2025-10-17T13:34:58.000Z</time>
                <name>Position 181</name>
            </trkpt>
            <trkpt lat="45.6482324" lon="10.8580801">
                <ele>687.8</ele>
                <time>2025-10-17T13:35:13.000Z</time>
                <name>Position 182</name>
            </trkpt>
            <trkpt lat="45.6482249" lon="10.8583443">
                <ele>681.8</ele>
                <time>2025-10-17T13:35:37.000Z</time>
                <name>Position 183</name>
            </trkpt>
            <trkpt lat="45.648133" lon="10.8585743">
                <ele>678.1</ele>
                <time>2025-10-17T13:35:54.000Z</time>
                <name>Position 184</name>
            </trkpt>
            <trkpt lat="45.6480128" lon="10.8587944">
                <ele>681.0</ele>
                <time>2025-10-17T13:36:06.000Z</time>
                <name>Position 185</name>
            </trkpt>
            <trkpt lat="45.6479656" lon="10.8590472">
                <ele>674.1</ele>
                <time>2025-10-17T13:36:25.000Z</time>
                <name>Position 186</name>
            </trkpt>
            <trkpt lat="45.6479185" lon="10.8592962">
                <ele>672.6</ele>
                <time>2025-10-17T13:36:44.000Z</time>
                <name>Position 187</name>
            </trkpt>
            <trkpt lat="45.6479172" lon="10.8595608">
                <ele>672.2</ele>
                <time>2025-10-17T13:36:56.000Z</time>
                <name>Position 188</name>
            </trkpt>
            <trkpt lat="45.6477788" lon="10.8597427">
                <ele>673.6</ele>
                <time>2025-10-17T13:37:18.000Z</time>
                <name>Position 189</name>
            </trkpt>
            <trkpt lat="45.6476906" lon="10.859986">
                <ele>673.6</ele>
                <time>2025-10-17T13:37:35.000Z</time>
                <name>Position 190</name>
            </trkpt>
            <trkpt lat="45.6476029" lon="10.8602133">
                <ele>670.8</ele>
                <time>2025-10-17T13:37:56.000Z</time>
                <name>Position 191</name>
            </trkpt>
            <trkpt lat="45.6474937" lon="10.860431">
                <ele>669.9</ele>
                <time>2025-10-17T13:38:10.000Z</time>
                <name>Position 192</name>
            </trkpt>
            <trkpt lat="45.6473758" lon="10.8606412">
                <ele>657.6</ele>
                <time>2025-10-17T13:38:41.000Z</time>
                <name>Position 193</name>
            </trkpt>
            <trkpt lat="45.6473213" lon="10.8608954">
                <ele>646.2</ele>
                <time>2025-10-17T13:38:59.000Z</time>
                <name>Position 194</name>
            </trkpt>
            <trkpt lat="45.6473918" lon="10.8611444">
                <ele>628.2</ele>
                <time>2025-10-17T13:39:59.000Z</time>
                <name>Position 195</name>
            </trkpt>
            <trkpt lat="45.6472923" lon="10.8613615">
                <ele>624.2</ele>
                <time>2025-10-17T13:40:57.000Z</time>
                <name>Position 196</name>
            </trkpt>
            <trkpt lat="45.6471697" lon="10.8615722">
                <ele>629.4</ele>
                <time>2025-10-17T13:41:18.000Z</time>
                <name>Position 197</name>
            </trkpt>
            <trkpt lat="45.6471659" lon="10.8618376">
                <ele>629.9</ele>
                <time>2025-10-17T13:42:18.000Z</time>
                <name>Position 198</name>
            </trkpt>
            <trkpt lat="45.647032" lon="10.8620136">
                <ele>627.6</ele>
                <time>2025-10-17T13:42:37.000Z</time>
                <name>Position 199</name>
            </trkpt>
            <trkpt lat="45.6469068" lon="10.8622039">
                <ele>597.1</ele>
                <time>2025-10-17T13:44:03.000Z</time>
                <name>Position 200</name>
            </trkpt>
            <trkpt lat="45.6470537" lon="10.8620405">
                <ele>551.6</ele>
                <time>2025-10-17T13:45:59.000Z</time>
                <name>Position 201</name>
            </trkpt>
            <trkpt lat="45.6471424" lon="10.8622762">
                <ele>549.5</ele>
                <time>2025-10-17T13:46:08.000Z</time>
                <name>Position 202</name>
            </trkpt>
            <trkpt lat="45.6472496" lon="10.8620645">
                <ele>547.8</ele>
                <time>2025-10-17T13:46:43.000Z</time>
                <name>Position 203</name>
            </trkpt>
            <trkpt lat="45.6473663" lon="10.861857">
                <ele>546.8</ele>
                <time>2025-10-17T13:46:56.000Z</time>
                <name>Position 204</name>
            </trkpt>
            <trkpt lat="45.6474038" lon="10.862115">
                <ele>528.0</ele>
                <time>2025-10-17T13:47:51.000Z</time>
                <name>Position 205</name>
            </trkpt>
            <trkpt lat="45.6473763" lon="10.8623814">
                <ele>529.1</ele>
                <time>2025-10-17T13:48:03.000Z</time>
                <name>Position 206</name>
            </trkpt>
            <trkpt lat="45.6473304" lon="10.8626522">
                <ele>522.9</ele>
                <time>2025-10-17T13:48:20.000Z</time>
                <name>Position 207</name>
            </trkpt>
            <trkpt lat="45.6472619" lon="10.8628908">
                <ele>525.8</ele>
                <time>2025-10-17T13:48:31.000Z</time>
                <name>Position 208</name>
            </trkpt>
            <trkpt lat="45.6471743" lon="10.8631267">
                <ele>517.0</ele>
                <time>2025-10-17T13:48:52.000Z</time>
                <name>Position 209</name>
            </trkpt>
            <trkpt lat="45.6470948" lon="10.8633598">
                <ele>518.7</ele>
                <time>2025-10-17T13:49:09.000Z</time>
                <name>Position 210</name>
            </trkpt>
            <trkpt lat="45.6469273" lon="10.8634703">
                <ele>512.1</ele>
                <time>2025-10-17T13:49:27.000Z</time>
                <name>Position 211</name>
            </trkpt>
            <trkpt lat="45.6467484" lon="10.8635042">
                <ele>510.6</ele>
                <time>2025-10-17T13:49:45.000Z</time>
                <name>Position 212</name>
            </trkpt>
            <trkpt lat="45.6465848" lon="10.8636328">
                <ele>508.0</ele>
                <time>2025-10-17T13:50:02.000Z</time>
                <name>Position 213</name>
            </trkpt>
            <trkpt lat="45.6464275" lon="10.8637604">
                <ele>506.1</ele>
                <time>2025-10-17T13:50:22.000Z</time>
                <name>Position 214</name>
            </trkpt>
            <trkpt lat="45.6462734" lon="10.8638957">
                <ele>503.6</ele>
                <time>2025-10-17T13:50:43.000Z</time>
                <name>Position 215</name>
            </trkpt>
            <trkpt lat="45.6461409" lon="10.8640853">
                <ele>498.4</ele>
                <time>2025-10-17T13:51:00.000Z</time>
                <name>Position 216</name>
            </trkpt>
            <trkpt lat="45.6459548" lon="10.8641432">
                <ele>490.9</ele>
                <time>2025-10-17T13:51:25.000Z</time>
                <name>Position 217</name>
            </trkpt>
            <trkpt lat="45.6457657" lon="10.8641801">
                <ele>486.4</ele>
                <time>2025-10-17T13:51:50.000Z</time>
                <name>Position 218</name>
            </trkpt>
            <trkpt lat="45.6455663" lon="10.8642069">
                <ele>483.4</ele>
                <time>2025-10-17T13:52:19.000Z</time>
                <name>Position 219</name>
            </trkpt>
            <trkpt lat="45.6453937" lon="10.8643">
                <ele>476.5</ele>
                <time>2025-10-17T13:52:31.000Z</time>
                <name>Position 220</name>
            </trkpt>
            <trkpt lat="45.6452349" lon="10.8644425">
                <ele>477.7</ele>
                <time>2025-10-17T13:52:42.000Z</time>
                <name>Position 221</name>
            </trkpt>
            <trkpt lat="45.6450791" lon="10.8645712">
                <ele>473.8</ele>
                <time>2025-10-17T13:52:57.000Z</time>
                <name>Position 222</name>
            </trkpt>
            <trkpt lat="45.6449486" lon="10.8647667">
                <ele>474.5</ele>
                <time>2025-10-17T13:53:11.000Z</time>
                <name>Position 223</name>
            </trkpt>
            <trkpt lat="45.6448245" lon="10.8649692">
                <ele>469.4</ele>
                <time>2025-10-17T13:53:28.000Z</time>
                <name>Position 224</name>
            </trkpt>
            <trkpt lat="45.6446502" lon="10.8650972">
                <ele>472.2</ele>
                <time>2025-10-17T13:53:49.000Z</time>
                <name>Position 225</name>
            </trkpt>
            <trkpt lat="45.6444931" lon="10.8652435">
                <ele>471.9</ele>
                <time>2025-10-17T13:54:06.000Z</time>
                <name>Position 226</name>
            </trkpt>
            <trkpt lat="45.6443451" lon="10.8654041">
                <ele>464.7</ele>
                <time>2025-10-17T13:54:31.000Z</time>
                <name>Position 227</name>
            </trkpt>
            <trkpt lat="45.6442319" lon="10.8656059">
                <ele>451.2</ele>
                <time>2025-10-17T13:54:57.000Z</time>
                <name>Position 228</name>
            </trkpt>
            <trkpt lat="45.6441758" lon="10.8658599">
                <ele>436.6</ele>
                <time>2025-10-17T13:55:41.000Z</time>
                <name>Position 229</name>
            </trkpt>
            <trkpt lat="45.6441598" lon="10.8661203">
                <ele>434.5</ele>
                <time>2025-10-17T13:55:56.000Z</time>
                <name>Position 230</name>
            </trkpt>
            <trkpt lat="45.6440353" lon="10.866315">
                <ele>435.4</ele>
                <time>2025-10-17T13:56:12.000Z</time>
                <name>Position 231</name>
            </trkpt>
            <trkpt lat="45.6438737" lon="10.8664527">
                <ele>431.5</ele>
                <time>2025-10-17T13:56:37.000Z</time>
                <name>Position 232</name>
            </trkpt>
            <trkpt lat="45.6436965" lon="10.8665157">
                <ele>425.1</ele>
                <time>2025-10-17T13:57:03.000Z</time>
                <name>Position 233</name>
            </trkpt>
            <trkpt lat="45.6435227" lon="10.8666042">
                <ele>423.8</ele>
                <time>2025-10-17T13:57:17.000Z</time>
                <name>Position 234</name>
            </trkpt>
            <trkpt lat="45.643359" lon="10.8667205">
                <ele>418.0</ele>
                <time>2025-10-17T13:57:41.000Z</time>
                <name>Position 235</name>
            </trkpt>
            <trkpt lat="45.6431756" lon="10.8667571">
                <ele>409.3</ele>
                <time>2025-10-17T13:58:06.000Z</time>
                <name>Position 236</name>
            </trkpt>
            <trkpt lat="45.6430048" lon="10.8668748">
                <ele>410.0</ele>
                <time>2025-10-17T13:58:20.000Z</time>
                <name>Position 237</name>
            </trkpt>
            <trkpt lat="45.6428187" lon="10.8668112">
                <ele>403.4</ele>
                <time>2025-10-17T13:58:39.000Z</time>
                <name>Position 238</name>
            </trkpt>
            <trkpt lat="45.6426497" lon="10.8666893">
                <ele>402.5</ele>
                <time>2025-10-17T13:58:57.000Z</time>
                <name>Position 239</name>
            </trkpt>
            <trkpt lat="45.6425604" lon="10.8669156">
                <ele>391.5</ele>
                <time>2025-10-17T13:59:35.000Z</time>
                <name>Position 240</name>
            </trkpt>
            <trkpt lat="45.6425864" lon="10.8671835">
                <ele>380.6</ele>
                <time>2025-10-17T14:00:00.000Z</time>
                <name>Position 241</name>
            </trkpt>
            <trkpt lat="45.6425569" lon="10.8674397">
                <ele>374.2</ele>
                <time>2025-10-17T14:00:23.000Z</time>
                <name>Position 242</name>
            </trkpt>
            <trkpt lat="45.6424205" lon="10.867622">
                <ele>373.4</ele>
                <time>2025-10-17T14:00:40.000Z</time>
                <name>Position 243</name>
            </trkpt>
            <trkpt lat="45.6423439" lon="10.8678595">
                <ele>371.8</ele>
                <time>2025-10-17T14:01:00.000Z</time>
                <name>Position 244</name>
            </trkpt>
            <trkpt lat="45.6423511" lon="10.8681341">
                <ele>369.6</ele>
                <time>2025-10-17T14:01:19.000Z</time>
                <name>Position 245</name>
            </trkpt>
            <trkpt lat="45.6425029" lon="10.8682846">
                <ele>359.1</ele>
                <time>2025-10-17T14:01:48.000Z</time>
                <name>Position 246</name>
            </trkpt>
            <trkpt lat="45.6426867" lon="10.8682836">
                <ele>351.6</ele>
                <time>2025-10-17T14:02:09.000Z</time>
                <name>Position 247</name>
            </trkpt>
            <trkpt lat="45.6428802" lon="10.8683127">
                <ele>353.7</ele>
                <time>2025-10-17T14:02:46.000Z</time>
                <name>Position 248</name>
            </trkpt>
            <trkpt lat="45.6430666" lon="10.8682304">
                <ele>354.6</ele>
                <time>2025-10-17T14:02:57.000Z</time>
                <name>Position 249</name>
            </trkpt>
            <trkpt lat="45.6434202" lon="10.8682365">
                <ele>345.8</ele>
                <time>2025-10-17T14:03:29.000Z</time>
                <name>Position 250</name>
            </trkpt>
            <trkpt lat="45.6435211" lon="10.8684638">
                <ele>336.5</ele>
                <time>2025-10-17T14:03:48.000Z</time>
                <name>Position 251</name>
            </trkpt>
            <trkpt lat="45.6433463" lon="10.8685389">
                <ele>338.8</ele>
                <time>2025-10-17T14:04:08.000Z</time>
                <name>Position 252</name>
            </trkpt>
            <trkpt lat="45.6432064" lon="10.868718">
                <ele>326.5</ele>
                <time>2025-10-17T14:04:38.000Z</time>
                <name>Position 253</name>
            </trkpt>
            <trkpt lat="45.6433817" lon="10.8687803">
                <ele>305.4</ele>
                <time>2025-10-17T14:05:51.000Z</time>
                <name>Position 254</name>
            </trkpt>
            <trkpt lat="45.6435156" lon="10.8689557">
                <ele>300.8</ele>
                <time>2025-10-17T14:06:42.000Z</time>
                <name>Position 255</name>
            </trkpt>
            <trkpt lat="45.6436592" lon="10.8691112">
                <ele>292.7</ele>
                <time>2025-10-17T14:06:55.000Z</time>
                <name>Position 256</name>
            </trkpt>
            <trkpt lat="45.6437967" lon="10.8692905">
                <ele>296.1</ele>
                <time>2025-10-17T14:07:06.000Z</time>
                <name>Position 257</name>
            </trkpt>
            <trkpt lat="45.6439241" lon="10.8694865">
                <ele>291.0</ele>
                <time>2025-10-17T14:07:27.000Z</time>
                <name>Position 258</name>
            </trkpt>
            <trkpt lat="45.644043" lon="10.8697127">
                <ele>284.1</ele>
                <time>2025-10-17T14:08:00.000Z</time>
                <name>Position 259</name>
            </trkpt>
            <trkpt lat="45.6438743" lon="10.8698225">
                <ele>283.9</ele>
                <time>2025-10-17T14:08:33.000Z</time>
                <name>Position 260</name>
            </trkpt>
            <trkpt lat="45.643685" lon="10.8698006">
                <ele>280.7</ele>
                <time>2025-10-17T14:08:53.000Z</time>
                <name>Position 261</name>
            </trkpt>
            <trkpt lat="45.6437315" lon="10.8700492">
                <ele>272.8</ele>
                <time>2025-10-17T14:09:15.000Z</time>
                <name>Position 262</name>
            </trkpt>
            <trkpt lat="45.6438069" lon="10.8702851">
                <ele>266.3</ele>
                <time>2025-10-17T14:10:24.000Z</time>
                <name>Position 263</name>
            </trkpt>
            <trkpt lat="45.6438116" lon="10.8705529">
                <ele>260.1</ele>
                <time>2025-10-17T14:10:35.000Z</time>
                <name>Position 264</name>
            </trkpt>
            <trkpt lat="45.6437887" lon="10.8708224">
                <ele>253.7</ele>
                <time>2025-10-17T14:10:50.000Z</time>
                <name>Position 265</name>
            </trkpt>
            <trkpt lat="45.6436894" lon="10.8710529">
                <ele>251.3</ele>
                <time>2025-10-17T14:11:09.000Z</time>
                <name>Position 266</name>
            </trkpt>
            <trkpt lat="45.6438404" lon="10.8712134">
                <ele>239.0</ele>
                <time>2025-10-17T14:11:29.000Z</time>
                <name>Position 267</name>
            </trkpt>
            <trkpt lat="45.643915" lon="10.8714504">
                <ele>234.9</ele>
                <time>2025-10-17T14:11:52.000Z</time>
                <name>Position 268</name>
            </trkpt>
            <trkpt lat="45.6438712" lon="10.871707">
                <ele>228.6</ele>
                <time>2025-10-17T14:12:37.000Z</time>
                <name>Position 269</name>
            </trkpt>
            <trkpt lat="45.643772" lon="10.871953">
                <ele>221.7</ele>
                <time>2025-10-17T14:13:14.000Z</time>
                <name>Position 270</name>
            </trkpt>
            <trkpt lat="45.6437527" lon="10.8722159">
                <ele>213.1</ele>
                <time>2025-10-17T14:13:27.000Z</time>
                <name>Position 271</name>
            </trkpt>
            <trkpt lat="45.6437891" lon="10.8724746">
                <ele>211.5</ele>
                <time>2025-10-17T14:13:45.000Z</time>
                <name>Position 272</name>
            </trkpt>
            <trkpt lat="45.6436035" lon="10.8725584">
                <ele>210.8</ele>
                <time>2025-10-17T14:14:24.000Z</time>
                <name>Position 273</name>
            </trkpt>
            <trkpt lat="45.6434451" lon="10.8723862">
                <ele>209.3</ele>
                <time>2025-10-17T14:14:43.000Z</time>
                <name>Position 274</name>
            </trkpt>
            <trkpt lat="45.6432818" lon="10.8722119">
                <ele>211.0</ele>
                <time>2025-10-17T14:14:55.000Z</time>
                <name>Position 275</name>
            </trkpt>
            <trkpt lat="45.6430996" lon="10.8722568">
                <ele>207.0</ele>
                <time>2025-10-17T14:15:09.000Z</time>
                <name>Position 276</name>
            </trkpt>
            <trkpt lat="45.6429163" lon="10.8722294">
                <ele>200.6</ele>
                <time>2025-10-17T14:15:30.000Z</time>
                <name>Position 277</name>
            </trkpt>
            <trkpt lat="45.6427339" lon="10.8721767">
                <ele>197.0</ele>
                <time>2025-10-17T14:15:49.000Z</time>
                <name>Position 278</name>
            </trkpt>
            <trkpt lat="45.6425641" lon="10.872278">
                <ele>195.5</ele>
                <time>2025-10-17T14:16:04.000Z</time>
                <name>Position 279</name>
            </trkpt>
            <trkpt lat="45.6423819" lon="10.8722599">
                <ele>193.7</ele>
                <time>2025-10-17T14:16:21.000Z</time>
                <name>Position 280</name>
            </trkpt>
            <trkpt lat="45.6422065" lon="10.8721351">
                <ele>193.2</ele>
                <time>2025-10-17T14:16:36.000Z</time>
                <name>Position 281</name>
            </trkpt>
            <trkpt lat="45.6420743" lon="10.8719552">
                <ele>193.3</ele>
                <time>2025-10-17T14:16:52.000Z</time>
                <name>Position 282</name>
            </trkpt>
            <trkpt lat="45.6419458" lon="10.8717627">
                <ele>190.3</ele>
                <time>2025-10-17T14:17:10.000Z</time>
                <name>Position 283</name>
            </trkpt>
            <trkpt lat="45.6418233" lon="10.8715471">
                <ele>184.4</ele>
                <time>2025-10-17T14:17:28.000Z</time>
                <name>Position 284</name>
            </trkpt>
            <trkpt lat="45.6416808" lon="10.8713895">
                <ele>181.8</ele>
                <time>2025-10-17T14:17:44.000Z</time>
                <name>Position 285</name>
            </trkpt>
            <trkpt lat="45.6415634" lon="10.8711719">
                <ele>183.6</ele>
                <time>2025-10-17T14:17:57.000Z</time>
                <name>Position 286</name>
            </trkpt>
            <trkpt lat="45.6414098" lon="10.8710372">
                <ele>181.4</ele>
                <time>2025-10-17T14:18:15.000Z</time>
                <name>Position 287</name>
            </trkpt>
            <trkpt lat="45.6412669" lon="10.8708766">
                <ele>181.0</ele>
                <time>2025-10-17T14:18:29.000Z</time>
                <name>Position 288</name>
            </trkpt>
            <trkpt lat="45.6411211" lon="10.870696">
                <ele>184.2</ele>
                <time>2025-10-17T14:18:51.000Z</time>
                <name>Position 289</name>
            </trkpt>
            <trkpt lat="45.6409807" lon="10.8705337">
                <ele>179.5</ele>
                <time>2025-10-17T14:19:22.000Z</time>
                <name>Position 290</name>
            </trkpt>
            <trkpt lat="45.6408398" lon="10.8703696">
                <ele>182.9</ele>
                <time>2025-10-17T14:20:39.000Z</time>
                <name>Position 291</name>
            </trkpt>
            <trkpt lat="45.6406067" lon="10.8702636">
                <ele>178.2</ele>
                <time>2025-10-17T14:22:27.000Z</time>
                <name>Position 292</name>
            </trkpt>
            <trkpt lat="45.6403849" lon="10.8701888">
                <ele>176.6</ele>
                <time>2025-10-17T14:22:29.000Z</time>
                <name>Position 293</name>
            </trkpt>
            <trkpt lat="45.6401799" lon="10.8700417">
                <ele>175.1</ele>
                <time>2025-10-17T14:22:32.000Z</time>
                <name>Position 294</name>
            </trkpt>
            <trkpt lat="45.639935" lon="10.8699845">
                <ele>177.7</ele>
                <time>2025-10-17T14:22:35.000Z</time>
                <name>Position 295</name>
            </trkpt>
            <trkpt lat="45.6397511" lon="10.869926">
                <ele>181.7</ele>
                <time>2025-10-17T14:22:37.000Z</time>
                <name>Position 296</name>
            </trkpt>
            <trkpt lat="45.6395521" lon="10.8698377">
                <ele>177.8</ele>
                <time>2025-10-17T14:22:40.000Z</time>
                <name>Position 297</name>
            </trkpt>
            <trkpt lat="45.6393009" lon="10.8697381">
                <ele>178.4</ele>
                <time>2025-10-17T14:22:43.000Z</time>
                <name>Position 298</name>
            </trkpt>
            <trkpt lat="45.6390941" lon="10.8695991">
                <ele>177.5</ele>
                <time>2025-10-17T14:22:45.000Z</time>
                <name>Position 299</name>
            </trkpt>
            <trkpt lat="45.6388526" lon="10.8694402">
                <ele>174.6</ele>
                <time>2025-10-17T14:22:47.000Z</time>
                <name>Position 300</name>
            </trkpt>
            <trkpt lat="45.6385822" lon="10.8692763">
                <ele>172.4</ele>
                <time>2025-10-17T14:22:49.000Z</time>
                <name>Position 301</name>
            </trkpt>
            <trkpt lat="45.6383119" lon="10.8691249">
                <ele>170.6</ele>
                <time>2025-10-17T14:22:51.000Z</time>
                <name>Position 302</name>
            </trkpt>
            <trkpt lat="45.6380628" lon="10.8689888">
                <ele>168.6</ele>
                <time>2025-10-17T14:22:53.000Z</time>
                <name>Position 303</name>
            </trkpt>
            <trkpt lat="45.637805" lon="10.8689557">
                <ele>166.6</ele>
                <time>2025-10-17T14:22:55.000Z</time>
                <name>Position 304</name>
            </trkpt>
            <trkpt lat="45.6375577" lon="10.8689315">
                <ele>165.2</ele>
                <time>2025-10-17T14:22:57.000Z</time>
                <name>Position 305</name>
            </trkpt>
            <trkpt lat="45.6373222" lon="10.8689983">
                <ele>164.5</ele>
                <time>2025-10-17T14:22:59.000Z</time>
                <name>Position 306</name>
            </trkpt>
            <trkpt lat="45.6370962" lon="10.8690018">
                <ele>163.8</ele>
                <time>2025-10-17T14:23:01.000Z</time>
                <name>Position 307</name>
            </trkpt>
            <trkpt lat="45.6368458" lon="10.8689521">
                <ele>162.6</ele>
                <time>2025-10-17T14:23:03.000Z</time>
                <name>Position 308</name>
            </trkpt>
            <trkpt lat="45.6366086" lon="10.8688859">
                <ele>160.9</ele>
                <time>2025-10-17T14:23:05.000Z</time>
                <name>Position 309</name>
            </trkpt>
            <trkpt lat="45.636358" lon="10.868795">
                <ele>161.6</ele>
                <time>2025-10-17T14:23:07.000Z</time>
                <name>Position 310</name>
            </trkpt>
            <trkpt lat="45.6361359" lon="10.868686">
                <ele>159.5</ele>
                <time>2025-10-17T14:23:09.000Z</time>
                <name>Position 311</name>
            </trkpt>
            <trkpt lat="45.635898" lon="10.8686182">
                <ele>158.8</ele>
                <time>2025-10-17T14:23:11.000Z</time>
                <name>Position 312</name>
            </trkpt>
            <trkpt lat="45.6356677" lon="10.868579">
                <ele>156.7</ele>
                <time>2025-10-17T14:23:13.000Z</time>
                <name>Position 313</name>
            </trkpt>
            <trkpt lat="45.6354428" lon="10.868594">
                <ele>154.3</ele>
                <time>2025-10-17T14:23:15.000Z</time>
                <name>Position 314</name>
            </trkpt>
            <trkpt lat="45.6352109" lon="10.8686677">
                <ele>151.9</ele>
                <time>2025-10-17T14:23:17.000Z</time>
                <name>Position 315</name>
            </trkpt>
            <trkpt lat="45.6349805" lon="10.8686816">
                <ele>151.4</ele>
                <time>2025-10-17T14:23:19.000Z</time>
                <name>Position 316</name>
            </trkpt>
            <trkpt lat="45.6347608" lon="10.8686055">
                <ele>151.4</ele>
                <time>2025-10-17T14:23:21.000Z</time>
                <name>Position 317</name>
            </trkpt>
            <trkpt lat="45.6345407" lon="10.8684925">
                <ele>150.6</ele>
                <time>2025-10-17T14:23:23.000Z</time>
                <name>Position 318</name>
            </trkpt>
            <trkpt lat="45.6343208" lon="10.8684142">
                <ele>149.9</ele>
                <time>2025-10-17T14:23:25.000Z</time>
                <name>Position 319</name>
            </trkpt>
            <trkpt lat="45.6341077" lon="10.8682994">
                <ele>148.6</ele>
                <time>2025-10-17T14:23:27.000Z</time>
                <name>Position 320</name>
            </trkpt>
            <trkpt lat="45.6339136" lon="10.86821">
                <ele>147.0</ele>
                <time>2025-10-17T14:23:29.000Z</time>
                <name>Position 321</name>
            </trkpt>
            <trkpt lat="45.6337312" lon="10.8681067">
                <ele>145.0</ele>
                <time>2025-10-17T14:23:31.000Z</time>
                <name>Position 322</name>
            </trkpt>
            <trkpt lat="45.6335497" lon="10.8680069">
                <ele>143.0</ele>
                <time>2025-10-17T14:23:33.000Z</time>
                <name>Position 323</name>
            </trkpt>
        </trkseg>
    </trk>
</gpx>
