<?xml version="1.0" encoding="UTF-8" standalone="yes"?>
<gpx xmlns="http://www.topografix.com/GPX/1/1" creator="alpenkarte.eu">
    <metadata>
        <name>anna-klettersteig</name>
        <link href="alpenkarte.eu">
            <text>Route von alpenkarte.eu</text>
        </link>
        <bounds minlat="47.45021799999999956298779579810798168182373046875" minlon="13.6092490000000001515445546829141676425933837890625" maxlat="47.46904399999999668580130673944950103759765625" maxlon="13.6225369999999994519157553440891206264495849609375"/>
    </metadata>
    <trk>
        <name>anna-klettersteig</name>
        <trkseg>
            <trkpt lat="47.45053399999999754754753666929900646209716796875" lon="13.61751100000000036516212276183068752288818359375">
                <ele>1684.33732703999567092978395521640777587890625</ele>
            </trkpt>
            <trkpt lat="47.45054300000000324644133797846734523773193359375" lon="13.617720999999999520468918490223586559295654296875">
                <ele>1689.63963888001171653741039335727691650390625</ele>
            </trkpt>
            <trkpt lat="47.4505180000000024165274226106703281402587890625" lon="13.61789399999999972123987390659749507904052734375">
                <ele>1693.723432320015717778005637228488922119140625</ele>
            </trkpt>
            <trkpt lat="47.45048899999999747478796052746474742889404296875" lon="13.6179620000000003443574314587749540805816650390625">
                <ele>1695.091097279979976519825868308544158935546875</ele>
            </trkpt>
            <trkpt lat="47.450727000000000543877831660211086273193359375" lon="13.6180679999999991736103766015730798244476318359375">
                <ele>1700.56525055998235984588973224163055419921875</ele>
            </trkpt>
            <trkpt lat="47.450816000000003214154276065528392791748046875" lon="13.618078000000000571390046388842165470123291015625">
                <ele>1701.933358080054176753037609159946441650390625</ele>
            </trkpt>
            <trkpt lat="47.45087000000000188038029591552913188934326171875" lon="13.618173999999999779220161144621670246124267578125">
                <ele>1704.295199999961141656967811286449432373046875</ele>
            </trkpt>
            <trkpt lat="47.4508569999999991750883054919540882110595703125" lon="13.6181970000000003295781425549648702144622802734375">
                <ele>1705.176000000022440872271545231342315673828125</ele>
            </trkpt>
            <trkpt lat="47.4508569999999991750883054919540882110595703125" lon="13.6181970000000003295781425549648702144622802734375">
                <ele>1705.176000000022440872271545231342315673828125</ele>
            </trkpt>
            <trkpt lat="47.4508009999999984529495122842490673065185546875" lon="13.61821499999999929286786937154829502105712890625">
                <ele>1705.6371863999565903213806450366973876953125</ele>
            </trkpt>
            <trkpt lat="47.4508009999999984529495122842490673065185546875" lon="13.6182420000000004023377186967991292476654052734375">
                <ele>1706.403472319987486116588115692138671875</ele>
            </trkpt>
            <trkpt lat="47.45110700000000036880010156892240047454833984375" lon="13.61847900000000066711436375044286251068115234375">
                <ele>1709.671643200014614194515161216259002685546875</ele>
            </trkpt>
            <trkpt lat="47.45123000000000246245690505020320415496826171875" lon="13.61851599999999962165020406246185302734375">
                <ele>1709.140191999950047829770483076572418212890625</ele>
            </trkpt>
            <trkpt lat="47.45133899999999727015165262855589389801025390625" lon="13.6185220000000004603180059348233044147491455078125">
                <ele>1707.812195200053110966109670698642730712890625</ele>
            </trkpt>
            <trkpt lat="47.45142700000000246518538915552198886871337890625" lon="13.6185629999999999739657141617499291896820068359375">
                <ele>1708.10417439996354005415923893451690673828125</ele>
            </trkpt>
            <trkpt lat="47.45156999999999669626049580983817577362060546875" lon="13.6185550000000006320988177321851253509521484375">
                <ele>1705.859440000067479559220373630523681640625</ele>
            </trkpt>
            <trkpt lat="47.4516789999999986093826009891927242279052734375" lon="13.618646999999999280817064573056995868682861328125">
                <ele>1708.01448784000103842117823660373687744140625</ele>
            </trkpt>
            <trkpt lat="47.45184299999999666397343389689922332763671875" lon="13.6188330000000004105231710127554833889007568359375">
                <ele>1711.6969739200940239243209362030029296875</ele>
            </trkpt>
            <trkpt lat="47.4522419999999982564986567012965679168701171875" lon="13.61948399999999992360244505107402801513671875">
                <ele>1729.05464320002965905587188899517059326171875</ele>
            </trkpt>
            <trkpt lat="47.452460999999999557985574938356876373291015625" lon="13.6197479999999995214921000297181308269500732421875">
                <ele>1737.060323199981439756811596453189849853515625</ele>
            </trkpt>
            <trkpt lat="47.452460999999999557985574938356876373291015625" lon="13.6197479999999995214921000297181308269500732421875">
                <ele>1737.060323199981439756811596453189849853515625</ele>
            </trkpt>
            <trkpt lat="47.45304300000000097270458354614675045013427734375" lon="13.6206329999999997681925378856249153614044189453125">
                <ele>1757.532132159963339290698058903217315673828125</ele>
            </trkpt>
            <trkpt lat="47.45346399999999675856088288128376007080078125" lon="13.6211559999999991532604326494038105010986328125">
                <ele>1768.6124352000506405602209270000457763671875</ele>
            </trkpt>
            <trkpt lat="47.4538909999999987121555022895336151123046875" lon="13.621567999999999898363967076875269412994384765625">
                <ele>1773.02216640003416614490561187267303466796875</ele>
            </trkpt>
            <trkpt lat="47.454160000000001673470251262187957763671875" lon="13.621911000000000768750396673567593097686767578125">
                <ele>1779.2645823999800995807163417339324951171875</ele>
            </trkpt>
            <trkpt lat="47.45429500000000189174897968769073486328125" lon="13.6220259999999999678266249247826635837554931640625">
                <ele>1783.977985599996600285521708428859710693359375</ele>
            </trkpt>
            <trkpt lat="47.45441600000000192949300981126725673675537109375" lon="13.6219359999999998223074726411141455173492431640625">
                <ele>1780.14429567999104619957506656646728515625</ele>
            </trkpt>
            <trkpt lat="47.4545389999999969177224556915462017059326171875" lon="13.6219680000000007424887371598742902278900146484375">
                <ele>1781.4797113600297961966134607791900634765625</ele>
            </trkpt>
            <trkpt lat="47.45491899999999674264472560025751590728759765625" lon="13.6222609999999999530473360209725797176361083984375">
                <ele>1793.146369120001281771692447364330291748046875</ele>
            </trkpt>
            <trkpt lat="47.455027000000001180524122901260852813720703125" lon="13.62241099999999960346031002700328826904296875">
                <ele>1799.69657776001395177445374429225921630859375</ele>
            </trkpt>
            <trkpt lat="47.4551510000000007494236342608928680419921875" lon="13.6225140000000006779146133339963853359222412109375">
                <ele>1807.55957920005994310486130416393280029296875</ele>
            </trkpt>
            <trkpt lat="47.455207999999998946805135346949100494384765625" lon="13.6225369999999994519157553440891206264495849609375">
                <ele>1810.582988799932763868127949535846710205078125</ele>
            </trkpt>
            <trkpt lat="47.4552589999999980818756739608943462371826171875" lon="13.62250900000000086720319814048707485198974609375">
                <ele>1810.21481679999806146952323615550994873046875</ele>
            </trkpt>
            <trkpt lat="47.45528300000000143654688145034015178680419921875" lon="13.622420999999999224883140414021909236907958984375">
                <ele>1806.957041440003877141862176358699798583984375</ele>
            </trkpt>
            <trkpt lat="47.45533400000000057161742006428539752960205078125" lon="13.6223310000000008557208275306038558483123779296875">
                <ele>1804.457024320049868038040585815906524658203125</ele>
            </trkpt>
            <trkpt lat="47.4555390000000016925696399994194507598876953125" lon="13.622296999999999655983629054389894008636474609375">
                <ele>1808.234676640025782035081647336483001708984375</ele>
            </trkpt>
            <trkpt lat="47.4556529999999980873326421715319156646728515625" lon="13.6223039999999997462509782053530216217041015625">
                <ele>1811.4710809599373533274047076702117919921875</ele>
            </trkpt>
            <trkpt lat="47.45578900000000288628143607638776302337646484375" lon="13.6222229999999999705551090301014482975006103515625">
                <ele>1811.104185760068276067613624036312103271484375</ele>
            </trkpt>
            <trkpt lat="47.45590700000000339286998496390879154205322265625" lon="13.6222370000000001510898073320277035236358642578125">
                <ele>1814.848699040095425516483373939990997314453125</ele>
            </trkpt>
            <trkpt lat="47.45600400000000007594280759803950786590576171875" lon="13.622206999999999510464476770721375942230224609375">
                <ele>1816.013607679976075814920477569103240966796875</ele>
            </trkpt>
            <trkpt lat="47.4561250000000001136868377216160297393798828125" lon="13.622268999999999294914232450537383556365966796875">
                <ele>1822.20901999996704034856520593166351318359375</ele>
            </trkpt>
            <trkpt lat="47.456198999999998022758518345654010772705078125" lon="13.622265999999999763758751214481890201568603515625">
                <ele>1824.044815039933382649905979633331298828125</ele>
            </trkpt>
            <trkpt lat="47.4564560000000028594513423740863800048828125" lon="13.62207599999999985129761626012623310089111328125">
                <ele>1821.966575360067736255587078630924224853515625</ele>
            </trkpt>
            <trkpt lat="47.45661100000000232057573157362639904022216796875" lon="13.6220149999999993184474078589119017124176025390625">
                <ele>1823.29352240002845064736902713775634765625</ele>
            </trkpt>
            <trkpt lat="47.4566779999999965866663842462003231048583984375" lon="13.6220230000000004366711436887271702289581298828125">
                <ele>1825.40769247994785473565571010112762451171875</ele>
            </trkpt>
            <trkpt lat="47.45673500000000188947524293325841426849365234375" lon="13.621990000000000264890331891365349292755126953125">
                <ele>1825.049288000048591129598207771778106689453125</ele>
            </trkpt>
            <trkpt lat="47.4569249999999982492226990871131420135498046875" lon="13.621942000000000660975274513475596904754638671875">
                <ele>1826.86863199998924756073392927646636962890625</ele>
            </trkpt>
            <trkpt lat="47.45714699999999908186509856022894382476806640625" lon="13.62192399999999992132870829664170742034912109375">
                <ele>1830.825253759974430067813955247402191162109375</ele>
            </trkpt>
            <trkpt lat="47.45734300000000160935087478719651699066162109375" lon="13.62196899999999999408828443847596645355224609375">
                <ele>1836.82006064003098799730651080608367919921875</ele>
            </trkpt>
            <trkpt lat="47.45737100000000197042027139104902744293212890625" lon="13.6219529999999995339976521790958940982818603515625">
                <ele>1836.771524960020542494021356105804443359375</ele>
            </trkpt>
            <trkpt lat="47.4573759999999964520611683838069438934326171875" lon="13.6218780000000005969695848762057721614837646484375">
                <ele>1833.90334975994346677907742559909820556640625</ele>
            </trkpt>
            <trkpt lat="47.45739999999999980673237587325274944305419921875" lon="13.621829999999999216697688098065555095672607421875">
                <ele>1832.536639999962289948598481714725494384765625</ele>
            </trkpt>
            <trkpt lat="47.4574530000000009977156878449022769927978515625" lon="13.621793000000000262161847786046564579010009765625">
                <ele>1832.283051680030212082783691585063934326171875</ele>
            </trkpt>
            <trkpt lat="47.457763999999997395207174122333526611328125" lon="13.621703000000000116642695502378046512603759765625">
                <ele>1836.43750015993782653822563588619232177734375</ele>
            </trkpt>
            <trkpt lat="47.45783800000000240970621234737336635589599609375" lon="13.6217319999999997293116393848322331905364990234375">
                <ele>1839.272007680048091060598380863666534423828125</ele>
            </trkpt>
            <trkpt lat="47.45792900000000003046807250939309597015380859375" lon="13.62171299999999973806552588939666748046875">
                <ele>1840.861016959990593022666871547698974609375</ele>
            </trkpt>
            <trkpt lat="47.45800700000000205136529984883964061737060546875" lon="13.6216349999999994935251379502005875110626220703125">
                <ele>1840.162711200033982095192186534404754638671875</ele>
            </trkpt>
            <trkpt lat="47.45819800000000299178282148204743862152099609375" lon="13.621596000000000259433363680727779865264892578125">
                <ele>1843.818113280086208760621957480907440185546875</ele>
            </trkpt>
            <trkpt lat="47.45828399999999902547642705030739307403564453125" lon="13.621553999999999717829268774949014186859130859375">
                <ele>1844.788757759964255455997772514820098876953125</ele>
            </trkpt>
            <trkpt lat="47.4585560000000015179466572590172290802001953125" lon="13.6212759999999999394049154943786561489105224609375">
                <ele>1849.729184000077793825767002999782562255859375</ele>
            </trkpt>
            <trkpt lat="47.458606000000003177774487994611263275146484375" lon="13.6212569999999999481588019989430904388427734375">
                <ele>1852.02888800016944514936767518520355224609375</ele>
            </trkpt>
            <trkpt lat="47.45873999999999881538315094076097011566162109375" lon="13.6213420000000002829665390891022980213165283203125">
                <ele>1860.617119999941451169434003531932830810546875</ele>
            </trkpt>
            <trkpt lat="47.4587829999999968322299537248909473419189453125" lon="13.62134400000000056252247304655611515045166015625">
                <ele>1862.850127999843607540242373943328857421875</ele>
            </trkpt>
            <trkpt lat="47.4588949999999982765075401403009891510009765625" lon="13.6212269999999993075334714376367628574371337890625">
                <ele>1867.442059999895491273491643369197845458984375</ele>
            </trkpt>
            <trkpt lat="47.45905499999999932470018393360078334808349609375" lon="13.6209690000000005483116183313541114330291748046875">
                <ele>1875.273379999956205210764892399311065673828125</ele>
            </trkpt>
            <trkpt lat="47.45907799999999809870132594369351863861083984375" lon="13.620889999999999275814843713305890560150146484375">
                <ele>1876.509679999866648358874954283237457275390625</ele>
            </trkpt>
            <trkpt lat="47.45915099999999853253029868938028812408447265625" lon="13.62075899999999961664798320271074771881103515625">
                <ele>1880.67252255988933029584586620330810546875</ele>
            </trkpt>
            <trkpt lat="47.45930100000000351201379089616239070892333984375" lon="13.62029199999999917736204224638640880584716796875">
                <ele>1891.37712064035122239147312939167022705078125</ele>
            </trkpt>
            <trkpt lat="47.45937500000000142108547152020037174224853515625" lon="13.6200670000000005899210009374655783176422119140625">
                <ele>1895.7550000001438093022443354129791259765625</ele>
            </trkpt>
            <trkpt lat="47.45939700000000271984390565194189548492431640625" lon="13.6198910000000008579945642850361764430999755859375">
                <ele>1894.668043840267046107328496873378753662109375</ele>
            </trkpt>
            <trkpt lat="47.45948700000000286536305793561041355133056640625" lon="13.619524999999999437250153278000652790069580078125">
                <ele>1894.852456000223583032493479549884796142578125</ele>
            </trkpt>
            <trkpt lat="47.4595029999999979963831719942390918731689453125" lon="13.619170000000000442241798737086355686187744140625">
                <ele>1888.00385919985228611039929091930389404296875</ele>
            </trkpt>
            <trkpt lat="47.45954499999999853798726690001785755157470703125" lon="13.6188990000000007540847946074791252613067626953125">
                <ele>1885.613976799904548897757194936275482177734375</ele>
            </trkpt>
            <trkpt lat="47.45955500000000171212377608753740787506103515625" lon="13.618748000000000075715433922596275806427001953125">
                <ele>1883.219734400116294636973179876804351806640625</ele>
            </trkpt>
            <trkpt lat="47.4596099999999978535925038158893585205078125" lon="13.6186349999999993798383002285845577716827392578125">
                <ele>1884.667255999833969326573424041271209716796875</ele>
            </trkpt>
            <trkpt lat="47.459642999999999801730155013501644134521484375" lon="13.6184560000000001167563823400996625423431396484375">
                <ele>1883.037255679984127709758467972278594970703125</ele>
            </trkpt>
            <trkpt lat="47.45968400000000286809154204092919826507568359375" lon="13.6183619999999994121253621415235102176666259765625">
                <ele>1883.662599680168568738736212253570556640625</ele>
            </trkpt>
            <trkpt lat="47.45969000000000193040250451304018497467041015625" lon="13.618266999999999455894794664345681667327880859375">
                <ele>1882.715977600115593304508365690708160400390625</ele>
            </trkpt>
            <trkpt lat="47.4597720000000009576979209668934345245361328125" lon="13.618095000000000283080225926823914051055908203125">
                <ele>1886.281100800061494737747125327587127685546875</ele>
            </trkpt>
            <trkpt lat="47.46004599999999840065356693230569362640380859375" lon="13.617687000000000097088559414260089397430419921875">
                <ele>1899.43212447992527813767082989215850830078125</ele>
            </trkpt>
            <trkpt lat="47.46008199999999987994669936597347259521484375" lon="13.6175920000000001408579919370822608470916748046875">
                <ele>1899.95693055999481657636351883411407470703125</ele>
            </trkpt>
            <trkpt lat="47.46009699999999753572410554625093936920166015625" lon="13.617222999999999188958099693991243839263916015625">
                <ele>1897.90994559993350776494480669498443603515625</ele>
            </trkpt>
            <trkpt lat="47.46008400000000193585947272367775440216064453125" lon="13.617053999999999547299012192524969577789306640625">
                <ele>1896.769273600026508574956096708774566650390625</ele>
            </trkpt>
            <trkpt lat="47.459980000000001609805622138082981109619140625" lon="13.616507999999999611873136018402874469757080078125">
                <ele>1891.733331200094426094437949359416961669921875</ele>
            </trkpt>
            <trkpt lat="47.45984399999999681085682823322713375091552734375" lon="13.616073000000000092768459580838680267333984375">
                <ele>1878.31514815983609878458082675933837890625</ele>
            </trkpt>
            <trkpt lat="47.45979700000000178761183633469045162200927734375" lon="13.615735000000000809450284577906131744384765625">
                <ele>1871.222192000085897234384901821613311767578125</ele>
            </trkpt>
            <trkpt lat="47.4597619999999977835614117793738842010498046875" lon="13.6156249999999996447286321199499070644378662109375">
                <ele>1867.32439999992084267432801425457000732421875</ele>
            </trkpt>
            <trkpt lat="47.45968599999999781857695779763162136077880859375" lon="13.615176999999999196688804659061133861541748046875">
                <ele>1856.390307199972767193685285747051239013671875</ele>
            </trkpt>
            <trkpt lat="47.45971300000000070440364652313292026519775390625" lon="13.6151140000000001606395017006434500217437744140625">
                <ele>1855.23384320000468505895696580410003662109375</ele>
            </trkpt>
            <trkpt lat="47.4597509999999971341821947135031223297119140625" lon="13.6150929999999998898374542477540671825408935546875">
                <ele>1854.82095679999611093080602586269378662109375</ele>
            </trkpt>
            <trkpt lat="47.45979100000000272530087386257946491241455078125" lon="13.6151040000000005392166713136248290538787841796875">
                <ele>1855.120006400017018677317537367343902587890625</ele>
            </trkpt>
            <trkpt lat="47.45979100000000272530087386257946491241455078125" lon="13.6151040000000005392166713136248290538787841796875">
                <ele>1855.120006400017018677317537367343902587890625</ele>
            </trkpt>
            <trkpt lat="47.4597509999999971341821947135031223297119140625" lon="13.6150929999999998898374542477540671825408935546875">
                <ele>1854.82095679999611093080602586269378662109375</ele>
            </trkpt>
            <trkpt lat="47.4598969999999980018401402048766613006591796875" lon="13.615095000000000169393388205207884311676025390625">
                <ele>1854.964784000004101471859030425548553466796875</ele>
            </trkpt>
            <trkpt lat="47.46019199999999926831151242367923259735107421875" lon="13.615249999999999630517777404747903347015380859375">
                <ele>1852.321280000018305145204067230224609375</ele>
            </trkpt>
            <trkpt lat="47.46033899999999761121216579340398311614990234375" lon="13.615363999999999577994458377361297607421875">
                <ele>1850.849663360082558938302099704742431640625</ele>
            </trkpt>
            <trkpt lat="47.46053500000000013869794202037155628204345703125" lon="13.615584999999999382680471171624958515167236328125">
                <ele>1853.249575999966282324749045073986053466796875</ele>
            </trkpt>
            <trkpt lat="47.46063600000000093359631136991083621978759765625" lon="13.6156400000000008532197171007283031940460205078125">
                <ele>1852.22272640000983301433734595775604248046875</ele>
            </trkpt>
            <trkpt lat="47.46077199999999862711774767376482486724853515625" lon="13.6155889999999999417923390865325927734375">
                <ele>1844.595313280049367676838301122188568115234375</ele>
            </trkpt>
            <trkpt lat="47.460655000000002701199264265596866607666015625" lon="13.615449999999999164401742746122181415557861328125">
                <ele>1841.956159999850797248654998838901519775390625</ele>
            </trkpt>
            <trkpt lat="47.4608300000000014051693142391741275787353515625" lon="13.6154309999999991731556292506866157054901123046875">
                <ele>1833.909036799899695324711501598358154296875</ele>
            </trkpt>
            <trkpt lat="47.4608300000000014051693142391741275787353515625" lon="13.61536100000000004683897714130580425262451171875">
                <ele>1830.13374079994491694378666579723358154296875</ele>
            </trkpt>
            <trkpt lat="47.460791000000000394720700569450855255126953125" lon="13.615266999999999342207956942729651927947998046875">
                <ele>1826.77293151994899744750000536441802978515625</ele>
            </trkpt>
            <trkpt lat="47.4606959999999986621332936920225620269775390625" lon="13.615187999999999846068021724931895732879638671875">
                <ele>1826.888295680054170588846318423748016357421875</ele>
            </trkpt>
            <trkpt lat="47.4606899999999995998223312199115753173828125" lon="13.614971000000000600493876845575869083404541015625">
                <ele>1816.20565760004456024034880101680755615234375</ele>
            </trkpt>
            <trkpt lat="47.4607519999999993842720868997275829315185546875" lon="13.6150520000000003761897460208274424076080322265625">
                <ele>1817.224336640050751157104969024658203125</ele>
            </trkpt>
            <trkpt lat="47.4608649999999983037923811934888362884521484375" lon="13.6150760000000001781472747097723186016082763671875">
                <ele>1813.99600000004329558578319847583770751953125</ele>
            </trkpt>
            <trkpt lat="47.46094599999999985584508976899087429046630859375" lon="13.6150280000000005742322173318825662136077880859375">
                <ele>1809.848800000034998447517864406108856201171875</ele>
            </trkpt>
            <trkpt lat="47.4610339999999979454514686949551105499267578125" lon="13.6150719999999996190354067948646843433380126953125">
                <ele>1810.535200000020040533854626119136810302734375</ele>
            </trkpt>
            <trkpt lat="47.46111499999999949750417727045714855194091796875" lon="13.6150110000000008625420377939008176326751708984375">
                <ele>1805.68600000005744732334278523921966552734375</ele>
            </trkpt>
            <trkpt lat="47.461331999999998743078322149813175201416015625" lon="13.6150280000000005742322173318825662136077880859375">
                <ele>1802.437600000056363569456152617931365966796875</ele>
            </trkpt>
            <trkpt lat="47.46183700000000271757016889750957489013671875" lon="13.61500099999999946476236800663173198699951171875">
                <ele>1793.53126415995575371198356151580810546875</ele>
            </trkpt>
            <trkpt lat="47.4622219999999970241333357989788055419921875" lon="13.615035999999999916099113761447370052337646484375">
                <ele>1793.025634560014395901816897094249725341796875</ele>
            </trkpt>
            <trkpt lat="47.4624969999999990477590472437441349029541015625" lon="13.6149380000000004287130650482140481472015380859375">
                <ele>1787.20972512001799259451217949390411376953125</ele>
            </trkpt>
            <trkpt lat="47.46275399999999677902451367117464542388916015625" lon="13.6147960000000001201669874717481434345245361328125">
                <ele>1782.508120319993622615584172308444976806640625</ele>
            </trkpt>
            <trkpt lat="47.4629010000000022273525246419012546539306640625" lon="13.6146580000000003707327778101898729801177978515625">
                <ele>1778.357475840017968948814086616039276123046875</ele>
            </trkpt>
            <trkpt lat="47.463223999999996749465935863554477691650390625" lon="13.614506999999999692363417125307023525238037109375">
                <ele>1775.27225663997023730189539492130279541015625</ele>
            </trkpt>
            <trkpt lat="47.46334800000000342379280482418835163116455078125" lon="13.614475999999999800138539285399019718170166015625">
                <ele>1775.32226944005788027425296604633331298828125</ele>
            </trkpt>
            <trkpt lat="47.4635210000000000718500814400613307952880859375" lon="13.614321000000000339014150085859000682830810546875">
                <ele>1774.946608480006716490606777369976043701171875</ele>
            </trkpt>
            <trkpt lat="47.46360299999999909914549789391458034515380859375" lon="13.6141760000000004993125912733376026153564453125">
                <ele>1773.506083839985876693390309810638427734375</ele>
            </trkpt>
            <trkpt lat="47.46360299999999909914549789391458034515380859375" lon="13.6141760000000004993125912733376026153564453125">
                <ele>1773.506083839985876693390309810638427734375</ele>
            </trkpt>
            <trkpt lat="47.4636569999999977653715177439153194427490234375" lon="13.614079000000000263526089838705956935882568359375">
                <ele>1773.259217759943794590071775019168853759765625</ele>
            </trkpt>
            <trkpt lat="47.46370900000000148111212183721363544464111328125" lon="13.61381000000000085492501966655254364013671875">
                <ele>1770.469396800053573315381072461605072021484375</ele>
            </trkpt>
            <trkpt lat="47.46394000000000090722096501849591732025146484375" lon="13.6130569999999995189909895998425781726837158203125">
                <ele>1766.512185600019847697694785892963409423828125</ele>
            </trkpt>
            <trkpt lat="47.46398500000000097998054116033017635345458984375" lon="13.61293200000000069849193096160888671875">
                <ele>1765.96856640004034488811157643795013427734375</ele>
            </trkpt>
            <trkpt lat="47.464055999999999357896740548312664031982421875" lon="13.6128160000000004714593160315416753292083740234375">
                <ele>1766.337726719985539602930657565593719482421875</ele>
            </trkpt>
            <trkpt lat="47.464167000000003326931619085371494293212890625" lon="13.612695999999999685314833186566829681396484375">
                <ele>1767.7991526400574002764187753200531005859375</ele>
            </trkpt>
            <trkpt lat="47.464247999999997773556970059871673583984375" lon="13.612493000000000620275386609137058258056640625">
                <ele>1765.70434047997650850447826087474822998046875</ele>
            </trkpt>
            <trkpt lat="47.46436800000000033605829230509698390960693359375" lon="13.612306000000000238969732890836894512176513671875">
                <ele>1763.29046656001037263195030391216278076171875</ele>
            </trkpt>
            <trkpt lat="47.4644540000000034751792554743587970733642578125" lon="13.6122519999999997963868736405856907367706298828125">
                <ele>1763.3649625600492072408087551593780517578125</ele>
            </trkpt>
            <trkpt lat="47.4647920000000027584974304772913455963134765625" lon="13.6118620000000003500417733448557555675506591796875">
                <ele>1758.735681280046946994843892753124237060546875</ele>
            </trkpt>
            <trkpt lat="47.4647920000000027584974304772913455963134765625" lon="13.6118620000000003500417733448557555675506591796875">
                <ele>1758.735681280046946994843892753124237060546875</ele>
            </trkpt>
            <trkpt lat="47.46484000000000236241248785518109798431396484375" lon="13.6118070000000006558593668160028755664825439453125">
                <ele>1757.99580160004870776901952922344207763671875</ele>
            </trkpt>
            <trkpt lat="47.4652320000000003119566827081143856048583984375" lon="13.6116019999999995349071468808688223361968994140625">
                <ele>1765.147203840002248398377560079097747802734375</ele>
            </trkpt>
            <trkpt lat="47.4660439999999965721144690178334712982177734375" lon="13.6110579999999998790372046642005443572998046875">
                <ele>1819.847224319343467868748120963573455810546875</ele>
            </trkpt>
            <trkpt lat="47.466273000000001047737896442413330078125" lon="13.61055400000000048521542339585721492767333984375">
                <ele>1855.0914998402031415025703608989715576171875</ele>
            </trkpt>
            <trkpt lat="47.46638599999999996725819073617458343505859375" lon="13.610172999999999632336766808293759822845458984375">
                <ele>1862.57305055997449017013423144817352294921875</ele>
            </trkpt>
            <trkpt lat="47.4666849999999982401277520693838596343994140625" lon="13.6095400000000008589040589868091046810150146484375">
                <ele>1878.38971199971865644329227507114410400390625</ele>
            </trkpt>
            <trkpt lat="47.46671500000000065710992203094065189361572265625" lon="13.6092490000000001515445546829141676425933837890625">
                <ele>1867.127860800123698936658911406993865966796875</ele>
            </trkpt>
            <trkpt lat="47.4671799999999990404830896295607089996337890625" lon="13.609590000000000742375050322152674198150634765625">
                <ele>1972.75785599986056695342995226383209228515625</ele>
            </trkpt>
            <trkpt lat="47.467140000000000554791768081486225128173828125" lon="13.6103000000000005087485988042317330837249755859375">
                <ele>1994.68944000009969386155717074871063232421875</ele>
            </trkpt>
            <trkpt lat="47.4678899999999970304997987113893032073974609375" lon="13.610189999999999344026946346275508403778076171875">
                <ele>2058.96585599997024473850615322589874267578125</ele>
            </trkpt>
            <trkpt lat="47.46873000000000075715433922596275806427001953125" lon="13.6107700000000004791900209966115653514862060546875">
                <ele>2086.44307200004413971328176558017730712890625</ele>
            </trkpt>
            <trkpt lat="47.468715000000003101376933045685291290283203125" lon="13.61073999999999983856469043530523777008056640625">
                <ele>2085.0297120001278017298318445682525634765625</ele>
            </trkpt>
            <trkpt lat="47.46869600000000133377398014999926090240478515625" lon="13.6107600000000008577671906095929443836212158203125">
                <ele>2084.696467200077677262015640735626220703125</ele>
            </trkpt>
            <trkpt lat="47.46904399999999668580130673944950103759765625" lon="13.6122289999999992460288922302424907684326171875">
                <ele>2089.234530559755512513220310211181640625</ele>
            </trkpt>
            <trkpt lat="47.46849399999999974397724145092070102691650390625" lon="13.6121800000000003905142875737510621547698974609375">
                <ele>2047.6732351999698948930017650127410888671875</ele>
            </trkpt>
            <trkpt lat="47.468378999999998768544173799455165863037109375" lon="13.6124039999999997263557816040702164173126220703125">
                <ele>2034.741512959906913238228298723697662353515625</ele>
            </trkpt>
            <trkpt lat="47.4677429999999986875991453416645526885986328125" lon="13.612975999999999743295120424591004848480224609375">
                <ele>1989.32295231990792672149837017059326171875</ele>
            </trkpt>
            <trkpt lat="47.4673719999999974561433191411197185516357421875" lon="13.613438999999999623469193466007709503173828125">
                <ele>1967.54156479983294047997333109378814697265625</ele>
            </trkpt>
            <trkpt lat="47.4668199999999984584064804948866367340087890625" lon="13.6140589999999992443235896644182503223419189453125">
                <ele>1945.378927999898905909503810107707977294921875</ele>
            </trkpt>
            <trkpt lat="47.4668199999999984584064804948866367340087890625" lon="13.6140589999999992443235896644182503223419189453125">
                <ele>1945.378927999898905909503810107707977294921875</ele>
            </trkpt>
            <trkpt lat="47.46596199999999754481905256398022174835205078125" lon="13.6140899999999991365484675043262541294097900390625">
                <ele>1878.472057599757363277603872120380401611328125</ele>
            </trkpt>
            <trkpt lat="47.46546500000000179397829924710094928741455078125" lon="13.614585999999999188503352343104779720306396484375">
                <ele>1866.65402880005922270356677472591400146484375</ele>
            </trkpt>
            <trkpt lat="47.46518900000000229510987992398440837860107421875" lon="13.6150830000000002684146238607354462146759033203125">
                <ele>1872.268232160129855401464737951755523681640625</ele>
            </trkpt>
            <trkpt lat="47.46499899999999882993506616912782192230224609375" lon="13.6153670000000008855067790136672556400299072265625">
                <ele>1876.4874278399629474733956158161163330078125</ele>
            </trkpt>
            <trkpt lat="47.46473900000000156751411850564181804656982421875" lon="13.6154039999999998400426193256862461566925048828125">
                <ele>1860.48631488009914392023347318172454833984375</ele>
            </trkpt>
            <trkpt lat="47.46446900000000113095666165463626384735107421875" lon="13.61575500000000005229594535194337368011474609375">
                <ele>1861.395225600075946204015053808689117431640625</ele>
            </trkpt>
            <trkpt lat="47.46410399999999896181179792620241641998291015625" lon="13.61580000000000012505552149377763271331787109375">
                <ele>1843.7218239999938305118121206760406494140625</ele>
            </trkpt>
            <trkpt lat="47.4639159999999975525497575290501117706298828125" lon="13.6159669999999994871586750377900898456573486328125">
                <ele>1853.46988863991600737790577113628387451171875</ele>
            </trkpt>
            <trkpt lat="47.4636210000000033915057429112493991851806640625" lon="13.61607000000000056161297834478318691253662109375">
                <ele>1855.18404640010749062639661133289337158203125</ele>
            </trkpt>
            <trkpt lat="47.46256199999999836336428415961563587188720703125" lon="13.6161460000000005265974323265254497528076171875">
                <ele>1847.72348928001383683294989168643951416015625</ele>
            </trkpt>
            <trkpt lat="47.46248899999999792953531141392886638641357421875" lon="13.6161130000000003548166205291636288166046142578125">
                <ele>1845.678650400033120604348368942737579345703125</ele>
            </trkpt>
            <trkpt lat="47.4624390000000033751348382793366909027099609375" lon="13.6161539999999998684643287560902535915374755859375">
                <ele>1848.10636319996820020605809986591339111328125</ele>
            </trkpt>
            <trkpt lat="47.46208800000000138652467285282909870147705078125" lon="13.616099999999999425881469505839049816131591796875">
                <ele>1848.1041599999616664717905223369598388671875</ele>
            </trkpt>
            <trkpt lat="47.4617080000000015616024029441177845001220703125" lon="13.61610699999999951614881865680217742919921875">
                <ele>1851.3354431999659936991520226001739501953125</ele>
            </trkpt>
            <trkpt lat="47.4615960000000001173248165287077426910400390625" lon="13.6161270000000005353513188310898840427398681640625">
                <ele>1853.80594944002177726360969245433807373046875</ele>
            </trkpt>
            <trkpt lat="47.460824000000002342858351767063140869140625" lon="13.615735000000000809450284577906131744384765625">
                <ele>1850.510902399964152209577150642871856689453125</ele>
            </trkpt>
            <trkpt lat="47.460824000000002342858351767063140869140625" lon="13.615735000000000809450284577906131744384765625">
                <ele>1850.510902399964152209577150642871856689453125</ele>
            </trkpt>
            <trkpt lat="47.46053500000000013869794202037155628204345703125" lon="13.615584999999999382680471171624958515167236328125">
                <ele>1853.249575999966282324749045073986053466796875</ele>
            </trkpt>
            <trkpt lat="47.46033899999999761121216579340398311614990234375" lon="13.615363999999999577994458377361297607421875">
                <ele>1850.849663360082558938302099704742431640625</ele>
            </trkpt>
            <trkpt lat="47.46019199999999926831151242367923259735107421875" lon="13.615249999999999630517777404747903347015380859375">
                <ele>1852.321280000018305145204067230224609375</ele>
            </trkpt>
            <trkpt lat="47.4598969999999980018401402048766613006591796875" lon="13.615095000000000169393388205207884311676025390625">
                <ele>1854.964784000004101471859030425548553466796875</ele>
            </trkpt>
            <trkpt lat="47.4597509999999971341821947135031223297119140625" lon="13.6150929999999998898374542477540671825408935546875">
                <ele>1854.82095679999611093080602586269378662109375</ele>
            </trkpt>
            <trkpt lat="47.45971300000000070440364652313292026519775390625" lon="13.6151140000000001606395017006434500217437744140625">
                <ele>1855.23384320000468505895696580410003662109375</ele>
            </trkpt>
            <trkpt lat="47.45968599999999781857695779763162136077880859375" lon="13.615176999999999196688804659061133861541748046875">
                <ele>1856.390307199972767193685285747051239013671875</ele>
            </trkpt>
            <trkpt lat="47.45975700000000330192051478661596775054931640625" lon="13.615596000000000032059688237495720386505126953125">
                <ele>1866.4955072000966538325883448123931884765625</ele>
            </trkpt>
            <trkpt lat="47.45979700000000178761183633469045162200927734375" lon="13.615735000000000809450284577906131744384765625">
                <ele>1871.222192000085897234384901821613311767578125</ele>
            </trkpt>
            <trkpt lat="47.45984399999999681085682823322713375091552734375" lon="13.616073000000000092768459580838680267333984375">
                <ele>1878.31514815983609878458082675933837890625</ele>
            </trkpt>
            <trkpt lat="47.459980000000001609805622138082981109619140625" lon="13.616507999999999611873136018402874469757080078125">
                <ele>1891.733331200094426094437949359416961669921875</ele>
            </trkpt>
            <trkpt lat="47.46009000000000099817043519578874111175537109375" lon="13.617110000000000269437805400229990482330322265625">
                <ele>1897.150240000019266517483629286289215087890625</ele>
            </trkpt>
            <trkpt lat="47.46008199999999987994669936597347259521484375" lon="13.6175920000000001408579919370822608470916748046875">
                <ele>1899.95693055999481657636351883411407470703125</ele>
            </trkpt>
            <trkpt lat="47.46004599999999840065356693230569362640380859375" lon="13.617687000000000097088559414260089397430419921875">
                <ele>1899.43212447992527813767082989215850830078125</ele>
            </trkpt>
            <trkpt lat="47.4597720000000009576979209668934345245361328125" lon="13.618095000000000283080225926823914051055908203125">
                <ele>1886.281100800061494737747125327587127685546875</ele>
            </trkpt>
            <trkpt lat="47.45969000000000193040250451304018497467041015625" lon="13.618266999999999455894794664345681667327880859375">
                <ele>1882.715977600115593304508365690708160400390625</ele>
            </trkpt>
            <trkpt lat="47.45968400000000286809154204092919826507568359375" lon="13.6183619999999994121253621415235102176666259765625">
                <ele>1883.662599680168568738736212253570556640625</ele>
            </trkpt>
            <trkpt lat="47.459642999999999801730155013501644134521484375" lon="13.6184560000000001167563823400996625423431396484375">
                <ele>1883.037255679984127709758467972278594970703125</ele>
            </trkpt>
            <trkpt lat="47.4596099999999978535925038158893585205078125" lon="13.6186349999999993798383002285845577716827392578125">
                <ele>1884.667255999833969326573424041271209716796875</ele>
            </trkpt>
            <trkpt lat="47.45955500000000171212377608753740787506103515625" lon="13.618748000000000075715433922596275806427001953125">
                <ele>1883.219734400116294636973179876804351806640625</ele>
            </trkpt>
            <trkpt lat="47.45954499999999853798726690001785755157470703125" lon="13.6188990000000007540847946074791252613067626953125">
                <ele>1885.613976799904548897757194936275482177734375</ele>
            </trkpt>
            <trkpt lat="47.4595029999999979963831719942390918731689453125" lon="13.619170000000000442241798737086355686187744140625">
                <ele>1888.00385919985228611039929091930389404296875</ele>
            </trkpt>
            <trkpt lat="47.45948200000000127829480334185063838958740234375" lon="13.6195439999999994284962667734362185001373291015625">
                <ele>1894.856911360089497975423000752925872802734375</ele>
            </trkpt>
            <trkpt lat="47.45948200000000127829480334185063838958740234375" lon="13.6195439999999994284962667734362185001373291015625">
                <ele>1894.856911360089497975423000752925872802734375</ele>
            </trkpt>
            <trkpt lat="47.45939700000000271984390565194189548492431640625" lon="13.6198910000000008579945642850361764430999755859375">
                <ele>1894.668043840267046107328496873378753662109375</ele>
            </trkpt>
            <trkpt lat="47.45937500000000142108547152020037174224853515625" lon="13.6200670000000005899210009374655783176422119140625">
                <ele>1895.7550000001438093022443354129791259765625</ele>
            </trkpt>
            <trkpt lat="47.45915099999999853253029868938028812408447265625" lon="13.62075899999999961664798320271074771881103515625">
                <ele>1880.67252255988933029584586620330810546875</ele>
            </trkpt>
            <trkpt lat="47.45907799999999809870132594369351863861083984375" lon="13.620889999999999275814843713305890560150146484375">
                <ele>1876.509679999866648358874954283237457275390625</ele>
            </trkpt>
            <trkpt lat="47.45905499999999932470018393360078334808349609375" lon="13.6209690000000005483116183313541114330291748046875">
                <ele>1875.273379999956205210764892399311065673828125</ele>
            </trkpt>
            <trkpt lat="47.4588949999999982765075401403009891510009765625" lon="13.6212269999999993075334714376367628574371337890625">
                <ele>1867.442059999895491273491643369197845458984375</ele>
            </trkpt>
            <trkpt lat="47.4587829999999968322299537248909473419189453125" lon="13.62134400000000056252247304655611515045166015625">
                <ele>1862.850127999843607540242373943328857421875</ele>
            </trkpt>
            <trkpt lat="47.45873999999999881538315094076097011566162109375" lon="13.6213420000000002829665390891022980213165283203125">
                <ele>1860.617119999941451169434003531932830810546875</ele>
            </trkpt>
            <trkpt lat="47.458606000000003177774487994611263275146484375" lon="13.6212569999999999481588019989430904388427734375">
                <ele>1852.02888800016944514936767518520355224609375</ele>
            </trkpt>
            <trkpt lat="47.4585560000000015179466572590172290802001953125" lon="13.6212759999999999394049154943786561489105224609375">
                <ele>1849.729184000077793825767002999782562255859375</ele>
            </trkpt>
            <trkpt lat="47.45828399999999902547642705030739307403564453125" lon="13.621553999999999717829268774949014186859130859375">
                <ele>1844.788757759964255455997772514820098876953125</ele>
            </trkpt>
            <trkpt lat="47.45819800000000299178282148204743862152099609375" lon="13.621596000000000259433363680727779865264892578125">
                <ele>1843.818113280086208760621957480907440185546875</ele>
            </trkpt>
            <trkpt lat="47.45800700000000205136529984883964061737060546875" lon="13.6216349999999994935251379502005875110626220703125">
                <ele>1840.162711200033982095192186534404754638671875</ele>
            </trkpt>
            <trkpt lat="47.45792900000000003046807250939309597015380859375" lon="13.62171299999999973806552588939666748046875">
                <ele>1840.861016959990593022666871547698974609375</ele>
            </trkpt>
            <trkpt lat="47.45783800000000240970621234737336635589599609375" lon="13.6217319999999997293116393848322331905364990234375">
                <ele>1839.272007680048091060598380863666534423828125</ele>
            </trkpt>
            <trkpt lat="47.457763999999997395207174122333526611328125" lon="13.621703000000000116642695502378046512603759765625">
                <ele>1836.43750015993782653822563588619232177734375</ele>
            </trkpt>
            <trkpt lat="47.4574530000000009977156878449022769927978515625" lon="13.621793000000000262161847786046564579010009765625">
                <ele>1832.283051680030212082783691585063934326171875</ele>
            </trkpt>
            <trkpt lat="47.45739999999999980673237587325274944305419921875" lon="13.621829999999999216697688098065555095672607421875">
                <ele>1832.536639999962289948598481714725494384765625</ele>
            </trkpt>
            <trkpt lat="47.4573759999999964520611683838069438934326171875" lon="13.6218780000000005969695848762057721614837646484375">
                <ele>1833.90334975994346677907742559909820556640625</ele>
            </trkpt>
            <trkpt lat="47.45737100000000197042027139104902744293212890625" lon="13.6219529999999995339976521790958940982818603515625">
                <ele>1836.771524960020542494021356105804443359375</ele>
            </trkpt>
            <trkpt lat="47.45734300000000160935087478719651699066162109375" lon="13.62196899999999999408828443847596645355224609375">
                <ele>1836.82006064003098799730651080608367919921875</ele>
            </trkpt>
            <trkpt lat="47.45714699999999908186509856022894382476806640625" lon="13.62192399999999992132870829664170742034912109375">
                <ele>1830.825253759974430067813955247402191162109375</ele>
            </trkpt>
            <trkpt lat="47.4569249999999982492226990871131420135498046875" lon="13.621942000000000660975274513475596904754638671875">
                <ele>1826.86863199998924756073392927646636962890625</ele>
            </trkpt>
            <trkpt lat="47.45673500000000188947524293325841426849365234375" lon="13.621990000000000264890331891365349292755126953125">
                <ele>1825.049288000048591129598207771778106689453125</ele>
            </trkpt>
            <trkpt lat="47.4566779999999965866663842462003231048583984375" lon="13.6220230000000004366711436887271702289581298828125">
                <ele>1825.40769247994785473565571010112762451171875</ele>
            </trkpt>
            <trkpt lat="47.45661100000000232057573157362639904022216796875" lon="13.6220149999999993184474078589119017124176025390625">
                <ele>1823.29352240002845064736902713775634765625</ele>
            </trkpt>
            <trkpt lat="47.4564560000000028594513423740863800048828125" lon="13.62207599999999985129761626012623310089111328125">
                <ele>1821.966575360067736255587078630924224853515625</ele>
            </trkpt>
            <trkpt lat="47.456198999999998022758518345654010772705078125" lon="13.622265999999999763758751214481890201568603515625">
                <ele>1824.044815039933382649905979633331298828125</ele>
            </trkpt>
            <trkpt lat="47.4561250000000001136868377216160297393798828125" lon="13.622268999999999294914232450537383556365966796875">
                <ele>1822.20901999996704034856520593166351318359375</ele>
            </trkpt>
            <trkpt lat="47.45600400000000007594280759803950786590576171875" lon="13.622206999999999510464476770721375942230224609375">
                <ele>1816.013607679976075814920477569103240966796875</ele>
            </trkpt>
            <trkpt lat="47.45590700000000339286998496390879154205322265625" lon="13.6222370000000001510898073320277035236358642578125">
                <ele>1814.848699040095425516483373939990997314453125</ele>
            </trkpt>
            <trkpt lat="47.45578900000000288628143607638776302337646484375" lon="13.6222229999999999705551090301014482975006103515625">
                <ele>1811.104185760068276067613624036312103271484375</ele>
            </trkpt>
            <trkpt lat="47.4556529999999980873326421715319156646728515625" lon="13.6223039999999997462509782053530216217041015625">
                <ele>1811.4710809599373533274047076702117919921875</ele>
            </trkpt>
            <trkpt lat="47.4555390000000016925696399994194507598876953125" lon="13.622296999999999655983629054389894008636474609375">
                <ele>1808.234676640025782035081647336483001708984375</ele>
            </trkpt>
            <trkpt lat="47.45533400000000057161742006428539752960205078125" lon="13.6223310000000008557208275306038558483123779296875">
                <ele>1804.457024320049868038040585815906524658203125</ele>
            </trkpt>
            <trkpt lat="47.45528300000000143654688145034015178680419921875" lon="13.622420999999999224883140414021909236907958984375">
                <ele>1806.957041440003877141862176358699798583984375</ele>
            </trkpt>
            <trkpt lat="47.4552589999999980818756739608943462371826171875" lon="13.62250900000000086720319814048707485198974609375">
                <ele>1810.21481679999806146952323615550994873046875</ele>
            </trkpt>
            <trkpt lat="47.455207999999998946805135346949100494384765625" lon="13.6225369999999994519157553440891206264495849609375">
                <ele>1810.582988799932763868127949535846710205078125</ele>
            </trkpt>
            <trkpt lat="47.4551000000000016143530956469476222991943359375" lon="13.622471000000000884710971149615943431854248046875">
                <ele>1804.08236800007807687507010996341705322265625</ele>
            </trkpt>
            <trkpt lat="47.4551000000000016143530956469476222991943359375" lon="13.622471000000000884710971149615943431854248046875">
                <ele>1804.08236800007807687507010996341705322265625</ele>
            </trkpt>
            <trkpt lat="47.455027000000001180524122901260852813720703125" lon="13.62241099999999960346031002700328826904296875">
                <ele>1799.69657776001395177445374429225921630859375</ele>
            </trkpt>
            <trkpt lat="47.45491899999999674264472560025751590728759765625" lon="13.6222609999999999530473360209725797176361083984375">
                <ele>1793.146369120001281771692447364330291748046875</ele>
            </trkpt>
            <trkpt lat="47.4545389999999969177224556915462017059326171875" lon="13.6219680000000007424887371598742902278900146484375">
                <ele>1781.4797113600297961966134607791900634765625</ele>
            </trkpt>
            <trkpt lat="47.45441600000000192949300981126725673675537109375" lon="13.6219359999999998223074726411141455173492431640625">
                <ele>1780.14429567999104619957506656646728515625</ele>
            </trkpt>
            <trkpt lat="47.45429500000000189174897968769073486328125" lon="13.6220259999999999678266249247826635837554931640625">
                <ele>1783.977985599996600285521708428859710693359375</ele>
            </trkpt>
            <trkpt lat="47.454160000000001673470251262187957763671875" lon="13.621911000000000768750396673567593097686767578125">
                <ele>1779.2645823999800995807163417339324951171875</ele>
            </trkpt>
            <trkpt lat="47.4538909999999987121555022895336151123046875" lon="13.621567999999999898363967076875269412994384765625">
                <ele>1773.02216640003416614490561187267303466796875</ele>
            </trkpt>
            <trkpt lat="47.45346399999999675856088288128376007080078125" lon="13.6211559999999991532604326494038105010986328125">
                <ele>1768.6124352000506405602209270000457763671875</ele>
            </trkpt>
            <trkpt lat="47.45304300000000097270458354614675045013427734375" lon="13.6206329999999997681925378856249153614044189453125">
                <ele>1757.532132159963339290698058903217315673828125</ele>
            </trkpt>
            <trkpt lat="47.45241999999999649162418791092932224273681640625" lon="13.619685000000000485442797071300446987152099609375">
                <ele>1734.79888000008168091881088912487030029296875</ele>
            </trkpt>
            <trkpt lat="47.4522419999999982564986567012965679168701171875" lon="13.61948399999999992360244505107402801513671875">
                <ele>1729.05464320002965905587188899517059326171875</ele>
            </trkpt>
            <trkpt lat="47.4520440000000007785274647176265716552734375" lon="13.619161999999999324018062907271087169647216796875">
                <ele>1719.80840703995272633619606494903564453125</ele>
            </trkpt>
            <trkpt lat="47.4520440000000007785274647176265716552734375" lon="13.619161999999999324018062907271087169647216796875">
                <ele>1719.80840703995272633619606494903564453125</ele>
            </trkpt>
            <trkpt lat="47.45184299999999666397343389689922332763671875" lon="13.6188330000000004105231710127554833889007568359375">
                <ele>1711.6969739200940239243209362030029296875</ele>
            </trkpt>
            <trkpt lat="47.4516789999999986093826009891927242279052734375" lon="13.618646999999999280817064573056995868682861328125">
                <ele>1708.01448784000103842117823660373687744140625</ele>
            </trkpt>
            <trkpt lat="47.45156999999999669626049580983817577362060546875" lon="13.6185550000000006320988177321851253509521484375">
                <ele>1705.859440000067479559220373630523681640625</ele>
            </trkpt>
            <trkpt lat="47.45142700000000246518538915552198886871337890625" lon="13.6185629999999999739657141617499291896820068359375">
                <ele>1708.10417439996354005415923893451690673828125</ele>
            </trkpt>
            <trkpt lat="47.45133899999999727015165262855589389801025390625" lon="13.6185220000000004603180059348233044147491455078125">
                <ele>1707.812195200053110966109670698642730712890625</ele>
            </trkpt>
            <trkpt lat="47.45123000000000246245690505020320415496826171875" lon="13.61851599999999962165020406246185302734375">
                <ele>1709.140191999950047829770483076572418212890625</ele>
            </trkpt>
            <trkpt lat="47.45110700000000036880010156892240047454833984375" lon="13.61847900000000066711436375044286251068115234375">
                <ele>1709.671643200014614194515161216259002685546875</ele>
            </trkpt>
            <trkpt lat="47.450974999999999681676854379475116729736328125" lon="13.6183840000000007108837962732650339603424072265625">
                <ele>1708.682560000025432600523345172405242919921875</ele>
            </trkpt>
            <trkpt lat="47.4508009999999984529495122842490673065185546875" lon="13.6182420000000004023377186967991292476654052734375">
                <ele>1706.403472319987486116588115692138671875</ele>
            </trkpt>
            <trkpt lat="47.4508009999999984529495122842490673065185546875" lon="13.61821499999999929286786937154829502105712890625">
                <ele>1705.6371863999565903213806450366973876953125</ele>
            </trkpt>
            <trkpt lat="47.4508579999999966503310133703052997589111328125" lon="13.6181970000000003295781425549648702144622802734375">
                <ele>1705.159200000064856794779188930988311767578125</ele>
            </trkpt>
            <trkpt lat="47.45087000000000188038029591552913188934326171875" lon="13.618173999999999779220161144621670246124267578125">
                <ele>1704.295199999961141656967811286449432373046875</ele>
            </trkpt>
            <trkpt lat="47.450816000000003214154276065528392791748046875" lon="13.618078000000000571390046388842165470123291015625">
                <ele>1701.933358080054176753037609159946441650390625</ele>
            </trkpt>
            <trkpt lat="47.450727000000000543877831660211086273193359375" lon="13.6180679999999991736103766015730798244476318359375">
                <ele>1700.56525055998235984588973224163055419921875</ele>
            </trkpt>
            <trkpt lat="47.4505869999999987385308486409485340118408203125" lon="13.6180129999999994794279700727201998233795166015625">
                <ele>1697.45425775997091477620415389537811279296875</ele>
            </trkpt>
            <trkpt lat="47.4505869999999987385308486409485340118408203125" lon="13.6180129999999994794279700727201998233795166015625">
                <ele>1697.45425775997091477620415389537811279296875</ele>
            </trkpt>
            <trkpt lat="47.45048899999999747478796052746474742889404296875" lon="13.6179620000000003443574314587749540805816650390625">
                <ele>1695.091097279979976519825868308544158935546875</ele>
            </trkpt>
            <trkpt lat="47.4505180000000024165274226106703281402587890625" lon="13.61789399999999972123987390659749507904052734375">
                <ele>1693.723432320015717778005637228488922119140625</ele>
            </trkpt>
            <trkpt lat="47.45054300000000324644133797846734523773193359375" lon="13.617720999999999520468918490223586559295654296875">
                <ele>1689.63963888001171653741039335727691650390625</ele>
            </trkpt>
            <trkpt lat="47.45053300000000007230482879094779491424560546875" lon="13.61749400000000065347194322384893894195556640625">
                <ele>1683.959938560010641594999469816684722900390625</ele>
            </trkpt>
            <trkpt lat="47.45051600000000036061464925296604633331298828125" lon="13.6173990000000006972413757466711103916168212890625">
                <ele>1682.3490355200119665823876857757568359375</ele>
            </trkpt>
            <trkpt lat="47.45040800000000302816260955296456813812255859375" lon="13.617152000000000811041900306008756160736083984375">
                <ele>1678.49931648000756467808969318866729736328125</ele>
            </trkpt>
            <trkpt lat="47.4503380000000021254891180433332920074462890625" lon="13.6172869999999992529637893312610685825347900390625">
                <ele>1680.344743679992234319797717034816741943359375</ele>
            </trkpt>
            <trkpt lat="47.45033500000000259433363680727779865264892578125" lon="13.61750299999999924693838693201541900634765625">
                <ele>1683.175024799994616842013783752918243408203125</ele>
            </trkpt>
            <trkpt lat="47.45021799999999956298779579810798168182373046875" lon="13.617470000000000851514414534904062747955322265625">
                <ele>1682.21738880000702920369803905487060546875</ele>
            </trkpt>
        </trkseg>
    </trk>
</gpx>
