<?xml version="1.0" encoding="UTF-8" standalone="yes"?>
<gpx xmlns="http://www.topografix.com/GPX/1/1" creator="alpenkarte.eu">
    <metadata>
        <name>Leite Klettersteig</name>
        <link href="alpenkarte.eu">
            <text>Route von alpenkarte.eu</text>
        </link>
        <bounds minlat="47.314898999999996931364876218140125274658203125" minlon="10.8432960000000004896492100670002400875091552734375" maxlat="47.3179030000000011568772606551647186279296875" maxlon="10.849990999999999274905349011532962322235107421875"/>
    </metadata>
    <trk>
        <name>Leite Klettersteig</name>
        <trkseg>
            <trkpt lat="47.315257000000002562956069596111774444580078125" lon="10.8432960000000004896492100670002400875091552734375">
                <ele>840.1168000000061510945670306682586669921875</ele>
            </trkpt>
            <trkpt lat="47.31541899999999856163412914611399173736572265625" lon="10.843419000000000806949174148030579090118408203125">
                <ele>840.762312159999055438674986362457275390625</ele>
            </trkpt>
            <trkpt lat="47.3155569999999983110683388076722621917724609375" lon="10.843565999999999149849827517755329608917236328125">
                <ele>841.4877827199940156788215972483158111572265625</ele>
            </trkpt>
            <trkpt lat="47.31546399999999863439370528794825077056884765625" lon="10.843975000000000363797880709171295166015625">
                <ele>842.49486399999886998557485640048980712890625</ele>
            </trkpt>
            <trkpt lat="47.31539599999999978763298713602125644683837890625" lon="10.8444389999999994955715010291896760463714599609375">
                <ele>845.3532582399940338291344232857227325439453125</ele>
            </trkpt>
            <trkpt lat="47.315303000000000110958353616297245025634765625" lon="10.8447189999999995535517882672138512134552001953125">
                <ele>847.02094671999702768516726791858673095703125</ele>
            </trkpt>
            <trkpt lat="47.3151840000000021291270968504250049591064453125" lon="10.8449150000000003046807250939309597015380859375">
                <ele>847.19930560002467245794832706451416015625</ele>
            </trkpt>
            <trkpt lat="47.31499900000000025102053768932819366455078125" lon="10.8451339999999998298108039307408034801483154296875">
                <ele>845.9798070399996277046739123761653900146484375</ele>
            </trkpt>
            <trkpt lat="47.31499900000000025102053768932819366455078125" lon="10.8451339999999998298108039307408034801483154296875">
                <ele>845.9798070399996277046739123761653900146484375</ele>
            </trkpt>
            <trkpt lat="47.314898999999996931364876218140125274658203125" lon="10.8452369999999991279082678374834358692169189453125">
                <ele>846.07633071998816376435570418834686279296875</ele>
            </trkpt>
            <trkpt lat="47.3151620000000008303686627186834812164306640625" lon="10.84571700000000049612935981713235378265380859375">
                <ele>853.2031734400294453735114075243473052978515625</ele>
            </trkpt>
            <trkpt lat="47.31544199999999733563527115620672702789306640625" lon="10.8466280000000008243432603194378316402435302734375">
                <ele>887.5797043198432447752566076815128326416015625</ele>
            </trkpt>
            <trkpt lat="47.3154320000000012669261195696890354156494140625" lon="10.8466919999999991119921105564571917057037353515625">
                <ele>888.3190438400766879567527212202548980712890625</ele>
            </trkpt>
            <trkpt lat="47.31535000000000223963070311583578586578369140625" lon="10.8468549999999996913402355858124792575836181640625">
                <ele>884.582480000145778831210918724536895751953125</ele>
            </trkpt>
            <trkpt lat="47.31533900000000159025148604996502399444580078125" lon="10.8470689999999994057588992291130125522613525390625">
                <ele>886.302781760096195284859277307987213134765625</ele>
            </trkpt>
            <trkpt lat="47.31536700000000195132088265381753444671630859375" lon="10.8472069999999991551931088906712830066680908203125">
                <ele>889.6702678401146613396122120320796966552734375</ele>
            </trkpt>
            <trkpt lat="47.3153659999999973706508171744644641876220703125" lon="10.84733800000000059071680880151689052581787109375">
                <ele>891.0786828798418355290777981281280517578125</ele>
            </trkpt>
            <trkpt lat="47.31539000000000072532202466391026973724365234375" lon="10.8474669999999999703277353546582162380218505859375">
                <ele>894.003996800043978510075248777866363525390625</ele>
            </trkpt>
            <trkpt lat="47.315347000000002708475221879780292510986328125" lon="10.847542000000000683712642057798802852630615234375">
                <ele>892.2280016001708418116322718560695648193359375</ele>
            </trkpt>
            <trkpt lat="47.3154210000000006175469025038182735443115234375" lon="10.847713999999999856527210795320570468902587890625">
                <ele>898.4279696000330659444443881511688232421875</ele>
            </trkpt>
            <trkpt lat="47.315460000000001627995516173541545867919921875" lon="10.847716999999999387682692031376063823699951171875">
                <ele>900.6622880000859368010424077510833740234375</ele>
            </trkpt>
            <trkpt lat="47.315460000000001627995516173541545867919921875" lon="10.847716999999999387682692031376063823699951171875">
                <ele>900.6622880000859368010424077510833740234375</ele>
            </trkpt>
            <trkpt lat="47.3155900000000002592059900052845478057861328125" lon="10.8477219999999991983941072248853743076324462890625">
                <ele>908.04123200000913129770196974277496337890625</ele>
            </trkpt>
            <trkpt lat="47.31587300000000340105543727986514568328857421875" lon="10.8473079999999999500914782402105629444122314453125">
                <ele>925.5437715204619735231972299516201019287109375</ele>
            </trkpt>
            <trkpt lat="47.3160529999999965866663842462003231048583984375" lon="10.84731599999999929195837466977536678314208984375">
                <ele>950.191437439528499453444965183734893798828125</ele>
            </trkpt>
            <trkpt lat="47.3165010000000023637767299078404903411865234375" lon="10.847255000000000535465005668811500072479248046875">
                <ele>1011.7313864003199341823346912860870361328125</ele>
            </trkpt>
            <trkpt lat="47.3165010000000023637767299078404903411865234375" lon="10.847255000000000535465005668811500072479248046875">
                <ele>1011.7313864003199341823346912860870361328125</ele>
            </trkpt>
            <trkpt lat="47.31715200000000010049916454590857028961181640625" lon="10.8478539999999998855173544143326580524444580078125">
                <ele>1074.330063360013582496321760118007659912109375</ele>
            </trkpt>
            <trkpt lat="47.31733200000000039153746911324560642242431640625" lon="10.8481349999999991950971889309585094451904296875">
                <ele>1086.605654400077355603571049869060516357421875</ele>
            </trkpt>
            <trkpt lat="47.31741199999999736292011220939457416534423828125" lon="10.8484700000000007236167220980860292911529541015625">
                <ele>1084.11796479962458761292509734630584716796875</ele>
            </trkpt>
            <trkpt lat="47.31768100000000032423486118204891681671142578125" lon="10.8489459999999997563691067625768482685089111328125">
                <ele>1094.247910720055415367824025452136993408203125</ele>
            </trkpt>
            <trkpt lat="47.3179030000000011568772606551647186279296875" lon="10.8492429999999995260395735385827720165252685546875">
                <ele>1112.087178400156744828564114868640899658203125</ele>
            </trkpt>
            <trkpt lat="47.3179030000000011568772606551647186279296875" lon="10.8495229999999995840198607766069471836090087890625">
                <ele>1108.080042400139745950582437217235565185546875</ele>
            </trkpt>
            <trkpt lat="47.31788000000000238287611864507198333740234375" lon="10.8499350000000003291233952040784060955047607421875">
                <ele>1100.01088000022127744159661233425140380859375</ele>
            </trkpt>
            <trkpt lat="47.31788000000000238287611864507198333740234375" lon="10.8499350000000003291233952040784060955047607421875">
                <ele>1100.01088000022127744159661233425140380859375</ele>
            </trkpt>
            <trkpt lat="47.31787700000000285172063740901648998260498046875" lon="10.849990999999999274905349011532962322235107421875">
                <ele>1098.999407200271207329933531582355499267578125</ele>
            </trkpt>
            <trkpt lat="47.31766499999999808778738952241837978363037109375" lon="10.8498350000000005621814125333912670612335205078125">
                <ele>1079.93013999980803419020958244800567626953125</ele>
            </trkpt>
            <trkpt lat="47.3174700000000001409716787748038768768310546875" lon="10.849655999999999522742655244655907154083251953125">
                <ele>1060.727872000001525520929135382175445556640625</ele>
            </trkpt>
            <trkpt lat="47.31723199999999707188180764205753803253173828125" lon="10.84967100000000073123374022543430328369140625">
                <ele>1047.469331199846010349574498832225799560546875</ele>
            </trkpt>
            <trkpt lat="47.3171310000000033824107958935201168060302734375" lon="10.849422000000000565478330827318131923675537109375">
                <ele>1035.67018720024179856409318745136260986328125</ele>
            </trkpt>
            <trkpt lat="47.31683000000000305362846120260655879974365234375" lon="10.849149000000000597765392740257084369659423828125">
                <ele>1004.938494400246099758078344166278839111328125</ele>
            </trkpt>
            <trkpt lat="47.31668700000000171712599694728851318359375" lon="10.848845000000000737827576813288033008575439453125">
                <ele>992.0578648001757073870976455509662628173828125</ele>
            </trkpt>
            <trkpt lat="47.31644399999999706096787122078239917755126953125" lon="10.84868900000000024874680093489587306976318359375">
                <ele>974.6902239998095183182158507406711578369140625</ele>
            </trkpt>
            <trkpt lat="47.31622200000000333375282934866845607757568359375" lon="10.8486729999999997886561686755158007144927978515625">
                <ele>959.8837840002123584781656973063945770263671875</ele>
            </trkpt>
            <trkpt lat="47.31594199999999972305886331014335155487060546875" lon="10.8484700000000007236167220980860292911529541015625">
                <ele>935.197359999998980129021219909191131591796875</ele>
            </trkpt>
            <trkpt lat="47.315776999999997087797964923083782196044921875" lon="10.848321999999999576402842649258673191070556640625">
                <ele>920.03900959987231544801034033298492431640625</ele>
            </trkpt>
            <trkpt lat="47.3156579999999991059667081572115421295166015625" lon="10.8480620000000005376250555855222046375274658203125">
                <ele>913.5724063999585951023618690669536590576171875</ele>
            </trkpt>
            <trkpt lat="47.3156579999999991059667081572115421295166015625" lon="10.8480620000000005376250555855222046375274658203125">
                <ele>913.5724063999585951023618690669536590576171875</ele>
            </trkpt>
            <trkpt lat="47.3156239999999996825863490812480449676513671875" lon="10.847986999999999824240148882381618022918701171875">
                <ele>911.475219199982575446483679115772247314453125</ele>
            </trkpt>
            <trkpt lat="47.3155900000000002592059900052845478057861328125" lon="10.8477219999999991983941072248853743076324462890625">
                <ele>908.04123200000913129770196974277496337890625</ele>
            </trkpt>
            <trkpt lat="47.3154210000000006175469025038182735443115234375" lon="10.847713999999999856527210795320570468902587890625">
                <ele>898.4279696000330659444443881511688232421875</ele>
            </trkpt>
            <trkpt lat="47.315347000000002708475221879780292510986328125" lon="10.847542000000000683712642057798802852630615234375">
                <ele>892.2280016001708418116322718560695648193359375</ele>
            </trkpt>
            <trkpt lat="47.31539000000000072532202466391026973724365234375" lon="10.8474669999999999703277353546582162380218505859375">
                <ele>894.003996800043978510075248777866363525390625</ele>
            </trkpt>
            <trkpt lat="47.3153659999999973706508171744644641876220703125" lon="10.84733800000000059071680880151689052581787109375">
                <ele>891.0786828798418355290777981281280517578125</ele>
            </trkpt>
            <trkpt lat="47.31536700000000195132088265381753444671630859375" lon="10.8472069999999991551931088906712830066680908203125">
                <ele>889.6702678401146613396122120320796966552734375</ele>
            </trkpt>
            <trkpt lat="47.31533900000000159025148604996502399444580078125" lon="10.8470689999999994057588992291130125522613525390625">
                <ele>886.302781760096195284859277307987213134765625</ele>
            </trkpt>
            <trkpt lat="47.31535000000000223963070311583578586578369140625" lon="10.8468549999999996913402355858124792575836181640625">
                <ele>884.582480000145778831210918724536895751953125</ele>
            </trkpt>
            <trkpt lat="47.3154320000000012669261195696890354156494140625" lon="10.8466919999999991119921105564571917057037353515625">
                <ele>888.3190438400766879567527212202548980712890625</ele>
            </trkpt>
            <trkpt lat="47.31544199999999733563527115620672702789306640625" lon="10.8466280000000008243432603194378316402435302734375">
                <ele>887.5797043198432447752566076815128326416015625</ele>
            </trkpt>
            <trkpt lat="47.3151620000000008303686627186834812164306640625" lon="10.84571700000000049612935981713235378265380859375">
                <ele>853.2031734400294453735114075243473052978515625</ele>
            </trkpt>
            <trkpt lat="47.314898999999996931364876218140125274658203125" lon="10.8452369999999991279082678374834358692169189453125">
                <ele>846.07633071998816376435570418834686279296875</ele>
            </trkpt>
            <trkpt lat="47.315077000000002271917765028774738311767578125" lon="10.84505300000000005411493475548923015594482421875">
                <ele>846.7264561600303522936883382499217987060546875</ele>
            </trkpt>
            <trkpt lat="47.3151840000000021291270968504250049591064453125" lon="10.8449150000000003046807250939309597015380859375">
                <ele>847.19930560002467245794832706451416015625</ele>
            </trkpt>
            <trkpt lat="47.315303000000000110958353616297245025634765625" lon="10.8447189999999995535517882672138512134552001953125">
                <ele>847.02094671999702768516726791858673095703125</ele>
            </trkpt>
            <trkpt lat="47.31539599999999978763298713602125644683837890625" lon="10.8444389999999994955715010291896760463714599609375">
                <ele>845.3532582399940338291344232857227325439453125</ele>
            </trkpt>
            <trkpt lat="47.31546399999999863439370528794825077056884765625" lon="10.843975000000000363797880709171295166015625">
                <ele>842.49486399999886998557485640048980712890625</ele>
            </trkpt>
            <trkpt lat="47.3155569999999983110683388076722621917724609375" lon="10.843565999999999149849827517755329608917236328125">
                <ele>841.4877827199940156788215972483158111572265625</ele>
            </trkpt>
            <trkpt lat="47.31541899999999856163412914611399173736572265625" lon="10.843419000000000806949174148030579090118408203125">
                <ele>840.762312159999055438674986362457275390625</ele>
            </trkpt>
            <trkpt lat="47.31528300000000086811269284226000308990478515625" lon="10.843315000000000480895323562435805797576904296875">
                <ele>840.179200000002083470462821424007415771484375</ele>
            </trkpt>
        </trkseg>
    </trk>
</gpx>
