<?xml version="1.0" encoding="UTF-8" standalone="yes"?>
<gpx xmlns:gpxtpx1="http://www.garmin.com/xmlschemas/TrackPointExtension/v1" xmlns="http://www.topografix.com/GPX/1/1" xmlns:trp="http://www.garmin.com/xmlschemas/TripExtensions/v1" xmlns:gpxx="http://www.garmin.com/xmlschemas/GpxExtensions/v3" xmlns:gpxtpx="http://www.garmin.com/xmlschemas/TrackPointExtension/v2" version="1.1" creator="RouteConverter 2.29">
    <metadata>
        <name>2023-10-10 14:53</name>
        <link href="https://www.oruxmaps.com">
            <text>OruxMaps</text>
        </link>
        <time>2023-10-12T05:45:50.601Z</time>
        <bounds minlat="47.3199936" minlon="15.3697749" maxlat="47.3264502" maxlon="15.3836576"/>
    </metadata>
    <wpt lat="47.3258983" lon="15.3792461">
        <ele>931.4</ele>
        <time>2023-10-10T15:30:57.000Z</time>
        <name>fon</name>
        <sym>Waypoint</sym>
        <type>Wegpunkt</type>
        <extensions>
            <om:oruxmapsextensions xmlns:om="http://www.oruxmaps.com/oruxmapsextensions/1/0" xmlns:gpxtpx="http://www.garmin.com/xmlschemas/TrackPointExtension/v1" xmlns:xsi="http://www.w3.org/2001/XMLSchema-instance">
                <om:ext subtype="0" type="ICON">1</om:ext>
</om:oruxmapsextensions>
        </extensions>
    </wpt>
    <trk>
        <name>2023-10-10 14:53</name>
        <desc>&lt;p&gt;Startzeit: 10/10/2023 14:54&lt;br/&gt;Zielzeit: 10/10/2023 17:54&lt;br/&gt;Strecke: 4,
8 km (03:00)&lt;br/&gt;Bewegungszeit: 01:22&lt;br/&gt;Ø-Geschwindigkeit: 1,
6 km/h&lt;br/&gt;Netto-Geschwindigkeit: 3,
48 km/h&lt;br/&gt;Max. Geschwindigkeit: 8,
09 km/h&lt;br/&gt;Minimale Höhe: 450 m&lt;br/&gt;Maximale Höhe: 1205 m&lt;br/&gt;Steig-Geschw.: 336,
1 m/h&lt;br/&gt;Sink-Geschw.: -1114 m/h&lt;br/&gt;Aufstieg: 775 m&lt;br/&gt;Abstieg: -776 m&lt;br/&gt;Steigzeit: 02:18&lt;br/&gt;Sinkzeit: 00:41&lt;br/&gt;&lt;/p&gt;&lt;hr align="center" width="480" style="height: 2px; width: 517px"/&gt;</desc>
        <type>Unbestimmt</type>
        <extensions>
            <om:oruxmapsextensions xmlns:om="http://www.oruxmaps.com/oruxmapsextensions/1/0" xmlns:gpxtpx="http://www.garmin.com/xmlschemas/TrackPointExtension/v1" xmlns:xsi="http://www.w3.org/2001/XMLSchema-instance">
                <om:ext subtype="0" type="TYPE">0</om:ext>
                <om:ext type="DIFFICULTY">0</om:ext>
</om:oruxmapsextensions>
        </extensions>
        <trkseg>
            <trkpt lat="47.3215038" lon="15.369949">
                <ele>458.0</ele>
                <time>2023-10-10T12:59:10.000Z</time>
                <name>Position 1</name>
            </trkpt>
            <trkpt lat="47.321588" lon="15.3698886">
                <ele>457.3</ele>
                <time>2023-10-10T12:59:16.000Z</time>
                <name>Position 2</name>
            </trkpt>
            <trkpt lat="47.3215039" lon="15.3699523">
                <ele>458.2</ele>
                <time>2023-10-10T12:59:46.000Z</time>
                <name>Position 3</name>
            </trkpt>
            <trkpt lat="47.3214083" lon="15.3699979">
                <ele>459.2</ele>
                <time>2023-10-10T12:59:54.000Z</time>
                <name>Position 4</name>
            </trkpt>
            <trkpt lat="47.321331" lon="15.3700665">
                <ele>461.3</ele>
                <time>2023-10-10T13:00:02.000Z</time>
                <name>Position 5</name>
            </trkpt>
            <trkpt lat="47.321263" lon="15.3701573">
                <ele>463.3</ele>
                <time>2023-10-10T13:00:10.000Z</time>
                <name>Position 6</name>
            </trkpt>
            <trkpt lat="47.3211981" lon="15.370251">
                <ele>466.6</ele>
                <time>2023-10-10T13:00:23.000Z</time>
                <name>Position 7</name>
            </trkpt>
            <trkpt lat="47.3211565" lon="15.3703769">
                <ele>469.7</ele>
                <time>2023-10-10T13:00:36.000Z</time>
                <name>Position 8</name>
            </trkpt>
            <trkpt lat="47.3211386" lon="15.3705129">
                <ele>472.1</ele>
                <time>2023-10-10T13:00:48.000Z</time>
                <name>Position 9</name>
            </trkpt>
            <trkpt lat="47.3211473" lon="15.3706508">
                <ele>474.7</ele>
                <time>2023-10-10T13:00:58.000Z</time>
                <name>Position 10</name>
            </trkpt>
            <trkpt lat="47.3211876" lon="15.3707779">
                <ele>476.2</ele>
                <time>2023-10-10T13:01:06.000Z</time>
                <name>Position 11</name>
            </trkpt>
            <trkpt lat="47.3212443" lon="15.3708923">
                <ele>479.1</ele>
                <time>2023-10-10T13:01:15.000Z</time>
                <name>Position 12</name>
            </trkpt>
            <trkpt lat="47.3212818" lon="15.3710164">
                <ele>480.9</ele>
                <time>2023-10-10T13:01:23.000Z</time>
                <name>Position 13</name>
            </trkpt>
            <trkpt lat="47.3213136" lon="15.3711438">
                <ele>483.4</ele>
                <time>2023-10-10T13:01:33.000Z</time>
                <name>Position 14</name>
            </trkpt>
            <trkpt lat="47.3213477" lon="15.3712821">
                <ele>485.7</ele>
                <time>2023-10-10T13:01:44.000Z</time>
                <name>Position 15</name>
            </trkpt>
            <trkpt lat="47.3213862" lon="15.3714133">
                <ele>488.3</ele>
                <time>2023-10-10T13:01:54.000Z</time>
                <name>Position 16</name>
            </trkpt>
            <trkpt lat="47.321408" lon="15.3715423">
                <ele>491.2</ele>
                <time>2023-10-10T13:02:04.000Z</time>
                <name>Position 17</name>
            </trkpt>
            <trkpt lat="47.3213342" lon="15.3716329">
                <ele>496.3</ele>
                <time>2023-10-10T13:02:20.000Z</time>
                <name>Position 18</name>
            </trkpt>
            <trkpt lat="47.3212437" lon="15.3716109">
                <ele>500.2</ele>
                <time>2023-10-10T13:02:32.000Z</time>
                <name>Position 19</name>
            </trkpt>
            <trkpt lat="47.3211495" lon="15.3716547">
                <ele>502.7</ele>
                <time>2023-10-10T13:02:43.000Z</time>
                <name>Position 20</name>
            </trkpt>
            <trkpt lat="47.3210743" lon="15.3717391">
                <ele>504.7</ele>
                <time>2023-10-10T13:02:52.000Z</time>
                <name>Position 21</name>
            </trkpt>
            <trkpt lat="47.3210043" lon="15.3718235">
                <ele>506.7</ele>
                <time>2023-10-10T13:03:01.000Z</time>
                <name>Position 22</name>
            </trkpt>
            <trkpt lat="47.3209637" lon="15.3719439">
                <ele>508.3</ele>
                <time>2023-10-10T13:03:10.000Z</time>
                <name>Position 23</name>
            </trkpt>
            <trkpt lat="47.3209123" lon="15.3720804">
                <ele>511.5</ele>
                <time>2023-10-10T13:03:24.000Z</time>
                <name>Position 24</name>
            </trkpt>
            <trkpt lat="47.3208664" lon="15.3722037">
                <ele>512.2</ele>
                <time>2023-10-10T13:03:31.000Z</time>
                <name>Position 25</name>
            </trkpt>
            <trkpt lat="47.3208069" lon="15.3723172">
                <ele>514.6</ele>
                <time>2023-10-10T13:03:41.000Z</time>
                <name>Position 26</name>
            </trkpt>
            <trkpt lat="47.3207396" lon="15.3724194">
                <ele>516.4</ele>
                <time>2023-10-10T13:03:49.000Z</time>
                <name>Position 27</name>
            </trkpt>
            <trkpt lat="47.3206755" lon="15.372526">
                <ele>517.8</ele>
                <time>2023-10-10T13:03:56.000Z</time>
                <name>Position 28</name>
            </trkpt>
            <trkpt lat="47.3205987" lon="15.3726194">
                <ele>520.3</ele>
                <time>2023-10-10T13:04:05.000Z</time>
                <name>Position 29</name>
            </trkpt>
            <trkpt lat="47.3205387" lon="15.3727364">
                <ele>523.4</ele>
                <time>2023-10-10T13:04:16.000Z</time>
                <name>Position 30</name>
            </trkpt>
            <trkpt lat="47.3204798" lon="15.3728501">
                <ele>526.0</ele>
                <time>2023-10-10T13:04:26.000Z</time>
                <name>Position 31</name>
            </trkpt>
            <trkpt lat="47.3204062" lon="15.3729584">
                <ele>528.5</ele>
                <time>2023-10-10T13:04:35.000Z</time>
                <name>Position 32</name>
            </trkpt>
            <trkpt lat="47.3203314" lon="15.3730346">
                <ele>531.1</ele>
                <time>2023-10-10T13:04:45.000Z</time>
                <name>Position 33</name>
            </trkpt>
            <trkpt lat="47.3203062" lon="15.373168">
                <ele>533.4</ele>
                <time>2023-10-10T13:04:57.000Z</time>
                <name>Position 34</name>
            </trkpt>
            <trkpt lat="47.3202335" lon="15.3732598">
                <ele>535.9</ele>
                <time>2023-10-10T13:05:07.000Z</time>
                <name>Position 35</name>
            </trkpt>
            <trkpt lat="47.3201844" lon="15.3733728">
                <ele>537.5</ele>
                <time>2023-10-10T13:05:15.000Z</time>
                <name>Position 36</name>
            </trkpt>
            <trkpt lat="47.3201423" lon="15.3734958">
                <ele>540.0</ele>
                <time>2023-10-10T13:05:23.000Z</time>
                <name>Position 37</name>
            </trkpt>
            <trkpt lat="47.320078" lon="15.3735902">
                <ele>541.6</ele>
                <time>2023-10-10T13:05:33.000Z</time>
                <name>Position 38</name>
            </trkpt>
            <trkpt lat="47.3200319" lon="15.3737069">
                <ele>544.3</ele>
                <time>2023-10-10T13:05:42.000Z</time>
                <name>Position 39</name>
            </trkpt>
            <trkpt lat="47.3199936" lon="15.3738279">
                <ele>546.5</ele>
                <time>2023-10-10T13:05:52.000Z</time>
                <name>Position 40</name>
            </trkpt>
            <trkpt lat="47.3200777" lon="15.3738819">
                <ele>550.8</ele>
                <time>2023-10-10T13:06:07.000Z</time>
                <name>Position 41</name>
            </trkpt>
            <trkpt lat="47.3201669" lon="15.3738629">
                <ele>552.1</ele>
                <time>2023-10-10T13:06:16.000Z</time>
                <name>Position 42</name>
            </trkpt>
            <trkpt lat="47.3202694" lon="15.3738044">
                <ele>556.7</ele>
                <time>2023-10-10T13:06:35.000Z</time>
                <name>Position 43</name>
            </trkpt>
            <trkpt lat="47.3203649" lon="15.3737808">
                <ele>557.8</ele>
                <time>2023-10-10T13:06:43.000Z</time>
                <name>Position 44</name>
            </trkpt>
            <trkpt lat="47.3204594" lon="15.3737821">
                <ele>558.5</ele>
                <time>2023-10-10T13:06:48.000Z</time>
                <name>Position 45</name>
            </trkpt>
            <trkpt lat="47.3205508" lon="15.3737312">
                <ele>559.7</ele>
                <time>2023-10-10T13:06:55.000Z</time>
                <name>Position 46</name>
            </trkpt>
            <trkpt lat="47.32064" lon="15.3737555">
                <ele>563.6</ele>
                <time>2023-10-10T13:07:09.000Z</time>
                <name>Position 47</name>
            </trkpt>
            <trkpt lat="47.3207367" lon="15.3737367">
                <ele>565.3</ele>
                <time>2023-10-10T13:07:19.000Z</time>
                <name>Position 48</name>
            </trkpt>
            <trkpt lat="47.3208352" lon="15.3737583">
                <ele>567.5</ele>
                <time>2023-10-10T13:07:29.000Z</time>
                <name>Position 49</name>
            </trkpt>
            <trkpt lat="47.3209289" lon="15.3737658">
                <ele>570.2</ele>
                <time>2023-10-10T13:07:38.000Z</time>
                <name>Position 50</name>
            </trkpt>
            <trkpt lat="47.3210187" lon="15.3737298">
                <ele>573.3</ele>
                <time>2023-10-10T13:07:48.000Z</time>
                <name>Position 51</name>
            </trkpt>
            <trkpt lat="47.321114" lon="15.373763">
                <ele>576.5</ele>
                <time>2023-10-10T13:08:00.000Z</time>
                <name>Position 52</name>
            </trkpt>
            <trkpt lat="47.3212023" lon="15.3737892">
                <ele>578.5</ele>
                <time>2023-10-10T13:08:09.000Z</time>
                <name>Position 53</name>
            </trkpt>
            <trkpt lat="47.3212981" lon="15.3737831">
                <ele>580.4</ele>
                <time>2023-10-10T13:08:19.000Z</time>
                <name>Position 54</name>
            </trkpt>
            <trkpt lat="47.3213823" lon="15.3738308">
                <ele>583.0</ele>
                <time>2023-10-10T13:08:31.000Z</time>
                <name>Position 55</name>
            </trkpt>
            <trkpt lat="47.321475" lon="15.3738156">
                <ele>586.0</ele>
                <time>2023-10-10T13:08:42.000Z</time>
                <name>Position 56</name>
            </trkpt>
            <trkpt lat="47.3215624" lon="15.3738469">
                <ele>588.9</ele>
                <time>2023-10-10T13:08:55.000Z</time>
                <name>Position 57</name>
            </trkpt>
            <trkpt lat="47.3216579" lon="15.3738616">
                <ele>592.2</ele>
                <time>2023-10-10T13:09:11.000Z</time>
                <name>Position 58</name>
            </trkpt>
            <trkpt lat="47.3217514" lon="15.373854">
                <ele>593.6</ele>
                <time>2023-10-10T13:09:18.000Z</time>
                <name>Position 59</name>
            </trkpt>
            <trkpt lat="47.321848" lon="15.3738463">
                <ele>595.1</ele>
                <time>2023-10-10T13:09:25.000Z</time>
                <name>Position 60</name>
            </trkpt>
            <trkpt lat="47.3219453" lon="15.3738583">
                <ele>596.9</ele>
                <time>2023-10-10T13:09:32.000Z</time>
                <name>Position 61</name>
            </trkpt>
            <trkpt lat="47.322044" lon="15.3738457">
                <ele>599.5</ele>
                <time>2023-10-10T13:09:43.000Z</time>
                <name>Position 62</name>
            </trkpt>
            <trkpt lat="47.3221346" lon="15.3738647">
                <ele>601.5</ele>
                <time>2023-10-10T13:09:53.000Z</time>
                <name>Position 63</name>
            </trkpt>
            <trkpt lat="47.3222383" lon="15.3738833">
                <ele>603.3</ele>
                <time>2023-10-10T13:10:02.000Z</time>
                <name>Position 64</name>
            </trkpt>
            <trkpt lat="47.32232" lon="15.3739744">
                <ele>608.6</ele>
                <time>2023-10-10T13:10:22.000Z</time>
                <name>Position 65</name>
            </trkpt>
            <trkpt lat="47.3224016" lon="15.3740635">
                <ele>610.3</ele>
                <time>2023-10-10T13:10:28.000Z</time>
                <name>Position 66</name>
            </trkpt>
            <trkpt lat="47.3224825" lon="15.3741232">
                <ele>612.7</ele>
                <time>2023-10-10T13:10:37.000Z</time>
                <name>Position 67</name>
            </trkpt>
            <trkpt lat="47.3225626" lon="15.3741908">
                <ele>615.9</ele>
                <time>2023-10-10T13:10:49.000Z</time>
                <name>Position 68</name>
            </trkpt>
            <trkpt lat="47.3226332" lon="15.3742748">
                <ele>620.2</ele>
                <time>2023-10-10T13:11:06.000Z</time>
                <name>Position 69</name>
            </trkpt>
            <trkpt lat="47.3227058" lon="15.3743665">
                <ele>624.3</ele>
                <time>2023-10-10T13:11:19.000Z</time>
                <name>Position 70</name>
            </trkpt>
            <trkpt lat="47.3228037" lon="15.3744136">
                <ele>625.4</ele>
                <time>2023-10-10T13:11:26.000Z</time>
                <name>Position 71</name>
            </trkpt>
            <trkpt lat="47.3228922" lon="15.3743852">
                <ele>625.5</ele>
                <time>2023-10-10T13:11:31.000Z</time>
                <name>Position 72</name>
            </trkpt>
            <trkpt lat="47.3230004" lon="15.3743585">
                <ele>625.7</ele>
                <time>2023-10-10T13:11:37.000Z</time>
                <name>Position 73</name>
            </trkpt>
            <trkpt lat="47.3230845" lon="15.3743099">
                <ele>625.9</ele>
                <time>2023-10-10T13:11:42.000Z</time>
                <name>Position 74</name>
            </trkpt>
            <trkpt lat="47.3231721" lon="15.374245">
                <ele>626.5</ele>
                <time>2023-10-10T13:11:48.000Z</time>
                <name>Position 75</name>
            </trkpt>
            <trkpt lat="47.3232468" lon="15.3741695">
                <ele>626.8</ele>
                <time>2023-10-10T13:11:54.000Z</time>
                <name>Position 76</name>
            </trkpt>
            <trkpt lat="47.3233246" lon="15.3740973">
                <ele>627.0</ele>
                <time>2023-10-10T13:12:00.000Z</time>
                <name>Position 77</name>
            </trkpt>
            <trkpt lat="47.3233996" lon="15.374013">
                <ele>627.4</ele>
                <time>2023-10-10T13:12:06.000Z</time>
                <name>Position 78</name>
            </trkpt>
            <trkpt lat="47.3234776" lon="15.3739244">
                <ele>628.2</ele>
                <time>2023-10-10T13:12:12.000Z</time>
                <name>Position 79</name>
            </trkpt>
            <trkpt lat="47.3235424" lon="15.3738285">
                <ele>628.4</ele>
                <time>2023-10-10T13:12:18.000Z</time>
                <name>Position 80</name>
            </trkpt>
            <trkpt lat="47.3235988" lon="15.3737113">
                <ele>628.4</ele>
                <time>2023-10-10T13:12:25.000Z</time>
                <name>Position 81</name>
            </trkpt>
            <trkpt lat="47.3236773" lon="15.3736171">
                <ele>628.5</ele>
                <time>2023-10-10T13:12:33.000Z</time>
                <name>Position 82</name>
            </trkpt>
            <trkpt lat="47.3237684" lon="15.373583">
                <ele>628.1</ele>
                <time>2023-10-10T13:12:40.000Z</time>
                <name>Position 83</name>
            </trkpt>
            <trkpt lat="47.323835" lon="15.3736913">
                <ele>630.7</ele>
                <time>2023-10-10T13:12:47.000Z</time>
                <name>Position 84</name>
            </trkpt>
            <trkpt lat="47.3238801" lon="15.3738146">
                <ele>633.2</ele>
                <time>2023-10-10T13:12:57.000Z</time>
                <name>Position 85</name>
            </trkpt>
            <trkpt lat="47.3239665" lon="15.3738764">
                <ele>635.7</ele>
                <time>2023-10-10T13:13:08.000Z</time>
                <name>Position 86</name>
            </trkpt>
            <trkpt lat="47.3240547" lon="15.3739025">
                <ele>639.1</ele>
                <time>2023-10-10T13:13:25.000Z</time>
                <name>Position 87</name>
            </trkpt>
            <trkpt lat="47.3241477" lon="15.3739245">
                <ele>643.6</ele>
                <time>2023-10-10T13:13:42.000Z</time>
                <name>Position 88</name>
            </trkpt>
            <trkpt lat="47.3242375" lon="15.3739509">
                <ele>647.5</ele>
                <time>2023-10-10T13:13:57.000Z</time>
                <name>Position 89</name>
            </trkpt>
            <trkpt lat="47.3243287" lon="15.3740103">
                <ele>651.0</ele>
                <time>2023-10-10T13:14:10.000Z</time>
                <name>Position 90</name>
            </trkpt>
            <trkpt lat="47.3244343" lon="15.3740403">
                <ele>656.0</ele>
                <time>2023-10-10T13:14:31.000Z</time>
                <name>Position 91</name>
            </trkpt>
            <trkpt lat="47.3245315" lon="15.3740689">
                <ele>658.5</ele>
                <time>2023-10-10T13:14:40.000Z</time>
                <name>Position 92</name>
            </trkpt>
            <trkpt lat="47.3246218" lon="15.3741289">
                <ele>661.4</ele>
                <time>2023-10-10T13:14:52.000Z</time>
                <name>Position 93</name>
            </trkpt>
            <trkpt lat="47.3246358" lon="15.3742715">
                <ele>666.7</ele>
                <time>2023-10-10T13:15:14.000Z</time>
                <name>Position 94</name>
            </trkpt>
            <trkpt lat="47.3245977" lon="15.3744182">
                <ele>673.1</ele>
                <time>2023-10-10T13:15:42.000Z</time>
                <name>Position 95</name>
            </trkpt>
            <trkpt lat="47.3245364" lon="15.3745229">
                <ele>675.4</ele>
                <time>2023-10-10T13:15:59.000Z</time>
                <name>Position 96</name>
            </trkpt>
            <trkpt lat="47.3244754" lon="15.3746272">
                <ele>680.6</ele>
                <time>2023-10-10T13:16:16.000Z</time>
                <name>Position 97</name>
            </trkpt>
            <trkpt lat="47.3244049" lon="15.3747142">
                <ele>682.4</ele>
                <time>2023-10-10T13:16:24.000Z</time>
                <name>Position 98</name>
            </trkpt>
            <trkpt lat="47.3243416" lon="15.3748341">
                <ele>684.6</ele>
                <time>2023-10-10T13:16:32.000Z</time>
                <name>Position 99</name>
            </trkpt>
            <trkpt lat="47.324285" lon="15.3749397">
                <ele>689.9</ele>
                <time>2023-10-10T13:16:52.000Z</time>
                <name>Position 100</name>
            </trkpt>
            <trkpt lat="47.3242522" lon="15.3750818">
                <ele>693.9</ele>
                <time>2023-10-10T13:17:08.000Z</time>
                <name>Position 101</name>
            </trkpt>
            <trkpt lat="47.3242407" lon="15.3752243">
                <ele>695.7</ele>
                <time>2023-10-10T13:17:18.000Z</time>
                <name>Position 102</name>
            </trkpt>
            <trkpt lat="47.3242479" lon="15.375357">
                <ele>700.1</ele>
                <time>2023-10-10T13:17:34.000Z</time>
                <name>Position 103</name>
            </trkpt>
            <trkpt lat="47.3243103" lon="15.3754617">
                <ele>703.7</ele>
                <time>2023-10-10T13:17:52.000Z</time>
                <name>Position 104</name>
            </trkpt>
            <trkpt lat="47.3244076" lon="15.3754801">
                <ele>708.5</ele>
                <time>2023-10-10T13:18:10.000Z</time>
                <name>Position 105</name>
            </trkpt>
            <trkpt lat="47.3245039" lon="15.3754757">
                <ele>710.5</ele>
                <time>2023-10-10T13:18:19.000Z</time>
                <name>Position 106</name>
            </trkpt>
            <trkpt lat="47.3245931" lon="15.3754549">
                <ele>714.6</ele>
                <time>2023-10-10T13:18:36.000Z</time>
                <name>Position 107</name>
            </trkpt>
            <trkpt lat="47.3246834" lon="15.3754898">
                <ele>718.3</ele>
                <time>2023-10-10T13:18:53.000Z</time>
                <name>Position 108</name>
            </trkpt>
            <trkpt lat="47.324769" lon="15.3755414">
                <ele>720.8</ele>
                <time>2023-10-10T13:19:06.000Z</time>
                <name>Position 109</name>
            </trkpt>
            <trkpt lat="47.3248648" lon="15.3755683">
                <ele>723.0</ele>
                <time>2023-10-10T13:19:15.000Z</time>
                <name>Position 110</name>
            </trkpt>
            <trkpt lat="47.3249582" lon="15.3755697">
                <ele>725.6</ele>
                <time>2023-10-10T13:19:27.000Z</time>
                <name>Position 111</name>
            </trkpt>
            <trkpt lat="47.3250529" lon="15.375572">
                <ele>728.9</ele>
                <time>2023-10-10T13:19:41.000Z</time>
                <name>Position 112</name>
            </trkpt>
            <trkpt lat="47.3251418" lon="15.3755381">
                <ele>731.1</ele>
                <time>2023-10-10T13:19:52.000Z</time>
                <name>Position 113</name>
            </trkpt>
            <trkpt lat="47.3252397" lon="15.3755418">
                <ele>736.2</ele>
                <time>2023-10-10T13:20:15.000Z</time>
                <name>Position 114</name>
            </trkpt>
            <trkpt lat="47.3252865" lon="15.37566">
                <ele>738.7</ele>
                <time>2023-10-10T13:20:25.000Z</time>
                <name>Position 115</name>
            </trkpt>
            <trkpt lat="47.32537" lon="15.3757217">
                <ele>742.6</ele>
                <time>2023-10-10T13:20:42.000Z</time>
                <name>Position 116</name>
            </trkpt>
            <trkpt lat="47.3254521" lon="15.375786">
                <ele>746.0</ele>
                <time>2023-10-10T13:20:53.000Z</time>
                <name>Position 117</name>
            </trkpt>
            <trkpt lat="47.325518" lon="15.3758808">
                <ele>748.9</ele>
                <time>2023-10-10T13:21:04.000Z</time>
                <name>Position 118</name>
            </trkpt>
            <trkpt lat="47.3255952" lon="15.375973">
                <ele>748.8</ele>
                <time>2023-10-10T13:21:13.000Z</time>
                <name>Position 119</name>
            </trkpt>
            <trkpt lat="47.325682" lon="15.3760315">
                <ele>749.5</ele>
                <time>2023-10-10T13:21:21.000Z</time>
                <name>Position 120</name>
            </trkpt>
            <trkpt lat="47.3257511" lon="15.376125">
                <ele>753.4</ele>
                <time>2023-10-10T13:21:36.000Z</time>
                <name>Position 121</name>
            </trkpt>
            <trkpt lat="47.3257933" lon="15.3762547">
                <ele>755.5</ele>
                <time>2023-10-10T13:21:46.000Z</time>
                <name>Position 122</name>
            </trkpt>
            <trkpt lat="47.325846" lon="15.3763847">
                <ele>757.5</ele>
                <time>2023-10-10T13:22:02.000Z</time>
                <name>Position 123</name>
            </trkpt>
            <trkpt lat="47.3259151" lon="15.3764699">
                <ele>764.8</ele>
                <time>2023-10-10T13:22:30.000Z</time>
                <name>Position 124</name>
            </trkpt>
            <trkpt lat="47.3259808" lon="15.3765717">
                <ele>767.7</ele>
                <time>2023-10-10T13:22:41.000Z</time>
                <name>Position 125</name>
            </trkpt>
            <trkpt lat="47.3260037" lon="15.3767015">
                <ele>775.7</ele>
                <time>2023-10-10T13:23:14.000Z</time>
                <name>Position 126</name>
            </trkpt>
            <trkpt lat="47.3260304" lon="15.3768308">
                <ele>781.2</ele>
                <time>2023-10-10T13:23:36.000Z</time>
                <name>Position 127</name>
            </trkpt>
            <trkpt lat="47.3260427" lon="15.3769676">
                <ele>787.0</ele>
                <time>2023-10-10T13:24:03.000Z</time>
                <name>Position 128</name>
            </trkpt>
            <trkpt lat="47.3259519" lon="15.3769931">
                <ele>790.4</ele>
                <time>2023-10-10T13:24:23.000Z</time>
                <name>Position 129</name>
            </trkpt>
            <trkpt lat="47.3258571" lon="15.3769484">
                <ele>791.8</ele>
                <time>2023-10-10T13:24:34.000Z</time>
                <name>Position 130</name>
            </trkpt>
            <trkpt lat="47.3257904" lon="15.376859">
                <ele>793.8</ele>
                <time>2023-10-10T13:24:45.000Z</time>
                <name>Position 131</name>
            </trkpt>
            <trkpt lat="47.325702" lon="15.3768969">
                <ele>799.8</ele>
                <time>2023-10-10T13:25:12.000Z</time>
                <name>Position 132</name>
            </trkpt>
            <trkpt lat="47.3256088" lon="15.3769475">
                <ele>808.9</ele>
                <time>2023-10-10T13:25:50.000Z</time>
                <name>Position 133</name>
            </trkpt>
            <trkpt lat="47.3255144" lon="15.3769252">
                <ele>811.0</ele>
                <time>2023-10-10T13:26:00.000Z</time>
                <name>Position 134</name>
            </trkpt>
            <trkpt lat="47.3254229" lon="15.3768996">
                <ele>814.1</ele>
                <time>2023-10-10T13:26:15.000Z</time>
                <name>Position 135</name>
            </trkpt>
            <trkpt lat="47.3253368" lon="15.3769669">
                <ele>816.8</ele>
                <time>2023-10-10T13:26:27.000Z</time>
                <name>Position 136</name>
            </trkpt>
            <trkpt lat="47.3252753" lon="15.3770666">
                <ele>820.0</ele>
                <time>2023-10-10T13:26:43.000Z</time>
                <name>Position 137</name>
            </trkpt>
            <trkpt lat="47.3252483" lon="15.3772035">
                <ele>822.9</ele>
                <time>2023-10-10T13:26:56.000Z</time>
                <name>Position 138</name>
            </trkpt>
            <trkpt lat="47.3252812" lon="15.3773465">
                <ele>827.2</ele>
                <time>2023-10-10T13:27:19.000Z</time>
                <name>Position 139</name>
            </trkpt>
            <trkpt lat="47.3253067" lon="15.3774842">
                <ele>829.0</ele>
                <time>2023-10-10T13:27:29.000Z</time>
                <name>Position 140</name>
            </trkpt>
            <trkpt lat="47.3253055" lon="15.3776223">
                <ele>832.4</ele>
                <time>2023-10-10T13:28:01.000Z</time>
                <name>Position 141</name>
            </trkpt>
            <trkpt lat="47.3253512" lon="15.3777408">
                <ele>835.6</ele>
                <time>2023-10-10T13:28:15.000Z</time>
                <name>Position 142</name>
            </trkpt>
            <trkpt lat="47.3253991" lon="15.3778582">
                <ele>841.8</ele>
                <time>2023-10-10T13:28:40.000Z</time>
                <name>Position 143</name>
            </trkpt>
            <trkpt lat="47.3254224" lon="15.3779866">
                <ele>853.1</ele>
                <time>2023-10-10T13:29:27.000Z</time>
                <name>Position 144</name>
            </trkpt>
            <trkpt lat="47.3254623" lon="15.3781059">
                <ele>857.8</ele>
                <time>2023-10-10T13:29:47.000Z</time>
                <name>Position 145</name>
            </trkpt>
            <trkpt lat="47.3254262" lon="15.3782292">
                <ele>864.8</ele>
                <time>2023-10-10T13:30:18.000Z</time>
                <name>Position 146</name>
            </trkpt>
            <trkpt lat="47.3254639" lon="15.378352">
                <ele>872.1</ele>
                <time>2023-10-10T13:30:49.000Z</time>
                <name>Position 147</name>
            </trkpt>
            <trkpt lat="47.325542" lon="15.3784283">
                <ele>875.8</ele>
                <time>2023-10-10T13:31:11.000Z</time>
                <name>Position 148</name>
            </trkpt>
            <trkpt lat="47.325613" lon="15.3785108">
                <ele>881.9</ele>
                <time>2023-10-10T13:31:36.000Z</time>
                <name>Position 149</name>
            </trkpt>
            <trkpt lat="47.3255376" lon="15.3785906">
                <ele>891.9</ele>
                <time>2023-10-10T13:32:31.000Z</time>
                <name>Position 150</name>
            </trkpt>
            <trkpt lat="47.325586" lon="15.3787065">
                <ele>895.2</ele>
                <time>2023-10-10T13:32:54.000Z</time>
                <name>Position 151</name>
            </trkpt>
            <trkpt lat="47.325659" lon="15.3788023">
                <ele>899.0</ele>
                <time>2023-10-10T13:33:09.000Z</time>
                <name>Position 152</name>
            </trkpt>
            <trkpt lat="47.3256681" lon="15.3789349">
                <ele>907.7</ele>
                <time>2023-10-10T13:34:09.000Z</time>
                <name>Position 153</name>
            </trkpt>
            <trkpt lat="47.325747" lon="15.3790031">
                <ele>910.7</ele>
                <time>2023-10-10T13:34:24.000Z</time>
                <name>Position 154</name>
            </trkpt>
            <trkpt lat="47.3258047" lon="15.379107">
                <ele>914.9</ele>
                <time>2023-10-10T13:34:44.000Z</time>
                <name>Position 155</name>
            </trkpt>
            <trkpt lat="47.325858" lon="15.3792154">
                <ele>918.7</ele>
                <time>2023-10-10T13:35:33.000Z</time>
                <name>Position 156</name>
            </trkpt>
            <trkpt lat="47.3259234" lon="15.379312">
                <ele>929.2</ele>
                <time>2023-10-10T13:36:25.000Z</time>
                <name>Position 157</name>
            </trkpt>
            <trkpt lat="47.3259302" lon="15.379449">
                <ele>934.2</ele>
                <time>2023-10-10T13:36:53.000Z</time>
                <name>Position 158</name>
            </trkpt>
            <trkpt lat="47.3258868" lon="15.3793246">
                <ele>934.9</ele>
                <time>2023-10-10T13:39:57.000Z</time>
                <name>Position 159</name>
            </trkpt>
            <trkpt lat="47.3259458" lon="15.379426">
                <ele>947.0</ele>
                <time>2023-10-10T13:41:27.000Z</time>
                <name>Position 160</name>
            </trkpt>
            <trkpt lat="47.3259694" lon="15.3795546">
                <ele>954.0</ele>
                <time>2023-10-10T13:42:38.000Z</time>
                <name>Position 161</name>
            </trkpt>
            <trkpt lat="47.3260494" lon="15.3796173">
                <ele>958.0</ele>
                <time>2023-10-10T13:45:16.000Z</time>
                <name>Position 162</name>
            </trkpt>
            <trkpt lat="47.3261378" lon="15.3796643">
                <ele>962.1</ele>
                <time>2023-10-10T13:45:50.000Z</time>
                <name>Position 163</name>
            </trkpt>
            <trkpt lat="47.3262103" lon="15.379576">
                <ele>965.8</ele>
                <time>2023-10-10T13:47:48.000Z</time>
                <name>Position 164</name>
            </trkpt>
            <trkpt lat="47.3262969" lon="15.3795288">
                <ele>970.1</ele>
                <time>2023-10-10T13:48:10.000Z</time>
                <name>Position 165</name>
            </trkpt>
            <trkpt lat="47.3263877" lon="15.3795327">
                <ele>972.9</ele>
                <time>2023-10-10T13:48:44.000Z</time>
                <name>Position 166</name>
            </trkpt>
            <trkpt lat="47.3264502" lon="15.3796295">
                <ele>993.2</ele>
                <time>2023-10-10T13:52:30.000Z</time>
                <name>Position 167</name>
            </trkpt>
            <trkpt lat="47.3263608" lon="15.3796448">
                <ele>1000.4</ele>
                <time>2023-10-10T13:54:30.000Z</time>
                <name>Position 168</name>
            </trkpt>
            <trkpt lat="47.3263468" lon="15.3797805">
                <ele>1008.4</ele>
                <time>2023-10-10T13:55:32.000Z</time>
                <name>Position 169</name>
            </trkpt>
            <trkpt lat="47.3263756" lon="15.379907">
                <ele>1018.8</ele>
                <time>2023-10-10T14:01:48.000Z</time>
                <name>Position 170</name>
            </trkpt>
            <trkpt lat="47.3264144" lon="15.3800353">
                <ele>1025.0</ele>
                <time>2023-10-10T14:09:27.000Z</time>
                <name>Position 171</name>
            </trkpt>
            <trkpt lat="47.3263792" lon="15.3799013">
                <ele>1023.0</ele>
                <time>2023-10-10T14:09:43.000Z</time>
                <name>Position 172</name>
            </trkpt>
            <trkpt lat="47.3263706" lon="15.3800391">
                <ele>1029.0</ele>
                <time>2023-10-10T14:11:12.000Z</time>
                <name>Position 173</name>
            </trkpt>
            <trkpt lat="47.3263535" lon="15.3801725">
                <ele>1042.5</ele>
                <time>2023-10-10T14:13:54.000Z</time>
                <name>Position 174</name>
            </trkpt>
            <trkpt lat="47.3262626" lon="15.3801829">
                <ele>1054.3</ele>
                <time>2023-10-10T14:16:31.000Z</time>
                <name>Position 175</name>
            </trkpt>
            <trkpt lat="47.3261691" lon="15.3802057">
                <ele>1054.9</ele>
                <time>2023-10-10T14:17:14.000Z</time>
                <name>Position 176</name>
            </trkpt>
            <trkpt lat="47.3260802" lon="15.380236">
                <ele>1072.1</ele>
                <time>2023-10-10T14:21:23.000Z</time>
                <name>Position 177</name>
            </trkpt>
            <trkpt lat="47.3260637" lon="15.3803666">
                <ele>1078.6</ele>
                <time>2023-10-10T14:22:53.000Z</time>
                <name>Position 178</name>
            </trkpt>
            <trkpt lat="47.3261281" lon="15.3802736">
                <ele>1077.9</ele>
                <time>2023-10-10T14:23:54.000Z</time>
                <name>Position 179</name>
            </trkpt>
            <trkpt lat="47.326087" lon="15.3804035">
                <ele>1078.4</ele>
                <time>2023-10-10T14:24:59.000Z</time>
                <name>Position 180</name>
            </trkpt>
            <trkpt lat="47.3260115" lon="15.3804818">
                <ele>1079.2</ele>
                <time>2023-10-10T14:25:48.000Z</time>
                <name>Position 181</name>
            </trkpt>
            <trkpt lat="47.3260852" lon="15.3804037">
                <ele>1078.5</ele>
                <time>2023-10-10T14:27:11.000Z</time>
                <name>Position 182</name>
            </trkpt>
            <trkpt lat="47.326003" lon="15.380469">
                <ele>1079.7</ele>
                <time>2023-10-10T14:29:19.000Z</time>
                <name>Position 183</name>
            </trkpt>
            <trkpt lat="47.3259413" lon="15.3805675">
                <ele>1086.0</ele>
                <time>2023-10-10T14:30:04.000Z</time>
                <name>Position 184</name>
            </trkpt>
            <trkpt lat="47.3258605" lon="15.3806325">
                <ele>1103.8</ele>
                <time>2023-10-10T14:33:22.000Z</time>
                <name>Position 185</name>
            </trkpt>
            <trkpt lat="47.3257877" lon="15.3807124">
                <ele>1112.9</ele>
                <time>2023-10-10T14:34:15.000Z</time>
                <name>Position 186</name>
            </trkpt>
            <trkpt lat="47.3257732" lon="15.3808449">
                <ele>1116.0</ele>
                <time>2023-10-10T14:38:00.000Z</time>
                <name>Position 187</name>
            </trkpt>
            <trkpt lat="47.3258626" lon="15.3808253">
                <ele>1117.1</ele>
                <time>2023-10-10T14:38:21.000Z</time>
                <name>Position 188</name>
            </trkpt>
            <trkpt lat="47.3259272" lon="15.3807227">
                <ele>1121.3</ele>
                <time>2023-10-10T14:38:35.000Z</time>
                <name>Position 189</name>
            </trkpt>
            <trkpt lat="47.32594" lon="15.3808584">
                <ele>1124.4</ele>
                <time>2023-10-10T14:39:39.000Z</time>
                <name>Position 190</name>
            </trkpt>
            <trkpt lat="47.3258574" lon="15.3809128">
                <ele>1138.0</ele>
                <time>2023-10-10T14:42:14.000Z</time>
                <name>Position 191</name>
            </trkpt>
            <trkpt lat="47.325801" lon="15.3808013">
                <ele>1141.5</ele>
                <time>2023-10-10T14:43:09.000Z</time>
                <name>Position 192</name>
            </trkpt>
            <trkpt lat="47.3257143" lon="15.380754">
                <ele>1141.2</ele>
                <time>2023-10-10T14:43:22.000Z</time>
                <name>Position 193</name>
            </trkpt>
            <trkpt lat="47.325775" lon="15.3808618">
                <ele>1141.2</ele>
                <time>2023-10-10T14:43:46.000Z</time>
                <name>Position 194</name>
            </trkpt>
            <trkpt lat="47.3258605" lon="15.3809042">
                <ele>1155.8</ele>
                <time>2023-10-10T14:47:53.000Z</time>
                <name>Position 195</name>
            </trkpt>
            <trkpt lat="47.3257855" lon="15.3809793">
                <ele>1163.4</ele>
                <time>2023-10-10T14:48:41.000Z</time>
                <name>Position 196</name>
            </trkpt>
            <trkpt lat="47.3258591" lon="15.3810589">
                <ele>1178.4</ele>
                <time>2023-10-10T14:56:36.000Z</time>
                <name>Position 197</name>
            </trkpt>
            <trkpt lat="47.3259124" lon="15.3811715">
                <ele>1179.3</ele>
                <time>2023-10-10T14:58:09.000Z</time>
                <name>Position 198</name>
            </trkpt>
            <trkpt lat="47.3258517" lon="15.381064">
                <ele>1178.9</ele>
                <time>2023-10-10T14:59:54.000Z</time>
                <name>Position 199</name>
            </trkpt>
            <trkpt lat="47.3258945" lon="15.3811827">
                <ele>1179.0</ele>
                <time>2023-10-10T15:01:08.000Z</time>
                <name>Position 200</name>
            </trkpt>
            <trkpt lat="47.3259195" lon="15.3813116">
                <ele>1182.9</ele>
                <time>2023-10-10T15:11:52.000Z</time>
                <name>Position 201</name>
            </trkpt>
            <trkpt lat="47.3258372" lon="15.3813728">
                <ele>1190.2</ele>
                <time>2023-10-10T15:12:23.000Z</time>
                <name>Position 202</name>
            </trkpt>
            <trkpt lat="47.32588" lon="15.3814958">
                <ele>1195.2</ele>
                <time>2023-10-10T15:12:43.000Z</time>
                <name>Position 203</name>
            </trkpt>
            <trkpt lat="47.3259567" lon="15.3815764">
                <ele>1197.8</ele>
                <time>2023-10-10T15:12:59.000Z</time>
                <name>Position 204</name>
            </trkpt>
            <trkpt lat="47.3259933" lon="15.3817032">
                <ele>1199.8</ele>
                <time>2023-10-10T15:13:16.000Z</time>
                <name>Position 205</name>
            </trkpt>
            <trkpt lat="47.3259652" lon="15.3818324">
                <ele>1196.4</ele>
                <time>2023-10-10T15:13:35.000Z</time>
                <name>Position 206</name>
            </trkpt>
            <trkpt lat="47.3259744" lon="15.3819647">
                <ele>1196.2</ele>
                <time>2023-10-10T15:13:44.000Z</time>
                <name>Position 207</name>
            </trkpt>
            <trkpt lat="47.3259909" lon="15.3821072">
                <ele>1201.0</ele>
                <time>2023-10-10T15:14:04.000Z</time>
                <name>Position 208</name>
            </trkpt>
            <trkpt lat="47.3260144" lon="15.3822407">
                <ele>1201.8</ele>
                <time>2023-10-10T15:14:12.000Z</time>
                <name>Position 209</name>
            </trkpt>
            <trkpt lat="47.3260782" lon="15.3823353">
                <ele>1201.6</ele>
                <time>2023-10-10T15:14:20.000Z</time>
                <name>Position 210</name>
            </trkpt>
            <trkpt lat="47.3261367" lon="15.3824421">
                <ele>1201.9</ele>
                <time>2023-10-10T15:14:29.000Z</time>
                <name>Position 211</name>
            </trkpt>
            <trkpt lat="47.3261774" lon="15.382565">
                <ele>1203.2</ele>
                <time>2023-10-10T15:14:37.000Z</time>
                <name>Position 212</name>
            </trkpt>
            <trkpt lat="47.3262181" lon="15.382706">
                <ele>1203.7</ele>
                <time>2023-10-10T15:14:49.000Z</time>
                <name>Position 213</name>
            </trkpt>
            <trkpt lat="47.3262364" lon="15.3828378">
                <ele>1205.6</ele>
                <time>2023-10-10T15:14:59.000Z</time>
                <name>Position 214</name>
            </trkpt>
            <trkpt lat="47.3262792" lon="15.382965">
                <ele>1203.6</ele>
                <time>2023-10-10T15:15:14.000Z</time>
                <name>Position 215</name>
            </trkpt>
            <trkpt lat="47.3263521" lon="15.3830524">
                <ele>1198.4</ele>
                <time>2023-10-10T15:15:28.000Z</time>
                <name>Position 216</name>
            </trkpt>
            <trkpt lat="47.3263879" lon="15.3831786">
                <ele>1197.3</ele>
                <time>2023-10-10T15:15:38.000Z</time>
                <name>Position 217</name>
            </trkpt>
            <trkpt lat="47.3263963" lon="15.383317">
                <ele>1197.2</ele>
                <time>2023-10-10T15:15:53.000Z</time>
                <name>Position 218</name>
            </trkpt>
            <trkpt lat="47.3263838" lon="15.3834516">
                <ele>1198.2</ele>
                <time>2023-10-10T15:16:03.000Z</time>
                <name>Position 219</name>
            </trkpt>
            <trkpt lat="47.326319" lon="15.3835649">
                <ele>1199.1</ele>
                <time>2023-10-10T15:16:11.000Z</time>
                <name>Position 220</name>
            </trkpt>
            <trkpt lat="47.3262454" lon="15.3836576">
                <ele>1199.9</ele>
                <time>2023-10-10T15:16:55.000Z</time>
                <name>Position 221</name>
            </trkpt>
            <trkpt lat="47.3262154" lon="15.3835237">
                <ele>1200.1</ele>
                <time>2023-10-10T15:17:03.000Z</time>
                <name>Position 222</name>
            </trkpt>
            <trkpt lat="47.3261654" lon="15.3834036">
                <ele>1196.9</ele>
                <time>2023-10-10T15:17:12.000Z</time>
                <name>Position 223</name>
            </trkpt>
            <trkpt lat="47.3260763" lon="15.3833647">
                <ele>1187.6</ele>
                <time>2023-10-10T15:17:38.000Z</time>
                <name>Position 224</name>
            </trkpt>
            <trkpt lat="47.3260155" lon="15.3832566">
                <ele>1181.0</ele>
                <time>2023-10-10T15:17:53.000Z</time>
                <name>Position 225</name>
            </trkpt>
            <trkpt lat="47.3259606" lon="15.3831369">
                <ele>1169.1</ele>
                <time>2023-10-10T15:18:21.000Z</time>
                <name>Position 226</name>
            </trkpt>
            <trkpt lat="47.3258727" lon="15.3831656">
                <ele>1161.5</ele>
                <time>2023-10-10T15:18:43.000Z</time>
                <name>Position 227</name>
            </trkpt>
            <trkpt lat="47.3257824" lon="15.383138">
                <ele>1155.3</ele>
                <time>2023-10-10T15:18:56.000Z</time>
                <name>Position 228</name>
            </trkpt>
            <trkpt lat="47.325691" lon="15.3831714">
                <ele>1149.5</ele>
                <time>2023-10-10T15:19:15.000Z</time>
                <name>Position 229</name>
            </trkpt>
            <trkpt lat="47.3256014" lon="15.3831904">
                <ele>1144.4</ele>
                <time>2023-10-10T15:19:34.000Z</time>
                <name>Position 230</name>
            </trkpt>
            <trkpt lat="47.3255061" lon="15.3832012">
                <ele>1138.7</ele>
                <time>2023-10-10T15:19:48.000Z</time>
                <name>Position 231</name>
            </trkpt>
            <trkpt lat="47.3254194" lon="15.3831616">
                <ele>1136.9</ele>
                <time>2023-10-10T15:19:55.000Z</time>
                <name>Position 232</name>
            </trkpt>
            <trkpt lat="47.325424" lon="15.3830142">
                <ele>1132.9</ele>
                <time>2023-10-10T15:20:08.000Z</time>
                <name>Position 233</name>
            </trkpt>
            <trkpt lat="47.3254913" lon="15.3829112">
                <ele>1129.5</ele>
                <time>2023-10-10T15:20:18.000Z</time>
                <name>Position 234</name>
            </trkpt>
            <trkpt lat="47.3254126" lon="15.3828287">
                <ele>1125.4</ele>
                <time>2023-10-10T15:20:46.000Z</time>
                <name>Position 235</name>
            </trkpt>
            <trkpt lat="47.3253865" lon="15.3826906">
                <ele>1118.7</ele>
                <time>2023-10-10T15:21:05.000Z</time>
                <name>Position 236</name>
            </trkpt>
            <trkpt lat="47.325335" lon="15.3825774">
                <ele>1111.3</ele>
                <time>2023-10-10T15:21:22.000Z</time>
                <name>Position 237</name>
            </trkpt>
            <trkpt lat="47.3254034" lon="15.382489">
                <ele>1107.8</ele>
                <time>2023-10-10T15:21:34.000Z</time>
                <name>Position 238</name>
            </trkpt>
            <trkpt lat="47.3253424" lon="15.382386">
                <ele>1099.9</ele>
                <time>2023-10-10T15:21:56.000Z</time>
                <name>Position 239</name>
            </trkpt>
            <trkpt lat="47.3253257" lon="15.3822444">
                <ele>1088.2</ele>
                <time>2023-10-10T15:22:24.000Z</time>
                <name>Position 240</name>
            </trkpt>
            <trkpt lat="47.3253245" lon="15.3821074">
                <ele>1084.6</ele>
                <time>2023-10-10T15:22:35.000Z</time>
                <name>Position 241</name>
            </trkpt>
            <trkpt lat="47.3253092" lon="15.3819705">
                <ele>1078.4</ele>
                <time>2023-10-10T15:22:51.000Z</time>
                <name>Position 242</name>
            </trkpt>
            <trkpt lat="47.3252586" lon="15.3818416">
                <ele>1074.4</ele>
                <time>2023-10-10T15:23:03.000Z</time>
                <name>Position 243</name>
            </trkpt>
            <trkpt lat="47.3251825" lon="15.3817473">
                <ele>1064.2</ele>
                <time>2023-10-10T15:23:26.000Z</time>
                <name>Position 244</name>
            </trkpt>
            <trkpt lat="47.3252331" lon="15.3816321">
                <ele>1059.3</ele>
                <time>2023-10-10T15:23:38.000Z</time>
                <name>Position 245</name>
            </trkpt>
            <trkpt lat="47.3251561" lon="15.381561">
                <ele>1055.6</ele>
                <time>2023-10-10T15:23:47.000Z</time>
                <name>Position 246</name>
            </trkpt>
            <trkpt lat="47.32509" lon="15.3814607">
                <ele>1047.0</ele>
                <time>2023-10-10T15:24:08.000Z</time>
                <name>Position 247</name>
            </trkpt>
            <trkpt lat="47.3251368" lon="15.3813407">
                <ele>1040.4</ele>
                <time>2023-10-10T15:24:27.000Z</time>
                <name>Position 248</name>
            </trkpt>
            <trkpt lat="47.3250843" lon="15.3812296">
                <ele>1037.5</ele>
                <time>2023-10-10T15:24:50.000Z</time>
                <name>Position 249</name>
            </trkpt>
            <trkpt lat="47.3250061" lon="15.3811533">
                <ele>1030.1</ele>
                <time>2023-10-10T15:25:06.000Z</time>
                <name>Position 250</name>
            </trkpt>
            <trkpt lat="47.3250335" lon="15.3810186">
                <ele>1022.0</ele>
                <time>2023-10-10T15:25:24.000Z</time>
                <name>Position 251</name>
            </trkpt>
            <trkpt lat="47.3250366" lon="15.3808845">
                <ele>1015.2</ele>
                <time>2023-10-10T15:25:41.000Z</time>
                <name>Position 252</name>
            </trkpt>
            <trkpt lat="47.3249514" lon="15.3808234">
                <ele>1008.6</ele>
                <time>2023-10-10T15:25:54.000Z</time>
                <name>Position 253</name>
            </trkpt>
            <trkpt lat="47.3248704" lon="15.3807627">
                <ele>1005.4</ele>
                <time>2023-10-10T15:26:02.000Z</time>
                <name>Position 254</name>
            </trkpt>
            <trkpt lat="47.3248291" lon="15.3806382">
                <ele>997.7</ele>
                <time>2023-10-10T15:26:19.000Z</time>
                <name>Position 255</name>
            </trkpt>
            <trkpt lat="47.3249074" lon="15.3805669">
                <ele>994.8</ele>
                <time>2023-10-10T15:26:28.000Z</time>
                <name>Position 256</name>
            </trkpt>
            <trkpt lat="47.3249562" lon="15.3804445">
                <ele>989.0</ele>
                <time>2023-10-10T15:26:43.000Z</time>
                <name>Position 257</name>
            </trkpt>
            <trkpt lat="47.3250032" lon="15.3803286">
                <ele>985.6</ele>
                <time>2023-10-10T15:26:53.000Z</time>
                <name>Position 258</name>
            </trkpt>
            <trkpt lat="47.3250113" lon="15.3801913">
                <ele>979.5</ele>
                <time>2023-10-10T15:27:09.000Z</time>
                <name>Position 259</name>
            </trkpt>
            <trkpt lat="47.3250699" lon="15.3800903">
                <ele>975.0</ele>
                <time>2023-10-10T15:27:21.000Z</time>
                <name>Position 260</name>
            </trkpt>
            <trkpt lat="47.3251234" lon="15.3799748">
                <ele>970.8</ele>
                <time>2023-10-10T15:27:31.000Z</time>
                <name>Position 261</name>
            </trkpt>
            <trkpt lat="47.3252242" lon="15.3799537">
                <ele>966.7</ele>
                <time>2023-10-10T15:27:44.000Z</time>
                <name>Position 262</name>
            </trkpt>
            <trkpt lat="47.3252861" lon="15.3798532">
                <ele>961.4</ele>
                <time>2023-10-10T15:27:58.000Z</time>
                <name>Position 263</name>
            </trkpt>
            <trkpt lat="47.3253686" lon="15.3797963">
                <ele>960.2</ele>
                <time>2023-10-10T15:28:39.000Z</time>
                <name>Position 264</name>
            </trkpt>
            <trkpt lat="47.3253258" lon="15.3796674">
                <ele>956.6</ele>
                <time>2023-10-10T15:29:02.000Z</time>
                <name>Position 265</name>
            </trkpt>
            <trkpt lat="47.3254024" lon="15.3795841">
                <ele>952.2</ele>
                <time>2023-10-10T15:29:44.000Z</time>
                <name>Position 266</name>
            </trkpt>
            <trkpt lat="47.3254891" lon="15.3795288">
                <ele>948.7</ele>
                <time>2023-10-10T15:29:56.000Z</time>
                <name>Position 267</name>
            </trkpt>
            <trkpt lat="47.3255798" lon="15.379493">
                <ele>945.1</ele>
                <time>2023-10-10T15:30:14.000Z</time>
                <name>Position 268</name>
            </trkpt>
            <trkpt lat="47.3256671" lon="15.3794599">
                <ele>940.4</ele>
                <time>2023-10-10T15:30:27.000Z</time>
                <name>Position 269</name>
            </trkpt>
            <trkpt lat="47.325757" lon="15.3794929">
                <ele>938.2</ele>
                <time>2023-10-10T15:30:36.000Z</time>
                <name>Position 270</name>
            </trkpt>
            <trkpt lat="47.325849" lon="15.3794855">
                <ele>935.7</ele>
                <time>2023-10-10T15:30:44.000Z</time>
                <name>Position 271</name>
            </trkpt>
            <trkpt lat="47.3258814" lon="15.3793576">
                <ele>935.0</ele>
                <time>2023-10-10T15:30:50.000Z</time>
                <name>Position 272</name>
            </trkpt>
            <trkpt lat="47.3258922" lon="15.3792147">
                <ele>932.2</ele>
                <time>2023-10-10T15:31:09.000Z</time>
                <name>Position 273</name>
            </trkpt>
            <trkpt lat="47.3258343" lon="15.3791126">
                <ele>929.2</ele>
                <time>2023-10-10T15:31:16.000Z</time>
                <name>Position 274</name>
            </trkpt>
            <trkpt lat="47.3257574" lon="15.3790337">
                <ele>920.9</ele>
                <time>2023-10-10T15:31:55.000Z</time>
                <name>Position 275</name>
            </trkpt>
            <trkpt lat="47.3257038" lon="15.3789233">
                <ele>910.5</ele>
                <time>2023-10-10T15:32:14.000Z</time>
                <name>Position 276</name>
            </trkpt>
            <trkpt lat="47.3256746" lon="15.3787962">
                <ele>903.7</ele>
                <time>2023-10-10T15:32:29.000Z</time>
                <name>Position 277</name>
            </trkpt>
            <trkpt lat="47.3256271" lon="15.3786684">
                <ele>898.9</ele>
                <time>2023-10-10T15:32:42.000Z</time>
                <name>Position 278</name>
            </trkpt>
            <trkpt lat="47.3255535" lon="15.3785838">
                <ele>895.3</ele>
                <time>2023-10-10T15:32:53.000Z</time>
                <name>Position 279</name>
            </trkpt>
            <trkpt lat="47.3256047" lon="15.3784631">
                <ele>888.5</ele>
                <time>2023-10-10T15:33:14.000Z</time>
                <name>Position 280</name>
            </trkpt>
            <trkpt lat="47.3255567" lon="15.3783482">
                <ele>875.6</ele>
                <time>2023-10-10T15:33:55.000Z</time>
                <name>Position 281</name>
            </trkpt>
            <trkpt lat="47.3254801" lon="15.3782786">
                <ele>867.3</ele>
                <time>2023-10-10T15:34:19.000Z</time>
                <name>Position 282</name>
            </trkpt>
            <trkpt lat="47.3255178" lon="15.3781581">
                <ele>859.1</ele>
                <time>2023-10-10T15:34:43.000Z</time>
                <name>Position 283</name>
            </trkpt>
            <trkpt lat="47.3255061" lon="15.3780188">
                <ele>855.1</ele>
                <time>2023-10-10T15:34:58.000Z</time>
                <name>Position 284</name>
            </trkpt>
            <trkpt lat="47.3254631" lon="15.3778995">
                <ele>851.1</ele>
                <time>2023-10-10T15:35:11.000Z</time>
                <name>Position 285</name>
            </trkpt>
            <trkpt lat="47.3254578" lon="15.377763">
                <ele>842.3</ele>
                <time>2023-10-10T15:35:39.000Z</time>
                <name>Position 286</name>
            </trkpt>
            <trkpt lat="47.3253984" lon="15.3776544">
                <ele>837.8</ele>
                <time>2023-10-10T15:35:54.000Z</time>
                <name>Position 287</name>
            </trkpt>
            <trkpt lat="47.3253512" lon="15.3775405">
                <ele>828.9</ele>
                <time>2023-10-10T15:36:20.000Z</time>
                <name>Position 288</name>
            </trkpt>
            <trkpt lat="47.3253045" lon="15.3773997">
                <ele>826.3</ele>
                <time>2023-10-10T15:36:26.000Z</time>
                <name>Position 289</name>
            </trkpt>
            <trkpt lat="47.3252788" lon="15.37727">
                <ele>823.1</ele>
                <time>2023-10-10T15:36:34.000Z</time>
                <name>Position 290</name>
            </trkpt>
            <trkpt lat="47.3252818" lon="15.3771339">
                <ele>820.4</ele>
                <time>2023-10-10T15:36:40.000Z</time>
                <name>Position 291</name>
            </trkpt>
            <trkpt lat="47.3253035" lon="15.3770003">
                <ele>816.6</ele>
                <time>2023-10-10T15:36:49.000Z</time>
                <name>Position 292</name>
            </trkpt>
            <trkpt lat="47.3253841" lon="15.3769317">
                <ele>812.8</ele>
                <time>2023-10-10T15:36:58.000Z</time>
                <name>Position 293</name>
            </trkpt>
            <trkpt lat="47.3254749" lon="15.3769064">
                <ele>808.4</ele>
                <time>2023-10-10T15:37:07.000Z</time>
                <name>Position 294</name>
            </trkpt>
            <trkpt lat="47.3255629" lon="15.3768683">
                <ele>803.6</ele>
                <time>2023-10-10T15:37:19.000Z</time>
                <name>Position 295</name>
            </trkpt>
            <trkpt lat="47.3256576" lon="15.3768453">
                <ele>798.8</ele>
                <time>2023-10-10T15:37:33.000Z</time>
                <name>Position 296</name>
            </trkpt>
            <trkpt lat="47.3257539" lon="15.3768361">
                <ele>789.1</ele>
                <time>2023-10-10T15:38:04.000Z</time>
                <name>Position 297</name>
            </trkpt>
            <trkpt lat="47.3258451" lon="15.376773">
                <ele>784.8</ele>
                <time>2023-10-10T15:38:12.000Z</time>
                <name>Position 298</name>
            </trkpt>
            <trkpt lat="47.325936" lon="15.3767418">
                <ele>780.8</ele>
                <time>2023-10-10T15:38:20.000Z</time>
                <name>Position 299</name>
            </trkpt>
            <trkpt lat="47.3260174" lon="15.3766751">
                <ele>777.2</ele>
                <time>2023-10-10T15:38:29.000Z</time>
                <name>Position 300</name>
            </trkpt>
            <trkpt lat="47.326086" lon="15.3765888">
                <ele>772.7</ele>
                <time>2023-10-10T15:38:39.000Z</time>
                <name>Position 301</name>
            </trkpt>
            <trkpt lat="47.3260322" lon="15.3764694">
                <ele>763.7</ele>
                <time>2023-10-10T15:39:02.000Z</time>
                <name>Position 302</name>
            </trkpt>
            <trkpt lat="47.3259629" lon="15.3763769">
                <ele>758.2</ele>
                <time>2023-10-10T15:39:15.000Z</time>
                <name>Position 303</name>
            </trkpt>
            <trkpt lat="47.3258926" lon="15.3762908">
                <ele>756.3</ele>
                <time>2023-10-10T15:39:21.000Z</time>
                <name>Position 304</name>
            </trkpt>
            <trkpt lat="47.325816" lon="15.3762106">
                <ele>754.8</ele>
                <time>2023-10-10T15:39:30.000Z</time>
                <name>Position 305</name>
            </trkpt>
            <trkpt lat="47.3257502" lon="15.3761197">
                <ele>752.7</ele>
                <time>2023-10-10T15:39:39.000Z</time>
                <name>Position 306</name>
            </trkpt>
            <trkpt lat="47.3257063" lon="15.3759921">
                <ele>748.8</ele>
                <time>2023-10-10T15:39:50.000Z</time>
                <name>Position 307</name>
            </trkpt>
            <trkpt lat="47.3256119" lon="15.375935">
                <ele>747.6</ele>
                <time>2023-10-10T15:39:56.000Z</time>
                <name>Position 308</name>
            </trkpt>
            <trkpt lat="47.3255298" lon="15.3758737">
                <ele>747.6</ele>
                <time>2023-10-10T15:40:01.000Z</time>
                <name>Position 309</name>
            </trkpt>
            <trkpt lat="47.3254608" lon="15.3757825">
                <ele>746.9</ele>
                <time>2023-10-10T15:40:07.000Z</time>
                <name>Position 310</name>
            </trkpt>
            <trkpt lat="47.3253904" lon="15.3756907">
                <ele>742.2</ele>
                <time>2023-10-10T15:40:15.000Z</time>
                <name>Position 311</name>
            </trkpt>
            <trkpt lat="47.325299" lon="15.3756571">
                <ele>739.2</ele>
                <time>2023-10-10T15:40:25.000Z</time>
                <name>Position 312</name>
            </trkpt>
            <trkpt lat="47.3252575" lon="15.3755309">
                <ele>735.8</ele>
                <time>2023-10-10T15:40:33.000Z</time>
                <name>Position 313</name>
            </trkpt>
            <trkpt lat="47.325161" lon="15.3754817">
                <ele>732.5</ele>
                <time>2023-10-10T15:40:42.000Z</time>
                <name>Position 314</name>
            </trkpt>
            <trkpt lat="47.3250753" lon="15.3755363">
                <ele>728.5</ele>
                <time>2023-10-10T15:40:51.000Z</time>
                <name>Position 315</name>
            </trkpt>
            <trkpt lat="47.3249777" lon="15.3755366">
                <ele>726.0</ele>
                <time>2023-10-10T15:40:58.000Z</time>
                <name>Position 316</name>
            </trkpt>
            <trkpt lat="47.3248877" lon="15.3755117">
                <ele>723.4</ele>
                <time>2023-10-10T15:41:05.000Z</time>
                <name>Position 317</name>
            </trkpt>
            <trkpt lat="47.3247885" lon="15.3755099">
                <ele>720.1</ele>
                <time>2023-10-10T15:41:14.000Z</time>
                <name>Position 318</name>
            </trkpt>
            <trkpt lat="47.3246918" lon="15.3754888">
                <ele>717.2</ele>
                <time>2023-10-10T15:41:23.000Z</time>
                <name>Position 319</name>
            </trkpt>
            <trkpt lat="47.3245992" lon="15.3754361">
                <ele>713.8</ele>
                <time>2023-10-10T15:41:35.000Z</time>
                <name>Position 320</name>
            </trkpt>
            <trkpt lat="47.3245032" lon="15.3754065">
                <ele>710.6</ele>
                <time>2023-10-10T15:41:44.000Z</time>
                <name>Position 321</name>
            </trkpt>
            <trkpt lat="47.3244051" lon="15.3754245">
                <ele>706.1</ele>
                <time>2023-10-10T15:41:56.000Z</time>
                <name>Position 322</name>
            </trkpt>
            <trkpt lat="47.3243072" lon="15.3754276">
                <ele>703.0</ele>
                <time>2023-10-10T15:42:04.000Z</time>
                <name>Position 323</name>
            </trkpt>
            <trkpt lat="47.324234" lon="15.3753492">
                <ele>699.6</ele>
                <time>2023-10-10T15:42:13.000Z</time>
                <name>Position 324</name>
            </trkpt>
            <trkpt lat="47.3242305" lon="15.3752118">
                <ele>695.4</ele>
                <time>2023-10-10T15:42:23.000Z</time>
                <name>Position 325</name>
            </trkpt>
            <trkpt lat="47.3242215" lon="15.3750695">
                <ele>690.8</ele>
                <time>2023-10-10T15:42:35.000Z</time>
                <name>Position 326</name>
            </trkpt>
            <trkpt lat="47.3242715" lon="15.3749289">
                <ele>684.5</ele>
                <time>2023-10-10T15:42:56.000Z</time>
                <name>Position 327</name>
            </trkpt>
            <trkpt lat="47.3243178" lon="15.3748097">
                <ele>682.2</ele>
                <time>2023-10-10T15:43:04.000Z</time>
                <name>Position 328</name>
            </trkpt>
            <trkpt lat="47.3243847" lon="15.3747177">
                <ele>679.9</ele>
                <time>2023-10-10T15:43:10.000Z</time>
                <name>Position 329</name>
            </trkpt>
            <trkpt lat="47.3244654" lon="15.3746315">
                <ele>676.4</ele>
                <time>2023-10-10T15:43:18.000Z</time>
                <name>Position 330</name>
            </trkpt>
            <trkpt lat="47.324526" lon="15.3745139">
                <ele>671.9</ele>
                <time>2023-10-10T15:43:28.000Z</time>
                <name>Position 331</name>
            </trkpt>
            <trkpt lat="47.3245924" lon="15.3744083">
                <ele>668.5</ele>
                <time>2023-10-10T15:43:36.000Z</time>
                <name>Position 332</name>
            </trkpt>
            <trkpt lat="47.3246415" lon="15.3742798">
                <ele>664.6</ele>
                <time>2023-10-10T15:43:45.000Z</time>
                <name>Position 333</name>
            </trkpt>
            <trkpt lat="47.3247031" lon="15.3741787">
                <ele>661.2</ele>
                <time>2023-10-10T15:43:53.000Z</time>
                <name>Position 334</name>
            </trkpt>
            <trkpt lat="47.3246681" lon="15.3740557">
                <ele>656.3</ele>
                <time>2023-10-10T15:44:04.000Z</time>
                <name>Position 335</name>
            </trkpt>
            <trkpt lat="47.3245785" lon="15.3740349">
                <ele>653.0</ele>
                <time>2023-10-10T15:44:12.000Z</time>
                <name>Position 336</name>
            </trkpt>
            <trkpt lat="47.3244769" lon="15.374007">
                <ele>649.1</ele>
                <time>2023-10-10T15:44:21.000Z</time>
                <name>Position 337</name>
            </trkpt>
            <trkpt lat="47.3243866" lon="15.3739689">
                <ele>645.6</ele>
                <time>2023-10-10T15:44:29.000Z</time>
                <name>Position 338</name>
            </trkpt>
            <trkpt lat="47.324293" lon="15.3739209">
                <ele>641.8</ele>
                <time>2023-10-10T15:44:39.000Z</time>
                <name>Position 339</name>
            </trkpt>
            <trkpt lat="47.3242036" lon="15.3739002">
                <ele>639.5</ele>
                <time>2023-10-10T15:44:45.000Z</time>
                <name>Position 340</name>
            </trkpt>
            <trkpt lat="47.3241065" lon="15.3738548">
                <ele>636.4</ele>
                <time>2023-10-10T15:44:51.000Z</time>
                <name>Position 341</name>
            </trkpt>
            <trkpt lat="47.3240141" lon="15.3738268">
                <ele>634.7</ele>
                <time>2023-10-10T15:44:57.000Z</time>
                <name>Position 342</name>
            </trkpt>
            <trkpt lat="47.3239213" lon="15.3737966">
                <ele>632.0</ele>
                <time>2023-10-10T15:45:05.000Z</time>
                <name>Position 343</name>
            </trkpt>
            <trkpt lat="47.3238548" lon="15.3736975">
                <ele>628.9</ele>
                <time>2023-10-10T15:45:11.000Z</time>
                <name>Position 344</name>
            </trkpt>
            <trkpt lat="47.3237665" lon="15.3736307">
                <ele>626.9</ele>
                <time>2023-10-10T15:45:18.000Z</time>
                <name>Position 345</name>
            </trkpt>
            <trkpt lat="47.3236703" lon="15.373633">
                <ele>626.6</ele>
                <time>2023-10-10T15:45:25.000Z</time>
                <name>Position 346</name>
            </trkpt>
            <trkpt lat="47.3235713" lon="15.3736904">
                <ele>626.8</ele>
                <time>2023-10-10T15:45:31.000Z</time>
                <name>Position 347</name>
            </trkpt>
            <trkpt lat="47.3234915" lon="15.3737564">
                <ele>625.9</ele>
                <time>2023-10-10T15:45:37.000Z</time>
                <name>Position 348</name>
            </trkpt>
            <trkpt lat="47.323419" lon="15.3738588">
                <ele>625.3</ele>
                <time>2023-10-10T15:45:43.000Z</time>
                <name>Position 349</name>
            </trkpt>
            <trkpt lat="47.3233548" lon="15.3739735">
                <ele>625.5</ele>
                <time>2023-10-10T15:45:49.000Z</time>
                <name>Position 350</name>
            </trkpt>
            <trkpt lat="47.3233043" lon="15.374088">
                <ele>624.8</ele>
                <time>2023-10-10T15:45:55.000Z</time>
                <name>Position 351</name>
            </trkpt>
            <trkpt lat="47.3232319" lon="15.374191">
                <ele>624.3</ele>
                <time>2023-10-10T15:46:02.000Z</time>
                <name>Position 352</name>
            </trkpt>
            <trkpt lat="47.32316" lon="15.3742736">
                <ele>623.7</ele>
                <time>2023-10-10T15:46:08.000Z</time>
                <name>Position 353</name>
            </trkpt>
            <trkpt lat="47.3230697" lon="15.3743307">
                <ele>623.5</ele>
                <time>2023-10-10T15:46:14.000Z</time>
                <name>Position 354</name>
            </trkpt>
            <trkpt lat="47.3229779" lon="15.3743684">
                <ele>623.0</ele>
                <time>2023-10-10T15:46:20.000Z</time>
                <name>Position 355</name>
            </trkpt>
            <trkpt lat="47.3228895" lon="15.3743986">
                <ele>622.4</ele>
                <time>2023-10-10T15:46:26.000Z</time>
                <name>Position 356</name>
            </trkpt>
            <trkpt lat="47.3228036" lon="15.3743494">
                <ele>617.6</ele>
                <time>2023-10-10T15:46:39.000Z</time>
                <name>Position 357</name>
            </trkpt>
            <trkpt lat="47.322718" lon="15.3742715">
                <ele>615.1</ele>
                <time>2023-10-10T15:46:45.000Z</time>
                <name>Position 358</name>
            </trkpt>
            <trkpt lat="47.322624" lon="15.3741939">
                <ele>611.1</ele>
                <time>2023-10-10T15:46:53.000Z</time>
                <name>Position 359</name>
            </trkpt>
            <trkpt lat="47.3225478" lon="15.3740935">
                <ele>607.9</ele>
                <time>2023-10-10T15:46:58.000Z</time>
                <name>Position 360</name>
            </trkpt>
            <trkpt lat="47.3224497" lon="15.3740341">
                <ele>605.6</ele>
                <time>2023-10-10T15:47:04.000Z</time>
                <name>Position 361</name>
            </trkpt>
            <trkpt lat="47.3223754" lon="15.3739083">
                <ele>603.0</ele>
                <time>2023-10-10T15:47:10.000Z</time>
                <name>Position 362</name>
            </trkpt>
            <trkpt lat="47.322293" lon="15.3738419">
                <ele>600.7</ele>
                <time>2023-10-10T15:47:16.000Z</time>
                <name>Position 363</name>
            </trkpt>
            <trkpt lat="47.3221995" lon="15.3738374">
                <ele>598.3</ele>
                <time>2023-10-10T15:47:22.000Z</time>
                <name>Position 364</name>
            </trkpt>
            <trkpt lat="47.3221055" lon="15.3738214">
                <ele>597.0</ele>
                <time>2023-10-10T15:47:27.000Z</time>
                <name>Position 365</name>
            </trkpt>
            <trkpt lat="47.322002" lon="15.37382">
                <ele>594.5</ele>
                <time>2023-10-10T15:47:32.000Z</time>
                <name>Position 366</name>
            </trkpt>
            <trkpt lat="47.3219043" lon="15.3738003">
                <ele>592.1</ele>
                <time>2023-10-10T15:47:37.000Z</time>
                <name>Position 367</name>
            </trkpt>
            <trkpt lat="47.3217973" lon="15.3738164">
                <ele>589.8</ele>
                <time>2023-10-10T15:47:43.000Z</time>
                <name>Position 368</name>
            </trkpt>
            <trkpt lat="47.3216953" lon="15.3738292">
                <ele>587.0</ele>
                <time>2023-10-10T15:47:49.000Z</time>
                <name>Position 369</name>
            </trkpt>
            <trkpt lat="47.3216047" lon="15.3738438">
                <ele>585.5</ele>
                <time>2023-10-10T15:47:55.000Z</time>
                <name>Position 370</name>
            </trkpt>
            <trkpt lat="47.3215127" lon="15.3738221">
                <ele>582.6</ele>
                <time>2023-10-10T15:47:59.000Z</time>
                <name>Position 371</name>
            </trkpt>
            <trkpt lat="47.3214118" lon="15.3738194">
                <ele>580.1</ele>
                <time>2023-10-10T15:48:05.000Z</time>
                <name>Position 372</name>
            </trkpt>
            <trkpt lat="47.3213065" lon="15.3737927">
                <ele>578.7</ele>
                <time>2023-10-10T15:48:11.000Z</time>
                <name>Position 373</name>
            </trkpt>
            <trkpt lat="47.3212012" lon="15.3737659">
                <ele>576.2</ele>
                <time>2023-10-10T15:48:18.000Z</time>
                <name>Position 374</name>
            </trkpt>
            <trkpt lat="47.3211018" lon="15.3737357">
                <ele>573.3</ele>
                <time>2023-10-10T15:48:24.000Z</time>
                <name>Position 375</name>
            </trkpt>
            <trkpt lat="47.3210036" lon="15.3737093">
                <ele>570.4</ele>
                <time>2023-10-10T15:48:29.000Z</time>
                <name>Position 376</name>
            </trkpt>
            <trkpt lat="47.3209097" lon="15.3737067">
                <ele>566.9</ele>
                <time>2023-10-10T15:48:35.000Z</time>
                <name>Position 377</name>
            </trkpt>
            <trkpt lat="47.3208175" lon="15.3737145">
                <ele>564.1</ele>
                <time>2023-10-10T15:48:41.000Z</time>
                <name>Position 378</name>
            </trkpt>
            <trkpt lat="47.3207121" lon="15.3737081">
                <ele>562.1</ele>
                <time>2023-10-10T15:48:48.000Z</time>
                <name>Position 379</name>
            </trkpt>
            <trkpt lat="47.3206102" lon="15.3736928">
                <ele>559.3</ele>
                <time>2023-10-10T15:48:56.000Z</time>
                <name>Position 380</name>
            </trkpt>
            <trkpt lat="47.3205064" lon="15.3737404">
                <ele>555.6</ele>
                <time>2023-10-10T15:49:04.000Z</time>
                <name>Position 381</name>
            </trkpt>
            <trkpt lat="47.3204045" lon="15.3737769">
                <ele>555.3</ele>
                <time>2023-10-10T15:49:10.000Z</time>
                <name>Position 382</name>
            </trkpt>
            <trkpt lat="47.320311" lon="15.3737715">
                <ele>553.2</ele>
                <time>2023-10-10T15:49:16.000Z</time>
                <name>Position 383</name>
            </trkpt>
            <trkpt lat="47.3202055" lon="15.3737908">
                <ele>550.7</ele>
                <time>2023-10-10T15:49:22.000Z</time>
                <name>Position 384</name>
            </trkpt>
            <trkpt lat="47.3201147" lon="15.3738001">
                <ele>548.5</ele>
                <time>2023-10-10T15:49:28.000Z</time>
                <name>Position 385</name>
            </trkpt>
            <trkpt lat="47.3200252" lon="15.3738285">
                <ele>545.4</ele>
                <time>2023-10-10T15:49:35.000Z</time>
                <name>Position 386</name>
            </trkpt>
            <trkpt lat="47.3200612" lon="15.3737007">
                <ele>540.9</ele>
                <time>2023-10-10T15:49:48.000Z</time>
                <name>Position 387</name>
            </trkpt>
            <trkpt lat="47.3201287" lon="15.3735837">
                <ele>538.5</ele>
                <time>2023-10-10T15:49:55.000Z</time>
                <name>Position 388</name>
            </trkpt>
            <trkpt lat="47.3201836" lon="15.373467">
                <ele>536.2</ele>
                <time>2023-10-10T15:50:02.000Z</time>
                <name>Position 389</name>
            </trkpt>
            <trkpt lat="47.3202263" lon="15.3733322">
                <ele>534.1</ele>
                <time>2023-10-10T15:50:09.000Z</time>
                <name>Position 390</name>
            </trkpt>
            <trkpt lat="47.3202966" lon="15.3732488">
                <ele>531.3</ele>
                <time>2023-10-10T15:50:16.000Z</time>
                <name>Position 391</name>
            </trkpt>
            <trkpt lat="47.3203453" lon="15.3731321">
                <ele>529.2</ele>
                <time>2023-10-10T15:50:22.000Z</time>
                <name>Position 392</name>
            </trkpt>
            <trkpt lat="47.3203478" lon="15.3729866">
                <ele>527.4</ele>
                <time>2023-10-10T15:50:30.000Z</time>
                <name>Position 393</name>
            </trkpt>
            <trkpt lat="47.3204079" lon="15.3728797">
                <ele>524.7</ele>
                <time>2023-10-10T15:50:37.000Z</time>
                <name>Position 394</name>
            </trkpt>
            <trkpt lat="47.3204711" lon="15.3727705">
                <ele>521.8</ele>
                <time>2023-10-10T15:50:44.000Z</time>
                <name>Position 395</name>
            </trkpt>
            <trkpt lat="47.320523" lon="15.3726472">
                <ele>519.4</ele>
                <time>2023-10-10T15:50:50.000Z</time>
                <name>Position 396</name>
            </trkpt>
            <trkpt lat="47.3205821" lon="15.3725431">
                <ele>516.7</ele>
                <time>2023-10-10T15:50:56.000Z</time>
                <name>Position 397</name>
            </trkpt>
            <trkpt lat="47.3206461" lon="15.3724485">
                <ele>513.7</ele>
                <time>2023-10-10T15:51:04.000Z</time>
                <name>Position 398</name>
            </trkpt>
            <trkpt lat="47.3207146" lon="15.3723548">
                <ele>511.2</ele>
                <time>2023-10-10T15:51:12.000Z</time>
                <name>Position 399</name>
            </trkpt>
            <trkpt lat="47.3207791" lon="15.3722373">
                <ele>509.6</ele>
                <time>2023-10-10T15:51:19.000Z</time>
                <name>Position 400</name>
            </trkpt>
            <trkpt lat="47.3208336" lon="15.372104">
                <ele>508.3</ele>
                <time>2023-10-10T15:51:25.000Z</time>
                <name>Position 401</name>
            </trkpt>
            <trkpt lat="47.3208871" lon="15.3719777">
                <ele>506.6</ele>
                <time>2023-10-10T15:51:33.000Z</time>
                <name>Position 402</name>
            </trkpt>
            <trkpt lat="47.3209399" lon="15.3718666">
                <ele>504.8</ele>
                <time>2023-10-10T15:51:40.000Z</time>
                <name>Position 403</name>
            </trkpt>
            <trkpt lat="47.32099" lon="15.371751">
                <ele>502.7</ele>
                <time>2023-10-10T15:51:46.000Z</time>
                <name>Position 404</name>
            </trkpt>
            <trkpt lat="47.3210459" lon="15.3716361">
                <ele>499.4</ele>
                <time>2023-10-10T15:51:55.000Z</time>
                <name>Position 405</name>
            </trkpt>
            <trkpt lat="47.3211333" lon="15.3715788">
                <ele>496.5</ele>
                <time>2023-10-10T15:52:03.000Z</time>
                <name>Position 406</name>
            </trkpt>
            <trkpt lat="47.3212213" lon="15.3716263">
                <ele>492.2</ele>
                <time>2023-10-10T15:52:13.000Z</time>
                <name>Position 407</name>
            </trkpt>
            <trkpt lat="47.3213026" lon="15.3715623">
                <ele>489.4</ele>
                <time>2023-10-10T15:52:20.000Z</time>
                <name>Position 408</name>
            </trkpt>
            <trkpt lat="47.321338" lon="15.3714279">
                <ele>485.9</ele>
                <time>2023-10-10T15:52:29.000Z</time>
                <name>Position 409</name>
            </trkpt>
            <trkpt lat="47.3213178" lon="15.371296">
                <ele>482.5</ele>
                <time>2023-10-10T15:52:38.000Z</time>
                <name>Position 410</name>
            </trkpt>
            <trkpt lat="47.3213053" lon="15.3711523">
                <ele>480.4</ele>
                <time>2023-10-10T15:52:55.000Z</time>
                <name>Position 411</name>
            </trkpt>
            <trkpt lat="47.3212794" lon="15.3710201">
                <ele>477.7</ele>
                <time>2023-10-10T15:53:03.000Z</time>
                <name>Position 412</name>
            </trkpt>
            <trkpt lat="47.3212321" lon="15.3708781">
                <ele>475.2</ele>
                <time>2023-10-10T15:53:11.000Z</time>
                <name>Position 413</name>
            </trkpt>
            <trkpt lat="47.3211536" lon="15.3707782">
                <ele>472.2</ele>
                <time>2023-10-10T15:53:18.000Z</time>
                <name>Position 414</name>
            </trkpt>
            <trkpt lat="47.3211301" lon="15.3706379">
                <ele>469.7</ele>
                <time>2023-10-10T15:53:24.000Z</time>
                <name>Position 415</name>
            </trkpt>
            <trkpt lat="47.3211617" lon="15.3705117">
                <ele>466.6</ele>
                <time>2023-10-10T15:53:30.000Z</time>
                <name>Position 416</name>
            </trkpt>
            <trkpt lat="47.3211929" lon="15.3703859">
                <ele>464.1</ele>
                <time>2023-10-10T15:53:35.000Z</time>
                <name>Position 417</name>
            </trkpt>
            <trkpt lat="47.3212445" lon="15.3702686">
                <ele>461.8</ele>
                <time>2023-10-10T15:53:41.000Z</time>
                <name>Position 418</name>
            </trkpt>
            <trkpt lat="47.3213063" lon="15.3701489">
                <ele>459.4</ele>
                <time>2023-10-10T15:53:48.000Z</time>
                <name>Position 419</name>
            </trkpt>
            <trkpt lat="47.3213633" lon="15.3700317">
                <ele>457.2</ele>
                <time>2023-10-10T15:53:56.000Z</time>
                <name>Position 420</name>
            </trkpt>
            <trkpt lat="47.3214419" lon="15.3699508">
                <ele>455.6</ele>
                <time>2023-10-10T15:54:03.000Z</time>
                <name>Position 421</name>
            </trkpt>
            <trkpt lat="47.3215199" lon="15.3698846">
                <ele>454.6</ele>
                <time>2023-10-10T15:54:11.000Z</time>
                <name>Position 422</name>
            </trkpt>
        </trkseg>
    </trk>
</gpx>
