<?xml version="1.0" encoding="UTF-8" standalone="yes"?>
<gpx xmlns="http://www.topografix.com/GPX/1/1" creator="alpenkarte.eu">
    <metadata>
        <name>Ferrata Bandiera Ernesto Franco</name>
        <link href="alpenkarte.eu">
            <text>Route von alpenkarte.eu</text>
        </link>
        <bounds minlat="45.66277000000000185764292837120592594146728515625" minlon="10.54235800000000011777956387959420680999755859375" maxlat="45.67874100000000225918483920395374298095703125" maxlon="10.5630009999999998626663000322878360748291015625"/>
    </metadata>
    <trk>
        <name>Ferrata Bandiera Ernesto Franco</name>
        <trkseg>
            <trkpt lat="45.66289199999999937062966637313365936279296875" lon="10.542398999999999631427272106520831584930419921875">
                <ele>531.9179871999958777450956404209136962890625</ele>
            </trkpt>
            <trkpt lat="45.662993999999997640770743601024150848388671875" lon="10.54243999999999914507498033344745635986328125">
                <ele>532.4146239999901126793702132999897003173828125</ele>
            </trkpt>
            <trkpt lat="45.663397000000003345121513120830059051513671875" lon="10.5427330000000001319904185947962105274200439453125">
                <ele>542.859233920041560850222595036029815673828125</ele>
            </trkpt>
            <trkpt lat="45.6635449999999991632648743689060211181640625" lon="10.543155999999999750116330687887966632843017578125">
                <ele>556.0768384000008381917723454535007476806640625</ele>
            </trkpt>
            <trkpt lat="45.66392700000000104409991763532161712646484375" lon="10.5437180000000001456328391213901340961456298828125">
                <ele>563.44783551997306858538649976253509521484375</ele>
            </trkpt>
            <trkpt lat="45.664141000000000758518581278622150421142578125" lon="10.5441260000000003316245056339539587497711181640625">
                <ele>563.94133311997347846045158803462982177734375</ele>
            </trkpt>
            <trkpt lat="45.6645189999999985275280778296291828155517578125" lon="10.5445949999999992741095411474816501140594482421875">
                <ele>573.5686967999985199639922939240932464599609375</ele>
            </trkpt>
            <trkpt lat="45.66466199999999986403054208494722843170166015625" lon="10.5450320000000008491269909427501261234283447265625">
                <ele>579.5792755200230885748169384896755218505859375</ele>
            </trkpt>
            <trkpt lat="45.66466199999999986403054208494722843170166015625" lon="10.5450320000000008491269909427501261234283447265625">
                <ele>579.5792755200230885748169384896755218505859375</ele>
            </trkpt>
            <trkpt lat="45.66471399999999647434378857724368572235107421875" lon="10.5451940000000004005187292932532727718353271484375">
                <ele>582.208260480097806066623888909816741943359375</ele>
            </trkpt>
            <trkpt lat="45.66485399999999827969077159650623798370361328125" lon="10.5453770000000002227125150966458022594451904296875">
                <ele>582.4699862400535721462802030146121978759765625</ele>
            </trkpt>
            <trkpt lat="45.6649010000000004083631210960447788238525390625" lon="10.5455330000000007117932909750379621982574462890625">
                <ele>584.2201982400009683260577730834484100341796875</ele>
            </trkpt>
            <trkpt lat="45.66530399999999900728653301484882831573486328125" lon="10.5458580000000008425331543548963963985443115234375">
                <ele>583.2908518400400907921721227467060089111328125</ele>
            </trkpt>
            <trkpt lat="45.66559300000000121144694276154041290283203125" lon="10.54601100000000002410160959698259830474853515625">
                <ele>582.464545759975635519367642700672149658203125</ele>
            </trkpt>
            <trkpt lat="45.66576500000000038426151149906218051910400390625" lon="10.5461510000000000530917532159946858882904052734375">
                <ele>581.0579767999910245634964667260646820068359375</ele>
            </trkpt>
            <trkpt lat="45.6659130000000033078322303481400012969970703125" lon="10.5464110000000008682263796799816191196441650390625">
                <ele>583.1207024000350429560057818889617919921875</ele>
            </trkpt>
            <trkpt lat="45.66607900000000341833583661355078220367431640625" lon="10.546459999999999723740984336473047733306884765625">
                <ele>584.6237120000214417814277112483978271484375</ele>
            </trkpt>
            <trkpt lat="45.666302000000001726220943965017795562744140625" lon="10.546732999999999691453922423534095287322998046875">
                <ele>587.161199999979771746438927948474884033203125</ele>
            </trkpt>
            <trkpt lat="45.66636100000000197951521840877830982208251953125" lon="10.546780999999999295368979801423847675323486328125">
                <ele>589.0355999999625282725901342928409576416015625</ele>
            </trkpt>
            <trkpt lat="45.66636100000000197951521840877830982208251953125" lon="10.546780999999999295368979801423847675323486328125">
                <ele>589.0355999999625282725901342928409576416015625</ele>
            </trkpt>
            <trkpt lat="45.66663100000000241607267525978386402130126953125" lon="10.5470050000000004075673132319934666156768798828125">
                <ele>597.79560000000810759956948459148406982421875</ele>
            </trkpt>
            <trkpt lat="45.66686800000000090449248091317713260650634765625" lon="10.54715900000000061709215515293180942535400390625">
                <ele>607.4732307200321201889892108738422393798828125</ele>
            </trkpt>
            <trkpt lat="45.66686800000000090449248091317713260650634765625" lon="10.54715900000000061709215515293180942535400390625">
                <ele>607.4732307200321201889892108738422393798828125</ele>
            </trkpt>
            <trkpt lat="45.666933000000000220097717829048633575439453125" lon="10.5472020000000004102957973373122513294219970703125">
                <ele>609.9143129600128077072440646588802337646484375</ele>
            </trkpt>
            <trkpt lat="45.66719499999999953843143885023891925811767578125" lon="10.547200000000000130739863379858434200286865234375">
                <ele>613.7362399999932449645712040364742279052734375</ele>
            </trkpt>
            <trkpt lat="45.66739199999999954115992295555770397186279296875" lon="10.5472500000000000142108547152020037174224853515625">
                <ele>617.4003199999921207563602365553379058837890625</ele>
            </trkpt>
            <trkpt lat="45.66751599999999911005943431518971920013427734375" lon="10.547335000000000349018591805361211299896240234375">
                <ele>619.8214111999965325594530440866947174072265625</ele>
            </trkpt>
            <trkpt lat="45.6676489999999972724253893829882144927978515625" lon="10.547349000000000529553290107287466526031494140625">
                <ele>620.8111899199863046305836178362369537353515625</ele>
            </trkpt>
            <trkpt lat="45.6678220000000010259100235998630523681640625" lon="10.5472879999999999967030817060731351375579833984375">
                <ele>621.444101120005825578118674457073211669921875</ele>
            </trkpt>
            <trkpt lat="45.66808900000000193131199921481311321258544921875" lon="10.54732800000000025875124265439808368682861328125">
                <ele>623.49078464001286192797124385833740234375</ele>
            </trkpt>
            <trkpt lat="45.66808900000000193131199921481311321258544921875" lon="10.54732800000000025875124265439808368682861328125">
                <ele>623.49078464001286192797124385833740234375</ele>
            </trkpt>
            <trkpt lat="45.66834800000000171849023899994790554046630859375" lon="10.5473429999999996908854882349260151386260986328125">
                <ele>625.4764742400406021261005662381649017333984375</ele>
            </trkpt>
            <trkpt lat="45.66856400000000348882167600095272064208984375" lon="10.5475259999999995130792740383185446262359619140625">
                <ele>631.360992000052874573157168924808502197265625</ele>
            </trkpt>
            <trkpt lat="45.6687050000000027694113668985664844512939453125" lon="10.5477589999999992187440511770546436309814453125">
                <ele>639.6507599999901003684499301016330718994140625</ele>
            </trkpt>
            <trkpt lat="45.66892500000000154614099301397800445556640625" lon="10.5480579999999992679704519105143845081329345703125">
                <ele>642.632399999965628012432716786861419677734375</ele>
            </trkpt>
            <trkpt lat="45.66892500000000154614099301397800445556640625" lon="10.5480579999999992679704519105143845081329345703125">
                <ele>642.632399999965628012432716786861419677734375</ele>
            </trkpt>
            <trkpt lat="45.66910500000000183717929758131504058837890625" lon="10.5484559999999998325392880360595881938934326171875">
                <ele>643.45600639991744174039922654628753662109375</ele>
            </trkpt>
            <trkpt lat="45.669432000000000471118255518376827239990234375" lon="10.5487660000000005311449058353900909423828125">
                <ele>656.9274828800162140396423637866973876953125</ele>
            </trkpt>
            <trkpt lat="45.6697419999999993933670339174568653106689453125" lon="10.549172999999999689180185669101774692535400390625">
                <ele>659.6963529599976254758075810968875885009765625</ele>
            </trkpt>
            <trkpt lat="45.6699330000000003337845555506646633148193359375" lon="10.5491820000000000590034687775187194347381591796875">
                <ele>655.78347935999454421107657253742218017578125</ele>
            </trkpt>
            <trkpt lat="45.67012600000000333011485054157674312591552734375" lon="10.549229000000000411318978876806795597076416015625">
                <ele>659.4705657600931090200901962816715240478515625</ele>
            </trkpt>
            <trkpt lat="45.67066899999999662895788787864148616790771484375" lon="10.549583999999999406327333417721092700958251953125">
                <ele>681.242586239947058857069350779056549072265625</ele>
            </trkpt>
            <trkpt lat="45.6709570000000013578755897469818592071533203125" lon="10.5497279999999999944293449516408145427703857421875">
                <ele>687.4074195200147414652747102081775665283203125</ele>
            </trkpt>
            <trkpt lat="45.6709570000000013578755897469818592071533203125" lon="10.5497279999999999944293449516408145427703857421875">
                <ele>687.4074195200147414652747102081775665283203125</ele>
            </trkpt>
            <trkpt lat="45.67120899999999750207280158065259456634521484375" lon="10.5498419999999999419060259242542088031768798828125">
                <ele>691.0353353599806496276869438588619232177734375</ele>
            </trkpt>
            <trkpt lat="45.67145099999999757756086182780563831329345703125" lon="10.54988900000000029422153602354228496551513671875">
                <ele>692.64245167998524266295135021209716796875</ele>
            </trkpt>
            <trkpt lat="45.6716219999999992751327226869761943817138671875" lon="10.5500810000000004862386049353517591953277587890625">
                <ele>695.5481686400174794471240602433681488037109375</ele>
            </trkpt>
            <trkpt lat="45.671751999999997906343196518719196319580078125" lon="10.5503699999999991376853358815424144268035888671875">
                <ele>708.3824511999176820609136484563350677490234375</ele>
            </trkpt>
            <trkpt lat="45.67196700000000220143192564137279987335205078125" lon="10.551007999999999498186298296786844730377197265625">
                <ele>728.6204454399429550903732888400554656982421875</ele>
            </trkpt>
            <trkpt lat="45.6724999999999994315658113919198513031005859375" lon="10.5514220000000005228457666817121207714080810546875">
                <ele>726.683200000030410592444241046905517578125</ele>
            </trkpt>
            <trkpt lat="45.67267700000000019144863472320139408111572265625" lon="10.5515260000000008488996172673068940639495849609375">
                <ele>733.3037968000118098643724806606769561767578125</ele>
            </trkpt>
            <trkpt lat="45.67284200000000282670953311026096343994140625" lon="10.5515810000000005430820237961597740650177001953125">
                <ele>738.4148368000777509223553352057933807373046875</ele>
            </trkpt>
            <trkpt lat="45.67291900000000026693669497035443782806396484375" lon="10.551567999999999614146872772835195064544677734375">
                <ele>740.4125728000016124497051350772380828857421875</ele>
            </trkpt>
            <trkpt lat="45.67291900000000026693669497035443782806396484375" lon="10.551567999999999614146872772835195064544677734375">
                <ele>740.4125728000016124497051350772380828857421875</ele>
            </trkpt>
            <trkpt lat="45.6730170000000015306795830838382244110107421875" lon="10.5515500000000006508571459562517702579498291015625">
                <ele>743.011240000042334941099397838115692138671875</ele>
            </trkpt>
            <trkpt lat="45.6732540000000000190993887372314929962158203125" lon="10.55128500000000002501110429875552654266357421875">
                <ele>749.7627759999974159654811955988407135009765625</ele>
            </trkpt>
            <trkpt lat="45.67337400000000258160071098245680332183837890625" lon="10.5512320000000006103846317273564636707305908203125">
                <ele>753.9775296000897242265637032687664031982421875</ele>
            </trkpt>
            <trkpt lat="45.67346500000000020236257114447653293609619140625" lon="10.551075000000000869704308570362627506256103515625">
                <ele>757.4151000000055091732065193355083465576171875</ele>
            </trkpt>
            <trkpt lat="45.6739299999999985857357387430965900421142578125" lon="10.550945999999999713736542616970837116241455078125">
                <ele>773.0456159999521332792937755584716796875</ele>
            </trkpt>
            <trkpt lat="45.67394300000000129102772916667163372039794921875" lon="10.550988000000000255340637522749602794647216796875">
                <ele>773.5609248000433808556408621370792388916015625</ele>
            </trkpt>
            <trkpt lat="45.67384700000000208319761441089212894439697265625" lon="10.5512169999999994018935467465780675411224365234375">
                <ele>770.6409528000721138596418313682079315185546875</ele>
            </trkpt>
            <trkpt lat="45.6737490000000008194547262974083423614501953125" lon="10.5515500000000006508571459562517702579498291015625">
                <ele>767.3924400000308878588839434087276458740234375</ele>
            </trkpt>
            <trkpt lat="45.67369800000000168438418768346309661865234375" lon="10.55160599999999959663909976370632648468017578125">
                <ele>765.4895136000635602613328956067562103271484375</ele>
            </trkpt>
            <trkpt lat="45.673620999999997138729668222367763519287109375" lon="10.551857999999999293549990397877991199493408203125">
                <ele>772.9413103998509768643998540937900543212890625</ele>
            </trkpt>
            <trkpt lat="45.6735460000000017544152797199785709381103515625" lon="10.5519639999999998991597749409265816211700439453125">
                <ele>775.980723200053262189612723886966705322265625</ele>
            </trkpt>
            <trkpt lat="45.6733329999999995152393239550292491912841796875" lon="10.552414999999999878355083637870848178863525390625">
                <ele>793.6932895999663060138118453323841094970703125</ele>
            </trkpt>
            <trkpt lat="45.67313999999999651890902896411716938018798828125" lon="10.5525990000000007285052561201155185699462890625">
                <ele>794.74539199988475957070477306842803955078125</ele>
            </trkpt>
            <trkpt lat="45.67291900000000026693669497035443782806396484375" lon="10.552932999999999452711563208140432834625244140625">
                <ele>798.4670743999869273466174490749835968017578125</ele>
            </trkpt>
            <trkpt lat="45.67291800000000279169398709200322628021240234375" lon="10.553070999999999202145772869698703289031982421875">
                <ele>803.642081600087976767099462449550628662109375</ele>
            </trkpt>
            <trkpt lat="45.67304500000000189174897968769073486328125" lon="10.5531389999999998252633304218761622905731201171875">
                <ele>811.8266360000728809609427116811275482177734375</ele>
            </trkpt>
            <trkpt lat="45.673101000000002613887772895395755767822265625" lon="10.553081999999999851524989935569465160369873046875">
                <ele>812.0716304001047092242515645921230316162109375</ele>
            </trkpt>
            <trkpt lat="45.673101000000002613887772895395755767822265625" lon="10.553081999999999851524989935569465160369873046875">
                <ele>812.0716304001047092242515645921230316162109375</ele>
            </trkpt>
            <trkpt lat="45.67333800000000110230757854878902435302734375" lon="10.5529080000000003991544872405938804149627685546875">
                <ele>815.3250176000586861846386454999446868896484375</ele>
            </trkpt>
            <trkpt lat="45.673417000000000598447513766586780548095703125" lon="10.552932999999999452711563208140432834625244140625">
                <ele>819.3988784000002851826138794422149658203125</ele>
            </trkpt>
            <trkpt lat="45.67327800000000337377059622667729854583740234375" lon="10.55335099999999926012606010772287845611572265625">
                <ele>830.3554998401322109202737919986248016357421875</ele>
            </trkpt>
            <trkpt lat="45.6731630000000023983375285752117633819580078125" lon="10.5534990000000004073399395565502345561981201171875">
                <ele>828.6406513601071992525248788297176361083984375</ele>
            </trkpt>
            <trkpt lat="45.67311300000000073850969783961772918701171875" lon="10.5538609999999994926156432484276592731475830078125">
                <ele>835.393635040010167358559556305408477783203125</ele>
            </trkpt>
            <trkpt lat="45.67325100000000048794390750117599964141845703125" lon="10.554316000000000030922819860279560089111328125">
                <ele>848.4174380800076278319465927779674530029296875</ele>
            </trkpt>
            <trkpt lat="45.67332400000000092177288024686276912689208984375" lon="10.5550960000000006999698598519898951053619384765625">
                <ele>856.6795609600034140385105274617671966552734375</ele>
            </trkpt>
            <trkpt lat="45.673439000000001897205947898328304290771484375" lon="10.555246000000000350382833858020603656768798828125">
                <ele>868.7284947201209206468774937093257904052734375</ele>
            </trkpt>
            <trkpt lat="45.67365699999999861802280065603554248809814453125" lon="10.5554000000000005599076757789589464664459228515625">
                <ele>884.340463999942812733934260904788970947265625</ele>
            </trkpt>
            <trkpt lat="45.67377599999999659985405742190778255462646484375" lon="10.555521999999999849251253181137144565582275390625">
                <ele>891.29150335986332720494829118251800537109375</ele>
            </trkpt>
            <trkpt lat="45.67386900000000338195604854263365268707275390625" lon="10.55586100000000016052581486292183399200439453125">
                <ele>897.114308480062391026876866817474365234375</ele>
            </trkpt>
            <trkpt lat="45.67390199999999822466634213924407958984375" lon="10.555555999999999272631612257100641727447509765625">
                <ele>896.321730559932575488346628844738006591796875</ele>
            </trkpt>
            <trkpt lat="45.67399199999999837018549442291259765625" lon="10.5556499999999999772626324556767940521240234375">
                <ele>899.222623999950201323372311890125274658203125</ele>
            </trkpt>
            <trkpt lat="45.67401300000000219370122067630290985107421875" lon="10.555789000000000754653228796087205410003662109375">
                <ele>899.007916160041759212617762386798858642578125</ele>
            </trkpt>
            <trkpt lat="45.67411799999999999499777914024889469146728515625" lon="10.5561209999999991993036019266583025455474853515625">
                <ele>909.4959161599730350644676946103572845458984375</ele>
            </trkpt>
            <trkpt lat="45.674115999999997939085005782544612884521484375" lon="10.556008999999999531382854911498725414276123046875">
                <ele>906.011799679952446240349672734737396240234375</ele>
            </trkpt>
            <trkpt lat="45.67409599999999869623934500850737094879150390625" lon="10.55589499999999958390617393888533115386962890625">
                <ele>902.1533023999627403100021183490753173828125</ele>
            </trkpt>
            <trkpt lat="45.67412800000000316913428832776844501495361328125" lon="10.555685000000000428599378210492432117462158203125">
                <ele>902.8995584000839471627841703593730926513671875</ele>
            </trkpt>
            <trkpt lat="45.67422599999999732744981884025037288665771484375" lon="10.555958000000000396312316297553479671478271484375">
                <ele>910.0008876797922994228429161012172698974609375</ele>
            </trkpt>
            <trkpt lat="45.67428300000000263025867752730846405029296875" lon="10.55606900000000081263351603411138057708740234375">
                <ele>917.14216592020920870709232985973358154296875</ele>
            </trkpt>
            <trkpt lat="45.67436599999999913279680185951292514801025390625" lon="10.55618199999999973215381032787263393402099609375">
                <ele>925.3182675199341247207485139369964599609375</ele>
            </trkpt>
            <trkpt lat="45.67457900000000137197275762446224689483642578125" lon="10.556703999999999865622157813049852848052978515625">
                <ele>943.012122880045581041486002504825592041015625</ele>
            </trkpt>
            <trkpt lat="45.6746959999999972978912410326302051544189453125" lon="10.5570509999999995187636159243993461132049560546875">
                <ele>951.9984812799299334074021317064762115478515625</ele>
            </trkpt>
            <trkpt lat="45.674926999999996724000084213912487030029296875" lon="10.5575019999999994979589246213436126708984375">
                <ele>959.2047126399705803123652003705501556396484375</ele>
            </trkpt>
            <trkpt lat="45.674926999999996724000084213912487030029296875" lon="10.5575019999999994979589246213436126708984375">
                <ele>959.2047126399705803123652003705501556396484375</ele>
            </trkpt>
            <trkpt lat="45.67494400000000354111762135289609432220458984375" lon="10.5575349999999996697397364187054336071014404296875">
                <ele>960.1862464000060981561546213924884796142578125</ele>
            </trkpt>
            <trkpt lat="45.6748860000000007630660547874867916107177734375" lon="10.557632999999999157125785131938755512237548828125">
                <ele>962.7041660799783358015702106058597564697265625</ele>
            </trkpt>
            <trkpt lat="45.67500799999999827605279278941452503204345703125" lon="10.5576659999999993289065969293005764484405517578125">
                <ele>964.2704550398967739965883083641529083251953125</ele>
            </trkpt>
            <trkpt lat="45.67506800000000311001713271252810955047607421875" lon="10.55781400000000047612047637812793254852294921875">
                <ele>970.68228736014179958146996796131134033203125</ele>
            </trkpt>
            <trkpt lat="45.6751450000000005502442945726215839385986328125" lon="10.5578780000000005401261660153977572917938232421875">
                <ele>975.2732608000313803131575696170330047607421875</ele>
            </trkpt>
            <trkpt lat="45.67523800000000022691892809234559535980224609375" lon="10.5580809999999996051656125928275287151336669921875">
                <ele>982.4006310399992116799694485962390899658203125</ele>
            </trkpt>
            <trkpt lat="45.67541099999999687497620470821857452392578125" lon="10.558144999999999669171302230097353458404541015625">
                <ele>988.5265695999042918629129417240619659423828125</ele>
            </trkpt>
            <trkpt lat="45.67554400000000214276951737701892852783203125" lon="10.55823600000000084264684119261801242828369140625">
                <ele>992.8157171200573429814539849758148193359375</ele>
            </trkpt>
            <trkpt lat="45.6756290000000007012204150669276714324951171875" lon="10.5582550000000008338929546880535781383514404296875">
                <ele>995.00503360001721375738270580768585205078125</ele>
            </trkpt>
            <trkpt lat="45.67572599999999738429323770105838775634765625" lon="10.5583100000000005280753612169064581394195556640625">
                <ele>997.2486207999385214861831627786159515380859375</ele>
            </trkpt>
            <trkpt lat="45.67581299999999799865690874867141246795654296875" lon="10.5585229999999992145376381813548505306243896484375">
                <ele>1003.9014878399415238163783214986324310302734375</ele>
            </trkpt>
            <trkpt lat="45.6758990000000011377778719179332256317138671875" lon="10.55861900000000019872459233738481998443603515625">
                <ele>1009.740511520054269567481242120265960693359375</ele>
            </trkpt>
            <trkpt lat="45.67618999999999829242369742132723331451416015625" lon="10.55845000000000055706550483591854572296142578125">
                <ele>1019.5685599999266059967339970171451568603515625</ele>
            </trkpt>
            <trkpt lat="45.67627999999999843794284970499575138092041015625" lon="10.558189999999999741930878371931612491607666015625">
                <ele>1025.18156799991675143246538937091827392578125</ele>
            </trkpt>
            <trkpt lat="45.676209999999997535269358195364475250244140625" lon="10.5576500000000006451728040701709687709808349609375">
                <ele>1033.700559999788538334541954100131988525390625</ele>
            </trkpt>
            <trkpt lat="45.67681999999999931105776340700685977935791015625" lon="10.5569299999999994810195858008228242397308349609375">
                <ele>1097.31500799997274953057058155536651611328125</ele>
            </trkpt>
            <trkpt lat="45.67708999999999974761522025801241397857666015625" lon="10.5568299999999997140776031301356852054595947265625">
                <ele>1113.61297599998988516745157539844512939453125</ele>
            </trkpt>
            <trkpt lat="45.6771499999999974761522025801241397857666015625" lon="10.5563699999999993650590113247744739055633544921875">
                <ele>1113.088879999873824999667704105377197265625</ele>
            </trkpt>
            <trkpt lat="45.67757999999999896090230322442948818206787109375" lon="10.556850000000000733280103304423391819000244140625">
                <ele>1136.183679999970991048030555248260498046875</ele>
            </trkpt>
            <trkpt lat="45.6782699999999977080733515322208404541015625" lon="10.557069999999999510009729419834911823272705078125">
                <ele>1149.481023999945819014101289212703704833984375</ele>
            </trkpt>
            <trkpt lat="45.6782699999999977080733515322208404541015625" lon="10.5571239999999999525925886700861155986785888671875">
                <ele>1149.476876799943283913307823240756988525390625</ele>
            </trkpt>
            <trkpt lat="45.67832899999999796136762597598135471343994140625" lon="10.557123000000000700993041391484439373016357421875">
                <ele>1150.940134719950265207444317638874053955078125</ele>
            </trkpt>
            <trkpt lat="45.678415999999998575731297023594379425048828125" lon="10.5571999999999999175770426518283784389495849609375">
                <ele>1155.413535999925670694210566580295562744140625</ele>
            </trkpt>
            <trkpt lat="45.67865299999999706415110267698764801025390625" lon="10.557435999999999154397301026619970798492431640625">
                <ele>1167.622781439850996321183629333972930908203125</ele>
            </trkpt>
            <trkpt lat="45.67871199999999731744537712074816226959228515625" lon="10.5575379999999992008952176547609269618988037109375">
                <ele>1170.688403199861340908682905137538909912109375</ele>
            </trkpt>
            <trkpt lat="45.67871199999999731744537712074816226959228515625" lon="10.5575379999999992008952176547609269618988037109375">
                <ele>1170.688403199861340908682905137538909912109375</ele>
            </trkpt>
            <trkpt lat="45.67874100000000225918483920395374298095703125" lon="10.5575880000000008607230483903549611568450927734375">
                <ele>1172.30469760011737889726646244525909423828125</ele>
            </trkpt>
            <trkpt lat="45.6787199999999984356691129505634307861328125" lon="10.5577210000000007994458428584039211273193359375">
                <ele>1171.603263999920500282314606010913848876953125</ele>
            </trkpt>
            <trkpt lat="45.67854700000000178761183633469045162200927734375" lon="10.5580300000000004700950739788822829723358154296875">
                <ele>1163.08415200009721957030706107616424560546875</ele>
            </trkpt>
            <trkpt lat="45.6784999999999996589394868351519107818603515625" lon="10.55834899999999976216713548637926578521728515625">
                <ele>1161.0052799999784838291816413402557373046875</ele>
            </trkpt>
            <trkpt lat="45.6785569999999978563209879212081432342529296875" lon="10.5587660000000003179820851073600351810455322265625">
                <ele>1166.418594239902859044377692043781280517578125</ele>
            </trkpt>
            <trkpt lat="45.67848099999999789133653393946588039398193359375" lon="10.559115999999999502279024454765021800994873046875">
                <ele>1165.4519539199172868393361568450927734375</ele>
            </trkpt>
            <trkpt lat="45.6783429999999981419023242779076099395751953125" lon="10.559248000000000189402271644212305545806884765625">
                <ele>1161.97164927994390382082201540470123291015625</ele>
            </trkpt>
            <trkpt lat="45.6783640000000019654180505312979221343994140625" lon="10.5594219999999996417727743391878902912139892578125">
                <ele>1164.8072281600352653185836970806121826171875</ele>
            </trkpt>
            <trkpt lat="45.67834599999999767305780551396310329437255859375" lon="10.5597100000000008179767974070273339748382568359375">
                <ele>1168.363763200003404563176445662975311279296875</ele>
            </trkpt>
            <trkpt lat="45.67832800000000048612491809763014316558837890625" lon="10.5597589999999996734914020635187625885009765625">
                <ele>1168.74869120002085765008814632892608642578125</ele>
            </trkpt>
            <trkpt lat="45.67832800000000048612491809763014316558837890625" lon="10.5597589999999996734914020635187625885009765625">
                <ele>1168.74869120002085765008814632892608642578125</ele>
            </trkpt>
            <trkpt lat="45.67828200000000293812263407744467258453369140625" lon="10.5598849999999995219468473806045949459075927734375">
                <ele>1168.233392000141975586302578449249267578125</ele>
            </trkpt>
            <trkpt lat="45.6782520000000005211404641158878803253173828125" lon="10.560067000000000092541085905395448207855224609375">
                <ele>1168.176928640023788830148987472057342529296875</ele>
            </trkpt>
            <trkpt lat="45.67814200000000113277565105818212032318115234375" lon="10.5602800000000005553602022700943052768707275390625">
                <ele>1163.561369600038005955866537988185882568359375</ele>
            </trkpt>
            <trkpt lat="45.678078999999996767655829899013042449951171875" lon="10.5605109999999999814690454513765871524810791015625">
                <ele>1162.75429423993819000315852463245391845703125</ele>
            </trkpt>
            <trkpt lat="45.6779599999999987858245731331408023834228515625" lon="10.5607330000000008141114449244923889636993408203125">
                <ele>1163.251692800002274452708661556243896484375</ele>
            </trkpt>
            <trkpt lat="45.67776599999999831425157026387751102447509765625" lon="10.5608850000000007440803528879769146442413330078125">
                <ele>1163.899641599997949015232734382152557373046875</ele>
            </trkpt>
            <trkpt lat="45.6776789999999976998878992162644863128662109375" lon="10.5610649999999992587618180550634860992431640625">
                <ele>1163.143137600039835888310335576534271240234375</ele>
            </trkpt>
            <trkpt lat="45.67755700000000018690116121433675289154052734375" lon="10.5612300000000001176658770418725907802581787109375">
                <ele>1165.38231359999508640612475574016571044921875</ele>
            </trkpt>
            <trkpt lat="45.67755700000000018690116121433675289154052734375" lon="10.5612300000000001176658770418725907802581787109375">
                <ele>1165.38231359999508640612475574016571044921875</ele>
            </trkpt>
            <trkpt lat="45.67741600000000090631147031672298908233642578125" lon="10.5614369999999997418171915342099964618682861328125">
                <ele>1166.06866368001692535472102463245391845703125</ele>
            </trkpt>
            <trkpt lat="45.67712800000000328282112604938447475433349609375" lon="10.561633000000000492946128360927104949951171875">
                <ele>1163.77442496005778593826107680797576904296875</ele>
            </trkpt>
            <trkpt lat="45.6770089999999981955625116825103759765625" lon="10.561671000000000475438355351798236370086669921875">
                <ele>1163.096408959984501052531413733959197998046875</ele>
            </trkpt>
            <trkpt lat="45.67680599999999913052306510508060455322265625" lon="10.561837000000000585941961617209017276763916015625">
                <ele>1165.58067008001626163604669272899627685546875</ele>
            </trkpt>
            <trkpt lat="45.67666700000000190584614756517112255096435546875" lon="10.5620759999999993539177012280561029911041259765625">
                <ele>1174.705354879951983093633316457271575927734375</ele>
            </trkpt>
            <trkpt lat="45.67646400000000284080670098774135112762451171875" lon="10.5622969999999991586037140223197638988494873046875">
                <ele>1174.35053888009088041144423186779022216796875</ele>
            </trkpt>
            <trkpt lat="45.67610599999999720921550760976970195770263671875" lon="10.5624500000000001165290086646564304828643798828125">
                <ele>1165.05699199988157488405704498291015625</ele>
            </trkpt>
            <trkpt lat="45.67605999999999966121322358958423137664794921875" lon="10.562709999999999155306795728392899036407470703125">
                <ele>1165.34239999998544590198434889316558837890625</ele>
            </trkpt>
            <trkpt lat="45.6758999999999986130205797962844371795654296875" lon="10.5629299999999997083932612440548837184906005859375">
                <ele>1160.959999999957972249831072986125946044921875</ele>
            </trkpt>
            <trkpt lat="45.67575000000000073896444519050419330596923828125" lon="10.56287999999999982492226990871131420135498046875">
                <ele>1159.303999999993038727552630007266998291015625</ele>
            </trkpt>
            <trkpt lat="45.67589000000000254431142820976674556732177734375" lon="10.5626200000000007861444828449748456478118896484375">
                <ele>1158.711200000101371188065968453884124755859375</ele>
            </trkpt>
            <trkpt lat="45.67569999999999907913661445491015911102294921875" lon="10.5627499999999994173549566767178475856781005859375">
                <ele>1158.079999999996289261616766452789306640625</ele>
            </trkpt>
            <trkpt lat="45.67570599999999814144757692702114582061767578125" lon="10.5627610000000000667341737425886094570159912109375">
                <ele>1158.1911392000083651510067284107208251953125</ele>
            </trkpt>
            <trkpt lat="45.67545100000000246609488385729491710662841796875" lon="10.5630009999999998626663000322878360748291015625">
                <ele>1163.848611199971173846279270946979522705078125</ele>
            </trkpt>
            <trkpt lat="45.67545100000000246609488385729491710662841796875" lon="10.5630009999999998626663000322878360748291015625">
                <ele>1163.848611199971173846279270946979522705078125</ele>
            </trkpt>
            <trkpt lat="45.67545599999999694773578085005283355712890625" lon="10.562996999999999303554432117380201816558837890625">
                <ele>1163.71739840001964694238267838954925537109375</ele>
            </trkpt>
            <trkpt lat="45.6754490000000004101821104995906352996826171875" lon="10.5627370000000002647766450536437332630157470703125">
                <ele>1158.730505600003880317672155797481536865234375</ele>
            </trkpt>
            <trkpt lat="45.67531999999999925421434454619884490966796875" lon="10.562331000000000358340912498533725738525390625">
                <ele>1146.617273600014186740736477077007293701171875</ele>
            </trkpt>
            <trkpt lat="45.67522600000000210229700314812362194061279296875" lon="10.56217099999999931014826870523393154144287109375">
                <ele>1139.9305116799732786603271961212158203125</ele>
            </trkpt>
            <trkpt lat="45.6749549999999970850694808177649974822998046875" lon="10.5619309999999995142161424155347049236297607421875">
                <ele>1131.983271200069111728225834667682647705078125</ele>
            </trkpt>
            <trkpt lat="45.67484499999999769670466776005923748016357421875" lon="10.56187800000000009958966984413564205169677734375">
                <ele>1133.218030400073757846257649362087249755859375</ele>
            </trkpt>
            <trkpt lat="45.67479300000000108639142126776278018951416015625" lon="10.56177699999999930469130049459636211395263671875">
                <ele>1130.9139118399425569805316627025604248046875</ele>
            </trkpt>
            <trkpt lat="45.6748300000000000409272615797817707061767578125" lon="10.5617579999999993134451869991607964038848876953125">
                <ele>1129.08484159997397000552155077457427978515625</ele>
            </trkpt>
            <trkpt lat="45.6748300000000000409272615797817707061767578125" lon="10.5617579999999993134451869991607964038848876953125">
                <ele>1129.08484159997397000552155077457427978515625</ele>
            </trkpt>
            <trkpt lat="45.67518199999999950478013488464057445526123046875" lon="10.56157699999999977080733515322208404541015625">
                <ele>1115.52399935998846558504737913608551025390625</ele>
            </trkpt>
            <trkpt lat="45.67546300000000059071680880151689052581787109375" lon="10.5615089999999991476897776010446250438690185546875">
                <ele>1111.319278079957030058722011744976043701171875</ele>
            </trkpt>
            <trkpt lat="45.67565599999999648161974619142711162567138671875" lon="10.5612670000000008485585567541420459747314453125">
                <ele>1100.156964480042233844869770109653472900390625</ele>
            </trkpt>
            <trkpt lat="45.6756969999999995479811332188546657562255859375" lon="10.561173000000000143927536555565893650054931640625">
                <ele>1096.03273344000399447395466268062591552734375</ele>
            </trkpt>
            <trkpt lat="45.675601999999997815393726341426372528076171875" lon="10.5611680000000003332161213620565831661224365234375">
                <ele>1096.0019366400156286545097827911376953125</ele>
            </trkpt>
            <trkpt lat="45.67559899999999828423824510537087917327880859375" lon="10.5611399999999999721467247582040727138519287109375">
                <ele>1094.7939263999987815623171627521514892578125</ele>
            </trkpt>
            <trkpt lat="45.67559899999999828423824510537087917327880859375" lon="10.5611399999999999721467247582040727138519287109375">
                <ele>1094.7939263999987815623171627521514892578125</ele>
            </trkpt>
            <trkpt lat="45.675579999999996516635292209684848785400390625" lon="10.5606980000000003627746991696767508983612060546875">
                <ele>1076.218752000008635150152258574962615966796875</ele>
            </trkpt>
            <trkpt lat="45.6754260000000016361809684894979000091552734375" lon="10.5606629999999999114379534148611128330230712890625">
                <ele>1074.664046399996323088998906314373016357421875</ele>
            </trkpt>
            <trkpt lat="45.67536499999999932697392068803310394287109375" lon="10.560781999999999669626049580983817577362060546875">
                <ele>1079.41730399998414213769137859344482421875</ele>
            </trkpt>
            <trkpt lat="45.67511300000000318277670885436236858367919921875" lon="10.560840999999999922920324024744331836700439453125">
                <ele>1081.853809919992954746703617274761199951171875</ele>
            </trkpt>
            <trkpt lat="45.67497399999999885267243371345102787017822265625" lon="10.56071299999999979490894475020468235015869140625">
                <ele>1077.30416832003402305417694151401519775390625</ele>
            </trkpt>
            <trkpt lat="45.674791999999996505721355788409709930419921875" lon="10.5604600000000008463985068374313414096832275390625">
                <ele>1072.937875200163716726819984614849090576171875</ele>
            </trkpt>
            <trkpt lat="45.67460299999999762121660751290619373321533203125" lon="10.56007699999999971396391629241406917572021484375">
                <ele>1061.953316160063650386291556060314178466796875</ele>
            </trkpt>
            <trkpt lat="45.6743900000000024874680093489587306976318359375" lon="10.55953099999999977853804011829197406768798828125">
                <ele>1042.310764799927710555493831634521484375</ele>
            </trkpt>
            <trkpt lat="45.67408999999999963392838253639638423919677734375" lon="10.5592799999999993332266967627219855785369873046875">
                <ele>1034.421439999963013178785331547260284423828125</ele>
            </trkpt>
            <trkpt lat="45.6731180000000023255779524333775043487548828125" lon="10.5587119999999998753992258571088314056396484375">
                <ele>1002.96496256003229063935577869415283203125</ele>
            </trkpt>
            <trkpt lat="45.67271000000000213958628592081367969512939453125" lon="10.5585520000000006035634214640595018863677978515625">
                <ele>990.2641472000494786698254756629467010498046875</ele>
            </trkpt>
            <trkpt lat="45.672911999999996623955667018890380859375" lon="10.558277000000000356294549419544637203216552734375">
                <ele>982.432499839983620404382236301898956298828125</ele>
            </trkpt>
            <trkpt lat="45.672911999999996623955667018890380859375" lon="10.558277000000000356294549419544637203216552734375">
                <ele>982.432499839983620404382236301898956298828125</ele>
            </trkpt>
            <trkpt lat="45.67299700000000228783392230980098247528076171875" lon="10.5581600000000008776623872108757495880126953125">
                <ele>978.750483200046573983854614198207855224609375</ele>
            </trkpt>
            <trkpt lat="45.67340500000000247382558882236480712890625" lon="10.558068999999999704186848248355090618133544921875">
                <ele>976.87271679999093976221047341823577880859375</ele>
            </trkpt>
            <trkpt lat="45.67357700000000164664015755988657474517822265625" lon="10.55798300000000011777956387959420680999755859375">
                <ele>973.4368998400085501998546533286571502685546875</ele>
            </trkpt>
            <trkpt lat="45.6737949999999983674570103175938129425048828125" lon="10.5578289999999999082547219586558640003204345703125">
                <ele>967.4487231999916048152954317629337310791015625</ele>
            </trkpt>
            <trkpt lat="45.67387599999999991950971889309585094451904296875" lon="10.5576600000000002665956344571895897388458251953125">
                <ele>960.7086784000108536929474212229251861572265625</ele>
            </trkpt>
            <trkpt lat="45.6741420000000033496689866296947002410888671875" lon="10.557477999999999696001395932398736476898193359375">
                <ele>954.6167814400023416965268552303314208984375</ele>
            </trkpt>
            <trkpt lat="45.67417499999999819237928022630512714385986328125" lon="10.5574150000000006599520929739810526371002197265625">
                <ele>952.61056000000462518073618412017822265625</ele>
            </trkpt>
            <trkpt lat="45.6745949999999965029928716830909252166748046875" lon="10.557539999999999480451151612214744091033935546875">
                <ele>958.86860799996838977676816284656524658203125</ele>
            </trkpt>
            <trkpt lat="45.674723000000000183717929758131504058837890625" lon="10.5575449999999992911625668057240545749664306640625">
                <ele>959.5558455999789657653309404850006103515625</ele>
            </trkpt>
            <trkpt lat="45.67486699999999899546310189180076122283935546875" lon="10.5574689999999993261781128239817917346954345703125">
                <ele>958.6581606399887505176593549549579620361328125</ele>
            </trkpt>
            <trkpt lat="45.67488999999999776946424390189349651336669921875" lon="10.557430000000000092086338554508984088897705078125">
                <ele>958.5775359999828424406587146222591400146484375</ele>
            </trkpt>
            <trkpt lat="45.6746959999999972978912410326302051544189453125" lon="10.5570509999999995187636159243993461132049560546875">
                <ele>951.9984812799299334074021317064762115478515625</ele>
            </trkpt>
            <trkpt lat="45.67457900000000137197275762446224689483642578125" lon="10.556703999999999865622157813049852848052978515625">
                <ele>943.012122880045581041486002504825592041015625</ele>
            </trkpt>
            <trkpt lat="45.67436599999999913279680185951292514801025390625" lon="10.55618199999999973215381032787263393402099609375">
                <ele>925.3182675199341247207485139369964599609375</ele>
            </trkpt>
            <trkpt lat="45.67428300000000263025867752730846405029296875" lon="10.55606900000000081263351603411138057708740234375">
                <ele>917.14216592020920870709232985973358154296875</ele>
            </trkpt>
            <trkpt lat="45.67422599999999732744981884025037288665771484375" lon="10.555958000000000396312316297553479671478271484375">
                <ele>910.0008876797922994228429161012172698974609375</ele>
            </trkpt>
            <trkpt lat="45.67412800000000316913428832776844501495361328125" lon="10.555685000000000428599378210492432117462158203125">
                <ele>902.8995584000839471627841703593730926513671875</ele>
            </trkpt>
            <trkpt lat="45.67409599999999869623934500850737094879150390625" lon="10.55589499999999958390617393888533115386962890625">
                <ele>902.1533023999627403100021183490753173828125</ele>
            </trkpt>
            <trkpt lat="45.674115999999997939085005782544612884521484375" lon="10.556008999999999531382854911498725414276123046875">
                <ele>906.011799679952446240349672734737396240234375</ele>
            </trkpt>
            <trkpt lat="45.67411799999999999499777914024889469146728515625" lon="10.5561209999999991993036019266583025455474853515625">
                <ele>909.4959161599730350644676946103572845458984375</ele>
            </trkpt>
            <trkpt lat="45.67401300000000219370122067630290985107421875" lon="10.555789000000000754653228796087205410003662109375">
                <ele>899.007916160041759212617762386798858642578125</ele>
            </trkpt>
            <trkpt lat="45.67399199999999837018549442291259765625" lon="10.5556499999999999772626324556767940521240234375">
                <ele>899.222623999950201323372311890125274658203125</ele>
            </trkpt>
            <trkpt lat="45.67390199999999822466634213924407958984375" lon="10.555555999999999272631612257100641727447509765625">
                <ele>896.321730559932575488346628844738006591796875</ele>
            </trkpt>
            <trkpt lat="45.67386900000000338195604854263365268707275390625" lon="10.55586100000000016052581486292183399200439453125">
                <ele>897.114308480062391026876866817474365234375</ele>
            </trkpt>
            <trkpt lat="45.67377599999999659985405742190778255462646484375" lon="10.555521999999999849251253181137144565582275390625">
                <ele>891.29150335986332720494829118251800537109375</ele>
            </trkpt>
            <trkpt lat="45.67365699999999861802280065603554248809814453125" lon="10.5554000000000005599076757789589464664459228515625">
                <ele>884.340463999942812733934260904788970947265625</ele>
            </trkpt>
            <trkpt lat="45.673439000000001897205947898328304290771484375" lon="10.555246000000000350382833858020603656768798828125">
                <ele>868.7284947201209206468774937093257904052734375</ele>
            </trkpt>
            <trkpt lat="45.67332400000000092177288024686276912689208984375" lon="10.5550960000000006999698598519898951053619384765625">
                <ele>856.6795609600034140385105274617671966552734375</ele>
            </trkpt>
            <trkpt lat="45.67325100000000048794390750117599964141845703125" lon="10.554316000000000030922819860279560089111328125">
                <ele>848.4174380800076278319465927779674530029296875</ele>
            </trkpt>
            <trkpt lat="45.67311300000000073850969783961772918701171875" lon="10.5538609999999994926156432484276592731475830078125">
                <ele>835.393635040010167358559556305408477783203125</ele>
            </trkpt>
            <trkpt lat="45.67312299999999680721884942613542079925537109375" lon="10.55378699999999980718712322413921356201171875">
                <ele>833.9498852798730013091699220240116119384765625</ele>
            </trkpt>
            <trkpt lat="45.67312299999999680721884942613542079925537109375" lon="10.55378699999999980718712322413921356201171875">
                <ele>833.9498852798730013091699220240116119384765625</ele>
            </trkpt>
            <trkpt lat="45.6731630000000023983375285752117633819580078125" lon="10.5534990000000004073399395565502345561981201171875">
                <ele>828.6406513601071992525248788297176361083984375</ele>
            </trkpt>
            <trkpt lat="45.67327800000000337377059622667729854583740234375" lon="10.55335099999999926012606010772287845611572265625">
                <ele>830.3554998401322109202737919986248016357421875</ele>
            </trkpt>
            <trkpt lat="45.673417000000000598447513766586780548095703125" lon="10.552932999999999452711563208140432834625244140625">
                <ele>819.3988784000002851826138794422149658203125</ele>
            </trkpt>
            <trkpt lat="45.67333800000000110230757854878902435302734375" lon="10.5529080000000003991544872405938804149627685546875">
                <ele>815.3250176000586861846386454999446868896484375</ele>
            </trkpt>
            <trkpt lat="45.67314900000000221780283027328550815582275390625" lon="10.553032999999999219653545878827571868896484375">
                <ele>812.239402400061635489691980183124542236328125</ele>
            </trkpt>
            <trkpt lat="45.67304500000000189174897968769073486328125" lon="10.5531389999999998252633304218761622905731201171875">
                <ele>811.8266360000728809609427116811275482177734375</ele>
            </trkpt>
            <trkpt lat="45.67291800000000279169398709200322628021240234375" lon="10.553070999999999202145772869698703289031982421875">
                <ele>803.642081600087976767099462449550628662109375</ele>
            </trkpt>
            <trkpt lat="45.67291900000000026693669497035443782806396484375" lon="10.552932999999999452711563208140432834625244140625">
                <ele>798.4670743999869273466174490749835968017578125</ele>
            </trkpt>
            <trkpt lat="45.67313999999999651890902896411716938018798828125" lon="10.5525990000000007285052561201155185699462890625">
                <ele>794.74539199988475957070477306842803955078125</ele>
            </trkpt>
            <trkpt lat="45.6733329999999995152393239550292491912841796875" lon="10.552414999999999878355083637870848178863525390625">
                <ele>793.6932895999663060138118453323841094970703125</ele>
            </trkpt>
            <trkpt lat="45.6735460000000017544152797199785709381103515625" lon="10.5519639999999998991597749409265816211700439453125">
                <ele>775.980723200053262189612723886966705322265625</ele>
            </trkpt>
            <trkpt lat="45.673620999999997138729668222367763519287109375" lon="10.551857999999999293549990397877991199493408203125">
                <ele>772.9413103998509768643998540937900543212890625</ele>
            </trkpt>
            <trkpt lat="45.67369800000000168438418768346309661865234375" lon="10.55160599999999959663909976370632648468017578125">
                <ele>765.4895136000635602613328956067562103271484375</ele>
            </trkpt>
            <trkpt lat="45.6737490000000008194547262974083423614501953125" lon="10.5515500000000006508571459562517702579498291015625">
                <ele>767.3924400000308878588839434087276458740234375</ele>
            </trkpt>
            <trkpt lat="45.67384700000000208319761441089212894439697265625" lon="10.5512169999999994018935467465780675411224365234375">
                <ele>770.6409528000721138596418313682079315185546875</ele>
            </trkpt>
            <trkpt lat="45.67394300000000129102772916667163372039794921875" lon="10.550988000000000255340637522749602794647216796875">
                <ele>773.5609248000433808556408621370792388916015625</ele>
            </trkpt>
            <trkpt lat="45.6739299999999985857357387430965900421142578125" lon="10.550945999999999713736542616970837116241455078125">
                <ele>773.0456159999521332792937755584716796875</ele>
            </trkpt>
            <trkpt lat="45.67346500000000020236257114447653293609619140625" lon="10.551075000000000869704308570362627506256103515625">
                <ele>757.4151000000055091732065193355083465576171875</ele>
            </trkpt>
            <trkpt lat="45.67337400000000258160071098245680332183837890625" lon="10.5512320000000006103846317273564636707305908203125">
                <ele>753.9775296000897242265637032687664031982421875</ele>
            </trkpt>
            <trkpt lat="45.6732540000000000190993887372314929962158203125" lon="10.55128500000000002501110429875552654266357421875">
                <ele>749.7627759999974159654811955988407135009765625</ele>
            </trkpt>
            <trkpt lat="45.6730170000000015306795830838382244110107421875" lon="10.5515500000000006508571459562517702579498291015625">
                <ele>743.011240000042334941099397838115692138671875</ele>
            </trkpt>
            <trkpt lat="45.67284200000000282670953311026096343994140625" lon="10.5515810000000005430820237961597740650177001953125">
                <ele>738.4148368000777509223553352057933807373046875</ele>
            </trkpt>
            <trkpt lat="45.67267700000000019144863472320139408111572265625" lon="10.5515260000000008488996172673068940639495849609375">
                <ele>733.3037968000118098643724806606769561767578125</ele>
            </trkpt>
            <trkpt lat="45.6724999999999994315658113919198513031005859375" lon="10.5514220000000005228457666817121207714080810546875">
                <ele>726.683200000030410592444241046905517578125</ele>
            </trkpt>
            <trkpt lat="45.67196700000000220143192564137279987335205078125" lon="10.551007999999999498186298296786844730377197265625">
                <ele>728.6204454399429550903732888400554656982421875</ele>
            </trkpt>
            <trkpt lat="45.671751999999997906343196518719196319580078125" lon="10.5503699999999991376853358815424144268035888671875">
                <ele>708.3824511999176820609136484563350677490234375</ele>
            </trkpt>
            <trkpt lat="45.6716219999999992751327226869761943817138671875" lon="10.5500810000000004862386049353517591953277587890625">
                <ele>695.5481686400174794471240602433681488037109375</ele>
            </trkpt>
            <trkpt lat="45.67145099999999757756086182780563831329345703125" lon="10.54988900000000029422153602354228496551513671875">
                <ele>692.64245167998524266295135021209716796875</ele>
            </trkpt>
            <trkpt lat="45.67120899999999750207280158065259456634521484375" lon="10.5498419999999999419060259242542088031768798828125">
                <ele>691.0353353599806496276869438588619232177734375</ele>
            </trkpt>
            <trkpt lat="45.6709809999999976071194396354258060455322265625" lon="10.5497409999999991470076565747149288654327392578125">
                <ele>687.8805915199594664954929612576961517333984375</ele>
            </trkpt>
            <trkpt lat="45.67066899999999662895788787864148616790771484375" lon="10.549583999999999406327333417721092700958251953125">
                <ele>681.242586239947058857069350779056549072265625</ele>
            </trkpt>
            <trkpt lat="45.67012600000000333011485054157674312591552734375" lon="10.549229000000000411318978876806795597076416015625">
                <ele>659.4705657600931090200901962816715240478515625</ele>
            </trkpt>
            <trkpt lat="45.6699330000000003337845555506646633148193359375" lon="10.5491820000000000590034687775187194347381591796875">
                <ele>655.78347935999454421107657253742218017578125</ele>
            </trkpt>
            <trkpt lat="45.6697419999999993933670339174568653106689453125" lon="10.549172999999999689180185669101774692535400390625">
                <ele>659.6963529599976254758075810968875885009765625</ele>
            </trkpt>
            <trkpt lat="45.669432000000000471118255518376827239990234375" lon="10.5487660000000005311449058353900909423828125">
                <ele>656.9274828800162140396423637866973876953125</ele>
            </trkpt>
            <trkpt lat="45.66910500000000183717929758131504058837890625" lon="10.5484559999999998325392880360595881938934326171875">
                <ele>643.45600639991744174039922654628753662109375</ele>
            </trkpt>
            <trkpt lat="45.66892500000000154614099301397800445556640625" lon="10.5480579999999992679704519105143845081329345703125">
                <ele>642.632399999965628012432716786861419677734375</ele>
            </trkpt>
            <trkpt lat="45.6687050000000027694113668985664844512939453125" lon="10.5477589999999992187440511770546436309814453125">
                <ele>639.6507599999901003684499301016330718994140625</ele>
            </trkpt>
            <trkpt lat="45.66856400000000348882167600095272064208984375" lon="10.5475259999999995130792740383185446262359619140625">
                <ele>631.360992000052874573157168924808502197265625</ele>
            </trkpt>
            <trkpt lat="45.66834800000000171849023899994790554046630859375" lon="10.5473429999999996908854882349260151386260986328125">
                <ele>625.4764742400406021261005662381649017333984375</ele>
            </trkpt>
            <trkpt lat="45.66800099999999673627826268784701824188232421875" lon="10.5473230000000004480398274608887732028961181640625">
                <ele>622.8870641599800137555575929582118988037109375</ele>
            </trkpt>
            <trkpt lat="45.6678220000000010259100235998630523681640625" lon="10.5472879999999999967030817060731351375579833984375">
                <ele>621.444101120005825578118674457073211669921875</ele>
            </trkpt>
            <trkpt lat="45.6676489999999972724253893829882144927978515625" lon="10.547349000000000529553290107287466526031494140625">
                <ele>620.8111899199863046305836178362369537353515625</ele>
            </trkpt>
            <trkpt lat="45.66751599999999911005943431518971920013427734375" lon="10.547335000000000349018591805361211299896240234375">
                <ele>619.8214111999965325594530440866947174072265625</ele>
            </trkpt>
            <trkpt lat="45.66739199999999954115992295555770397186279296875" lon="10.5472500000000000142108547152020037174224853515625">
                <ele>617.4003199999921207563602365553379058837890625</ele>
            </trkpt>
            <trkpt lat="45.6672530000000023164830054156482219696044921875" lon="10.5472149999999995628741089603863656520843505859375">
                <ele>614.897211200021729382569901645183563232421875</ele>
            </trkpt>
            <trkpt lat="45.6672530000000023164830054156482219696044921875" lon="10.5472149999999995628741089603863656520843505859375">
                <ele>614.897211200021729382569901645183563232421875</ele>
            </trkpt>
            <trkpt lat="45.666933000000000220097717829048633575439453125" lon="10.5472020000000004102957973373122513294219970703125">
                <ele>609.9143129600128077072440646588802337646484375</ele>
            </trkpt>
            <trkpt lat="45.66663100000000241607267525978386402130126953125" lon="10.5470050000000004075673132319934666156768798828125">
                <ele>597.79560000000810759956948459148406982421875</ele>
            </trkpt>
            <trkpt lat="45.666302000000001726220943965017795562744140625" lon="10.546732999999999691453922423534095287322998046875">
                <ele>587.161199999979771746438927948474884033203125</ele>
            </trkpt>
            <trkpt lat="45.66607900000000341833583661355078220367431640625" lon="10.546459999999999723740984336473047733306884765625">
                <ele>584.6237120000214417814277112483978271484375</ele>
            </trkpt>
            <trkpt lat="45.6659130000000033078322303481400012969970703125" lon="10.5464110000000008682263796799816191196441650390625">
                <ele>583.1207024000350429560057818889617919921875</ele>
            </trkpt>
            <trkpt lat="45.66576500000000038426151149906218051910400390625" lon="10.5461510000000000530917532159946858882904052734375">
                <ele>581.0579767999910245634964667260646820068359375</ele>
            </trkpt>
            <trkpt lat="45.66559300000000121144694276154041290283203125" lon="10.54601100000000002410160959698259830474853515625">
                <ele>582.464545759975635519367642700672149658203125</ele>
            </trkpt>
            <trkpt lat="45.66530399999999900728653301484882831573486328125" lon="10.5458580000000008425331543548963963985443115234375">
                <ele>583.2908518400400907921721227467060089111328125</ele>
            </trkpt>
            <trkpt lat="45.6649010000000004083631210960447788238525390625" lon="10.5455330000000007117932909750379621982574462890625">
                <ele>584.2201982400009683260577730834484100341796875</ele>
            </trkpt>
            <trkpt lat="45.66485399999999827969077159650623798370361328125" lon="10.5453770000000002227125150966458022594451904296875">
                <ele>582.4699862400535721462802030146121978759765625</ele>
            </trkpt>
            <trkpt lat="45.66471399999999647434378857724368572235107421875" lon="10.5451940000000004005187292932532727718353271484375">
                <ele>582.208260480097806066623888909816741943359375</ele>
            </trkpt>
            <trkpt lat="45.6645189999999985275280778296291828155517578125" lon="10.5445949999999992741095411474816501140594482421875">
                <ele>573.5686967999985199639922939240932464599609375</ele>
            </trkpt>
            <trkpt lat="45.664141000000000758518581278622150421142578125" lon="10.5441260000000003316245056339539587497711181640625">
                <ele>563.94133311997347846045158803462982177734375</ele>
            </trkpt>
            <trkpt lat="45.66392700000000104409991763532161712646484375" lon="10.5437180000000001456328391213901340961456298828125">
                <ele>563.44783551997306858538649976253509521484375</ele>
            </trkpt>
            <trkpt lat="45.6635449999999991632648743689060211181640625" lon="10.543155999999999750116330687887966632843017578125">
                <ele>556.0768384000008381917723454535007476806640625</ele>
            </trkpt>
            <trkpt lat="45.663397000000003345121513120830059051513671875" lon="10.5427330000000001319904185947962105274200439453125">
                <ele>542.859233920041560850222595036029815673828125</ele>
            </trkpt>
            <trkpt lat="45.662993999999997640770743601024150848388671875" lon="10.54243999999999914507498033344745635986328125">
                <ele>532.4146239999901126793702132999897003173828125</ele>
            </trkpt>
            <trkpt lat="45.66277000000000185764292837120592594146728515625" lon="10.54235800000000011777956387959420680999755859375">
                <ele>531.1073440000118353054858744144439697265625</ele>
            </trkpt>
        </trkseg>
    </trk>
</gpx>
