<?xml version="1.0" encoding="UTF-8" standalone="yes"?>
<gpx xmlns:gpxtpx1="http://www.garmin.com/xmlschemas/TrackPointExtension/v1" xmlns="http://www.topografix.com/GPX/1/1" xmlns:trp="http://www.garmin.com/xmlschemas/TripExtensions/v1" xmlns:gpxx="http://www.garmin.com/xmlschemas/GpxExtensions/v3" xmlns:gpxtpx="http://www.garmin.com/xmlschemas/TrackPointExtension/v2" version="1.1" creator="RouteConverter 2.27.2">
    <metadata>
        <name>2021-07-13 13:33</name>
        <link href="https://www.oruxmaps.com">
            <text>OruxMaps</text>
        </link>
        <time>2021-07-13T11:33:00Z</time>
        <bounds minlat="47.5163618" minlon="12.7533969" maxlat="47.5210103" maxlon="12.7591773"/>
    </metadata>
    <trk>
        <name>2021-07-13 13:33</name>
        <desc>&lt;p&gt;Startzeit: 13:33 13.07.2021&lt;br/&gt;Zielzeit: 15:41 13.07.2021&lt;br/&gt;Strecke: 4,
5 km (02:08)&lt;br/&gt;Bewegungszeit: 00:49&lt;br/&gt;Ø-Geschwindigkeit: 2,
13 km/h&lt;br/&gt;Netto-Geschwindigkeit: 5,
47 km/h&lt;br/&gt;Max. Geschwindigkeit: 55,
86 km/h&lt;br/&gt;Minimale Höhe: 653 m&lt;br/&gt;Maximale Höhe: 777 m&lt;br/&gt;Steig-Geschw.: 158 m/h&lt;br/&gt;Sink-Geschw.: -314,
4 m/h&lt;br/&gt;Aufstieg: 216 m&lt;br/&gt;Abstieg: -231 m&lt;br/&gt;Steigzeit: 01:22&lt;br/&gt;Sinkzeit: 00:44&lt;br/&gt;&lt;/p&gt;&lt;hr align="center" width="480" style="height: 2px; width: 517px"/&gt;</desc>
        <type>Berg/ Bergsteigen</type>
        <extensions>
            <om:oruxmapsextensions xmlns:om="http://www.oruxmaps.com/oruxmapsextensions/1/0" xmlns:gpxtpx="http://www.garmin.com/xmlschemas/TrackPointExtension/v1" xmlns:xsi="http://www.w3.org/2001/XMLSchema-instance">
                <om:ext subtype="0" type="TYPE">7</om:ext>
                <om:ext type="DIFFICULTY">0</om:ext>
</om:oruxmapsextensions>
        </extensions>
        <trkseg>
            <trkpt lat="47.5192409" lon="12.7542259">
                <ele>668.3</ele>
                <time>2021-07-13T11:52:49.000Z</time>
                <name>Position 1</name>
            </trkpt>
            <trkpt lat="47.5191871" lon="12.754592">
                <ele>669.0</ele>
                <time>2021-07-13T11:53:07.000Z</time>
                <name>Position 2</name>
            </trkpt>
            <trkpt lat="47.5195598" lon="12.7555736">
                <ele>667.7</ele>
                <time>2021-07-13T11:53:21.000Z</time>
                <name>Position 3</name>
            </trkpt>
            <trkpt lat="47.5198273" lon="12.7562044">
                <ele>670.7</ele>
                <time>2021-07-13T11:53:41.000Z</time>
                <name>Position 4</name>
            </trkpt>
            <trkpt lat="47.5200142" lon="12.7566423">
                <ele>669.5</ele>
                <time>2021-07-13T11:54:05.000Z</time>
                <name>Position 5</name>
            </trkpt>
            <trkpt lat="47.5200435" lon="12.7568811">
                <ele>675.2</ele>
                <time>2021-07-13T11:56:11.000Z</time>
                <name>Position 6</name>
            </trkpt>
            <trkpt lat="47.5200767" lon="12.7570283">
                <ele>678.5</ele>
                <time>2021-07-13T11:56:39.000Z</time>
                <name>Position 7</name>
            </trkpt>
            <trkpt lat="47.5201761" lon="12.7572566">
                <ele>691.3</ele>
                <time>2021-07-13T11:59:07.000Z</time>
                <name>Position 8</name>
            </trkpt>
            <trkpt lat="47.5199987" lon="12.7571844">
                <ele>702.5</ele>
                <time>2021-07-13T12:00:38.000Z</time>
                <name>Position 9</name>
            </trkpt>
            <trkpt lat="47.5198236" lon="12.7571005">
                <ele>709.0</ele>
                <time>2021-07-13T12:04:54.000Z</time>
                <name>Position 10</name>
            </trkpt>
            <trkpt lat="47.5196662" lon="12.7572317">
                <ele>727.6</ele>
                <time>2021-07-13T12:16:30.000Z</time>
                <name>Position 11</name>
            </trkpt>
            <trkpt lat="47.5195076" lon="12.7573585">
                <ele>742.5</ele>
                <time>2021-07-13T12:19:19.000Z</time>
                <name>Position 12</name>
            </trkpt>
            <trkpt lat="47.5193198" lon="12.7573814">
                <ele>755.9</ele>
                <time>2021-07-13T12:23:23.000Z</time>
                <name>Position 13</name>
            </trkpt>
            <trkpt lat="47.5191394" lon="12.7574062">
                <ele>758.5</ele>
                <time>2021-07-13T12:25:19.000Z</time>
                <name>Position 14</name>
            </trkpt>
            <trkpt lat="47.5192485" lon="12.7576193">
                <ele>771.0</ele>
                <time>2021-07-13T12:27:05.000Z</time>
                <name>Position 15</name>
            </trkpt>
            <trkpt lat="47.5191545" lon="12.7578559">
                <ele>775.4</ele>
                <time>2021-07-13T12:28:21.000Z</time>
                <name>Position 16</name>
            </trkpt>
            <trkpt lat="47.5190273" lon="12.7580611">
                <ele>777.2</ele>
                <time>2021-07-13T12:28:41.000Z</time>
                <name>Position 17</name>
            </trkpt>
            <trkpt lat="47.5188868" lon="12.7582296">
                <ele>776.2</ele>
                <time>2021-07-13T12:28:57.000Z</time>
                <name>Position 18</name>
            </trkpt>
            <trkpt lat="47.5187516" lon="12.7584266">
                <ele>775.8</ele>
                <time>2021-07-13T12:29:17.000Z</time>
                <name>Position 19</name>
            </trkpt>
            <trkpt lat="47.5185983" lon="12.7585701">
                <ele>777.1</ele>
                <time>2021-07-13T12:29:33.000Z</time>
                <name>Position 20</name>
            </trkpt>
            <trkpt lat="47.5184173" lon="12.7586374">
                <ele>777.1</ele>
                <time>2021-07-13T12:30:13.000Z</time>
                <name>Position 21</name>
            </trkpt>
            <trkpt lat="47.5183433" lon="12.7589075">
                <ele>777.4</ele>
                <time>2021-07-13T12:30:33.000Z</time>
                <name>Position 22</name>
            </trkpt>
            <trkpt lat="47.518281" lon="12.7591597">
                <ele>772.5</ele>
                <time>2021-07-13T12:31:07.000Z</time>
                <name>Position 23</name>
            </trkpt>
            <trkpt lat="47.5184081" lon="12.7591718">
                <ele>756.6</ele>
                <time>2021-07-13T13:33:02.000Z</time>
                <name>Position 24</name>
            </trkpt>
            <trkpt lat="47.5185991" lon="12.7591773">
                <ele>754.1</ele>
                <time>2021-07-13T13:33:16.000Z</time>
                <name>Position 25</name>
            </trkpt>
            <trkpt lat="47.5188083" lon="12.7591624">
                <ele>749.7</ele>
                <time>2021-07-13T13:33:32.000Z</time>
                <name>Position 26</name>
            </trkpt>
            <trkpt lat="47.5189821" lon="12.7590765">
                <ele>745.8</ele>
                <time>2021-07-13T13:33:47.000Z</time>
                <name>Position 27</name>
            </trkpt>
            <trkpt lat="47.5191591" lon="12.7589275">
                <ele>740.4</ele>
                <time>2021-07-13T13:34:09.000Z</time>
                <name>Position 28</name>
            </trkpt>
            <trkpt lat="47.519341" lon="12.7588089">
                <ele>737.8</ele>
                <time>2021-07-13T13:34:25.000Z</time>
                <name>Position 29</name>
            </trkpt>
            <trkpt lat="47.5195284" lon="12.758788">
                <ele>733.0</ele>
                <time>2021-07-13T13:34:43.000Z</time>
                <name>Position 30</name>
            </trkpt>
            <trkpt lat="47.5197024" lon="12.7588788">
                <ele>729.4</ele>
                <time>2021-07-13T13:34:59.000Z</time>
                <name>Position 31</name>
            </trkpt>
            <trkpt lat="47.5198902" lon="12.758925">
                <ele>725.5</ele>
                <time>2021-07-13T13:35:13.000Z</time>
                <name>Position 32</name>
            </trkpt>
            <trkpt lat="47.5200626" lon="12.7590036">
                <ele>720.9</ele>
                <time>2021-07-13T13:35:35.000Z</time>
                <name>Position 33</name>
            </trkpt>
            <trkpt lat="47.5202435" lon="12.7589919">
                <ele>717.8</ele>
                <time>2021-07-13T13:35:53.000Z</time>
                <name>Position 34</name>
            </trkpt>
            <trkpt lat="47.5204007" lon="12.7588497">
                <ele>714.1</ele>
                <time>2021-07-13T13:36:07.000Z</time>
                <name>Position 35</name>
            </trkpt>
            <trkpt lat="47.520568" lon="12.7586794">
                <ele>710.4</ele>
                <time>2021-07-13T13:36:31.000Z</time>
                <name>Position 36</name>
            </trkpt>
            <trkpt lat="47.5207241" lon="12.75852">
                <ele>706.4</ele>
                <time>2021-07-13T13:36:59.000Z</time>
                <name>Position 37</name>
            </trkpt>
            <trkpt lat="47.5208258" lon="12.7582815">
                <ele>705.7</ele>
                <time>2021-07-13T13:39:07.000Z</time>
                <name>Position 38</name>
            </trkpt>
            <trkpt lat="47.5206801" lon="12.7580719">
                <ele>698.2</ele>
                <time>2021-07-13T13:39:49.000Z</time>
                <name>Position 39</name>
            </trkpt>
            <trkpt lat="47.5204802" lon="12.7580598">
                <ele>695.5</ele>
                <time>2021-07-13T13:39:53.000Z</time>
                <name>Position 40</name>
            </trkpt>
            <trkpt lat="47.5202571" lon="12.7581517">
                <ele>692.1</ele>
                <time>2021-07-13T13:39:57.000Z</time>
                <name>Position 41</name>
            </trkpt>
            <trkpt lat="47.520069" lon="12.7581164">
                <ele>687.9</ele>
                <time>2021-07-13T13:40:01.000Z</time>
                <name>Position 42</name>
            </trkpt>
            <trkpt lat="47.5201828" lon="12.7578648">
                <ele>686.1</ele>
                <time>2021-07-13T13:40:05.000Z</time>
                <name>Position 43</name>
            </trkpt>
            <trkpt lat="47.5204927" lon="12.7577249">
                <ele>684.7</ele>
                <time>2021-07-13T13:40:09.000Z</time>
                <name>Position 44</name>
            </trkpt>
            <trkpt lat="47.5206923" lon="12.7576938">
                <ele>682.7</ele>
                <time>2021-07-13T13:40:11.000Z</time>
                <name>Position 45</name>
            </trkpt>
            <trkpt lat="47.5208766" lon="12.7577028">
                <ele>680.0</ele>
                <time>2021-07-13T13:40:13.000Z</time>
                <name>Position 46</name>
            </trkpt>
            <trkpt lat="47.5210103" lon="12.7575169">
                <ele>678.7</ele>
                <time>2021-07-13T13:40:17.000Z</time>
                <name>Position 47</name>
            </trkpt>
            <trkpt lat="47.5207271" lon="12.7574165">
                <ele>674.5</ele>
                <time>2021-07-13T13:40:21.000Z</time>
                <name>Position 48</name>
            </trkpt>
            <trkpt lat="47.520526" lon="12.7573671">
                <ele>671.6</ele>
                <time>2021-07-13T13:40:23.000Z</time>
                <name>Position 49</name>
            </trkpt>
            <trkpt lat="47.5203115" lon="12.7572203">
                <ele>668.5</ele>
                <time>2021-07-13T13:40:25.000Z</time>
                <name>Position 50</name>
            </trkpt>
            <trkpt lat="47.5201319" lon="12.7569504">
                <ele>664.6</ele>
                <time>2021-07-13T13:40:27.000Z</time>
                <name>Position 51</name>
            </trkpt>
            <trkpt lat="47.5199906" lon="12.7566015">
                <ele>660.6</ele>
                <time>2021-07-13T13:40:29.000Z</time>
                <name>Position 52</name>
            </trkpt>
            <trkpt lat="47.5198545" lon="12.7562536">
                <ele>657.6</ele>
                <time>2021-07-13T13:40:31.000Z</time>
                <name>Position 53</name>
            </trkpt>
            <trkpt lat="47.5197187" lon="12.7559018">
                <ele>656.3</ele>
                <time>2021-07-13T13:40:33.000Z</time>
                <name>Position 54</name>
            </trkpt>
            <trkpt lat="47.5195883" lon="12.7555568">
                <ele>655.6</ele>
                <time>2021-07-13T13:40:35.000Z</time>
                <name>Position 55</name>
            </trkpt>
            <trkpt lat="47.5194621" lon="12.7552207">
                <ele>654.8</ele>
                <time>2021-07-13T13:40:37.000Z</time>
                <name>Position 56</name>
            </trkpt>
            <trkpt lat="47.5193445" lon="12.7549049">
                <ele>654.4</ele>
                <time>2021-07-13T13:40:39.000Z</time>
                <name>Position 57</name>
            </trkpt>
            <trkpt lat="47.5192515" lon="12.7546545">
                <ele>654.1</ele>
                <time>2021-07-13T13:40:41.000Z</time>
                <name>Position 58</name>
            </trkpt>
            <trkpt lat="47.5191493" lon="12.7543805">
                <ele>654.1</ele>
                <time>2021-07-13T13:40:45.000Z</time>
                <name>Position 59</name>
            </trkpt>
            <trkpt lat="47.5192406" lon="12.7540844">
                <ele>653.9</ele>
                <time>2021-07-13T13:40:53.000Z</time>
                <name>Position 60</name>
            </trkpt>
        </trkseg>
    </trk>
</gpx>
