<?xml version="1.0" encoding="UTF-8" standalone="yes"?>
<gpx xmlns:gpxtpx1="http://www.garmin.com/xmlschemas/TrackPointExtension/v1" xmlns="http://www.topografix.com/GPX/1/1" xmlns:trp="http://www.garmin.com/xmlschemas/TripExtensions/v1" xmlns:gpxx="http://www.garmin.com/xmlschemas/GpxExtensions/v3" xmlns:gpxtpx="http://www.garmin.com/xmlschemas/TrackPointExtension/v2" version="1.1" creator="RouteConverter 2.29">
    <metadata>
        <name>Kirchbogensteig - Kletterpark Spielmäuer</name>
        <time>2021-06-15T14:36:33.587Z</time>
    </metadata>
    <trk>
        <name>Kirchbogensteig - Kletterpark Spielmäuer</name>
        <trkseg>
            <trkpt lat="47.685622" lon="15.3248947">
                <ele>818.0</ele>
                <name>Position 1</name>
            </trkpt>
            <trkpt lat="47.6846864" lon="15.3243229">
                <ele>817.0</ele>
                <name>Position 2</name>
            </trkpt>
            <trkpt lat="47.6850426" lon="15.3237295">
                <ele>814.0</ele>
                <name>Position 3</name>
            </trkpt>
            <trkpt lat="47.6855614" lon="15.3235371">
                <ele>814.0</ele>
                <name>Position 4</name>
            </trkpt>
            <trkpt lat="47.6858059" lon="15.323475">
                <ele>814.0</ele>
                <name>Position 5</name>
            </trkpt>
            <trkpt lat="47.6862909" lon="15.3240203">
                <ele>815.0</ele>
                <name>Position 6</name>
            </trkpt>
            <trkpt lat="47.686866" lon="15.323651">
                <ele>833.0</ele>
                <name>Position 7</name>
            </trkpt>
            <trkpt lat="47.687051" lon="15.323723">
                <ele>836.0</ele>
                <name>Position 8</name>
            </trkpt>
            <trkpt lat="47.687228" lon="15.323816">
                <ele>836.0</ele>
                <name>Position 9</name>
            </trkpt>
            <trkpt lat="47.687407" lon="15.323861">
                <ele>838.0</ele>
                <name>Position 10</name>
            </trkpt>
            <trkpt lat="47.687769" lon="15.323951">
                <ele>844.0</ele>
                <name>Position 11</name>
            </trkpt>
            <trkpt lat="47.687934" lon="15.323824">
                <ele>851.0</ele>
                <name>Position 12</name>
            </trkpt>
            <trkpt lat="47.687929" lon="15.323544">
                <ele>857.0</ele>
                <name>Position 13</name>
            </trkpt>
            <trkpt lat="47.687886" lon="15.323274">
                <ele>862.0</ele>
                <name>Position 14</name>
            </trkpt>
            <trkpt lat="47.687784" lon="15.32304">
                <ele>866.0</ele>
                <name>Position 15</name>
            </trkpt>
            <trkpt lat="47.687591" lon="15.322978">
                <ele>870.0</ele>
                <name>Position 16</name>
            </trkpt>
            <trkpt lat="47.687426" lon="15.322846">
                <ele>872.0</ele>
                <name>Position 17</name>
            </trkpt>
            <trkpt lat="47.687334" lon="15.322605">
                <ele>875.0</ele>
                <name>Position 18</name>
            </trkpt>
            <trkpt lat="47.687181" lon="15.322461">
                <ele>877.0</ele>
                <name>Position 19</name>
            </trkpt>
            <trkpt lat="47.687144" lon="15.32218">
                <ele>881.0</ele>
                <name>Position 20</name>
            </trkpt>
            <trkpt lat="47.687228" lon="15.321941">
                <ele>888.0</ele>
                <name>Position 21</name>
            </trkpt>
            <trkpt lat="47.687373" lon="15.321769">
                <ele>896.0</ele>
                <name>Position 22</name>
            </trkpt>
            <trkpt lat="47.687369" lon="15.32148">
                <ele>897.0</ele>
                <name>Position 23</name>
            </trkpt>
            <trkpt lat="47.687319" lon="15.321219">
                <ele>898.0</ele>
                <name>Position 24</name>
            </trkpt>
            <trkpt lat="47.687193" lon="15.321028">
                <ele>899.0</ele>
                <name>Position 25</name>
            </trkpt>
            <trkpt lat="47.687162" lon="15.320764">
                <ele>899.0</ele>
                <name>Position 26</name>
            </trkpt>
            <trkpt lat="47.686965" lon="15.320761">
                <ele>899.0</ele>
                <name>Position 27</name>
            </trkpt>
            <trkpt lat="47.686787" lon="15.320714">
                <ele>900.0</ele>
                <name>Position 28</name>
            </trkpt>
            <trkpt lat="47.686594" lon="15.320664">
                <ele>904.0</ele>
                <name>Position 29</name>
            </trkpt>
            <trkpt lat="47.686635" lon="15.320383">
                <ele>914.0</ele>
                <name>Position 30</name>
            </trkpt>
            <trkpt lat="47.686706" lon="15.320135">
                <ele>924.0</ele>
                <name>Position 31</name>
            </trkpt>
            <trkpt lat="47.686807" lon="15.319913">
                <ele>933.0</ele>
                <name>Position 32</name>
            </trkpt>
            <trkpt lat="47.686917" lon="15.319682">
                <ele>943.0</ele>
                <name>Position 33</name>
            </trkpt>
            <trkpt lat="47.687073" lon="15.319503">
                <ele>953.0</ele>
                <name>Position 34</name>
            </trkpt>
            <trkpt lat="47.687144" lon="15.319256">
                <ele>962.0</ele>
                <name>Position 35</name>
            </trkpt>
            <trkpt lat="47.687333" lon="15.319216">
                <ele>970.0</ele>
                <name>Position 36</name>
            </trkpt>
            <trkpt lat="47.68746" lon="15.319016">
                <ele>978.0</ele>
                <name>Position 37</name>
            </trkpt>
            <trkpt lat="47.687403" lon="15.318752">
                <ele>987.0</ele>
                <name>Position 38</name>
            </trkpt>
            <trkpt lat="47.68755" lon="15.318571">
                <ele>997.0</ele>
                <name>Position 39</name>
            </trkpt>
            <trkpt lat="47.687719" lon="15.318434">
                <ele>1007.0</ele>
                <name>Position 40</name>
            </trkpt>
            <trkpt lat="47.68779" lon="15.318187">
                <ele>1017.0</ele>
                <name>Position 41</name>
            </trkpt>
            <trkpt lat="47.68796" lon="15.318031">
                <ele>1029.0</ele>
                <name>Position 42</name>
            </trkpt>
            <trkpt lat="47.687996" lon="15.317749">
                <ele>1041.0</ele>
                <name>Position 43</name>
            </trkpt>
            <trkpt lat="47.688178" lon="15.317666">
                <ele>1053.0</ele>
                <name>Position 44</name>
            </trkpt>
            <trkpt lat="47.688314" lon="15.317489">
                <ele>1064.0</ele>
                <name>Position 45</name>
            </trkpt>
            <trkpt lat="47.688461" lon="15.317315">
                <ele>1076.0</ele>
                <name>Position 46</name>
            </trkpt>
            <trkpt lat="47.688526" lon="15.317047">
                <ele>1095.0</ele>
                <name>Position 47</name>
            </trkpt>
            <trkpt lat="47.688693" lon="15.31692">
                <ele>1119.0</ele>
                <name>Position 48</name>
            </trkpt>
            <trkpt lat="47.68885" lon="15.316785">
                <ele>1145.0</ele>
                <name>Position 49</name>
            </trkpt>
            <trkpt lat="47.688905" lon="15.316481">
                <ele>1179.0</ele>
                <name>Position 50</name>
            </trkpt>
            <trkpt lat="47.689085" lon="15.316457">
                <ele>1208.0</ele>
                <name>Position 51</name>
            </trkpt>
            <trkpt lat="47.6898558" lon="15.316724">
                <ele>1281.0</ele>
                <name>Position 52</name>
            </trkpt>
            <trkpt lat="47.6900677" lon="15.3158693">
                <ele>1351.0</ele>
                <name>Position 53</name>
            </trkpt>
            <trkpt lat="47.689303" lon="15.314586">
                <ele>1335.0</ele>
                <name>Position 54</name>
            </trkpt>
            <trkpt lat="47.688678" lon="15.313547">
                <ele>1318.0</ele>
                <name>Position 55</name>
            </trkpt>
            <trkpt lat="47.688926" lon="15.314074">
                <ele>1320.0</ele>
                <name>Position 56</name>
            </trkpt>
            <trkpt lat="47.688451" lon="15.313123">
                <ele>1300.0</ele>
                <name>Position 57</name>
            </trkpt>
            <trkpt lat="47.688421" lon="15.312858">
                <ele>1296.0</ele>
                <name>Position 58</name>
            </trkpt>
            <trkpt lat="47.68838" lon="15.312589">
                <ele>1291.0</ele>
                <name>Position 59</name>
            </trkpt>
            <trkpt lat="47.688491" lon="15.312372">
                <ele>1286.0</ele>
                <name>Position 60</name>
            </trkpt>
            <trkpt lat="47.688665" lon="15.312302">
                <ele>1280.0</ele>
                <name>Position 61</name>
            </trkpt>
            <trkpt lat="47.688613" lon="15.312032">
                <ele>1271.0</ele>
                <name>Position 62</name>
            </trkpt>
            <trkpt lat="47.688746" lon="15.31185">
                <ele>1263.0</ele>
                <name>Position 63</name>
            </trkpt>
            <trkpt lat="47.68866" lon="15.311608">
                <ele>1254.0</ele>
                <name>Position 64</name>
            </trkpt>
            <trkpt lat="47.688528" lon="15.31142">
                <ele>1246.0</ele>
                <name>Position 65</name>
            </trkpt>
            <trkpt lat="47.688423" lon="15.311202">
                <ele>1234.0</ele>
                <name>Position 66</name>
            </trkpt>
            <trkpt lat="47.688427" lon="15.310927">
                <ele>1220.0</ele>
                <name>Position 67</name>
            </trkpt>
            <trkpt lat="47.688419" lon="15.310659">
                <ele>1208.0</ele>
                <name>Position 68</name>
            </trkpt>
            <trkpt lat="47.688435" lon="15.310386">
                <ele>1202.0</ele>
                <name>Position 69</name>
            </trkpt>
            <trkpt lat="47.688249" lon="15.310313">
                <ele>1197.0</ele>
                <name>Position 70</name>
            </trkpt>
            <trkpt lat="47.688102" lon="15.310151">
                <ele>1192.0</ele>
                <name>Position 71</name>
            </trkpt>
            <trkpt lat="47.687965" lon="15.30995">
                <ele>1188.0</ele>
                <name>Position 72</name>
            </trkpt>
            <trkpt lat="47.687872" lon="15.309716">
                <ele>1182.0</ele>
                <name>Position 73</name>
            </trkpt>
            <trkpt lat="47.687795" lon="15.309467">
                <ele>1177.0</ele>
                <name>Position 74</name>
            </trkpt>
            <trkpt lat="47.687771" lon="15.3092">
                <ele>1168.0</ele>
                <name>Position 75</name>
            </trkpt>
            <trkpt lat="47.687641" lon="15.309015">
                <ele>1157.0</ele>
                <name>Position 76</name>
            </trkpt>
            <trkpt lat="47.687542" lon="15.308774">
                <ele>1148.0</ele>
                <name>Position 77</name>
            </trkpt>
            <trkpt lat="47.687461" lon="15.308532">
                <ele>1154.0</ele>
                <name>Position 78</name>
            </trkpt>
            <trkpt lat="47.687643" lon="15.308584">
                <ele>1159.0</ele>
                <name>Position 79</name>
            </trkpt>
            <trkpt lat="47.687832" lon="15.308528">
                <ele>1168.0</ele>
                <name>Position 80</name>
            </trkpt>
            <trkpt lat="47.688038" lon="15.308505">
                <ele>1179.0</ele>
                <name>Position 81</name>
            </trkpt>
            <trkpt lat="47.688146" lon="15.308248">
                <ele>1181.0</ele>
                <name>Position 82</name>
            </trkpt>
            <trkpt lat="47.688086" lon="15.307992">
                <ele>1182.0</ele>
                <name>Position 83</name>
            </trkpt>
            <trkpt lat="47.688108" lon="15.307723">
                <ele>1180.0</ele>
                <name>Position 84</name>
            </trkpt>
            <trkpt lat="47.688133" lon="15.307455">
                <ele>1175.0</ele>
                <name>Position 85</name>
            </trkpt>
            <trkpt lat="47.687974" lon="15.307315">
                <ele>1169.0</ele>
                <name>Position 86</name>
            </trkpt>
            <trkpt lat="47.687787" lon="15.307304">
                <ele>1161.0</ele>
                <name>Position 87</name>
            </trkpt>
            <trkpt lat="47.687618" lon="15.307423">
                <ele>1152.0</ele>
                <name>Position 88</name>
            </trkpt>
            <trkpt lat="47.687502" lon="15.30763">
                <ele>1135.0</ele>
                <name>Position 89</name>
            </trkpt>
            <trkpt lat="47.687352" lon="15.307802">
                <ele>1118.0</ele>
                <name>Position 90</name>
            </trkpt>
            <trkpt lat="47.687165" lon="15.307832">
                <ele>1104.0</ele>
                <name>Position 91</name>
            </trkpt>
            <trkpt lat="47.686996" lon="15.307933">
                <ele>1091.0</ele>
                <name>Position 92</name>
            </trkpt>
            <trkpt lat="47.686852" lon="15.308102">
                <ele>1083.0</ele>
                <name>Position 93</name>
            </trkpt>
            <trkpt lat="47.686669" lon="15.30812">
                <ele>1078.0</ele>
                <name>Position 94</name>
            </trkpt>
            <trkpt lat="47.68654" lon="15.308309">
                <ele>1075.0</ele>
                <name>Position 95</name>
            </trkpt>
            <trkpt lat="47.686348" lon="15.30835">
                <ele>1078.0</ele>
                <name>Position 96</name>
            </trkpt>
            <trkpt lat="47.686277" lon="15.308624">
                <ele>1080.0</ele>
                <name>Position 97</name>
            </trkpt>
            <trkpt lat="47.686262" lon="15.308911">
                <ele>1078.0</ele>
                <name>Position 98</name>
            </trkpt>
            <trkpt lat="47.686125" lon="15.30909">
                <ele>1075.0</ele>
                <name>Position 99</name>
            </trkpt>
            <trkpt lat="47.685945" lon="15.309126">
                <ele>1068.0</ele>
                <name>Position 100</name>
            </trkpt>
            <trkpt lat="47.685758" lon="15.309118">
                <ele>1060.0</ele>
                <name>Position 101</name>
            </trkpt>
            <trkpt lat="47.685555" lon="15.309082">
                <ele>1055.0</ele>
                <name>Position 102</name>
            </trkpt>
            <trkpt lat="47.685379" lon="15.309244">
                <ele>1052.0</ele>
                <name>Position 103</name>
            </trkpt>
            <trkpt lat="47.685192" lon="15.309194">
                <ele>1050.0</ele>
                <name>Position 104</name>
            </trkpt>
            <trkpt lat="47.685019" lon="15.309267">
                <ele>1048.0</ele>
                <name>Position 105</name>
            </trkpt>
            <trkpt lat="47.684837" lon="15.309357">
                <ele>1047.0</ele>
                <name>Position 106</name>
            </trkpt>
            <trkpt lat="47.684667" lon="15.309524">
                <ele>1047.0</ele>
                <name>Position 107</name>
            </trkpt>
            <trkpt lat="47.684567" lon="15.30977">
                <ele>1048.0</ele>
                <name>Position 108</name>
            </trkpt>
            <trkpt lat="47.684434" lon="15.309958">
                <ele>1048.0</ele>
                <name>Position 109</name>
            </trkpt>
            <trkpt lat="47.684405" lon="15.310233">
                <ele>1048.0</ele>
                <name>Position 110</name>
            </trkpt>
            <trkpt lat="47.684342" lon="15.310486">
                <ele>1046.0</ele>
                <name>Position 111</name>
            </trkpt>
            <trkpt lat="47.684324" lon="15.310768">
                <ele>1043.0</ele>
                <name>Position 112</name>
            </trkpt>
            <trkpt lat="47.684242" lon="15.311035">
                <ele>1044.0</ele>
                <name>Position 113</name>
            </trkpt>
            <trkpt lat="47.684248" lon="15.311319">
                <ele>1048.0</ele>
                <name>Position 114</name>
            </trkpt>
            <trkpt lat="47.68434" lon="15.311589">
                <ele>1049.0</ele>
                <name>Position 115</name>
            </trkpt>
            <trkpt lat="47.684421" lon="15.311853">
                <ele>1045.0</ele>
                <name>Position 116</name>
            </trkpt>
            <trkpt lat="47.684433" lon="15.312121">
                <ele>1041.0</ele>
                <name>Position 117</name>
            </trkpt>
            <trkpt lat="47.684511" lon="15.312386">
                <ele>1035.0</ele>
                <name>Position 118</name>
            </trkpt>
            <trkpt lat="47.68454" lon="15.312661">
                <ele>1030.0</ele>
                <name>Position 119</name>
            </trkpt>
            <trkpt lat="47.684649" lon="15.312879">
                <ele>1029.0</ele>
                <name>Position 120</name>
            </trkpt>
            <trkpt lat="47.684787" lon="15.313052">
                <ele>1029.0</ele>
                <name>Position 121</name>
            </trkpt>
            <trkpt lat="47.684923" lon="15.313245">
                <ele>1024.0</ele>
                <name>Position 122</name>
            </trkpt>
            <trkpt lat="47.684903" lon="15.313533">
                <ele>1017.0</ele>
                <name>Position 123</name>
            </trkpt>
            <trkpt lat="47.685024" lon="15.313774">
                <ele>1015.0</ele>
                <name>Position 124</name>
            </trkpt>
            <trkpt lat="47.685161" lon="15.313955">
                <ele>1014.0</ele>
                <name>Position 125</name>
            </trkpt>
            <trkpt lat="47.685329" lon="15.314074">
                <ele>1010.0</ele>
                <name>Position 126</name>
            </trkpt>
            <trkpt lat="47.685364" lon="15.314358">
                <ele>1002.0</ele>
                <name>Position 127</name>
            </trkpt>
            <trkpt lat="47.685451" lon="15.314624">
                <ele>996.0</ele>
                <name>Position 128</name>
            </trkpt>
            <trkpt lat="47.685426" lon="15.314892">
                <ele>994.0</ele>
                <name>Position 129</name>
            </trkpt>
            <trkpt lat="47.685432" lon="15.315171">
                <ele>992.0</ele>
                <name>Position 130</name>
            </trkpt>
            <trkpt lat="47.685538" lon="15.3154">
                <ele>992.0</ele>
                <name>Position 131</name>
            </trkpt>
            <trkpt lat="47.685669" lon="15.315602">
                <ele>992.0</ele>
                <name>Position 132</name>
            </trkpt>
            <trkpt lat="47.685844" lon="15.315681">
                <ele>988.0</ele>
                <name>Position 133</name>
            </trkpt>
            <trkpt lat="47.686008" lon="15.315806">
                <ele>983.0</ele>
                <name>Position 134</name>
            </trkpt>
            <trkpt lat="47.686119" lon="15.316018">
                <ele>977.0</ele>
                <name>Position 135</name>
            </trkpt>
            <trkpt lat="47.686084" lon="15.316288">
                <ele>969.0</ele>
                <name>Position 136</name>
            </trkpt>
            <trkpt lat="47.685986" lon="15.316527">
                <ele>963.0</ele>
                <name>Position 137</name>
            </trkpt>
            <trkpt lat="47.685985" lon="15.316805">
                <ele>959.0</ele>
                <name>Position 138</name>
            </trkpt>
            <trkpt lat="47.685969" lon="15.317076">
                <ele>956.0</ele>
                <name>Position 139</name>
            </trkpt>
            <trkpt lat="47.686041" lon="15.317339">
                <ele>956.0</ele>
                <name>Position 140</name>
            </trkpt>
            <trkpt lat="47.686123" lon="15.317616">
                <ele>956.0</ele>
                <name>Position 141</name>
            </trkpt>
            <trkpt lat="47.686293" lon="15.317755">
                <ele>951.0</ele>
                <name>Position 142</name>
            </trkpt>
            <trkpt lat="47.686262" lon="15.31802">
                <ele>947.0</ele>
                <name>Position 143</name>
            </trkpt>
            <trkpt lat="47.686363" lon="15.318249">
                <ele>946.0</ele>
                <name>Position 144</name>
            </trkpt>
            <trkpt lat="47.686418" lon="15.318513">
                <ele>947.0</ele>
                <name>Position 145</name>
            </trkpt>
            <trkpt lat="47.686599" lon="15.318603">
                <ele>946.0</ele>
                <name>Position 146</name>
            </trkpt>
            <trkpt lat="47.686705" lon="15.318827">
                <ele>942.0</ele>
                <name>Position 147</name>
            </trkpt>
            <trkpt lat="47.686717" lon="15.319107">
                <ele>937.0</ele>
                <name>Position 148</name>
            </trkpt>
            <trkpt lat="47.686722" lon="15.319376">
                <ele>927.0</ele>
                <name>Position 149</name>
            </trkpt>
            <trkpt lat="47.686584" lon="15.319564">
                <ele>916.0</ele>
                <name>Position 150</name>
            </trkpt>
            <trkpt lat="47.686529" lon="15.319829">
                <ele>911.0</ele>
                <name>Position 151</name>
            </trkpt>
            <trkpt lat="47.686505" lon="15.320102">
                <ele>907.0</ele>
                <name>Position 152</name>
            </trkpt>
            <trkpt lat="47.686589" lon="15.320539">
                <ele>901.0</ele>
                <name>Position 153</name>
            </trkpt>
            <trkpt lat="47.686725" lon="15.320718">
                <ele>898.0</ele>
                <name>Position 154</name>
            </trkpt>
            <trkpt lat="47.686918" lon="15.320742">
                <ele>898.0</ele>
                <name>Position 155</name>
            </trkpt>
            <trkpt lat="47.687103" lon="15.320697">
                <ele>898.0</ele>
                <name>Position 156</name>
            </trkpt>
            <trkpt lat="47.687204" lon="15.320922">
                <ele>899.0</ele>
                <name>Position 157</name>
            </trkpt>
            <trkpt lat="47.687281" lon="15.321186">
                <ele>900.0</ele>
                <name>Position 158</name>
            </trkpt>
            <trkpt lat="47.687384" lon="15.321419">
                <ele>896.0</ele>
                <name>Position 159</name>
            </trkpt>
            <trkpt lat="47.687454" lon="15.321668">
                <ele>888.0</ele>
                <name>Position 160</name>
            </trkpt>
            <trkpt lat="47.687308" lon="15.321864">
                <ele>881.0</ele>
                <name>Position 161</name>
            </trkpt>
            <trkpt lat="47.687177" lon="15.322067">
                <ele>878.0</ele>
                <name>Position 162</name>
            </trkpt>
            <trkpt lat="47.687191" lon="15.322337">
                <ele>874.0</ele>
                <name>Position 163</name>
            </trkpt>
            <trkpt lat="47.68727" lon="15.322608">
                <ele>870.0</ele>
                <name>Position 164</name>
            </trkpt>
            <trkpt lat="47.687388" lon="15.322842">
                <ele>867.0</ele>
                <name>Position 165</name>
            </trkpt>
            <trkpt lat="47.687561" lon="15.322984">
                <ele>865.0</ele>
                <name>Position 166</name>
            </trkpt>
            <trkpt lat="47.68776" lon="15.323022">
                <ele>864.0</ele>
                <name>Position 167</name>
            </trkpt>
            <trkpt lat="47.687913" lon="15.32318">
                <ele>859.0</ele>
                <name>Position 168</name>
            </trkpt>
            <trkpt lat="47.687974" lon="15.323471">
                <ele>852.0</ele>
                <name>Position 169</name>
            </trkpt>
            <trkpt lat="47.688034" lon="15.323726">
                <ele>848.0</ele>
                <name>Position 170</name>
            </trkpt>
            <trkpt lat="47.687855" lon="15.323829">
                <ele>844.0</ele>
                <name>Position 171</name>
            </trkpt>
            <trkpt lat="47.687664" lon="15.323782">
                <ele>841.0</ele>
                <name>Position 172</name>
            </trkpt>
            <trkpt lat="47.687468" lon="15.323756">
                <ele>839.0</ele>
                <name>Position 173</name>
            </trkpt>
            <trkpt lat="47.68728" lon="15.32369">
                <ele>836.0</ele>
                <name>Position 174</name>
            </trkpt>
            <trkpt lat="47.6871" lon="15.323644">
                <ele>830.0</ele>
                <name>Position 175</name>
            </trkpt>
            <trkpt lat="47.686908" lon="15.32361">
                <ele>823.0</ele>
                <name>Position 176</name>
            </trkpt>
            <trkpt lat="47.6864166" lon="15.3240644">
                <ele>815.0</ele>
                <name>Position 177</name>
            </trkpt>
            <trkpt lat="47.6858136" lon="15.3233195">
                <ele>814.0</ele>
                <name>Position 178</name>
            </trkpt>
            <trkpt lat="47.6854239" lon="15.3234298">
                <ele>814.0</ele>
                <name>Position 179</name>
            </trkpt>
            <trkpt lat="47.6851351" lon="15.3235797">
                <ele>815.0</ele>
                <name>Position 180</name>
            </trkpt>
            <trkpt lat="47.6847039" lon="15.3242992">
                <ele>817.0</ele>
                <name>Position 181</name>
            </trkpt>
            <trkpt lat="47.6855985" lon="15.324903">
                <ele>818.0</ele>
                <name>Position 182</name>
            </trkpt>
        </trkseg>
    </trk>
</gpx>
