<?xml version="1.0" encoding="UTF-8" standalone="yes"?>
<gpx xmlns:gpxtpx1="http://www.garmin.com/xmlschemas/TrackPointExtension/v1" xmlns="http://www.topografix.com/GPX/1/1" xmlns:trp="http://www.garmin.com/xmlschemas/TripExtensions/v1" xmlns:gpxx="http://www.garmin.com/xmlschemas/GpxExtensions/v3" xmlns:gpxtpx="http://www.garmin.com/xmlschemas/TrackPointExtension/v2" version="1.1" creator="RouteConverter 2.27.2">
    <metadata>
        <name>2013-11-01 08:16</name>
        <desc></desc>
        <link href="http://www.oruxmaps.com">
            <text>OruxMaps</text>
        </link>
        <time>2013-11-01T07:16:43Z</time>
        <bounds minlat="47.516566514967494" minlon="10.729179382323908" maxlat="47.53666162490707" maxlon="10.76205253601043"/>
    </metadata>
    <trk>
        <name>2013-11-01 08:16</name>
        <desc>&lt;h1&gt;OruxMaps&lt;/h1&gt;&lt;br /&gt;&lt;hr align="center" width="480" style="height: 2px; width: 517px"/&gt;&lt;h2&gt;Name: 2013-11-01 08:16&lt;/h2&gt;&lt;br /&gt;&lt;p&gt;Startzeit: 11/01/2013 08:17&lt;/p&gt;&lt;p&gt;Zielzeit: 11/01/2013 16:28&lt;/p&gt;&lt;p&gt;Strecke: 15,
2 km (08:10)&lt;/p&gt;&lt;p&gt;Bewegungszeit: 02:34&lt;/p&gt;&lt;p&gt;Ø-Geschwindigkeit: 1,
9 km/h&lt;/p&gt;&lt;p&gt;Netto Geschwindigkeit: 5,
9 km/h&lt;/p&gt;&lt;p&gt;Max. Geschwindigkeit: 43 km/h&lt;/p&gt;&lt;p&gt;Minimale Höhe: 806 m&lt;/p&gt;&lt;p&gt;Maximale Höhe: 2049 m&lt;/p&gt;&lt;p&gt;Steig-Geschw.: 207,
5 m/h&lt;/p&gt;&lt;p&gt;Sink-Geschw.: -573,
6 m/h&lt;/p&gt;&lt;p&gt;Aufstieg: 1263 m&lt;/p&gt;&lt;p&gt;Abstieg: -1138 m&lt;/p&gt;&lt;p&gt;Steigzeit: 06:05&lt;/p&gt;&lt;p&gt;Sinkzeit: 01:59&lt;/p&gt;&lt;hr align="center" width="480" style="height: 2px; width: 517px"/&gt;</desc>
        <type>Unbestimmt</type>
        <trkseg>
            <trkpt lat="47.5170708" lon="10.7293725">
                <ele>812.9</ele>
                <time>2013-11-01T07:17:27.000Z</time>
                <name>Position 1</name>
            </trkpt>
            <trkpt lat="47.5171244" lon="10.7300591">
                <ele>836.9</ele>
                <time>2013-11-01T07:20:36.000Z</time>
                <name>Position 2</name>
            </trkpt>
            <trkpt lat="47.5171673" lon="10.7304025">
                <ele>838.9</ele>
                <time>2013-11-01T07:20:51.000Z</time>
                <name>Position 3</name>
            </trkpt>
            <trkpt lat="47.5174785" lon="10.7311749">
                <ele>837.9</ele>
                <time>2013-11-01T07:21:27.000Z</time>
                <name>Position 4</name>
            </trkpt>
            <trkpt lat="47.5176394" lon="10.7314324">
                <ele>836.9</ele>
                <time>2013-11-01T07:21:40.000Z</time>
                <name>Position 5</name>
            </trkpt>
            <trkpt lat="47.5178969" lon="10.7316041">
                <ele>835.9</ele>
                <time>2013-11-01T07:21:55.000Z</time>
                <name>Position 6</name>
            </trkpt>
            <trkpt lat="47.5181437" lon="10.7317114">
                <ele>834.9</ele>
                <time>2013-11-01T07:22:09.000Z</time>
                <name>Position 7</name>
            </trkpt>
            <trkpt lat="47.5185299" lon="10.7317758">
                <ele>833.3</ele>
                <time>2013-11-01T07:22:34.000Z</time>
                <name>Position 8</name>
            </trkpt>
            <trkpt lat="47.5188947" lon="10.7317972">
                <ele>831.9</ele>
                <time>2013-11-01T07:22:57.000Z</time>
                <name>Position 9</name>
            </trkpt>
            <trkpt lat="47.5191522" lon="10.7318401">
                <ele>829.9</ele>
                <time>2013-11-01T07:23:15.000Z</time>
                <name>Position 10</name>
            </trkpt>
            <trkpt lat="47.5195599" lon="10.731883">
                <ele>828.6</ele>
                <time>2013-11-01T07:23:39.000Z</time>
                <name>Position 11</name>
            </trkpt>
            <trkpt lat="47.5199354" lon="10.7318616">
                <ele>827.6</ele>
                <time>2013-11-01T07:23:54.000Z</time>
                <name>Position 12</name>
            </trkpt>
            <trkpt lat="47.520268" lon="10.7313466">
                <ele>826.9</ele>
                <time>2013-11-01T07:24:12.000Z</time>
                <name>Position 13</name>
            </trkpt>
            <trkpt lat="47.5204289" lon="10.7310247">
                <ele>825.9</ele>
                <time>2013-11-01T07:24:23.000Z</time>
                <name>Position 14</name>
            </trkpt>
            <trkpt lat="47.5207508" lon="10.7312608">
                <ele>824.2</ele>
                <time>2013-11-01T07:24:49.000Z</time>
                <name>Position 15</name>
            </trkpt>
            <trkpt lat="47.5209868" lon="10.7317543">
                <ele>816.9</ele>
                <time>2013-11-01T07:25:30.000Z</time>
                <name>Position 16</name>
            </trkpt>
            <trkpt lat="47.5212657" lon="10.731926">
                <ele>811.4</ele>
                <time>2013-11-01T07:26:22.000Z</time>
                <name>Position 17</name>
            </trkpt>
            <trkpt lat="47.5213623" lon="10.7316256">
                <ele>807.9</ele>
                <time>2013-11-01T07:26:44.000Z</time>
                <name>Position 18</name>
            </trkpt>
            <trkpt lat="47.5213623" lon="10.7312822">
                <ele>806.9</ele>
                <time>2013-11-01T07:27:04.000Z</time>
                <name>Position 19</name>
            </trkpt>
            <trkpt lat="47.5212979" lon="10.7307243">
                <ele>809.3</ele>
                <time>2013-11-01T07:27:33.000Z</time>
                <name>Position 20</name>
            </trkpt>
            <trkpt lat="47.5215018" lon="10.7302523">
                <ele>811.9</ele>
                <time>2013-11-01T07:28:13.000Z</time>
                <name>Position 21</name>
            </trkpt>
            <trkpt lat="47.5217807" lon="10.7304025">
                <ele>890.1</ele>
                <time>2013-11-01T07:29:15.000Z</time>
                <name>Position 22</name>
            </trkpt>
            <trkpt lat="47.522049" lon="10.7307029">
                <ele>919.1</ele>
                <time>2013-11-01T07:29:41.000Z</time>
                <name>Position 23</name>
            </trkpt>
            <trkpt lat="47.5222528" lon="10.7311535">
                <ele>934.9</ele>
                <time>2013-11-01T07:30:19.000Z</time>
                <name>Position 24</name>
            </trkpt>
            <trkpt lat="47.5224888" lon="10.7313466">
                <ele>948.1</ele>
                <time>2013-11-01T07:30:45.000Z</time>
                <name>Position 25</name>
            </trkpt>
            <trkpt lat="47.5228536" lon="10.7312822">
                <ele>966.3</ele>
                <time>2013-11-01T07:31:15.000Z</time>
                <name>Position 26</name>
            </trkpt>
            <trkpt lat="47.5231969" lon="10.731132">
                <ele>985.9</ele>
                <time>2013-11-01T07:33:21.000Z</time>
                <name>Position 27</name>
            </trkpt>
            <trkpt lat="47.5234544" lon="10.7314754">
                <ele>997.6</ele>
                <time>2013-11-01T07:35:31.000Z</time>
                <name>Position 28</name>
            </trkpt>
            <trkpt lat="47.5236261" lon="10.7319689">
                <ele>1005.4</ele>
                <time>2013-11-01T07:35:59.000Z</time>
                <name>Position 29</name>
            </trkpt>
            <trkpt lat="47.5237441" lon="10.7325053">
                <ele>1012.1</ele>
                <time>2013-11-01T07:36:29.000Z</time>
                <name>Position 30</name>
            </trkpt>
            <trkpt lat="47.5239372" lon="10.7328486">
                <ele>1020.9</ele>
                <time>2013-11-01T07:36:50.000Z</time>
                <name>Position 31</name>
            </trkpt>
            <trkpt lat="47.5242376" lon="10.7331705">
                <ele>1035.5</ele>
                <time>2013-11-01T07:37:18.000Z</time>
                <name>Position 32</name>
            </trkpt>
            <trkpt lat="47.5245166" lon="10.7332778">
                <ele>1044.9</ele>
                <time>2013-11-01T07:37:56.000Z</time>
                <name>Position 33</name>
            </trkpt>
            <trkpt lat="47.524817" lon="10.7329774">
                <ele>1048.3</ele>
                <time>2013-11-01T07:38:29.000Z</time>
                <name>Position 34</name>
            </trkpt>
            <trkpt lat="47.5248706" lon="10.7324195">
                <ele>1051.0</ele>
                <time>2013-11-01T07:38:59.000Z</time>
                <name>Position 35</name>
            </trkpt>
            <trkpt lat="47.5251389" lon="10.7320333">
                <ele>1052.1</ele>
                <time>2013-11-01T07:39:28.000Z</time>
                <name>Position 36</name>
            </trkpt>
            <trkpt lat="47.5254929" lon="10.7318401">
                <ele>1052.9</ele>
                <time>2013-11-01T07:39:57.000Z</time>
                <name>Position 37</name>
            </trkpt>
            <trkpt lat="47.5258577" lon="10.7317972">
                <ele>1053.9</ele>
                <time>2013-11-01T07:40:23.000Z</time>
                <name>Position 38</name>
            </trkpt>
            <trkpt lat="47.5261903" lon="10.7315612">
                <ele>1057.4</ele>
                <time>2013-11-01T07:40:51.000Z</time>
                <name>Position 39</name>
            </trkpt>
            <trkpt lat="47.5265443" lon="10.7313251">
                <ele>1061.5</ele>
                <time>2013-11-01T07:41:13.000Z</time>
                <name>Position 40</name>
            </trkpt>
            <trkpt lat="47.5268126" lon="10.7309818">
                <ele>1064.6</ele>
                <time>2013-11-01T07:41:34.000Z</time>
                <name>Position 41</name>
            </trkpt>
            <trkpt lat="47.5270915" lon="10.730617">
                <ele>1068.3</ele>
                <time>2013-11-01T07:41:56.000Z</time>
                <name>Position 42</name>
            </trkpt>
            <trkpt lat="47.5273383" lon="10.7302094">
                <ele>1071.8</ele>
                <time>2013-11-01T07:42:22.000Z</time>
                <name>Position 43</name>
            </trkpt>
            <trkpt lat="47.5276816" lon="10.7302094">
                <ele>1075.1</ele>
                <time>2013-11-01T07:42:46.000Z</time>
                <name>Position 44</name>
            </trkpt>
            <trkpt lat="47.527982" lon="10.7305098">
                <ele>1081.1</ele>
                <time>2013-11-01T07:43:07.000Z</time>
                <name>Position 45</name>
            </trkpt>
            <trkpt lat="47.5283575" lon="10.730617">
                <ele>1086.2</ele>
                <time>2013-11-01T07:43:26.000Z</time>
                <name>Position 46</name>
            </trkpt>
            <trkpt lat="47.5287223" lon="10.7307029">
                <ele>1091.5</ele>
                <time>2013-11-01T07:43:53.000Z</time>
                <name>Position 47</name>
            </trkpt>
            <trkpt lat="47.5290871" lon="10.73066">
                <ele>1099.1</ele>
                <time>2013-11-01T07:44:24.000Z</time>
                <name>Position 48</name>
            </trkpt>
            <trkpt lat="47.5287759" lon="10.7309389">
                <ele>1105.9</ele>
                <time>2013-11-01T07:45:10.000Z</time>
                <name>Position 49</name>
            </trkpt>
            <trkpt lat="47.5284326" lon="10.7311106">
                <ele>1108.7</ele>
                <time>2013-11-01T07:46:00.000Z</time>
                <name>Position 50</name>
            </trkpt>
            <trkpt lat="47.5281537" lon="10.7314539">
                <ele>1108.9</ele>
                <time>2013-11-01T07:46:30.000Z</time>
                <name>Position 51</name>
            </trkpt>
            <trkpt lat="47.5279391" lon="10.7318616">
                <ele>1112.3</ele>
                <time>2013-11-01T07:47:08.000Z</time>
                <name>Position 52</name>
            </trkpt>
            <trkpt lat="47.527864" lon="10.7323766">
                <ele>1118.6</ele>
                <time>2013-11-01T07:47:52.000Z</time>
                <name>Position 53</name>
            </trkpt>
            <trkpt lat="47.5276494" lon="10.7328272">
                <ele>1122.8</ele>
                <time>2013-11-01T07:48:32.000Z</time>
                <name>Position 54</name>
            </trkpt>
            <trkpt lat="47.5276601" lon="10.7333851">
                <ele>1129.4</ele>
                <time>2013-11-01T07:49:05.000Z</time>
                <name>Position 55</name>
            </trkpt>
            <trkpt lat="47.5279284" lon="10.7330418">
                <ele>1134.3</ele>
                <time>2013-11-01T07:49:53.000Z</time>
                <name>Position 56</name>
            </trkpt>
            <trkpt lat="47.5282717" lon="10.7328486">
                <ele>1135.9</ele>
                <time>2013-11-01T07:50:29.000Z</time>
                <name>Position 57</name>
            </trkpt>
            <trkpt lat="47.528615" lon="10.7326555">
                <ele>1137.5</ele>
                <time>2013-11-01T07:51:02.000Z</time>
                <name>Position 58</name>
            </trkpt>
            <trkpt lat="47.5288832" lon="10.7322693">
                <ele>1144.7</ele>
                <time>2013-11-01T07:51:34.000Z</time>
                <name>Position 59</name>
            </trkpt>
            <trkpt lat="47.529248" lon="10.7322478">
                <ele>1149.7</ele>
                <time>2013-11-01T07:52:11.000Z</time>
                <name>Position 60</name>
            </trkpt>
            <trkpt lat="47.5296128" lon="10.7323337">
                <ele>1155.2</ele>
                <time>2013-11-01T07:52:43.000Z</time>
                <name>Position 61</name>
            </trkpt>
            <trkpt lat="47.5299346" lon="10.7323337">
                <ele>1165.3</ele>
                <time>2013-11-01T07:53:21.000Z</time>
                <name>Position 62</name>
            </trkpt>
            <trkpt lat="47.5301814" lon="10.7326555">
                <ele>1172.0</ele>
                <time>2013-11-01T07:54:13.000Z</time>
                <name>Position 63</name>
            </trkpt>
            <trkpt lat="47.5299025" lon="10.7330203">
                <ele>1180.8</ele>
                <time>2013-11-01T07:54:48.000Z</time>
                <name>Position 64</name>
            </trkpt>
            <trkpt lat="47.5299776" lon="10.7335567">
                <ele>1183.7</ele>
                <time>2013-11-01T07:55:22.000Z</time>
                <name>Position 65</name>
            </trkpt>
            <trkpt lat="47.5300634" lon="10.7340503">
                <ele>1192.3</ele>
                <time>2013-11-01T07:56:01.000Z</time>
                <name>Position 66</name>
            </trkpt>
            <trkpt lat="47.5299776" lon="10.7345867">
                <ele>1197.8</ele>
                <time>2013-11-01T07:56:35.000Z</time>
                <name>Position 67</name>
            </trkpt>
            <trkpt lat="47.5298488" lon="10.7351017">
                <ele>1199.5</ele>
                <time>2013-11-01T07:57:08.000Z</time>
                <name>Position 68</name>
            </trkpt>
            <trkpt lat="47.5297415" lon="10.7356167">
                <ele>1204.4</ele>
                <time>2013-11-01T07:57:46.000Z</time>
                <name>Position 69</name>
            </trkpt>
            <trkpt lat="47.5293767" lon="10.735724">
                <ele>1208.8</ele>
                <time>2013-11-01T07:58:24.000Z</time>
                <name>Position 70</name>
            </trkpt>
            <trkpt lat="47.529012" lon="10.735724">
                <ele>1214.6</ele>
                <time>2013-11-01T07:59:03.000Z</time>
                <name>Position 71</name>
            </trkpt>
            <trkpt lat="47.5286686" lon="10.7358313">
                <ele>1219.8</ele>
                <time>2013-11-01T07:59:35.000Z</time>
                <name>Position 72</name>
            </trkpt>
            <trkpt lat="47.5285184" lon="10.7363248">
                <ele>1222.8</ele>
                <time>2013-11-01T08:00:08.000Z</time>
                <name>Position 73</name>
            </trkpt>
            <trkpt lat="47.5284004" lon="10.7368612">
                <ele>1226.1</ele>
                <time>2013-11-01T08:00:45.000Z</time>
                <name>Position 74</name>
            </trkpt>
            <trkpt lat="47.5282288" lon="10.7373333">
                <ele>1231.5</ele>
                <time>2013-11-01T08:01:26.000Z</time>
                <name>Position 75</name>
            </trkpt>
            <trkpt lat="47.5281107" lon="10.7378054">
                <ele>1235.7</ele>
                <time>2013-11-01T08:02:02.000Z</time>
                <name>Position 76</name>
            </trkpt>
            <trkpt lat="47.5277567" lon="10.7378054">
                <ele>1240.8</ele>
                <time>2013-11-01T08:02:41.000Z</time>
                <name>Position 77</name>
            </trkpt>
            <trkpt lat="47.5275099" lon="10.7381916">
                <ele>1243.6</ele>
                <time>2013-11-01T08:03:17.000Z</time>
                <name>Position 78</name>
            </trkpt>
            <trkpt lat="47.5275099" lon="10.7387495">
                <ele>1247.9</ele>
                <time>2013-11-01T08:03:53.000Z</time>
                <name>Position 79</name>
            </trkpt>
            <trkpt lat="47.527467" lon="10.7393074">
                <ele>1251.8</ele>
                <time>2013-11-01T08:04:33.000Z</time>
                <name>Position 80</name>
            </trkpt>
            <trkpt lat="47.527467" lon="10.7398653">
                <ele>1254.5</ele>
                <time>2013-11-01T08:05:11.000Z</time>
                <name>Position 81</name>
            </trkpt>
            <trkpt lat="47.5275743" lon="10.7404017">
                <ele>1263.3</ele>
                <time>2013-11-01T08:05:48.000Z</time>
                <name>Position 82</name>
            </trkpt>
            <trkpt lat="47.5276172" lon="10.7409167">
                <ele>1271.3</ele>
                <time>2013-11-01T08:06:24.000Z</time>
                <name>Position 83</name>
            </trkpt>
            <trkpt lat="47.5273705" lon="10.7413244">
                <ele>1277.7</ele>
                <time>2013-11-01T08:07:04.000Z</time>
                <name>Position 84</name>
            </trkpt>
            <trkpt lat="47.5276923" lon="10.7410669">
                <ele>1286.2</ele>
                <time>2013-11-01T08:07:58.000Z</time>
                <name>Position 85</name>
            </trkpt>
            <trkpt lat="47.5280356" lon="10.7408524">
                <ele>1290.7</ele>
                <time>2013-11-01T08:08:36.000Z</time>
                <name>Position 86</name>
            </trkpt>
            <trkpt lat="47.5283253" lon="10.7405305">
                <ele>1295.5</ele>
                <time>2013-11-01T08:09:17.000Z</time>
                <name>Position 87</name>
            </trkpt>
            <trkpt lat="47.5286901" lon="10.7404447">
                <ele>1299.4</ele>
                <time>2013-11-01T08:09:55.000Z</time>
                <name>Position 88</name>
            </trkpt>
            <trkpt lat="47.529012" lon="10.7401657">
                <ele>1307.7</ele>
                <time>2013-11-01T08:10:30.000Z</time>
                <name>Position 89</name>
            </trkpt>
            <trkpt lat="47.529366" lon="10.7400155">
                <ele>1312.8</ele>
                <time>2013-11-01T08:10:59.000Z</time>
                <name>Position 90</name>
            </trkpt>
            <trkpt lat="47.5296664" lon="10.7396936">
                <ele>1316.7</ele>
                <time>2013-11-01T08:11:38.000Z</time>
                <name>Position 91</name>
            </trkpt>
            <trkpt lat="47.5300312" lon="10.7397151">
                <ele>1324.0</ele>
                <time>2013-11-01T08:12:22.000Z</time>
                <name>Position 92</name>
            </trkpt>
            <trkpt lat="47.5302994" lon="10.7400584">
                <ele>1327.8</ele>
                <time>2013-11-01T08:12:54.000Z</time>
                <name>Position 93</name>
            </trkpt>
            <trkpt lat="47.5306535" lon="10.7398868">
                <ele>1332.1</ele>
                <time>2013-11-01T08:13:33.000Z</time>
                <name>Position 94</name>
            </trkpt>
            <trkpt lat="47.5310183" lon="10.7398009">
                <ele>1338.3</ele>
                <time>2013-11-01T08:14:04.000Z</time>
                <name>Position 95</name>
            </trkpt>
            <trkpt lat="47.5313294" lon="10.7400799">
                <ele>1344.2</ele>
                <time>2013-11-01T08:14:38.000Z</time>
                <name>Position 96</name>
            </trkpt>
            <trkpt lat="47.5316727" lon="10.7401872">
                <ele>1348.6</ele>
                <time>2013-11-01T08:15:14.000Z</time>
                <name>Position 97</name>
            </trkpt>
            <trkpt lat="47.5319517" lon="10.7398438">
                <ele>1355.9</ele>
                <time>2013-11-01T08:15:49.000Z</time>
                <name>Position 98</name>
            </trkpt>
            <trkpt lat="47.5323164" lon="10.7398224">
                <ele>1359.8</ele>
                <time>2013-11-01T08:16:22.000Z</time>
                <name>Position 99</name>
            </trkpt>
            <trkpt lat="47.5324667" lon="10.7393289">
                <ele>1361.9</ele>
                <time>2013-11-01T08:16:57.000Z</time>
                <name>Position 100</name>
            </trkpt>
            <trkpt lat="47.5324774" lon="10.7388353">
                <ele>1362.8</ele>
                <time>2013-11-01T08:17:17.000Z</time>
                <name>Position 101</name>
            </trkpt>
            <trkpt lat="47.5324774" lon="10.7383204">
                <ele>1362.9</ele>
                <time>2013-11-01T08:17:34.000Z</time>
                <name>Position 102</name>
            </trkpt>
            <trkpt lat="47.5327027" lon="10.7378268">
                <ele>1363.9</ele>
                <time>2013-11-01T08:17:50.000Z</time>
                <name>Position 103</name>
            </trkpt>
            <trkpt lat="47.532692" lon="10.7384276">
                <ele>1368.7</ele>
                <time>2013-11-01T08:19:02.000Z</time>
                <name>Position 104</name>
            </trkpt>
            <trkpt lat="47.5327027" lon="10.7389855">
                <ele>1371.8</ele>
                <time>2013-11-01T08:19:32.000Z</time>
                <name>Position 105</name>
            </trkpt>
            <trkpt lat="47.5328958" lon="10.7394361">
                <ele>1374.9</ele>
                <time>2013-11-01T08:20:01.000Z</time>
                <name>Position 106</name>
            </trkpt>
            <trkpt lat="47.5330245" lon="10.7399297">
                <ele>1379.5</ele>
                <time>2013-11-01T08:20:31.000Z</time>
                <name>Position 107</name>
            </trkpt>
            <trkpt lat="47.5327563" lon="10.7402945">
                <ele>1384.2</ele>
                <time>2013-11-01T08:21:00.000Z</time>
                <name>Position 108</name>
            </trkpt>
            <trkpt lat="47.5326705" lon="10.7408094">
                <ele>1388.5</ele>
                <time>2013-11-01T08:21:30.000Z</time>
                <name>Position 109</name>
            </trkpt>
            <trkpt lat="47.5325203" lon="10.741303">
                <ele>1391.8</ele>
                <time>2013-11-01T08:21:58.000Z</time>
                <name>Position 110</name>
            </trkpt>
            <trkpt lat="47.5325203" lon="10.7418609">
                <ele>1398.2</ele>
                <time>2013-11-01T08:22:39.000Z</time>
                <name>Position 111</name>
            </trkpt>
            <trkpt lat="47.5323057" lon="10.7422686">
                <ele>1403.8</ele>
                <time>2013-11-01T08:23:20.000Z</time>
                <name>Position 112</name>
            </trkpt>
            <trkpt lat="47.5319517" lon="10.7423759">
                <ele>1410.5</ele>
                <time>2013-11-01T08:24:02.000Z</time>
                <name>Position 113</name>
            </trkpt>
            <trkpt lat="47.5315976" lon="10.7425475">
                <ele>1416.4</ele>
                <time>2013-11-01T08:24:38.000Z</time>
                <name>Position 114</name>
            </trkpt>
            <trkpt lat="47.5312972" lon="10.7428479">
                <ele>1421.8</ele>
                <time>2013-11-01T08:25:09.000Z</time>
                <name>Position 115</name>
            </trkpt>
            <trkpt lat="47.531265" lon="10.7434058">
                <ele>1425.8</ele>
                <time>2013-11-01T08:25:34.000Z</time>
                <name>Position 116</name>
            </trkpt>
            <trkpt lat="47.5312006" lon="10.7439637">
                <ele>1427.9</ele>
                <time>2013-11-01T08:26:08.000Z</time>
                <name>Position 117</name>
            </trkpt>
            <trkpt lat="47.5308573" lon="10.7440925">
                <ele>1427.9</ele>
                <time>2013-11-01T08:26:46.000Z</time>
                <name>Position 118</name>
            </trkpt>
            <trkpt lat="47.5304818" lon="10.7441354">
                <ele>1430.8</ele>
                <time>2013-11-01T08:27:24.000Z</time>
                <name>Position 119</name>
            </trkpt>
            <trkpt lat="47.5301707" lon="10.7444143">
                <ele>1434.1</ele>
                <time>2013-11-01T08:28:09.000Z</time>
                <name>Position 120</name>
            </trkpt>
            <trkpt lat="47.5299561" lon="10.7448649">
                <ele>1434.1</ele>
                <time>2013-11-01T08:31:11.000Z</time>
                <name>Position 121</name>
            </trkpt>
            <trkpt lat="47.5297737" lon="10.7453156">
                <ele>1432.9</ele>
                <time>2013-11-01T08:35:43.000Z</time>
                <name>Position 122</name>
            </trkpt>
            <trkpt lat="47.5295055" lon="10.7452297">
                <ele>1432.6</ele>
                <time>2013-11-01T08:36:33.000Z</time>
                <name>Position 123</name>
            </trkpt>
            <trkpt lat="47.5292587" lon="10.7451868">
                <ele>1431.9</ele>
                <time>2013-11-01T08:37:02.000Z</time>
                <name>Position 124</name>
            </trkpt>
            <trkpt lat="47.528851" lon="10.7452083">
                <ele>1431.9</ele>
                <time>2013-11-01T08:37:32.000Z</time>
                <name>Position 125</name>
            </trkpt>
            <trkpt lat="47.5284541" lon="10.7451439">
                <ele>1432.1</ele>
                <time>2013-11-01T08:38:10.000Z</time>
                <name>Position 126</name>
            </trkpt>
            <trkpt lat="47.5281215" lon="10.7449293">
                <ele>1436.6</ele>
                <time>2013-11-01T08:38:42.000Z</time>
                <name>Position 127</name>
            </trkpt>
            <trkpt lat="47.5278854" lon="10.7447362">
                <ele>1452.0</ele>
                <time>2013-11-01T08:40:16.000Z</time>
                <name>Position 128</name>
            </trkpt>
            <trkpt lat="47.5278318" lon="10.7452083">
                <ele>1461.6</ele>
                <time>2013-11-01T08:40:52.000Z</time>
                <name>Position 129</name>
            </trkpt>
            <trkpt lat="47.5277996" lon="10.7457662">
                <ele>1466.2</ele>
                <time>2013-11-01T08:41:22.000Z</time>
                <name>Position 130</name>
            </trkpt>
            <trkpt lat="47.5277674" lon="10.7463026">
                <ele>1470.7</ele>
                <time>2013-11-01T08:41:53.000Z</time>
                <name>Position 131</name>
            </trkpt>
            <trkpt lat="47.5279069" lon="10.7467747">
                <ele>1471.9</ele>
                <time>2013-11-01T08:42:27.000Z</time>
                <name>Position 132</name>
            </trkpt>
            <trkpt lat="47.5278318" lon="10.7472682">
                <ele>1472.8</ele>
                <time>2013-11-01T08:42:55.000Z</time>
                <name>Position 133</name>
            </trkpt>
            <trkpt lat="47.5276816" lon="10.7477617">
                <ele>1472.9</ele>
                <time>2013-11-01T08:43:25.000Z</time>
                <name>Position 134</name>
            </trkpt>
            <trkpt lat="47.5275958" lon="10.7482982">
                <ele>1472.9</ele>
                <time>2013-11-01T08:43:54.000Z</time>
                <name>Position 135</name>
            </trkpt>
            <trkpt lat="47.5276065" lon="10.7488561">
                <ele>1471.9</ele>
                <time>2013-11-01T08:44:22.000Z</time>
                <name>Position 136</name>
            </trkpt>
            <trkpt lat="47.5278425" lon="10.7492852">
                <ele>1468.5</ele>
                <time>2013-11-01T08:44:48.000Z</time>
                <name>Position 137</name>
            </trkpt>
            <trkpt lat="47.5280035" lon="10.7498002">
                <ele>1466.9</ele>
                <time>2013-11-01T08:45:15.000Z</time>
                <name>Position 138</name>
            </trkpt>
            <trkpt lat="47.5280786" lon="10.7503366">
                <ele>1465.9</ele>
                <time>2013-11-01T08:45:44.000Z</time>
                <name>Position 139</name>
            </trkpt>
            <trkpt lat="47.5281644" lon="10.7508945">
                <ele>1463.9</ele>
                <time>2013-11-01T08:46:16.000Z</time>
                <name>Position 140</name>
            </trkpt>
            <trkpt lat="47.5282824" lon="10.751431">
                <ele>1463.9</ele>
                <time>2013-11-01T08:46:47.000Z</time>
                <name>Position 141</name>
            </trkpt>
            <trkpt lat="47.528379" lon="10.7519674">
                <ele>1463.9</ele>
                <time>2013-11-01T08:47:20.000Z</time>
                <name>Position 142</name>
            </trkpt>
            <trkpt lat="47.5284326" lon="10.7525253">
                <ele>1464.9</ele>
                <time>2013-11-01T08:47:53.000Z</time>
                <name>Position 143</name>
            </trkpt>
            <trkpt lat="47.5285184" lon="10.7530618">
                <ele>1465.9</ele>
                <time>2013-11-01T08:48:24.000Z</time>
                <name>Position 144</name>
            </trkpt>
            <trkpt lat="47.528615" lon="10.7535768">
                <ele>1467.4</ele>
                <time>2013-11-01T08:49:16.000Z</time>
                <name>Position 145</name>
            </trkpt>
            <trkpt lat="47.5287116" lon="10.7540703">
                <ele>1472.9</ele>
                <time>2013-11-01T08:50:18.000Z</time>
                <name>Position 146</name>
            </trkpt>
            <trkpt lat="47.5286579" lon="10.7546282">
                <ele>1478.1</ele>
                <time>2013-11-01T08:51:06.000Z</time>
                <name>Position 147</name>
            </trkpt>
            <trkpt lat="47.5285935" lon="10.7552505">
                <ele>1488.9</ele>
                <time>2013-11-01T08:52:04.000Z</time>
                <name>Position 148</name>
            </trkpt>
            <trkpt lat="47.5284863" lon="10.7557654">
                <ele>1493.2</ele>
                <time>2013-11-01T08:52:38.000Z</time>
                <name>Position 149</name>
            </trkpt>
            <trkpt lat="47.5283682" lon="10.7562804">
                <ele>1499.3</ele>
                <time>2013-11-01T08:53:15.000Z</time>
                <name>Position 150</name>
            </trkpt>
            <trkpt lat="47.5286257" lon="10.7566452">
                <ele>1508.8</ele>
                <time>2013-11-01T08:54:22.000Z</time>
                <name>Position 151</name>
            </trkpt>
            <trkpt lat="47.5289583" lon="10.7568812">
                <ele>1526.6</ele>
                <time>2013-11-01T08:56:32.000Z</time>
                <name>Position 152</name>
            </trkpt>
            <trkpt lat="47.5291836" lon="10.757246">
                <ele>1541.4</ele>
                <time>2013-11-01T08:58:08.000Z</time>
                <name>Position 153</name>
            </trkpt>
            <trkpt lat="47.5293767" lon="10.7575893">
                <ele>1557.7</ele>
                <time>2013-11-01T09:00:32.000Z</time>
                <name>Position 154</name>
            </trkpt>
            <trkpt lat="47.5296235" lon="10.7579541">
                <ele>1565.1</ele>
                <time>2013-11-01T09:01:40.000Z</time>
                <name>Position 155</name>
            </trkpt>
            <trkpt lat="47.5298595" lon="10.7583618">
                <ele>1578.6</ele>
                <time>2013-11-01T09:02:54.000Z</time>
                <name>Position 156</name>
            </trkpt>
            <trkpt lat="47.529999" lon="10.7588553">
                <ele>1590.3</ele>
                <time>2013-11-01T09:04:06.000Z</time>
                <name>Position 157</name>
            </trkpt>
            <trkpt lat="47.53016" lon="10.7592845">
                <ele>1601.7</ele>
                <time>2013-11-01T09:05:44.000Z</time>
                <name>Position 158</name>
            </trkpt>
            <trkpt lat="47.5302029" lon="10.7598209">
                <ele>1610.9</ele>
                <time>2013-11-01T09:07:03.000Z</time>
                <name>Position 159</name>
            </trkpt>
            <trkpt lat="47.5302458" lon="10.7603574">
                <ele>1619.3</ele>
                <time>2013-11-01T09:08:13.000Z</time>
                <name>Position 160</name>
            </trkpt>
            <trkpt lat="47.5301921" lon="10.7608938">
                <ele>1638.3</ele>
                <time>2013-11-01T09:09:52.000Z</time>
                <name>Position 161</name>
            </trkpt>
            <trkpt lat="47.5304282" lon="10.7612801">
                <ele>1653.6</ele>
                <time>2013-11-01T09:11:26.000Z</time>
                <name>Position 162</name>
            </trkpt>
            <trkpt lat="47.5307071" lon="10.7612801">
                <ele>1687.9</ele>
                <time>2013-11-01T09:17:18.000Z</time>
                <name>Position 163</name>
            </trkpt>
            <trkpt lat="47.5310719" lon="10.7612371">
                <ele>1689.7</ele>
                <time>2013-11-01T09:18:29.000Z</time>
                <name>Position 164</name>
            </trkpt>
            <trkpt lat="47.531426" lon="10.7611513">
                <ele>1697.7</ele>
                <time>2013-11-01T09:19:42.000Z</time>
                <name>Position 165</name>
            </trkpt>
            <trkpt lat="47.5316083" lon="10.7606792">
                <ele>1703.9</ele>
                <time>2013-11-01T09:21:07.000Z</time>
                <name>Position 166</name>
            </trkpt>
            <trkpt lat="47.531898" lon="10.7604647">
                <ele>1712.1</ele>
                <time>2013-11-01T09:23:54.000Z</time>
                <name>Position 167</name>
            </trkpt>
            <trkpt lat="47.532059" lon="10.7608294">
                <ele>1733.8</ele>
                <time>2013-11-01T09:26:33.000Z</time>
                <name>Position 168</name>
            </trkpt>
            <trkpt lat="47.5323272" lon="10.7606792">
                <ele>1749.7</ele>
                <time>2013-11-01T09:28:38.000Z</time>
                <name>Position 169</name>
            </trkpt>
            <trkpt lat="47.5324452" lon="10.7601643">
                <ele>1771.8</ele>
                <time>2013-11-01T09:30:48.000Z</time>
                <name>Position 170</name>
            </trkpt>
            <trkpt lat="47.5327027" lon="10.759778">
                <ele>1790.4</ele>
                <time>2013-11-01T09:33:33.000Z</time>
                <name>Position 171</name>
            </trkpt>
            <trkpt lat="47.5330675" lon="10.7597351">
                <ele>1800.8</ele>
                <time>2013-11-01T09:35:08.000Z</time>
                <name>Position 172</name>
            </trkpt>
            <trkpt lat="47.5333786" lon="10.7594562">
                <ele>1824.2</ele>
                <time>2013-11-01T09:37:35.000Z</time>
                <name>Position 173</name>
            </trkpt>
            <trkpt lat="47.5334001" lon="10.7590055">
                <ele>1836.8</ele>
                <time>2013-11-01T09:39:13.000Z</time>
                <name>Position 174</name>
            </trkpt>
            <trkpt lat="47.5337648" lon="10.7590485">
                <ele>1838.9</ele>
                <time>2013-11-01T09:41:30.000Z</time>
                <name>Position 175</name>
            </trkpt>
            <trkpt lat="47.5340545" lon="10.7587266">
                <ele>1851.7</ele>
                <time>2013-11-01T09:44:55.000Z</time>
                <name>Position 176</name>
            </trkpt>
            <trkpt lat="47.5341725" lon="10.7583618">
                <ele>1898.0</ele>
                <time>2013-11-01T10:36:17.000Z</time>
                <name>Position 177</name>
            </trkpt>
            <trkpt lat="47.5345051" lon="10.7582331">
                <ele>1912.6</ele>
                <time>2013-11-01T10:54:45.000Z</time>
                <name>Position 178</name>
            </trkpt>
            <trkpt lat="47.5346446" lon="10.7577395">
                <ele>1955.9</ele>
                <time>2013-11-01T11:20:51.000Z</time>
                <name>Position 179</name>
            </trkpt>
            <trkpt lat="47.5348055" lon="10.7572675">
                <ele>1975.3</ele>
                <time>2013-11-01T11:57:53.000Z</time>
                <name>Position 180</name>
            </trkpt>
            <trkpt lat="47.5348806" lon="10.7569027">
                <ele>2000.9</ele>
                <time>2013-11-01T12:06:56.000Z</time>
                <name>Position 181</name>
            </trkpt>
            <trkpt lat="47.5350416" lon="10.7564092">
                <ele>2003.1</ele>
                <time>2013-11-01T12:59:04.000Z</time>
                <name>Position 182</name>
            </trkpt>
            <trkpt lat="47.5351059" lon="10.7559586">
                <ele>2025.9</ele>
                <time>2013-11-01T13:05:32.000Z</time>
                <name>Position 183</name>
            </trkpt>
            <trkpt lat="47.5350952" lon="10.7554007">
                <ele>2044.6</ele>
                <time>2013-11-01T13:38:12.000Z</time>
                <name>Position 184</name>
            </trkpt>
            <trkpt lat="47.535063" lon="10.7549715">
                <ele>2049.9</ele>
                <time>2013-11-01T13:41:21.000Z</time>
                <name>Position 185</name>
            </trkpt>
            <trkpt lat="47.535181" lon="10.754478">
                <ele>2042.9</ele>
                <time>2013-11-01T13:42:56.000Z</time>
                <name>Position 186</name>
            </trkpt>
            <trkpt lat="47.5350308" lon="10.7539845">
                <ele>2041.7</ele>
                <time>2013-11-01T13:43:46.000Z</time>
                <name>Position 187</name>
            </trkpt>
            <trkpt lat="47.5352669" lon="10.7543707">
                <ele>2043.9</ele>
                <time>2013-11-01T13:49:32.000Z</time>
                <name>Position 188</name>
            </trkpt>
            <trkpt lat="47.5355136" lon="10.7540274">
                <ele>2021.6</ele>
                <time>2013-11-01T13:52:44.000Z</time>
                <name>Position 189</name>
            </trkpt>
            <trkpt lat="47.5358033" lon="10.7538772">
                <ele>1996.8</ele>
                <time>2013-11-01T13:54:23.000Z</time>
                <name>Position 190</name>
            </trkpt>
            <trkpt lat="47.5359321" lon="10.7534909">
                <ele>1979.1</ele>
                <time>2013-11-01T13:55:21.000Z</time>
                <name>Position 191</name>
            </trkpt>
            <trkpt lat="47.5360501" lon="10.7529974">
                <ele>1967.3</ele>
                <time>2013-11-01T13:56:11.000Z</time>
                <name>Position 192</name>
            </trkpt>
            <trkpt lat="47.5363612" lon="10.7528043">
                <ele>1951.1</ele>
                <time>2013-11-01T13:57:07.000Z</time>
                <name>Position 193</name>
            </trkpt>
            <trkpt lat="47.5365007" lon="10.7522893">
                <ele>1940.7</ele>
                <time>2013-11-01T13:57:48.000Z</time>
                <name>Position 194</name>
            </trkpt>
            <trkpt lat="47.5366616" lon="10.7518172">
                <ele>1929.5</ele>
                <time>2013-11-01T13:58:36.000Z</time>
                <name>Position 195</name>
            </trkpt>
            <trkpt lat="47.5365543" lon="10.7513022">
                <ele>1914.2</ele>
                <time>2013-11-01T13:59:42.000Z</time>
                <name>Position 196</name>
            </trkpt>
            <trkpt lat="47.536329" lon="10.7514739">
                <ele>1893.9</ele>
                <time>2013-11-01T14:01:03.000Z</time>
                <name>Position 197</name>
            </trkpt>
            <trkpt lat="47.536211" lon="10.7509589">
                <ele>1870.8</ele>
                <time>2013-11-01T14:03:31.000Z</time>
                <name>Position 198</name>
            </trkpt>
            <trkpt lat="47.5358999" lon="10.7507014">
                <ele>1832.0</ele>
                <time>2013-11-01T14:06:29.000Z</time>
                <name>Position 199</name>
            </trkpt>
            <trkpt lat="47.5359964" lon="10.7501435">
                <ele>1810.3</ele>
                <time>2013-11-01T14:08:30.000Z</time>
                <name>Position 200</name>
            </trkpt>
            <trkpt lat="47.5359857" lon="10.7496071">
                <ele>1778.8</ele>
                <time>2013-11-01T14:10:40.000Z</time>
                <name>Position 201</name>
            </trkpt>
            <trkpt lat="47.5356209" lon="10.7496285">
                <ele>1751.4</ele>
                <time>2013-11-01T14:13:08.000Z</time>
                <name>Position 202</name>
            </trkpt>
            <trkpt lat="47.5352669" lon="10.7497573">
                <ele>1742.9</ele>
                <time>2013-11-01T14:13:45.000Z</time>
                <name>Position 203</name>
            </trkpt>
            <trkpt lat="47.5349021" lon="10.7496929">
                <ele>1731.1</ele>
                <time>2013-11-01T14:14:42.000Z</time>
                <name>Position 204</name>
            </trkpt>
            <trkpt lat="47.5346231" lon="10.7493925">
                <ele>1721.4</ele>
                <time>2013-11-01T14:15:29.000Z</time>
                <name>Position 205</name>
            </trkpt>
            <trkpt lat="47.5344729" lon="10.749886">
                <ele>1703.5</ele>
                <time>2013-11-01T14:51:54.000Z</time>
                <name>Position 206</name>
            </trkpt>
            <trkpt lat="47.5341511" lon="10.7501435">
                <ele>1700.9</ele>
                <time>2013-11-01T14:52:24.000Z</time>
                <name>Position 207</name>
            </trkpt>
            <trkpt lat="47.5337863" lon="10.7502294">
                <ele>1699.0</ele>
                <time>2013-11-01T14:52:58.000Z</time>
                <name>Position 208</name>
            </trkpt>
            <trkpt lat="47.5334215" lon="10.7502508">
                <ele>1694.7</ele>
                <time>2013-11-01T14:53:39.000Z</time>
                <name>Position 209</name>
            </trkpt>
            <trkpt lat="47.5332928" lon="10.7499504">
                <ele>1689.3</ele>
                <time>2013-11-01T14:54:16.000Z</time>
                <name>Position 210</name>
            </trkpt>
            <trkpt lat="47.5335717" lon="10.7495856">
                <ele>1680.5</ele>
                <time>2013-11-01T14:54:56.000Z</time>
                <name>Position 211</name>
            </trkpt>
            <trkpt lat="47.5332928" lon="10.7492638">
                <ele>1668.6</ele>
                <time>2013-11-01T14:55:44.000Z</time>
                <name>Position 212</name>
            </trkpt>
            <trkpt lat="47.5330997" lon="10.7488132">
                <ele>1650.1</ele>
                <time>2013-11-01T14:56:54.000Z</time>
                <name>Position 213</name>
            </trkpt>
            <trkpt lat="47.5329065" lon="10.7483625">
                <ele>1637.7</ele>
                <time>2013-11-01T14:57:37.000Z</time>
                <name>Position 214</name>
            </trkpt>
            <trkpt lat="47.5326276" lon="10.748148">
                <ele>1627.3</ele>
                <time>2013-11-01T14:58:17.000Z</time>
                <name>Position 215</name>
            </trkpt>
            <trkpt lat="47.5322413" lon="10.7482767">
                <ele>1624.9</ele>
                <time>2013-11-01T14:59:10.000Z</time>
                <name>Position 216</name>
            </trkpt>
            <trkpt lat="47.5321555" lon="10.7477403">
                <ele>1593.1</ele>
                <time>2013-11-01T15:00:38.000Z</time>
                <name>Position 217</name>
            </trkpt>
            <trkpt lat="47.5317585" lon="10.747633">
                <ele>1568.3</ele>
                <time>2013-11-01T15:01:51.000Z</time>
                <name>Position 218</name>
            </trkpt>
            <trkpt lat="47.5314045" lon="10.7475042">
                <ele>1559.0</ele>
                <time>2013-11-01T15:02:23.000Z</time>
                <name>Position 219</name>
            </trkpt>
            <trkpt lat="47.5313723" lon="10.7470751">
                <ele>1531.6</ele>
                <time>2013-11-01T15:04:03.000Z</time>
                <name>Position 220</name>
            </trkpt>
            <trkpt lat="47.5311041" lon="10.7466888">
                <ele>1517.1</ele>
                <time>2013-11-01T15:05:04.000Z</time>
                <name>Position 221</name>
            </trkpt>
            <trkpt lat="47.530911" lon="10.7462168">
                <ele>1504.7</ele>
                <time>2013-11-01T15:05:43.000Z</time>
                <name>Position 222</name>
            </trkpt>
            <trkpt lat="47.5306213" lon="10.7459593">
                <ele>1492.2</ele>
                <time>2013-11-01T15:06:20.000Z</time>
                <name>Position 223</name>
            </trkpt>
            <trkpt lat="47.5303531" lon="10.745616">
                <ele>1485.3</ele>
                <time>2013-11-01T15:06:45.000Z</time>
                <name>Position 224</name>
            </trkpt>
            <trkpt lat="47.5301063" lon="10.7452297">
                <ele>1479.1</ele>
                <time>2013-11-01T15:07:16.000Z</time>
                <name>Position 225</name>
            </trkpt>
            <trkpt lat="47.5299561" lon="10.7447577">
                <ele>1464.3</ele>
                <time>2013-11-01T15:08:24.000Z</time>
                <name>Position 226</name>
            </trkpt>
            <trkpt lat="47.5301385" lon="10.7442641">
                <ele>1448.9</ele>
                <time>2013-11-01T15:14:54.000Z</time>
                <name>Position 227</name>
            </trkpt>
            <trkpt lat="47.5305033" lon="10.7439423">
                <ele>1446.6</ele>
                <time>2013-11-01T15:15:02.000Z</time>
                <name>Position 228</name>
            </trkpt>
            <trkpt lat="47.5309002" lon="10.7438135">
                <ele>1442.2</ele>
                <time>2013-11-01T15:15:10.000Z</time>
                <name>Position 229</name>
            </trkpt>
            <trkpt lat="47.5312006" lon="10.743556">
                <ele>1439.5</ele>
                <time>2013-11-01T15:15:17.000Z</time>
                <name>Position 230</name>
            </trkpt>
            <trkpt lat="47.5311899" lon="10.7432127">
                <ele>1439.1</ele>
                <time>2013-11-01T15:15:21.000Z</time>
                <name>Position 231</name>
            </trkpt>
            <trkpt lat="47.5313187" lon="10.7426548">
                <ele>1438.6</ele>
                <time>2013-11-01T15:15:28.000Z</time>
                <name>Position 232</name>
            </trkpt>
            <trkpt lat="47.5316083" lon="10.7422686">
                <ele>1439.7</ele>
                <time>2013-11-01T15:15:34.000Z</time>
                <name>Position 233</name>
            </trkpt>
            <trkpt lat="47.5319302" lon="10.7419467">
                <ele>1440.5</ele>
                <time>2013-11-01T15:15:40.000Z</time>
                <name>Position 234</name>
            </trkpt>
            <trkpt lat="47.5323057" lon="10.741818">
                <ele>1438.5</ele>
                <time>2013-11-01T15:15:46.000Z</time>
                <name>Position 235</name>
            </trkpt>
            <trkpt lat="47.5325525" lon="10.7414103">
                <ele>1432.6</ele>
                <time>2013-11-01T15:15:54.000Z</time>
                <name>Position 236</name>
            </trkpt>
            <trkpt lat="47.532531" lon="10.7410455">
                <ele>1432.1</ele>
                <time>2013-11-01T15:15:58.000Z</time>
                <name>Position 237</name>
            </trkpt>
            <trkpt lat="47.5327027" lon="10.7404661">
                <ele>1432.2</ele>
                <time>2013-11-01T15:16:04.000Z</time>
                <name>Position 238</name>
            </trkpt>
            <trkpt lat="47.5327349" lon="10.7401228">
                <ele>1429.2</ele>
                <time>2013-11-01T15:16:08.000Z</time>
                <name>Position 239</name>
            </trkpt>
            <trkpt lat="47.5328636" lon="10.7398224">
                <ele>1423.7</ele>
                <time>2013-11-01T15:16:12.000Z</time>
                <name>Position 240</name>
            </trkpt>
            <trkpt lat="47.5329494" lon="10.739243">
                <ele>1417.5</ele>
                <time>2013-11-01T15:16:19.000Z</time>
                <name>Position 241</name>
            </trkpt>
            <trkpt lat="47.53281" lon="10.7388997">
                <ele>1416.0</ele>
                <time>2013-11-01T15:16:22.000Z</time>
                <name>Position 242</name>
            </trkpt>
            <trkpt lat="47.5327134" lon="10.7385778">
                <ele>1415.1</ele>
                <time>2013-11-01T15:16:25.000Z</time>
                <name>Position 243</name>
            </trkpt>
            <trkpt lat="47.5326383" lon="10.7382131">
                <ele>1413.7</ele>
                <time>2013-11-01T15:16:28.000Z</time>
                <name>Position 244</name>
            </trkpt>
            <trkpt lat="47.5327349" lon="10.7376766">
                <ele>1410.3</ele>
                <time>2013-11-01T15:16:32.000Z</time>
                <name>Position 245</name>
            </trkpt>
            <trkpt lat="47.5327349" lon="10.737226">
                <ele>1405.6</ele>
                <time>2013-11-01T15:16:50.000Z</time>
                <name>Position 246</name>
            </trkpt>
            <trkpt lat="47.5324452" lon="10.7376337">
                <ele>1400.6</ele>
                <time>2013-11-01T15:17:11.000Z</time>
                <name>Position 247</name>
            </trkpt>
            <trkpt lat="47.5322306" lon="10.7381058">
                <ele>1391.9</ele>
                <time>2013-11-01T15:17:36.000Z</time>
                <name>Position 248</name>
            </trkpt>
            <trkpt lat="47.5321877" lon="10.738771">
                <ele>1389.1</ele>
                <time>2013-11-01T15:17:47.000Z</time>
                <name>Position 249</name>
            </trkpt>
            <trkpt lat="47.5319731" lon="10.739522">
                <ele>1378.4</ele>
                <time>2013-11-01T15:18:06.000Z</time>
                <name>Position 250</name>
            </trkpt>
            <trkpt lat="47.5315976" lon="10.739758">
                <ele>1371.9</ele>
                <time>2013-11-01T15:18:16.000Z</time>
                <name>Position 251</name>
            </trkpt>
            <trkpt lat="47.5311792" lon="10.7398653">
                <ele>1371.1</ele>
                <time>2013-11-01T15:18:24.000Z</time>
                <name>Position 252</name>
            </trkpt>
            <trkpt lat="47.5306642" lon="10.7398653">
                <ele>1372.9</ele>
                <time>2013-11-01T15:18:33.000Z</time>
                <name>Position 253</name>
            </trkpt>
            <trkpt lat="47.5304389" lon="10.7398224">
                <ele>1371.4</ele>
                <time>2013-11-01T15:18:37.000Z</time>
                <name>Position 254</name>
            </trkpt>
            <trkpt lat="47.5301063" lon="10.7395864">
                <ele>1366.0</ele>
                <time>2013-11-01T15:18:45.000Z</time>
                <name>Position 255</name>
            </trkpt>
            <trkpt lat="47.5297737" lon="10.7392645">
                <ele>1362.7</ele>
                <time>2013-11-01T15:18:51.000Z</time>
                <name>Position 256</name>
            </trkpt>
            <trkpt lat="47.5293553" lon="10.7392001">
                <ele>1360.4</ele>
                <time>2013-11-01T15:18:57.000Z</time>
                <name>Position 257</name>
            </trkpt>
            <trkpt lat="47.5289047" lon="10.7393503">
                <ele>1357.2</ele>
                <time>2013-11-01T15:19:03.000Z</time>
                <name>Position 258</name>
            </trkpt>
            <trkpt lat="47.528497" lon="10.7396722">
                <ele>1353.6</ele>
                <time>2013-11-01T15:19:08.000Z</time>
                <name>Position 259</name>
            </trkpt>
            <trkpt lat="47.5281429" lon="10.7398438">
                <ele>1351.7</ele>
                <time>2013-11-01T15:19:12.000Z</time>
                <name>Position 260</name>
            </trkpt>
            <trkpt lat="47.5277352" lon="10.740037">
                <ele>1348.4</ele>
                <time>2013-11-01T15:19:18.000Z</time>
                <name>Position 261</name>
            </trkpt>
            <trkpt lat="47.5274992" lon="10.7402086">
                <ele>1346.3</ele>
                <time>2013-11-01T15:19:21.000Z</time>
                <name>Position 262</name>
            </trkpt>
            <trkpt lat="47.5271881" lon="10.7404876">
                <ele>1342.7</ele>
                <time>2013-11-01T15:19:25.000Z</time>
                <name>Position 263</name>
            </trkpt>
            <trkpt lat="47.5269735" lon="10.7407022">
                <ele>1339.8</ele>
                <time>2013-11-01T15:19:28.000Z</time>
                <name>Position 264</name>
            </trkpt>
            <trkpt lat="47.5273168" lon="10.7404661">
                <ele>1321.2</ele>
                <time>2013-11-01T15:19:44.000Z</time>
                <name>Position 265</name>
            </trkpt>
            <trkpt lat="47.5274456" lon="10.7399726">
                <ele>1299.5</ele>
                <time>2013-11-01T15:19:52.000Z</time>
                <name>Position 266</name>
            </trkpt>
            <trkpt lat="47.5273383" lon="10.7393503">
                <ele>1291.8</ele>
                <time>2013-11-01T15:19:58.000Z</time>
                <name>Position 267</name>
            </trkpt>
            <trkpt lat="47.5273275" lon="10.739007">
                <ele>1289.7</ele>
                <time>2013-11-01T15:20:01.000Z</time>
                <name>Position 268</name>
            </trkpt>
            <trkpt lat="47.5273597" lon="10.7386208">
                <ele>1287.6</ele>
                <time>2013-11-01T15:20:04.000Z</time>
                <name>Position 269</name>
            </trkpt>
            <trkpt lat="47.5273275" lon="10.7382345">
                <ele>1285.8</ele>
                <time>2013-11-01T15:20:07.000Z</time>
                <name>Position 270</name>
            </trkpt>
            <trkpt lat="47.5273705" lon="10.7376122">
                <ele>1282.7</ele>
                <time>2013-11-01T15:20:12.000Z</time>
                <name>Position 271</name>
            </trkpt>
            <trkpt lat="47.527746" lon="10.7373333">
                <ele>1275.3</ele>
                <time>2013-11-01T15:20:19.000Z</time>
                <name>Position 272</name>
            </trkpt>
            <trkpt lat="47.5281429" lon="10.7373333">
                <ele>1270.0</ele>
                <time>2013-11-01T15:20:26.000Z</time>
                <name>Position 273</name>
            </trkpt>
            <trkpt lat="47.5282931" lon="10.736711">
                <ele>1267.9</ele>
                <time>2013-11-01T15:20:32.000Z</time>
                <name>Position 274</name>
            </trkpt>
            <trkpt lat="47.5284004" lon="10.7363892">
                <ele>1267.9</ele>
                <time>2013-11-01T15:20:35.000Z</time>
                <name>Position 275</name>
            </trkpt>
            <trkpt lat="47.5285184" lon="10.7356811">
                <ele>1266.1</ele>
                <time>2013-11-01T15:20:41.000Z</time>
                <name>Position 276</name>
            </trkpt>
            <trkpt lat="47.5288188" lon="10.7353163">
                <ele>1259.2</ele>
                <time>2013-11-01T15:20:48.000Z</time>
                <name>Position 277</name>
            </trkpt>
            <trkpt lat="47.5290656" lon="10.7353163">
                <ele>1254.6</ele>
                <time>2013-11-01T15:20:52.000Z</time>
                <name>Position 278</name>
            </trkpt>
            <trkpt lat="47.5293231" lon="10.7353163">
                <ele>1251.4</ele>
                <time>2013-11-01T15:20:55.000Z</time>
                <name>Position 279</name>
            </trkpt>
            <trkpt lat="47.5297308" lon="10.7352734">
                <ele>1248.0</ele>
                <time>2013-11-01T15:21:00.000Z</time>
                <name>Position 280</name>
            </trkpt>
            <trkpt lat="47.5298381" lon="10.7346725">
                <ele>1242.8</ele>
                <time>2013-11-01T15:21:06.000Z</time>
                <name>Position 281</name>
            </trkpt>
            <trkpt lat="47.5299239" lon="10.734179">
                <ele>1240.9</ele>
                <time>2013-11-01T15:21:10.000Z</time>
                <name>Position 282</name>
            </trkpt>
            <trkpt lat="47.5299883" lon="10.7337928">
                <ele>1240.9</ele>
                <time>2013-11-01T15:21:13.000Z</time>
                <name>Position 283</name>
            </trkpt>
            <trkpt lat="47.5300527" lon="10.7334495">
                <ele>1240.9</ele>
                <time>2013-11-01T15:21:16.000Z</time>
                <name>Position 284</name>
            </trkpt>
            <trkpt lat="47.5299454" lon="10.7331276">
                <ele>1240.2</ele>
                <time>2013-11-01T15:21:19.000Z</time>
                <name>Position 285</name>
            </trkpt>
            <trkpt lat="47.5298059" lon="10.7328486">
                <ele>1236.9</ele>
                <time>2013-11-01T15:21:22.000Z</time>
                <name>Position 286</name>
            </trkpt>
            <trkpt lat="47.5300312" lon="10.7323122">
                <ele>1227.5</ele>
                <time>2013-11-01T15:21:29.000Z</time>
                <name>Position 287</name>
            </trkpt>
            <trkpt lat="47.5299346" lon="10.7317758">
                <ele>1220.2</ele>
                <time>2013-11-01T15:21:36.000Z</time>
                <name>Position 288</name>
            </trkpt>
            <trkpt lat="47.5287223" lon="10.7312393">
                <ele>1213.9</ele>
                <time>2013-11-01T15:22:00.000Z</time>
                <name>Position 289</name>
            </trkpt>
            <trkpt lat="47.528379" lon="10.7316685">
                <ele>1210.6</ele>
                <time>2013-11-01T15:22:05.000Z</time>
                <name>Position 290</name>
            </trkpt>
            <trkpt lat="47.5280356" lon="10.7319474">
                <ele>1207.5</ele>
                <time>2013-11-01T15:22:09.000Z</time>
                <name>Position 291</name>
            </trkpt>
            <trkpt lat="47.5278103" lon="10.7320976">
                <ele>1205.5</ele>
                <time>2013-11-01T15:22:12.000Z</time>
                <name>Position 292</name>
            </trkpt>
            <trkpt lat="47.527585" lon="10.7322478">
                <ele>1204.1</ele>
                <time>2013-11-01T15:22:15.000Z</time>
                <name>Position 293</name>
            </trkpt>
            <trkpt lat="47.5272954" lon="10.7326984">
                <ele>1200.3</ele>
                <time>2013-11-01T15:22:22.000Z</time>
                <name>Position 294</name>
            </trkpt>
            <trkpt lat="47.527585" lon="10.7324195">
                <ele>1158.5</ele>
                <time>2013-11-01T15:23:10.000Z</time>
                <name>Position 295</name>
            </trkpt>
            <trkpt lat="47.5276816" lon="10.7321191">
                <ele>1149.3</ele>
                <time>2013-11-01T15:23:14.000Z</time>
                <name>Position 296</name>
            </trkpt>
            <trkpt lat="47.5277245" lon="10.7315826">
                <ele>1142.3</ele>
                <time>2013-11-01T15:23:23.000Z</time>
                <name>Position 297</name>
            </trkpt>
            <trkpt lat="47.5279391" lon="10.7310677">
                <ele>1139.3</ele>
                <time>2013-11-01T15:23:29.000Z</time>
                <name>Position 298</name>
            </trkpt>
            <trkpt lat="47.5283575" lon="10.7307673">
                <ele>1136.7</ele>
                <time>2013-11-01T15:23:35.000Z</time>
                <name>Position 299</name>
            </trkpt>
            <trkpt lat="47.5285935" lon="10.7306385">
                <ele>1135.7</ele>
                <time>2013-11-01T15:23:38.000Z</time>
                <name>Position 300</name>
            </trkpt>
            <trkpt lat="47.5288296" lon="10.7304883">
                <ele>1135.0</ele>
                <time>2013-11-01T15:23:41.000Z</time>
                <name>Position 301</name>
            </trkpt>
            <trkpt lat="47.5285292" lon="10.7303381">
                <ele>1126.1</ele>
                <time>2013-11-01T15:23:54.000Z</time>
                <name>Position 302</name>
            </trkpt>
            <trkpt lat="47.5281" lon="10.7302523">
                <ele>1123.2</ele>
                <time>2013-11-01T15:23:59.000Z</time>
                <name>Position 303</name>
            </trkpt>
            <trkpt lat="47.5278533" lon="10.7302094">
                <ele>1122.2</ele>
                <time>2013-11-01T15:24:02.000Z</time>
                <name>Position 304</name>
            </trkpt>
            <trkpt lat="47.5274777" lon="10.7299948">
                <ele>1120.5</ele>
                <time>2013-11-01T15:24:08.000Z</time>
                <name>Position 305</name>
            </trkpt>
            <trkpt lat="47.5271022" lon="10.7298875">
                <ele>1118.8</ele>
                <time>2013-11-01T15:24:14.000Z</time>
                <name>Position 306</name>
            </trkpt>
            <trkpt lat="47.5268447" lon="10.7301879">
                <ele>1116.9</ele>
                <time>2013-11-01T15:24:18.000Z</time>
                <name>Position 307</name>
            </trkpt>
            <trkpt lat="47.5262117" lon="10.7308745">
                <ele>1115.6</ele>
                <time>2013-11-01T15:24:27.000Z</time>
                <name>Position 308</name>
            </trkpt>
            <trkpt lat="47.5259757" lon="10.7310247">
                <ele>1115.2</ele>
                <time>2013-11-01T15:24:30.000Z</time>
                <name>Position 309</name>
            </trkpt>
            <trkpt lat="47.5257397" lon="10.7310891">
                <ele>1113.7</ele>
                <time>2013-11-01T15:24:33.000Z</time>
                <name>Position 310</name>
            </trkpt>
            <trkpt lat="47.5255036" lon="10.7312179">
                <ele>1110.4</ele>
                <time>2013-11-01T15:24:36.000Z</time>
                <name>Position 311</name>
            </trkpt>
            <trkpt lat="47.5251389" lon="10.7313681">
                <ele>1106.0</ele>
                <time>2013-11-01T15:24:40.000Z</time>
                <name>Position 312</name>
            </trkpt>
            <trkpt lat="47.5248814" lon="10.7314754">
                <ele>1102.9</ele>
                <time>2013-11-01T15:24:43.000Z</time>
                <name>Position 313</name>
            </trkpt>
            <trkpt lat="47.524538" lon="10.7317543">
                <ele>1096.3</ele>
                <time>2013-11-01T15:24:48.000Z</time>
                <name>Position 314</name>
            </trkpt>
            <trkpt lat="47.5242805" lon="10.7325053">
                <ele>1081.6</ele>
                <time>2013-11-01T15:24:56.000Z</time>
                <name>Position 315</name>
            </trkpt>
            <trkpt lat="47.523948" lon="10.7331491">
                <ele>1073.9</ele>
                <time>2013-11-01T15:25:05.000Z</time>
                <name>Position 316</name>
            </trkpt>
            <trkpt lat="47.5235832" lon="10.7328057">
                <ele>1077.3</ele>
                <time>2013-11-01T15:25:12.000Z</time>
                <name>Position 317</name>
            </trkpt>
            <trkpt lat="47.523433" lon="10.7323122">
                <ele>1076.4</ele>
                <time>2013-11-01T15:25:16.000Z</time>
                <name>Position 318</name>
            </trkpt>
            <trkpt lat="47.5233793" lon="10.7319045">
                <ele>1075.1</ele>
                <time>2013-11-01T15:25:19.000Z</time>
                <name>Position 319</name>
            </trkpt>
            <trkpt lat="47.523272" lon="10.7313466">
                <ele>1074.3</ele>
                <time>2013-11-01T15:25:23.000Z</time>
                <name>Position 320</name>
            </trkpt>
            <trkpt lat="47.5230682" lon="10.7308102">
                <ele>1072.9</ele>
                <time>2013-11-01T15:25:30.000Z</time>
                <name>Position 321</name>
            </trkpt>
            <trkpt lat="47.5226927" lon="10.7305527">
                <ele>1073.7</ele>
                <time>2013-11-01T15:25:38.000Z</time>
                <name>Position 322</name>
            </trkpt>
            <trkpt lat="47.5224674" lon="10.730617">
                <ele>1073.4</ele>
                <time>2013-11-01T15:25:41.000Z</time>
                <name>Position 323</name>
            </trkpt>
            <trkpt lat="47.5220811" lon="10.7304025">
                <ele>1072.3</ele>
                <time>2013-11-01T15:25:47.000Z</time>
                <name>Position 324</name>
            </trkpt>
            <trkpt lat="47.5219095" lon="10.730145">
                <ele>1071.5</ele>
                <time>2013-11-01T15:25:50.000Z</time>
                <name>Position 325</name>
            </trkpt>
            <trkpt lat="47.5216305" lon="10.7297373">
                <ele>1066.6</ele>
                <time>2013-11-01T15:25:57.000Z</time>
                <name>Position 326</name>
            </trkpt>
            <trkpt lat="47.5210404" lon="10.7296085">
                <ele>1053.6</ele>
                <time>2013-11-01T15:26:09.000Z</time>
                <name>Position 327</name>
            </trkpt>
            <trkpt lat="47.5206649" lon="10.7300806">
                <ele>1039.6</ele>
                <time>2013-11-01T15:26:16.000Z</time>
                <name>Position 328</name>
            </trkpt>
            <trkpt lat="47.520504" lon="10.7305741">
                <ele>1031.7</ele>
                <time>2013-11-01T15:26:22.000Z</time>
                <name>Position 329</name>
            </trkpt>
            <trkpt lat="47.5203323" lon="10.7316685">
                <ele>1014.9</ele>
                <time>2013-11-01T15:26:34.000Z</time>
                <name>Position 330</name>
            </trkpt>
            <trkpt lat="47.5201499" lon="10.7311749">
                <ele>1009.9</ele>
                <time>2013-11-01T15:26:45.000Z</time>
                <name>Position 331</name>
            </trkpt>
            <trkpt lat="47.5197852" lon="10.7308745">
                <ele>997.2</ele>
                <time>2013-11-01T15:26:53.000Z</time>
                <name>Position 332</name>
            </trkpt>
            <trkpt lat="47.5196779" lon="10.7312822">
                <ele>974.3</ele>
                <time>2013-11-01T15:27:04.000Z</time>
                <name>Position 333</name>
            </trkpt>
            <trkpt lat="47.5195062" lon="10.7316899">
                <ele>964.2</ele>
                <time>2013-11-01T15:27:10.000Z</time>
                <name>Position 334</name>
            </trkpt>
            <trkpt lat="47.51912" lon="10.7316899">
                <ele>959.4</ele>
                <time>2013-11-01T15:27:16.000Z</time>
                <name>Position 335</name>
            </trkpt>
            <trkpt lat="47.5186908" lon="10.7316041">
                <ele>957.0</ele>
                <time>2013-11-01T15:27:22.000Z</time>
                <name>Position 336</name>
            </trkpt>
            <trkpt lat="47.5184333" lon="10.7315826">
                <ele>956.1</ele>
                <time>2013-11-01T15:27:25.000Z</time>
                <name>Position 337</name>
            </trkpt>
            <trkpt lat="47.5180364" lon="10.7315397">
                <ele>954.8</ele>
                <time>2013-11-01T15:27:29.000Z</time>
                <name>Position 338</name>
            </trkpt>
            <trkpt lat="47.5178111" lon="10.7315183">
                <ele>954.4</ele>
                <time>2013-11-01T15:27:31.000Z</time>
                <name>Position 339</name>
            </trkpt>
            <trkpt lat="47.5174248" lon="10.731411">
                <ele>953.4</ele>
                <time>2013-11-01T15:27:35.000Z</time>
                <name>Position 340</name>
            </trkpt>
            <trkpt lat="47.517221" lon="10.7311964">
                <ele>951.8</ele>
                <time>2013-11-01T15:27:38.000Z</time>
                <name>Position 341</name>
            </trkpt>
            <trkpt lat="47.51706" lon="10.7309389">
                <ele>949.4</ele>
                <time>2013-11-01T15:27:41.000Z</time>
                <name>Position 342</name>
            </trkpt>
            <trkpt lat="47.5168991" lon="10.73066">
                <ele>947.1</ele>
                <time>2013-11-01T15:27:44.000Z</time>
                <name>Position 343</name>
            </trkpt>
            <trkpt lat="47.5168025" lon="10.7303596">
                <ele>945.8</ele>
                <time>2013-11-01T15:27:47.000Z</time>
                <name>Position 344</name>
            </trkpt>
            <trkpt lat="47.5167704" lon="10.7297587">
                <ele>944.0</ele>
                <time>2013-11-01T15:27:53.000Z</time>
                <name>Position 345</name>
            </trkpt>
            <trkpt lat="47.5165665" lon="10.7291794">
                <ele>939.7</ele>
                <time>2013-11-01T15:28:09.000Z</time>
                <name>Position 346</name>
            </trkpt>
        </trkseg>
    </trk>
</gpx>
