<?xml version="1.0" encoding="UTF-8" standalone="yes"?>
<gpx xmlns:gpxtpx1="http://www.garmin.com/xmlschemas/TrackPointExtension/v1" xmlns="http://www.topografix.com/GPX/1/1" xmlns:trp="http://www.garmin.com/xmlschemas/TripExtensions/v1" xmlns:gpxx="http://www.garmin.com/xmlschemas/GpxExtensions/v3" xmlns:gpxtpx="http://www.garmin.com/xmlschemas/TrackPointExtension/v2" version="1.1" creator="RouteConverter 2.27.2">
    <metadata>
        <name>2020-09-04 10:43</name>
        <link href="https://www.oruxmaps.com">
            <text>OruxMaps</text>
        </link>
        <time>2020-09-04T08:43:17Z</time>
        <bounds minlat="47.5282551" minlon="12.2495621" maxlat="47.5582640" maxlon="12.2820267"/>
    </metadata>
    <wpt lat="47.5579399" lon="12.2805417">
        <ele>1709.1</ele>
        <time>2020-09-04T10:39:35.000Z</time>
        <name>0000079</name>
        <sym>Waypoint</sym>
        <type>Wegpunkt</type>
        <extensions>
            <om:oruxmapsextensions xmlns:om="http://www.oruxmaps.com/oruxmapsextensions/1/0" xmlns:gpxtpx="http://www.garmin.com/xmlschemas/TrackPointExtension/v1" xmlns:xsi="http://www.w3.org/2001/XMLSchema-instance">
                <om:ext subtype="0" type="ICON">1</om:ext>
</om:oruxmapsextensions>
        </extensions>
    </wpt>
    <trk>
        <name>2020-09-04 10:43</name>
        <desc>&lt;p&gt;Startzeit: 10:43 04.09.2020&lt;br/&gt;Zielzeit: 18:12 04.09.2020&lt;br/&gt;Strecke: 10,
5 km (07:28)&lt;br/&gt;Bewegungszeit: 02:41&lt;br/&gt;Ø-Geschwindigkeit: 1,
41 km/h&lt;br/&gt;Netto-Geschwindigkeit: 3,
92 km/h&lt;br/&gt;Max. Geschwindigkeit: 40,
35 km/h&lt;br/&gt;Minimale Höhe: 784 m&lt;br/&gt;Maximale Höhe: 1897 m&lt;br/&gt;Steig-Geschw.: 164 m/h&lt;br/&gt;Sink-Geschw.: -814,
1 m/h&lt;br/&gt;Aufstieg: 1003 m&lt;br/&gt;Abstieg: -1107 m&lt;br/&gt;Steigzeit: 06:07&lt;br/&gt;Sinkzeit: 01:21&lt;br/&gt;&lt;/p&gt;&lt;hr align="center" width="480" style="height: 2px; width: 517px"/&gt;</desc>
        <type>Berg/ Bergsteigen</type>
        <extensions>
            <om:oruxmapsextensions xmlns:om="http://www.oruxmaps.com/oruxmapsextensions/1/0" xmlns:gpxtpx="http://www.garmin.com/xmlschemas/TrackPointExtension/v1" xmlns:xsi="http://www.w3.org/2001/XMLSchema-instance">
                <om:ext subtype="0" type="TYPE">7</om:ext>
                <om:ext type="DIFFICULTY">0</om:ext>
</om:oruxmapsextensions>
        </extensions>
        <trkseg>
            <trkpt lat="47.5368134" lon="12.2662078">
                <ele>892.7</ele>
                <time>2020-09-04T08:45:21.000Z</time>
                <name>Position 1</name>
            </trkpt>
            <trkpt lat="47.5369818" lon="12.2663323">
                <ele>893.5</ele>
                <time>2020-09-04T08:45:31.000Z</time>
                <name>Position 2</name>
            </trkpt>
            <trkpt lat="47.5371564" lon="12.2664313">
                <ele>893.8</ele>
                <time>2020-09-04T08:45:41.000Z</time>
                <name>Position 3</name>
            </trkpt>
            <trkpt lat="47.5373305" lon="12.2665324">
                <ele>893.7</ele>
                <time>2020-09-04T08:45:53.000Z</time>
                <name>Position 4</name>
            </trkpt>
            <trkpt lat="47.537528" lon="12.2666092">
                <ele>898.5</ele>
                <time>2020-09-04T08:47:21.000Z</time>
                <name>Position 5</name>
            </trkpt>
            <trkpt lat="47.5377217" lon="12.2666588">
                <ele>900.5</ele>
                <time>2020-09-04T08:47:35.000Z</time>
                <name>Position 6</name>
            </trkpt>
            <trkpt lat="47.5378921" lon="12.2667753">
                <ele>901.7</ele>
                <time>2020-09-04T08:47:49.000Z</time>
                <name>Position 7</name>
            </trkpt>
            <trkpt lat="47.5380622" lon="12.2668919">
                <ele>904.0</ele>
                <time>2020-09-04T08:48:03.000Z</time>
                <name>Position 8</name>
            </trkpt>
            <trkpt lat="47.5382544" lon="12.2670091">
                <ele>905.7</ele>
                <time>2020-09-04T08:48:17.000Z</time>
                <name>Position 9</name>
            </trkpt>
            <trkpt lat="47.5384465" lon="12.2670617">
                <ele>907.9</ele>
                <time>2020-09-04T08:48:31.000Z</time>
                <name>Position 10</name>
            </trkpt>
            <trkpt lat="47.5386284" lon="12.2671514">
                <ele>909.8</ele>
                <time>2020-09-04T08:48:45.000Z</time>
                <name>Position 11</name>
            </trkpt>
            <trkpt lat="47.5388216" lon="12.2671884">
                <ele>911.2</ele>
                <time>2020-09-04T08:48:59.000Z</time>
                <name>Position 12</name>
            </trkpt>
            <trkpt lat="47.5390302" lon="12.267204">
                <ele>912.5</ele>
                <time>2020-09-04T08:49:11.000Z</time>
                <name>Position 13</name>
            </trkpt>
            <trkpt lat="47.5392339" lon="12.2672076">
                <ele>913.3</ele>
                <time>2020-09-04T08:49:23.000Z</time>
                <name>Position 14</name>
            </trkpt>
            <trkpt lat="47.5394343" lon="12.2672346">
                <ele>914.3</ele>
                <time>2020-09-04T08:49:33.000Z</time>
                <name>Position 15</name>
            </trkpt>
            <trkpt lat="47.5396304" lon="12.2672865">
                <ele>915.7</ele>
                <time>2020-09-04T08:49:45.000Z</time>
                <name>Position 16</name>
            </trkpt>
            <trkpt lat="47.5398186" lon="12.2673963">
                <ele>917.2</ele>
                <time>2020-09-04T08:49:57.000Z</time>
                <name>Position 17</name>
            </trkpt>
            <trkpt lat="47.5399627" lon="12.2675906">
                <ele>919.3</ele>
                <time>2020-09-04T08:50:09.000Z</time>
                <name>Position 18</name>
            </trkpt>
            <trkpt lat="47.5401418" lon="12.2677278">
                <ele>919.3</ele>
                <time>2020-09-04T08:50:21.000Z</time>
                <name>Position 19</name>
            </trkpt>
            <trkpt lat="47.5402754" lon="12.2679254">
                <ele>919.0</ele>
                <time>2020-09-04T08:50:31.000Z</time>
                <name>Position 20</name>
            </trkpt>
            <trkpt lat="47.5402032" lon="12.2682043">
                <ele>920.2</ele>
                <time>2020-09-04T08:50:45.000Z</time>
                <name>Position 21</name>
            </trkpt>
            <trkpt lat="47.5400153" lon="12.2680913">
                <ele>922.2</ele>
                <time>2020-09-04T08:50:57.000Z</time>
                <name>Position 22</name>
            </trkpt>
            <trkpt lat="47.5398299" lon="12.2681444">
                <ele>921.7</ele>
                <time>2020-09-04T08:51:09.000Z</time>
                <name>Position 23</name>
            </trkpt>
            <trkpt lat="47.5396504" lon="12.2682397">
                <ele>924.7</ele>
                <time>2020-09-04T08:51:21.000Z</time>
                <name>Position 24</name>
            </trkpt>
            <trkpt lat="47.5397783" lon="12.2684536">
                <ele>931.0</ele>
                <time>2020-09-04T08:51:47.000Z</time>
                <name>Position 25</name>
            </trkpt>
            <trkpt lat="47.5399599" lon="12.2685686">
                <ele>933.2</ele>
                <time>2020-09-04T08:52:01.000Z</time>
                <name>Position 26</name>
            </trkpt>
            <trkpt lat="47.5401072" lon="12.2687247">
                <ele>936.0</ele>
                <time>2020-09-04T08:52:15.000Z</time>
                <name>Position 27</name>
            </trkpt>
            <trkpt lat="47.5402835" lon="12.268858">
                <ele>938.6</ele>
                <time>2020-09-04T08:52:31.000Z</time>
                <name>Position 28</name>
            </trkpt>
            <trkpt lat="47.5404508" lon="12.2689879">
                <ele>941.3</ele>
                <time>2020-09-04T08:52:47.000Z</time>
                <name>Position 29</name>
            </trkpt>
            <trkpt lat="47.5406237" lon="12.2690885">
                <ele>944.6</ele>
                <time>2020-09-04T08:53:03.000Z</time>
                <name>Position 30</name>
            </trkpt>
            <trkpt lat="47.5407859" lon="12.2692061">
                <ele>946.5</ele>
                <time>2020-09-04T08:53:19.000Z</time>
                <name>Position 31</name>
            </trkpt>
            <trkpt lat="47.5409659" lon="12.2692669">
                <ele>949.5</ele>
                <time>2020-09-04T08:53:35.000Z</time>
                <name>Position 32</name>
            </trkpt>
            <trkpt lat="47.5411553" lon="12.2693612">
                <ele>952.2</ele>
                <time>2020-09-04T08:53:53.000Z</time>
                <name>Position 33</name>
            </trkpt>
            <trkpt lat="47.5413378" lon="12.2694361">
                <ele>954.6</ele>
                <time>2020-09-04T08:54:09.000Z</time>
                <name>Position 34</name>
            </trkpt>
            <trkpt lat="47.5415197" lon="12.2693962">
                <ele>960.0</ele>
                <time>2020-09-04T08:54:28.000Z</time>
                <name>Position 35</name>
            </trkpt>
            <trkpt lat="47.5417029" lon="12.2693421">
                <ele>958.5</ele>
                <time>2020-09-04T08:54:42.000Z</time>
                <name>Position 36</name>
            </trkpt>
            <trkpt lat="47.541905" lon="12.269364">
                <ele>961.5</ele>
                <time>2020-09-04T08:54:58.000Z</time>
                <name>Position 37</name>
            </trkpt>
            <trkpt lat="47.5420916" lon="12.269299">
                <ele>964.8</ele>
                <time>2020-09-04T08:55:14.000Z</time>
                <name>Position 38</name>
            </trkpt>
            <trkpt lat="47.5422681" lon="12.2691781">
                <ele>967.8</ele>
                <time>2020-09-04T08:55:30.000Z</time>
                <name>Position 39</name>
            </trkpt>
            <trkpt lat="47.5424528" lon="12.2691942">
                <ele>970.7</ele>
                <time>2020-09-04T08:55:46.000Z</time>
                <name>Position 40</name>
            </trkpt>
            <trkpt lat="47.5426321" lon="12.2693152">
                <ele>973.6</ele>
                <time>2020-09-04T08:56:04.000Z</time>
                <name>Position 41</name>
            </trkpt>
            <trkpt lat="47.5428213" lon="12.2693863">
                <ele>975.4</ele>
                <time>2020-09-04T08:56:20.000Z</time>
                <name>Position 42</name>
            </trkpt>
            <trkpt lat="47.5429064" lon="12.2691191">
                <ele>978.3</ele>
                <time>2020-09-04T08:56:36.000Z</time>
                <name>Position 43</name>
            </trkpt>
            <trkpt lat="47.54307" lon="12.2689693">
                <ele>981.0</ele>
                <time>2020-09-04T08:56:52.000Z</time>
                <name>Position 44</name>
            </trkpt>
            <trkpt lat="47.5432586" lon="12.2688957">
                <ele>983.8</ele>
                <time>2020-09-04T08:57:10.000Z</time>
                <name>Position 45</name>
            </trkpt>
            <trkpt lat="47.5434441" lon="12.2687899">
                <ele>986.5</ele>
                <time>2020-09-04T08:57:28.000Z</time>
                <name>Position 46</name>
            </trkpt>
            <trkpt lat="47.5436102" lon="12.2686555">
                <ele>988.3</ele>
                <time>2020-09-04T08:57:44.000Z</time>
                <name>Position 47</name>
            </trkpt>
            <trkpt lat="47.543764" lon="12.2684652">
                <ele>991.0</ele>
                <time>2020-09-04T08:58:00.000Z</time>
                <name>Position 48</name>
            </trkpt>
            <trkpt lat="47.5439395" lon="12.2683563">
                <ele>992.7</ele>
                <time>2020-09-04T08:58:14.000Z</time>
                <name>Position 49</name>
            </trkpt>
            <trkpt lat="47.5443862" lon="12.2677495">
                <ele>1004.5</ele>
                <time>2020-09-04T08:59:36.000Z</time>
                <name>Position 50</name>
            </trkpt>
            <trkpt lat="47.544545" lon="12.2676092">
                <ele>1007.1</ele>
                <time>2020-09-04T08:59:52.000Z</time>
                <name>Position 51</name>
            </trkpt>
            <trkpt lat="47.5449608" lon="12.2674159">
                <ele>1009.8</ele>
                <time>2020-09-04T09:00:08.000Z</time>
                <name>Position 52</name>
            </trkpt>
            <trkpt lat="47.5453137" lon="12.2675649">
                <ele>1015.0</ele>
                <time>2020-09-04T09:00:40.000Z</time>
                <name>Position 53</name>
            </trkpt>
            <trkpt lat="47.5454309" lon="12.2676997">
                <ele>1032.3</ele>
                <time>2020-09-04T09:02:42.000Z</time>
                <name>Position 54</name>
            </trkpt>
            <trkpt lat="47.5455659" lon="12.2677486">
                <ele>1038.5</ele>
                <time>2020-09-04T09:03:30.000Z</time>
                <name>Position 55</name>
            </trkpt>
            <trkpt lat="47.5461249" lon="12.2681761">
                <ele>1048.2</ele>
                <time>2020-09-04T09:04:32.000Z</time>
                <name>Position 56</name>
            </trkpt>
            <trkpt lat="47.5464739" lon="12.2686612">
                <ele>1055.1</ele>
                <time>2020-09-04T09:05:18.000Z</time>
                <name>Position 57</name>
            </trkpt>
            <trkpt lat="47.5468856" lon="12.2696405">
                <ele>1107.0</ele>
                <time>2020-09-04T09:11:30.000Z</time>
                <name>Position 58</name>
            </trkpt>
            <trkpt lat="47.5470441" lon="12.2700745">
                <ele>1120.2</ele>
                <time>2020-09-04T09:12:52.000Z</time>
                <name>Position 59</name>
            </trkpt>
            <trkpt lat="47.5474158" lon="12.2705609">
                <ele>1125.2</ele>
                <time>2020-09-04T09:13:24.000Z</time>
                <name>Position 60</name>
            </trkpt>
            <trkpt lat="47.5481226" lon="12.2711389">
                <ele>1137.1</ele>
                <time>2020-09-04T09:14:42.000Z</time>
                <name>Position 61</name>
            </trkpt>
            <trkpt lat="47.5482139" lon="12.2712541">
                <ele>1142.8</ele>
                <time>2020-09-04T09:15:16.000Z</time>
                <name>Position 62</name>
            </trkpt>
            <trkpt lat="47.5482858" lon="12.2723202">
                <ele>1143.2</ele>
                <time>2020-09-04T09:15:28.000Z</time>
                <name>Position 63</name>
            </trkpt>
            <trkpt lat="47.5486266" lon="12.2728922">
                <ele>1149.0</ele>
                <time>2020-09-04T09:16:22.000Z</time>
                <name>Position 64</name>
            </trkpt>
            <trkpt lat="47.5486364" lon="12.2729775">
                <ele>1153.4</ele>
                <time>2020-09-04T09:16:38.000Z</time>
                <name>Position 65</name>
            </trkpt>
            <trkpt lat="47.5487086" lon="12.2730729">
                <ele>1156.5</ele>
                <time>2020-09-04T09:16:54.000Z</time>
                <name>Position 66</name>
            </trkpt>
            <trkpt lat="47.548819" lon="12.2733117">
                <ele>1156.9</ele>
                <time>2020-09-04T09:17:12.000Z</time>
                <name>Position 67</name>
            </trkpt>
            <trkpt lat="47.5488219" lon="12.2734404">
                <ele>1160.2</ele>
                <time>2020-09-04T09:18:26.000Z</time>
                <name>Position 68</name>
            </trkpt>
            <trkpt lat="47.548996" lon="12.273342">
                <ele>1159.5</ele>
                <time>2020-09-04T09:29:07.000Z</time>
                <name>Position 69</name>
            </trkpt>
            <trkpt lat="47.5488054" lon="12.2733657">
                <ele>1160.1</ele>
                <time>2020-09-04T09:30:45.000Z</time>
                <name>Position 70</name>
            </trkpt>
            <trkpt lat="47.5489962" lon="12.2733573">
                <ele>1159.9</ele>
                <time>2020-09-04T09:34:02.000Z</time>
                <name>Position 71</name>
            </trkpt>
            <trkpt lat="47.5490338" lon="12.2730781">
                <ele>1164.8</ele>
                <time>2020-09-04T09:34:30.000Z</time>
                <name>Position 72</name>
            </trkpt>
            <trkpt lat="47.5491919" lon="12.2732373">
                <ele>1169.8</ele>
                <time>2020-09-04T09:35:42.000Z</time>
                <name>Position 73</name>
            </trkpt>
            <trkpt lat="47.5493581" lon="12.2733446">
                <ele>1175.6</ele>
                <time>2020-09-04T09:36:16.000Z</time>
                <name>Position 74</name>
            </trkpt>
            <trkpt lat="47.5495353" lon="12.2732891">
                <ele>1179.0</ele>
                <time>2020-09-04T09:36:46.000Z</time>
                <name>Position 75</name>
            </trkpt>
            <trkpt lat="47.5495944" lon="12.2735565">
                <ele>1190.2</ele>
                <time>2020-09-04T09:37:46.000Z</time>
                <name>Position 76</name>
            </trkpt>
            <trkpt lat="47.5495912" lon="12.2738319">
                <ele>1196.5</ele>
                <time>2020-09-04T09:38:30.000Z</time>
                <name>Position 77</name>
            </trkpt>
            <trkpt lat="47.5496138" lon="12.274108">
                <ele>1198.5</ele>
                <time>2020-09-04T09:39:02.000Z</time>
                <name>Position 78</name>
            </trkpt>
            <trkpt lat="47.5497938" lon="12.27418">
                <ele>1194.7</ele>
                <time>2020-09-04T09:39:38.000Z</time>
                <name>Position 79</name>
            </trkpt>
            <trkpt lat="47.5498226" lon="12.2744582">
                <ele>1214.3</ele>
                <time>2020-09-04T09:40:34.000Z</time>
                <name>Position 80</name>
            </trkpt>
            <trkpt lat="47.5498658" lon="12.2747249">
                <ele>1223.7</ele>
                <time>2020-09-04T09:41:30.000Z</time>
                <name>Position 81</name>
            </trkpt>
            <trkpt lat="47.5500498" lon="12.2748233">
                <ele>1231.3</ele>
                <time>2020-09-04T09:42:08.000Z</time>
                <name>Position 82</name>
            </trkpt>
            <trkpt lat="47.5502384" lon="12.2747424">
                <ele>1233.7</ele>
                <time>2020-09-04T09:42:42.000Z</time>
                <name>Position 83</name>
            </trkpt>
            <trkpt lat="47.5503962" lon="12.274885">
                <ele>1243.0</ele>
                <time>2020-09-04T09:43:18.000Z</time>
                <name>Position 84</name>
            </trkpt>
            <trkpt lat="47.5505675" lon="12.2750046">
                <ele>1245.6</ele>
                <time>2020-09-04T09:43:48.000Z</time>
                <name>Position 85</name>
            </trkpt>
            <trkpt lat="47.5507459" lon="12.2750943">
                <ele>1251.5</ele>
                <time>2020-09-04T09:44:22.000Z</time>
                <name>Position 86</name>
            </trkpt>
            <trkpt lat="47.5509138" lon="12.2752037">
                <ele>1256.8</ele>
                <time>2020-09-04T09:44:58.000Z</time>
                <name>Position 87</name>
            </trkpt>
            <trkpt lat="47.551079" lon="12.2753159">
                <ele>1260.9</ele>
                <time>2020-09-04T09:45:22.000Z</time>
                <name>Position 88</name>
            </trkpt>
            <trkpt lat="47.5511886" lon="12.2755301">
                <ele>1264.2</ele>
                <time>2020-09-04T09:45:48.000Z</time>
                <name>Position 89</name>
            </trkpt>
            <trkpt lat="47.5513051" lon="12.2757605">
                <ele>1269.5</ele>
                <time>2020-09-04T09:46:22.000Z</time>
                <name>Position 90</name>
            </trkpt>
            <trkpt lat="47.5514436" lon="12.2759431">
                <ele>1274.3</ele>
                <time>2020-09-04T09:46:46.000Z</time>
                <name>Position 91</name>
            </trkpt>
            <trkpt lat="47.5516307" lon="12.2759619">
                <ele>1276.7</ele>
                <time>2020-09-04T09:47:12.000Z</time>
                <name>Position 92</name>
            </trkpt>
            <trkpt lat="47.5517791" lon="12.275788">
                <ele>1279.6</ele>
                <time>2020-09-04T09:47:36.000Z</time>
                <name>Position 93</name>
            </trkpt>
            <trkpt lat="47.5518938" lon="12.2755735">
                <ele>1283.0</ele>
                <time>2020-09-04T09:48:08.000Z</time>
                <name>Position 94</name>
            </trkpt>
            <trkpt lat="47.5520647" lon="12.27542">
                <ele>1283.4</ele>
                <time>2020-09-04T09:48:30.000Z</time>
                <name>Position 95</name>
            </trkpt>
            <trkpt lat="47.5522453" lon="12.2753828">
                <ele>1290.4</ele>
                <time>2020-09-04T09:50:04.000Z</time>
                <name>Position 96</name>
            </trkpt>
            <trkpt lat="47.5524281" lon="12.2753992">
                <ele>1297.4</ele>
                <time>2020-09-04T09:50:40.000Z</time>
                <name>Position 97</name>
            </trkpt>
            <trkpt lat="47.5525396" lon="12.275637">
                <ele>1301.4</ele>
                <time>2020-09-04T09:51:10.000Z</time>
                <name>Position 98</name>
            </trkpt>
            <trkpt lat="47.5526242" lon="12.2758848">
                <ele>1306.8</ele>
                <time>2020-09-04T09:51:46.000Z</time>
                <name>Position 99</name>
            </trkpt>
            <trkpt lat="47.5528043" lon="12.275915">
                <ele>1316.2</ele>
                <time>2020-09-04T09:52:32.000Z</time>
                <name>Position 100</name>
            </trkpt>
            <trkpt lat="47.5529863" lon="12.2759266">
                <ele>1322.0</ele>
                <time>2020-09-04T09:53:12.000Z</time>
                <name>Position 101</name>
            </trkpt>
            <trkpt lat="47.5531607" lon="12.2760476">
                <ele>1333.2</ele>
                <time>2020-09-04T09:54:10.000Z</time>
                <name>Position 102</name>
            </trkpt>
            <trkpt lat="47.5533454" lon="12.2760811">
                <ele>1338.4</ele>
                <time>2020-09-04T09:54:50.000Z</time>
                <name>Position 103</name>
            </trkpt>
            <trkpt lat="47.5534926" lon="12.2762356">
                <ele>1345.8</ele>
                <time>2020-09-04T09:55:24.000Z</time>
                <name>Position 104</name>
            </trkpt>
            <trkpt lat="47.5536414" lon="12.2764012">
                <ele>1348.6</ele>
                <time>2020-09-04T09:55:52.000Z</time>
                <name>Position 105</name>
            </trkpt>
            <trkpt lat="47.5537988" lon="12.2765353">
                <ele>1353.9</ele>
                <time>2020-09-04T09:56:22.000Z</time>
                <name>Position 106</name>
            </trkpt>
            <trkpt lat="47.553985" lon="12.2764852">
                <ele>1358.1</ele>
                <time>2020-09-04T09:56:54.000Z</time>
                <name>Position 107</name>
            </trkpt>
            <trkpt lat="47.5541506" lon="12.2763416">
                <ele>1363.0</ele>
                <time>2020-09-04T09:57:26.000Z</time>
                <name>Position 108</name>
            </trkpt>
            <trkpt lat="47.5542849" lon="12.2761556">
                <ele>1368.3</ele>
                <time>2020-09-04T09:57:58.000Z</time>
                <name>Position 109</name>
            </trkpt>
            <trkpt lat="47.5544205" lon="12.2759729">
                <ele>1374.9</ele>
                <time>2020-09-04T09:58:34.000Z</time>
                <name>Position 110</name>
            </trkpt>
            <trkpt lat="47.5545332" lon="12.2757435">
                <ele>1381.0</ele>
                <time>2020-09-04T09:59:06.000Z</time>
                <name>Position 111</name>
            </trkpt>
            <trkpt lat="47.5545622" lon="12.2754602">
                <ele>1384.9</ele>
                <time>2020-09-04T09:59:36.000Z</time>
                <name>Position 112</name>
            </trkpt>
            <trkpt lat="47.5546496" lon="12.2757034">
                <ele>1388.6</ele>
                <time>2020-09-04T10:00:30.000Z</time>
                <name>Position 113</name>
            </trkpt>
            <trkpt lat="47.5548314" lon="12.2757547">
                <ele>1393.8</ele>
                <time>2020-09-04T10:01:02.000Z</time>
                <name>Position 114</name>
            </trkpt>
            <trkpt lat="47.5550203" lon="12.2756801">
                <ele>1397.5</ele>
                <time>2020-09-04T10:01:40.000Z</time>
                <name>Position 115</name>
            </trkpt>
            <trkpt lat="47.5552093" lon="12.275685">
                <ele>1408.2</ele>
                <time>2020-09-04T10:02:47.000Z</time>
                <name>Position 116</name>
            </trkpt>
            <trkpt lat="47.5553932" lon="12.2757046">
                <ele>1415.7</ele>
                <time>2020-09-04T10:04:03.000Z</time>
                <name>Position 117</name>
            </trkpt>
            <trkpt lat="47.5555772" lon="12.2757699">
                <ele>1424.3</ele>
                <time>2020-09-04T10:04:47.000Z</time>
                <name>Position 118</name>
            </trkpt>
            <trkpt lat="47.5557562" lon="12.2757196">
                <ele>1431.6</ele>
                <time>2020-09-04T10:05:35.000Z</time>
                <name>Position 119</name>
            </trkpt>
            <trkpt lat="47.5559365" lon="12.2757174">
                <ele>1441.4</ele>
                <time>2020-09-04T10:06:33.000Z</time>
                <name>Position 120</name>
            </trkpt>
            <trkpt lat="47.5561061" lon="12.2756231">
                <ele>1448.2</ele>
                <time>2020-09-04T10:07:23.000Z</time>
                <name>Position 121</name>
            </trkpt>
            <trkpt lat="47.5562718" lon="12.2755106">
                <ele>1456.6</ele>
                <time>2020-09-04T10:08:13.000Z</time>
                <name>Position 122</name>
            </trkpt>
            <trkpt lat="47.5564519" lon="12.2755271">
                <ele>1463.5</ele>
                <time>2020-09-04T10:09:03.000Z</time>
                <name>Position 123</name>
            </trkpt>
            <trkpt lat="47.5566334" lon="12.2754715">
                <ele>1474.0</ele>
                <time>2020-09-04T10:10:13.000Z</time>
                <name>Position 124</name>
            </trkpt>
            <trkpt lat="47.5567524" lon="12.2756725">
                <ele>1479.4</ele>
                <time>2020-09-04T10:10:59.000Z</time>
                <name>Position 125</name>
            </trkpt>
            <trkpt lat="47.5568789" lon="12.275862">
                <ele>1486.5</ele>
                <time>2020-09-04T10:11:47.000Z</time>
                <name>Position 126</name>
            </trkpt>
            <trkpt lat="47.5570576" lon="12.2759524">
                <ele>1497.4</ele>
                <time>2020-09-04T10:12:43.000Z</time>
                <name>Position 127</name>
            </trkpt>
            <trkpt lat="47.5572406" lon="12.2759589">
                <ele>1506.2</ele>
                <time>2020-09-04T10:13:33.000Z</time>
                <name>Position 128</name>
            </trkpt>
            <trkpt lat="47.5572142" lon="12.2762368">
                <ele>1514.7</ele>
                <time>2020-09-04T10:14:37.000Z</time>
                <name>Position 129</name>
            </trkpt>
            <trkpt lat="47.5572793" lon="12.2764859">
                <ele>1525.0</ele>
                <time>2020-09-04T10:15:59.000Z</time>
                <name>Position 130</name>
            </trkpt>
            <trkpt lat="47.5573964" lon="12.2766949">
                <ele>1538.5</ele>
                <time>2020-09-04T10:17:31.000Z</time>
                <name>Position 131</name>
            </trkpt>
            <trkpt lat="47.5575281" lon="12.2768779">
                <ele>1552.1</ele>
                <time>2020-09-04T10:18:57.000Z</time>
                <name>Position 132</name>
            </trkpt>
            <trkpt lat="47.5576774" lon="12.2770395">
                <ele>1565.9</ele>
                <time>2020-09-04T10:20:09.000Z</time>
                <name>Position 133</name>
            </trkpt>
            <trkpt lat="47.5575846" lon="12.277282">
                <ele>1569.3</ele>
                <time>2020-09-04T10:20:35.000Z</time>
                <name>Position 134</name>
            </trkpt>
            <trkpt lat="47.5576054" lon="12.2775538">
                <ele>1575.5</ele>
                <time>2020-09-04T10:21:21.000Z</time>
                <name>Position 135</name>
            </trkpt>
            <trkpt lat="47.5577065" lon="12.2777774">
                <ele>1583.0</ele>
                <time>2020-09-04T10:22:11.000Z</time>
                <name>Position 136</name>
            </trkpt>
            <trkpt lat="47.5578076" lon="12.278007">
                <ele>1594.8</ele>
                <time>2020-09-04T10:23:09.000Z</time>
                <name>Position 137</name>
            </trkpt>
            <trkpt lat="47.5579411" lon="12.278194">
                <ele>1602.3</ele>
                <time>2020-09-04T10:24:18.000Z</time>
                <name>Position 138</name>
            </trkpt>
            <trkpt lat="47.558121" lon="12.2782318">
                <ele>1617.9</ele>
                <time>2020-09-04T10:25:28.000Z</time>
                <name>Position 139</name>
            </trkpt>
            <trkpt lat="47.5580785" lon="12.2785">
                <ele>1630.4</ele>
                <time>2020-09-04T10:27:02.000Z</time>
                <name>Position 140</name>
            </trkpt>
            <trkpt lat="47.5581863" lon="12.2787243">
                <ele>1645.1</ele>
                <time>2020-09-04T10:28:26.000Z</time>
                <name>Position 141</name>
            </trkpt>
            <trkpt lat="47.558264" lon="12.2789717">
                <ele>1657.4</ele>
                <time>2020-09-04T10:29:56.000Z</time>
                <name>Position 142</name>
            </trkpt>
            <trkpt lat="47.5582169" lon="12.2792357">
                <ele>1669.5</ele>
                <time>2020-09-04T10:31:08.000Z</time>
                <name>Position 143</name>
            </trkpt>
            <trkpt lat="47.5581187" lon="12.2794669">
                <ele>1675.1</ele>
                <time>2020-09-04T10:31:48.000Z</time>
                <name>Position 144</name>
            </trkpt>
            <trkpt lat="47.5580219" lon="12.2797093">
                <ele>1681.7</ele>
                <time>2020-09-04T10:32:34.000Z</time>
                <name>Position 145</name>
            </trkpt>
            <trkpt lat="47.5579757" lon="12.2799901">
                <ele>1688.6</ele>
                <time>2020-09-04T10:33:32.000Z</time>
                <name>Position 146</name>
            </trkpt>
            <trkpt lat="47.5580496" lon="12.2802507">
                <ele>1695.8</ele>
                <time>2020-09-04T10:34:30.000Z</time>
                <name>Position 147</name>
            </trkpt>
            <trkpt lat="47.5580764" lon="12.2805235">
                <ele>1704.3</ele>
                <time>2020-09-04T10:36:01.000Z</time>
                <name>Position 148</name>
            </trkpt>
            <trkpt lat="47.5578934" lon="12.2805256">
                <ele>1713.0</ele>
                <time>2020-09-04T11:10:56.000Z</time>
                <name>Position 149</name>
            </trkpt>
            <trkpt lat="47.5577394" lon="12.2806899">
                <ele>1737.6</ele>
                <time>2020-09-04T11:17:12.000Z</time>
                <name>Position 150</name>
            </trkpt>
            <trkpt lat="47.5577385" lon="12.2809609">
                <ele>1741.1</ele>
                <time>2020-09-04T11:23:50.000Z</time>
                <name>Position 151</name>
            </trkpt>
            <trkpt lat="47.557571" lon="12.2808482">
                <ele>1762.5</ele>
                <time>2020-09-04T11:52:09.000Z</time>
                <name>Position 152</name>
            </trkpt>
            <trkpt lat="47.5575934" lon="12.2811156">
                <ele>1813.6</ele>
                <time>2020-09-04T13:01:02.000Z</time>
                <name>Position 153</name>
            </trkpt>
            <trkpt lat="47.5575406" lon="12.2813715">
                <ele>1879.7</ele>
                <time>2020-09-04T14:23:36.000Z</time>
                <name>Position 154</name>
            </trkpt>
            <trkpt lat="47.5574324" lon="12.2816027">
                <ele>1897.7</ele>
                <time>2020-09-04T14:29:28.000Z</time>
                <name>Position 155</name>
            </trkpt>
            <trkpt lat="47.5572492" lon="12.2816428">
                <ele>1896.2</ele>
                <time>2020-09-04T14:50:35.000Z</time>
                <name>Position 156</name>
            </trkpt>
            <trkpt lat="47.5570618" lon="12.2816692">
                <ele>1886.2</ele>
                <time>2020-09-04T14:51:39.000Z</time>
                <name>Position 157</name>
            </trkpt>
            <trkpt lat="47.5568807" lon="12.2817893">
                <ele>1881.8</ele>
                <time>2020-09-04T14:52:13.000Z</time>
                <name>Position 158</name>
            </trkpt>
            <trkpt lat="47.556719" lon="12.2819156">
                <ele>1878.2</ele>
                <time>2020-09-04T14:52:51.000Z</time>
                <name>Position 159</name>
            </trkpt>
            <trkpt lat="47.5565457" lon="12.2820267">
                <ele>1877.8</ele>
                <time>2020-09-04T14:53:31.000Z</time>
                <name>Position 160</name>
            </trkpt>
            <trkpt lat="47.5563632" lon="12.2820165">
                <ele>1873.4</ele>
                <time>2020-09-04T14:54:01.000Z</time>
                <name>Position 161</name>
            </trkpt>
            <trkpt lat="47.5561774" lon="12.2820123">
                <ele>1869.6</ele>
                <time>2020-09-04T14:54:39.000Z</time>
                <name>Position 162</name>
            </trkpt>
            <trkpt lat="47.5561931" lon="12.2817462">
                <ele>1859.8</ele>
                <time>2020-09-04T14:55:45.000Z</time>
                <name>Position 163</name>
            </trkpt>
            <trkpt lat="47.5562112" lon="12.2814737">
                <ele>1850.3</ele>
                <time>2020-09-04T14:56:53.000Z</time>
                <name>Position 164</name>
            </trkpt>
            <trkpt lat="47.5563845" lon="12.2813928">
                <ele>1843.4</ele>
                <time>2020-09-04T14:57:33.000Z</time>
                <name>Position 165</name>
            </trkpt>
            <trkpt lat="47.5564462" lon="12.2811325">
                <ele>1833.0</ele>
                <time>2020-09-04T14:58:35.000Z</time>
                <name>Position 166</name>
            </trkpt>
            <trkpt lat="47.556524" lon="12.280892">
                <ele>1817.6</ele>
                <time>2020-09-04T14:59:54.000Z</time>
                <name>Position 167</name>
            </trkpt>
            <trkpt lat="47.5566473" lon="12.2806932">
                <ele>1806.9</ele>
                <time>2020-09-04T15:01:02.000Z</time>
                <name>Position 168</name>
            </trkpt>
            <trkpt lat="47.5567401" lon="12.2804585">
                <ele>1789.1</ele>
                <time>2020-09-04T15:02:40.000Z</time>
                <name>Position 169</name>
            </trkpt>
            <trkpt lat="47.5568474" lon="12.2802368">
                <ele>1779.1</ele>
                <time>2020-09-04T15:03:54.000Z</time>
                <name>Position 170</name>
            </trkpt>
            <trkpt lat="47.5569643" lon="12.280021">
                <ele>1772.2</ele>
                <time>2020-09-04T15:04:32.000Z</time>
                <name>Position 171</name>
            </trkpt>
            <trkpt lat="47.5571457" lon="12.2799603">
                <ele>1765.0</ele>
                <time>2020-09-04T15:05:16.000Z</time>
                <name>Position 172</name>
            </trkpt>
            <trkpt lat="47.5573307" lon="12.2799329">
                <ele>1758.5</ele>
                <time>2020-09-04T15:05:59.000Z</time>
                <name>Position 173</name>
            </trkpt>
            <trkpt lat="47.5575137" lon="12.2799043">
                <ele>1743.7</ele>
                <time>2020-09-04T15:07:15.000Z</time>
                <name>Position 174</name>
            </trkpt>
            <trkpt lat="47.5576527" lon="12.279724">
                <ele>1729.2</ele>
                <time>2020-09-04T15:08:15.000Z</time>
                <name>Position 175</name>
            </trkpt>
            <trkpt lat="47.5578053" lon="12.2795828">
                <ele>1714.5</ele>
                <time>2020-09-04T15:10:09.000Z</time>
                <name>Position 176</name>
            </trkpt>
            <trkpt lat="47.5579581" lon="12.2797349">
                <ele>1704.3</ele>
                <time>2020-09-04T15:11:05.000Z</time>
                <name>Position 177</name>
            </trkpt>
            <trkpt lat="47.5580825" lon="12.2795373">
                <ele>1697.8</ele>
                <time>2020-09-04T15:11:39.000Z</time>
                <name>Position 178</name>
            </trkpt>
            <trkpt lat="47.5581435" lon="12.2792701">
                <ele>1691.7</ele>
                <time>2020-09-04T15:14:05.000Z</time>
                <name>Position 179</name>
            </trkpt>
            <trkpt lat="47.558263" lon="12.2790519">
                <ele>1685.3</ele>
                <time>2020-09-04T15:14:39.000Z</time>
                <name>Position 180</name>
            </trkpt>
            <trkpt lat="47.558169" lon="12.2788062">
                <ele>1676.8</ele>
                <time>2020-09-04T15:15:37.000Z</time>
                <name>Position 181</name>
            </trkpt>
            <trkpt lat="47.5580886" lon="12.2785584">
                <ele>1665.9</ele>
                <time>2020-09-04T15:16:41.000Z</time>
                <name>Position 182</name>
            </trkpt>
            <trkpt lat="47.5581368" lon="12.2783014">
                <ele>1649.1</ele>
                <time>2020-09-04T15:17:41.000Z</time>
                <name>Position 183</name>
            </trkpt>
            <trkpt lat="47.5579756" lon="12.2781533">
                <ele>1631.1</ele>
                <time>2020-09-04T15:19:05.000Z</time>
                <name>Position 184</name>
            </trkpt>
            <trkpt lat="47.5577994" lon="12.27807">
                <ele>1621.0</ele>
                <time>2020-09-04T15:20:03.000Z</time>
                <name>Position 185</name>
            </trkpt>
            <trkpt lat="47.5577108" lon="12.2778286">
                <ele>1610.4</ele>
                <time>2020-09-04T15:20:53.000Z</time>
                <name>Position 186</name>
            </trkpt>
            <trkpt lat="47.5575873" lon="12.2776311">
                <ele>1599.3</ele>
                <time>2020-09-04T15:21:37.000Z</time>
                <name>Position 187</name>
            </trkpt>
            <trkpt lat="47.5575191" lon="12.2773637">
                <ele>1593.3</ele>
                <time>2020-09-04T15:22:19.000Z</time>
                <name>Position 188</name>
            </trkpt>
            <trkpt lat="47.5575888" lon="12.2770955">
                <ele>1591.9</ele>
                <time>2020-09-04T15:22:41.000Z</time>
                <name>Position 189</name>
            </trkpt>
            <trkpt lat="47.5574763" lon="12.276873">
                <ele>1578.7</ele>
                <time>2020-09-04T15:24:01.000Z</time>
                <name>Position 190</name>
            </trkpt>
            <trkpt lat="47.5573397" lon="12.2766887">
                <ele>1565.2</ele>
                <time>2020-09-04T15:25:19.000Z</time>
                <name>Position 191</name>
            </trkpt>
            <trkpt lat="47.5572318" lon="12.2764709">
                <ele>1554.6</ele>
                <time>2020-09-04T15:26:32.000Z</time>
                <name>Position 192</name>
            </trkpt>
            <trkpt lat="47.5571809" lon="12.2762025">
                <ele>1539.1</ele>
                <time>2020-09-04T15:27:22.000Z</time>
                <name>Position 193</name>
            </trkpt>
            <trkpt lat="47.5571846" lon="12.275931">
                <ele>1528.4</ele>
                <time>2020-09-04T15:28:00.000Z</time>
                <name>Position 194</name>
            </trkpt>
            <trkpt lat="47.5570056" lon="12.2759054">
                <ele>1517.5</ele>
                <time>2020-09-04T15:36:30.000Z</time>
                <name>Position 195</name>
            </trkpt>
            <trkpt lat="47.5568467" lon="12.2757774">
                <ele>1510.9</ele>
                <time>2020-09-04T15:36:56.000Z</time>
                <name>Position 196</name>
            </trkpt>
            <trkpt lat="47.5566913" lon="12.2756317">
                <ele>1503.4</ele>
                <time>2020-09-04T15:37:27.000Z</time>
                <name>Position 197</name>
            </trkpt>
            <trkpt lat="47.5565186" lon="12.2755399">
                <ele>1493.2</ele>
                <time>2020-09-04T15:38:09.000Z</time>
                <name>Position 198</name>
            </trkpt>
            <trkpt lat="47.556325" lon="12.2755044">
                <ele>1481.1</ele>
                <time>2020-09-04T15:38:51.000Z</time>
                <name>Position 199</name>
            </trkpt>
            <trkpt lat="47.5561406" lon="12.2754947">
                <ele>1475.3</ele>
                <time>2020-09-04T15:39:21.000Z</time>
                <name>Position 200</name>
            </trkpt>
            <trkpt lat="47.5559836" lon="12.2756426">
                <ele>1470.8</ele>
                <time>2020-09-04T15:39:59.000Z</time>
                <name>Position 201</name>
            </trkpt>
            <trkpt lat="47.5558018" lon="12.2757033">
                <ele>1457.5</ele>
                <time>2020-09-04T15:40:43.000Z</time>
                <name>Position 202</name>
            </trkpt>
            <trkpt lat="47.5556194" lon="12.2757178">
                <ele>1450.5</ele>
                <time>2020-09-04T15:41:13.000Z</time>
                <name>Position 203</name>
            </trkpt>
            <trkpt lat="47.5554332" lon="12.2757028">
                <ele>1445.0</ele>
                <time>2020-09-04T15:41:41.000Z</time>
                <name>Position 204</name>
            </trkpt>
            <trkpt lat="47.555239" lon="12.2757041">
                <ele>1438.1</ele>
                <time>2020-09-04T15:42:11.000Z</time>
                <name>Position 205</name>
            </trkpt>
            <trkpt lat="47.5550667" lon="12.2756231">
                <ele>1429.4</ele>
                <time>2020-09-04T15:42:41.000Z</time>
                <name>Position 206</name>
            </trkpt>
            <trkpt lat="47.5548886" lon="12.2757233">
                <ele>1419.0</ele>
                <time>2020-09-04T15:43:15.000Z</time>
                <name>Position 207</name>
            </trkpt>
            <trkpt lat="47.5546998" lon="12.2756649">
                <ele>1412.7</ele>
                <time>2020-09-04T15:43:37.000Z</time>
                <name>Position 208</name>
            </trkpt>
            <trkpt lat="47.5545197" lon="12.2755985">
                <ele>1407.9</ele>
                <time>2020-09-04T15:44:01.000Z</time>
                <name>Position 209</name>
            </trkpt>
            <trkpt lat="47.5544147" lon="12.2758208">
                <ele>1399.9</ele>
                <time>2020-09-04T15:44:27.000Z</time>
                <name>Position 210</name>
            </trkpt>
            <trkpt lat="47.5543277" lon="12.2760547">
                <ele>1395.9</ele>
                <time>2020-09-04T15:44:47.000Z</time>
                <name>Position 211</name>
            </trkpt>
            <trkpt lat="47.5541667" lon="12.2761877">
                <ele>1390.2</ele>
                <time>2020-09-04T15:45:07.000Z</time>
                <name>Position 212</name>
            </trkpt>
            <trkpt lat="47.5540246" lon="12.2763565">
                <ele>1385.3</ele>
                <time>2020-09-04T15:45:25.000Z</time>
                <name>Position 213</name>
            </trkpt>
            <trkpt lat="47.553865" lon="12.2764871">
                <ele>1379.5</ele>
                <time>2020-09-04T15:45:45.000Z</time>
                <name>Position 214</name>
            </trkpt>
            <trkpt lat="47.5536869" lon="12.2764021">
                <ele>1375.0</ele>
                <time>2020-09-04T15:46:01.000Z</time>
                <name>Position 215</name>
            </trkpt>
            <trkpt lat="47.5535259" lon="12.2762532">
                <ele>1370.7</ele>
                <time>2020-09-04T15:46:17.000Z</time>
                <name>Position 216</name>
            </trkpt>
            <trkpt lat="47.5533526" lon="12.2761203">
                <ele>1366.1</ele>
                <time>2020-09-04T15:46:35.000Z</time>
                <name>Position 217</name>
            </trkpt>
            <trkpt lat="47.5531669" lon="12.2761066">
                <ele>1360.0</ele>
                <time>2020-09-04T15:46:55.000Z</time>
                <name>Position 218</name>
            </trkpt>
            <trkpt lat="47.5530025" lon="12.275998">
                <ele>1355.4</ele>
                <time>2020-09-04T15:47:15.000Z</time>
                <name>Position 219</name>
            </trkpt>
            <trkpt lat="47.5528502" lon="12.2758343">
                <ele>1345.1</ele>
                <time>2020-09-04T15:47:49.000Z</time>
                <name>Position 220</name>
            </trkpt>
            <trkpt lat="47.5526536" lon="12.2758122">
                <ele>1336.3</ele>
                <time>2020-09-04T15:48:21.000Z</time>
                <name>Position 221</name>
            </trkpt>
            <trkpt lat="47.5524962" lon="12.2756435">
                <ele>1329.1</ele>
                <time>2020-09-04T15:48:47.000Z</time>
                <name>Position 222</name>
            </trkpt>
            <trkpt lat="47.552384" lon="12.2754317">
                <ele>1324.6</ele>
                <time>2020-09-04T15:49:03.000Z</time>
                <name>Position 223</name>
            </trkpt>
            <trkpt lat="47.5521957" lon="12.2753711">
                <ele>1314.6</ele>
                <time>2020-09-04T15:49:25.000Z</time>
                <name>Position 224</name>
            </trkpt>
            <trkpt lat="47.5520152" lon="12.2754092">
                <ele>1310.0</ele>
                <time>2020-09-04T15:49:43.000Z</time>
                <name>Position 225</name>
            </trkpt>
            <trkpt lat="47.5518362" lon="12.2755309">
                <ele>1307.6</ele>
                <time>2020-09-04T15:49:59.000Z</time>
                <name>Position 226</name>
            </trkpt>
            <trkpt lat="47.5517083" lon="12.2757326">
                <ele>1302.0</ele>
                <time>2020-09-04T15:50:21.000Z</time>
                <name>Position 227</name>
            </trkpt>
            <trkpt lat="47.5515731" lon="12.2759219">
                <ele>1298.7</ele>
                <time>2020-09-04T15:50:35.000Z</time>
                <name>Position 228</name>
            </trkpt>
            <trkpt lat="47.5513972" lon="12.2758005">
                <ele>1294.5</ele>
                <time>2020-09-04T15:50:57.000Z</time>
                <name>Position 229</name>
            </trkpt>
            <trkpt lat="47.5512672" lon="12.2755638">
                <ele>1290.3</ele>
                <time>2020-09-04T15:51:15.000Z</time>
                <name>Position 230</name>
            </trkpt>
            <trkpt lat="47.5511325" lon="12.2753603">
                <ele>1286.9</ele>
                <time>2020-09-04T15:51:29.000Z</time>
                <name>Position 231</name>
            </trkpt>
            <trkpt lat="47.5509758" lon="12.275191">
                <ele>1282.8</ele>
                <time>2020-09-04T15:51:43.000Z</time>
                <name>Position 232</name>
            </trkpt>
            <trkpt lat="47.5508112" lon="12.2750359">
                <ele>1279.1</ele>
                <time>2020-09-04T15:52:03.000Z</time>
                <name>Position 233</name>
            </trkpt>
            <trkpt lat="47.5506271" lon="12.2749423">
                <ele>1271.6</ele>
                <time>2020-09-04T15:52:31.000Z</time>
                <name>Position 234</name>
            </trkpt>
            <trkpt lat="47.5504574" lon="12.2748229">
                <ele>1266.4</ele>
                <time>2020-09-04T15:52:51.000Z</time>
                <name>Position 235</name>
            </trkpt>
            <trkpt lat="47.5502784" lon="12.2747263">
                <ele>1262.3</ele>
                <time>2020-09-04T15:53:05.000Z</time>
                <name>Position 236</name>
            </trkpt>
            <trkpt lat="47.5500871" lon="12.2747167">
                <ele>1256.0</ele>
                <time>2020-09-04T15:53:31.000Z</time>
                <name>Position 237</name>
            </trkpt>
            <trkpt lat="47.5498983" lon="12.2746987">
                <ele>1252.0</ele>
                <time>2020-09-04T15:53:47.000Z</time>
                <name>Position 238</name>
            </trkpt>
            <trkpt lat="47.5498138" lon="12.2744627">
                <ele>1243.6</ele>
                <time>2020-09-04T15:54:15.000Z</time>
                <name>Position 239</name>
            </trkpt>
            <trkpt lat="47.549732" lon="12.2742073">
                <ele>1238.3</ele>
                <time>2020-09-04T15:54:47.000Z</time>
                <name>Position 240</name>
            </trkpt>
            <trkpt lat="47.549593" lon="12.2740017">
                <ele>1229.3</ele>
                <time>2020-09-04T15:55:11.000Z</time>
                <name>Position 241</name>
            </trkpt>
            <trkpt lat="47.5495438" lon="12.2737227">
                <ele>1217.6</ele>
                <time>2020-09-04T15:55:41.000Z</time>
                <name>Position 242</name>
            </trkpt>
            <trkpt lat="47.5494201" lon="12.2734991">
                <ele>1208.5</ele>
                <time>2020-09-04T15:56:05.000Z</time>
                <name>Position 243</name>
            </trkpt>
            <trkpt lat="47.5493041" lon="12.2732656">
                <ele>1203.5</ele>
                <time>2020-09-04T15:56:27.000Z</time>
                <name>Position 244</name>
            </trkpt>
            <trkpt lat="47.5491398" lon="12.2731178">
                <ele>1197.2</ele>
                <time>2020-09-04T15:56:49.000Z</time>
                <name>Position 245</name>
            </trkpt>
            <trkpt lat="47.5490044" lon="12.2733054">
                <ele>1190.3</ele>
                <time>2020-09-04T15:57:19.000Z</time>
                <name>Position 246</name>
            </trkpt>
            <trkpt lat="47.5488132" lon="12.2733428">
                <ele>1181.6</ele>
                <time>2020-09-04T15:57:49.000Z</time>
                <name>Position 247</name>
            </trkpt>
            <trkpt lat="47.5487062" lon="12.2730958">
                <ele>1182.2</ele>
                <time>2020-09-04T15:59:09.000Z</time>
                <name>Position 248</name>
            </trkpt>
            <trkpt lat="47.5486076" lon="12.272831">
                <ele>1179.4</ele>
                <time>2020-09-04T15:59:15.000Z</time>
                <name>Position 249</name>
            </trkpt>
            <trkpt lat="47.5483783" lon="12.2725176">
                <ele>1177.2</ele>
                <time>2020-09-04T15:59:23.000Z</time>
                <name>Position 250</name>
            </trkpt>
            <trkpt lat="47.5482807" lon="12.2722084">
                <ele>1172.7</ele>
                <time>2020-09-04T15:59:31.000Z</time>
                <name>Position 251</name>
            </trkpt>
            <trkpt lat="47.5481934" lon="12.2712292">
                <ele>1165.5</ele>
                <time>2020-09-04T15:59:59.000Z</time>
                <name>Position 252</name>
            </trkpt>
            <trkpt lat="47.5477459" lon="12.2707309">
                <ele>1160.3</ele>
                <time>2020-09-04T16:00:13.000Z</time>
                <name>Position 253</name>
            </trkpt>
            <trkpt lat="47.5475744" lon="12.2706762">
                <ele>1155.2</ele>
                <time>2020-09-04T16:00:25.000Z</time>
                <name>Position 254</name>
            </trkpt>
            <trkpt lat="47.5473277" lon="12.2704371">
                <ele>1152.5</ele>
                <time>2020-09-04T16:00:31.000Z</time>
                <name>Position 255</name>
            </trkpt>
            <trkpt lat="47.5471003" lon="12.2700763">
                <ele>1148.6</ele>
                <time>2020-09-04T16:00:43.000Z</time>
                <name>Position 256</name>
            </trkpt>
            <trkpt lat="47.546262" lon="12.2685857">
                <ele>1081.3</ele>
                <time>2020-09-04T16:03:29.000Z</time>
                <name>Position 257</name>
            </trkpt>
            <trkpt lat="47.5457515" lon="12.2679342">
                <ele>1067.5</ele>
                <time>2020-09-04T16:03:53.000Z</time>
                <name>Position 258</name>
            </trkpt>
            <trkpt lat="47.5454602" lon="12.2676945">
                <ele>1059.3</ele>
                <time>2020-09-04T16:04:07.000Z</time>
                <name>Position 259</name>
            </trkpt>
            <trkpt lat="47.5451006" lon="12.2674323">
                <ele>1043.9</ele>
                <time>2020-09-04T16:04:41.000Z</time>
                <name>Position 260</name>
            </trkpt>
            <trkpt lat="47.5447032" lon="12.2675539">
                <ele>1037.7</ele>
                <time>2020-09-04T16:04:49.000Z</time>
                <name>Position 261</name>
            </trkpt>
            <trkpt lat="47.5440655" lon="12.2680364">
                <ele>1027.9</ele>
                <time>2020-09-04T16:05:05.000Z</time>
                <name>Position 262</name>
            </trkpt>
            <trkpt lat="47.5443042" lon="12.2678392">
                <ele>1025.3</ele>
                <time>2020-09-04T16:05:09.000Z</time>
                <name>Position 263</name>
            </trkpt>
            <trkpt lat="47.5437729" lon="12.2684688">
                <ele>1020.4</ele>
                <time>2020-09-04T16:05:21.000Z</time>
                <name>Position 264</name>
            </trkpt>
            <trkpt lat="47.5436033" lon="12.2686436">
                <ele>1018.0</ele>
                <time>2020-09-04T16:05:25.000Z</time>
                <name>Position 265</name>
            </trkpt>
            <trkpt lat="47.5434353" lon="12.2687986">
                <ele>1015.2</ele>
                <time>2020-09-04T16:05:29.000Z</time>
                <name>Position 266</name>
            </trkpt>
            <trkpt lat="47.5432629" lon="12.2689161">
                <ele>1013.3</ele>
                <time>2020-09-04T16:05:33.000Z</time>
                <name>Position 267</name>
            </trkpt>
            <trkpt lat="47.543079" lon="12.268995">
                <ele>1010.2</ele>
                <time>2020-09-04T16:05:37.000Z</time>
                <name>Position 268</name>
            </trkpt>
            <trkpt lat="47.5428682" lon="12.2691417">
                <ele>1007.6</ele>
                <time>2020-09-04T16:05:43.000Z</time>
                <name>Position 269</name>
            </trkpt>
            <trkpt lat="47.5427381" lon="12.2693824">
                <ele>1005.8</ele>
                <time>2020-09-04T16:05:49.000Z</time>
                <name>Position 270</name>
            </trkpt>
            <trkpt lat="47.5425643" lon="12.2693082">
                <ele>1003.2</ele>
                <time>2020-09-04T16:05:53.000Z</time>
                <name>Position 271</name>
            </trkpt>
            <trkpt lat="47.5423439" lon="12.2691806">
                <ele>999.9</ele>
                <time>2020-09-04T16:05:59.000Z</time>
                <name>Position 272</name>
            </trkpt>
            <trkpt lat="47.5420893" lon="12.2692875">
                <ele>995.8</ele>
                <time>2020-09-04T16:06:05.000Z</time>
                <name>Position 273</name>
            </trkpt>
            <trkpt lat="47.5419065" lon="12.2693773">
                <ele>992.9</ele>
                <time>2020-09-04T16:06:09.000Z</time>
                <name>Position 274</name>
            </trkpt>
            <trkpt lat="47.5416364" lon="12.2693788">
                <ele>989.3</ele>
                <time>2020-09-04T16:06:15.000Z</time>
                <name>Position 275</name>
            </trkpt>
            <trkpt lat="47.541388" lon="12.2694369">
                <ele>988.4</ele>
                <time>2020-09-04T16:06:21.000Z</time>
                <name>Position 276</name>
            </trkpt>
            <trkpt lat="47.5411634" lon="12.2693988">
                <ele>985.0</ele>
                <time>2020-09-04T16:06:25.000Z</time>
                <name>Position 277</name>
            </trkpt>
            <trkpt lat="47.5408788" lon="12.2692905">
                <ele>982.3</ele>
                <time>2020-09-04T16:06:31.000Z</time>
                <name>Position 278</name>
            </trkpt>
            <trkpt lat="47.5406907" lon="12.2691982">
                <ele>980.7</ele>
                <time>2020-09-04T16:06:35.000Z</time>
                <name>Position 279</name>
            </trkpt>
            <trkpt lat="47.5405131" lon="12.2690543">
                <ele>975.2</ele>
                <time>2020-09-04T16:06:39.000Z</time>
                <name>Position 280</name>
            </trkpt>
            <trkpt lat="47.5403227" lon="12.2689081">
                <ele>973.4</ele>
                <time>2020-09-04T16:06:43.000Z</time>
                <name>Position 281</name>
            </trkpt>
            <trkpt lat="47.5401247" lon="12.2687643">
                <ele>970.4</ele>
                <time>2020-09-04T16:06:47.000Z</time>
                <name>Position 282</name>
            </trkpt>
            <trkpt lat="47.5399704" lon="12.2685762">
                <ele>967.2</ele>
                <time>2020-09-04T16:06:51.000Z</time>
                <name>Position 283</name>
            </trkpt>
            <trkpt lat="47.5398094" lon="12.2684264">
                <ele>964.0</ele>
                <time>2020-09-04T16:06:55.000Z</time>
                <name>Position 284</name>
            </trkpt>
            <trkpt lat="47.5396309" lon="12.2683215">
                <ele>961.6</ele>
                <time>2020-09-04T16:06:59.000Z</time>
                <name>Position 285</name>
            </trkpt>
            <trkpt lat="47.5397808" lon="12.2681079">
                <ele>957.1</ele>
                <time>2020-09-04T16:07:11.000Z</time>
                <name>Position 286</name>
            </trkpt>
            <trkpt lat="47.5399711" lon="12.2681059">
                <ele>955.0</ele>
                <time>2020-09-04T16:07:15.000Z</time>
                <name>Position 287</name>
            </trkpt>
            <trkpt lat="47.5401439" lon="12.2682446">
                <ele>953.0</ele>
                <time>2020-09-04T16:07:21.000Z</time>
                <name>Position 288</name>
            </trkpt>
            <trkpt lat="47.5401121" lon="12.2679138">
                <ele>951.2</ele>
                <time>2020-09-04T16:07:41.000Z</time>
                <name>Position 289</name>
            </trkpt>
            <trkpt lat="47.539951" lon="12.2677945">
                <ele>953.2</ele>
                <time>2020-09-04T16:07:45.000Z</time>
                <name>Position 290</name>
            </trkpt>
            <trkpt lat="47.5397739" lon="12.2676111">
                <ele>951.9</ele>
                <time>2020-09-04T16:07:49.000Z</time>
                <name>Position 291</name>
            </trkpt>
            <trkpt lat="47.5396209" lon="12.2674004">
                <ele>950.7</ele>
                <time>2020-09-04T16:07:53.000Z</time>
                <name>Position 292</name>
            </trkpt>
            <trkpt lat="47.5394352" lon="12.2673003">
                <ele>947.1</ele>
                <time>2020-09-04T16:07:57.000Z</time>
                <name>Position 293</name>
            </trkpt>
            <trkpt lat="47.5391865" lon="12.2673005">
                <ele>947.0</ele>
                <time>2020-09-04T16:08:01.000Z</time>
                <name>Position 294</name>
            </trkpt>
            <trkpt lat="47.5389688" lon="12.2673095">
                <ele>945.6</ele>
                <time>2020-09-04T16:08:05.000Z</time>
                <name>Position 295</name>
            </trkpt>
            <trkpt lat="47.5387362" lon="12.2673143">
                <ele>943.2</ele>
                <time>2020-09-04T16:08:09.000Z</time>
                <name>Position 296</name>
            </trkpt>
            <trkpt lat="47.5384882" lon="12.2672235">
                <ele>942.0</ele>
                <time>2020-09-04T16:08:13.000Z</time>
                <name>Position 297</name>
            </trkpt>
            <trkpt lat="47.5382337" lon="12.2671401">
                <ele>939.6</ele>
                <time>2020-09-04T16:08:17.000Z</time>
                <name>Position 298</name>
            </trkpt>
            <trkpt lat="47.5379924" lon="12.2670417">
                <ele>937.4</ele>
                <time>2020-09-04T16:08:21.000Z</time>
                <name>Position 299</name>
            </trkpt>
            <trkpt lat="47.537728" lon="12.2668485">
                <ele>934.2</ele>
                <time>2020-09-04T16:08:27.000Z</time>
                <name>Position 300</name>
            </trkpt>
            <trkpt lat="47.5375118" lon="12.2667221">
                <ele>932.0</ele>
                <time>2020-09-04T16:08:31.000Z</time>
                <name>Position 301</name>
            </trkpt>
            <trkpt lat="47.5372855" lon="12.2665958">
                <ele>929.1</ele>
                <time>2020-09-04T16:08:35.000Z</time>
                <name>Position 302</name>
            </trkpt>
            <trkpt lat="47.5370442" lon="12.266486">
                <ele>927.6</ele>
                <time>2020-09-04T16:08:39.000Z</time>
                <name>Position 303</name>
            </trkpt>
            <trkpt lat="47.5368548" lon="12.2663816">
                <ele>925.9</ele>
                <time>2020-09-04T16:08:43.000Z</time>
                <name>Position 304</name>
            </trkpt>
        </trkseg>
    </trk>
</gpx>
