<?xml version="1.0" encoding="UTF-8" standalone="yes"?>
<gpx xmlns:gpxtpx1="http://www.garmin.com/xmlschemas/TrackPointExtension/v1" xmlns="http://www.topografix.com/GPX/1/1" xmlns:trp="http://www.garmin.com/xmlschemas/TripExtensions/v1" xmlns:gpxx="http://www.garmin.com/xmlschemas/GpxExtensions/v3" xmlns:gpxtpx="http://www.garmin.com/xmlschemas/TrackPointExtension/v2" version="1.1" creator="RouteConverter 2.29">
    <metadata>
        <name>2021-08-19 10:45</name>
        <link href="https://www.oruxmaps.com">
            <text>OruxMaps</text>
        </link>
        <time>2021-08-20T08:51:32.498Z</time>
        <bounds minlat="47.2667901" minlon="15.2710585" maxlat="47.4895718" maxlon="15.4248415"/>
    </metadata>
    <trk>
        <name>2021-08-19 10:45</name>
        <desc>&lt;p&gt;Startzeit: 08/19/2021 10:46&lt;br/&gt;Zielzeit: 08/19/2021 18:39&lt;br/&gt;Strecke: 58,
4 km (07:53)&lt;br/&gt;Bewegungszeit: 02:34&lt;br/&gt;Ø-Geschwindigkeit: 7,
4 km/h&lt;br/&gt;Netto-Geschwindigkeit: 22,
62 km/h&lt;br/&gt;Max. Geschwindigkeit: 134,
93 km/h&lt;br/&gt;Minimale Höhe: 447 m&lt;br/&gt;Maximale Höhe: 1218 m&lt;br/&gt;Steig-Geschw.: 166,
1 m/h&lt;br/&gt;Sink-Geschw.: -372,
7 m/h&lt;br/&gt;Aufstieg: 805 m&lt;br/&gt;Abstieg: -1115 m&lt;br/&gt;Steigzeit: 04:51&lt;br/&gt;Sinkzeit: 02:59&lt;br/&gt;&lt;/p&gt;&lt;hr align="center" width="480" style="height: 2px; width: 517px"/&gt;</desc>
        <type>Unbestimmt</type>
        <extensions>
            <om:oruxmapsextensions xmlns:om="http://www.oruxmaps.com/oruxmapsextensions/1/0" xmlns:gpxtpx="http://www.garmin.com/xmlschemas/TrackPointExtension/v1" xmlns:xsi="http://www.w3.org/2001/XMLSchema-instance">
                <om:ext subtype="0" type="TYPE">0</om:ext>
                <om:ext type="DIFFICULTY">0</om:ext>
</om:oruxmapsextensions>
        </extensions>
        <trkseg>
            <trkpt lat="47.3209125" lon="15.4090033">
                <ele>928.0</ele>
                <time>2021-08-19T13:19:20.000Z</time>
                <name>Position 1</name>
            </trkpt>
            <trkpt lat="47.3201799" lon="15.4089537">
                <ele>924.1</ele>
                <time>2021-08-19T13:19:39.000Z</time>
                <name>Position 2</name>
            </trkpt>
            <trkpt lat="47.3201654" lon="15.4087483">
                <ele>918.1</ele>
                <time>2021-08-19T13:20:34.000Z</time>
                <name>Position 3</name>
            </trkpt>
            <trkpt lat="47.3204858" lon="15.4076355">
                <ele>913.2</ele>
                <time>2021-08-19T13:21:09.000Z</time>
                <name>Position 4</name>
            </trkpt>
            <trkpt lat="47.322143" lon="15.4044307">
                <ele>906.4</ele>
                <time>2021-08-19T13:21:35.000Z</time>
                <name>Position 5</name>
            </trkpt>
            <trkpt lat="47.3222786" lon="15.4042712">
                <ele>902.9</ele>
                <time>2021-08-19T13:21:50.000Z</time>
                <name>Position 6</name>
            </trkpt>
            <trkpt lat="47.3225056" lon="15.4041565">
                <ele>900.0</ele>
                <time>2021-08-19T13:22:05.000Z</time>
                <name>Position 7</name>
            </trkpt>
            <trkpt lat="47.3223855" lon="15.4029833">
                <ele>892.6</ele>
                <time>2021-08-19T13:22:40.000Z</time>
                <name>Position 8</name>
            </trkpt>
            <trkpt lat="47.3216543" lon="15.4025996">
                <ele>883.9</ele>
                <time>2021-08-19T13:23:20.000Z</time>
                <name>Position 9</name>
            </trkpt>
            <trkpt lat="47.3209536" lon="15.4024415">
                <ele>874.2</ele>
                <time>2021-08-19T13:23:33.000Z</time>
                <name>Position 10</name>
            </trkpt>
            <trkpt lat="47.3210193" lon="15.399414">
                <ele>878.6</ele>
                <time>2021-08-19T13:23:44.000Z</time>
                <name>Position 11</name>
            </trkpt>
            <trkpt lat="47.3211148" lon="15.3983052">
                <ele>871.1</ele>
                <time>2021-08-19T13:24:14.000Z</time>
                <name>Position 12</name>
            </trkpt>
            <trkpt lat="47.3214845" lon="15.39674">
                <ele>868.4</ele>
                <time>2021-08-19T13:24:30.000Z</time>
                <name>Position 13</name>
            </trkpt>
            <trkpt lat="47.3215792" lon="15.3961594">
                <ele>865.9</ele>
                <time>2021-08-19T13:24:37.000Z</time>
                <name>Position 14</name>
            </trkpt>
            <trkpt lat="47.3217854" lon="15.39575">
                <ele>863.5</ele>
                <time>2021-08-19T13:24:59.000Z</time>
                <name>Position 15</name>
            </trkpt>
            <trkpt lat="47.3216228" lon="15.3951135">
                <ele>857.7</ele>
                <time>2021-08-19T13:25:23.000Z</time>
                <name>Position 16</name>
            </trkpt>
            <trkpt lat="47.321469" lon="15.3936806">
                <ele>857.9</ele>
                <time>2021-08-19T13:25:35.000Z</time>
                <name>Position 17</name>
            </trkpt>
            <trkpt lat="47.3215042" lon="15.3930454">
                <ele>860.3</ele>
                <time>2021-08-19T13:26:32.000Z</time>
                <name>Position 18</name>
            </trkpt>
            <trkpt lat="47.3215365" lon="15.3928576">
                <ele>862.2</ele>
                <time>2021-08-19T13:26:46.000Z</time>
                <name>Position 19</name>
            </trkpt>
            <trkpt lat="47.3215669" lon="15.3926633">
                <ele>862.7</ele>
                <time>2021-08-19T13:26:54.000Z</time>
                <name>Position 20</name>
            </trkpt>
            <trkpt lat="47.3221085" lon="15.3917607">
                <ele>863.8</ele>
                <time>2021-08-19T13:27:02.000Z</time>
                <name>Position 21</name>
            </trkpt>
            <trkpt lat="47.3223916" lon="15.391462">
                <ele>865.6</ele>
                <time>2021-08-19T13:27:14.000Z</time>
                <name>Position 22</name>
            </trkpt>
            <trkpt lat="47.3225371" lon="15.3911706">
                <ele>867.4</ele>
                <time>2021-08-19T13:27:25.000Z</time>
                <name>Position 23</name>
            </trkpt>
            <trkpt lat="47.3224468" lon="15.3903549">
                <ele>869.2</ele>
                <time>2021-08-19T13:27:41.000Z</time>
                <name>Position 24</name>
            </trkpt>
            <trkpt lat="47.3224234" lon="15.3902144">
                <ele>870.3</ele>
                <time>2021-08-19T13:27:49.000Z</time>
                <name>Position 25</name>
            </trkpt>
            <trkpt lat="47.3224041" lon="15.3900829">
                <ele>872.7</ele>
                <time>2021-08-19T13:28:00.000Z</time>
                <name>Position 26</name>
            </trkpt>
            <trkpt lat="47.3224156" lon="15.389933">
                <ele>873.6</ele>
                <time>2021-08-19T13:28:12.000Z</time>
                <name>Position 27</name>
            </trkpt>
            <trkpt lat="47.322447" lon="15.389808">
                <ele>874.1</ele>
                <time>2021-08-19T13:28:20.000Z</time>
                <name>Position 28</name>
            </trkpt>
            <trkpt lat="47.3225079" lon="15.3896967">
                <ele>876.0</ele>
                <time>2021-08-19T13:28:40.000Z</time>
                <name>Position 29</name>
            </trkpt>
            <trkpt lat="47.322594" lon="15.3896163">
                <ele>876.3</ele>
                <time>2021-08-19T13:28:48.000Z</time>
                <name>Position 30</name>
            </trkpt>
            <trkpt lat="47.3226879" lon="15.3895796">
                <ele>877.3</ele>
                <time>2021-08-19T13:28:55.000Z</time>
                <name>Position 31</name>
            </trkpt>
            <trkpt lat="47.3227636" lon="15.3894923">
                <ele>878.9</ele>
                <time>2021-08-19T13:29:06.000Z</time>
                <name>Position 32</name>
            </trkpt>
            <trkpt lat="47.3228456" lon="15.3894323">
                <ele>880.6</ele>
                <time>2021-08-19T13:29:16.000Z</time>
                <name>Position 33</name>
            </trkpt>
            <trkpt lat="47.3229324" lon="15.3893968">
                <ele>881.5</ele>
                <time>2021-08-19T13:29:26.000Z</time>
                <name>Position 34</name>
            </trkpt>
            <trkpt lat="47.3230152" lon="15.3893441">
                <ele>882.4</ele>
                <time>2021-08-19T13:29:36.000Z</time>
                <name>Position 35</name>
            </trkpt>
            <trkpt lat="47.3231124" lon="15.3893235">
                <ele>883.7</ele>
                <time>2021-08-19T13:29:47.000Z</time>
                <name>Position 36</name>
            </trkpt>
            <trkpt lat="47.3231844" lon="15.3892393">
                <ele>885.5</ele>
                <time>2021-08-19T13:29:58.000Z</time>
                <name>Position 37</name>
            </trkpt>
            <trkpt lat="47.3232672" lon="15.3891562">
                <ele>885.8</ele>
                <time>2021-08-19T13:30:08.000Z</time>
                <name>Position 38</name>
            </trkpt>
            <trkpt lat="47.3233185" lon="15.3890468">
                <ele>886.4</ele>
                <time>2021-08-19T13:30:16.000Z</time>
                <name>Position 39</name>
            </trkpt>
            <trkpt lat="47.323359" lon="15.3888944">
                <ele>887.7</ele>
                <time>2021-08-19T13:33:40.000Z</time>
                <name>Position 40</name>
            </trkpt>
            <trkpt lat="47.3233277" lon="15.3887552">
                <ele>887.8</ele>
                <time>2021-08-19T13:33:48.000Z</time>
                <name>Position 41</name>
            </trkpt>
            <trkpt lat="47.3232923" lon="15.388608">
                <ele>888.7</ele>
                <time>2021-08-19T13:34:04.000Z</time>
                <name>Position 42</name>
            </trkpt>
            <trkpt lat="47.3232584" lon="15.3884803">
                <ele>889.4</ele>
                <time>2021-08-19T13:34:15.000Z</time>
                <name>Position 43</name>
            </trkpt>
            <trkpt lat="47.3232199" lon="15.3883495">
                <ele>889.9</ele>
                <time>2021-08-19T13:34:29.000Z</time>
                <name>Position 44</name>
            </trkpt>
            <trkpt lat="47.3231973" lon="15.3882015">
                <ele>892.3</ele>
                <time>2021-08-19T13:34:42.000Z</time>
                <name>Position 45</name>
            </trkpt>
            <trkpt lat="47.3232219" lon="15.3880632">
                <ele>895.1</ele>
                <time>2021-08-19T13:34:54.000Z</time>
                <name>Position 46</name>
            </trkpt>
            <trkpt lat="47.3233171" lon="15.3881074">
                <ele>896.4</ele>
                <time>2021-08-19T13:35:26.000Z</time>
                <name>Position 47</name>
            </trkpt>
            <trkpt lat="47.323403" lon="15.388189">
                <ele>899.1</ele>
                <time>2021-08-19T13:35:37.000Z</time>
                <name>Position 48</name>
            </trkpt>
            <trkpt lat="47.3234757" lon="15.3883012">
                <ele>902.6</ele>
                <time>2021-08-19T13:35:57.000Z</time>
                <name>Position 49</name>
            </trkpt>
            <trkpt lat="47.3235721" lon="15.388318">
                <ele>908.8</ele>
                <time>2021-08-19T13:36:26.000Z</time>
                <name>Position 50</name>
            </trkpt>
            <trkpt lat="47.3236614" lon="15.3883405">
                <ele>909.3</ele>
                <time>2021-08-19T13:36:38.000Z</time>
                <name>Position 51</name>
            </trkpt>
            <trkpt lat="47.3237547" lon="15.3883295">
                <ele>913.4</ele>
                <time>2021-08-19T13:37:08.000Z</time>
                <name>Position 52</name>
            </trkpt>
            <trkpt lat="47.3237701" lon="15.3884613">
                <ele>911.6</ele>
                <time>2021-08-19T13:47:48.000Z</time>
                <name>Position 53</name>
            </trkpt>
            <trkpt lat="47.3238172" lon="15.3885818">
                <ele>911.0</ele>
                <time>2021-08-19T13:48:55.000Z</time>
                <name>Position 54</name>
            </trkpt>
            <trkpt lat="47.3237965" lon="15.3887195">
                <ele>912.3</ele>
                <time>2021-08-19T13:51:07.000Z</time>
                <name>Position 55</name>
            </trkpt>
            <trkpt lat="47.3237469" lon="15.3885991">
                <ele>911.0</ele>
                <time>2021-08-19T13:54:49.000Z</time>
                <name>Position 56</name>
            </trkpt>
            <trkpt lat="47.3237738" lon="15.3884601">
                <ele>911.3</ele>
                <time>2021-08-19T13:55:10.000Z</time>
                <name>Position 57</name>
            </trkpt>
            <trkpt lat="47.3236824" lon="15.3884689">
                <ele>910.9</ele>
                <time>2021-08-19T14:04:50.000Z</time>
                <name>Position 58</name>
            </trkpt>
            <trkpt lat="47.3237689" lon="15.3884307">
                <ele>911.3</ele>
                <time>2021-08-19T14:08:05.000Z</time>
                <name>Position 59</name>
            </trkpt>
            <trkpt lat="47.3237113" lon="15.3885377">
                <ele>912.0</ele>
                <time>2021-08-19T14:32:32.000Z</time>
                <name>Position 60</name>
            </trkpt>
            <trkpt lat="47.3237545" lon="15.3884203">
                <ele>912.1</ele>
                <time>2021-08-19T14:36:35.000Z</time>
                <name>Position 61</name>
            </trkpt>
            <trkpt lat="47.3238473" lon="15.3884181">
                <ele>912.1</ele>
                <time>2021-08-19T14:40:04.000Z</time>
                <name>Position 62</name>
            </trkpt>
            <trkpt lat="47.3237534" lon="15.3884298">
                <ele>912.6</ele>
                <time>2021-08-19T14:43:52.000Z</time>
                <name>Position 63</name>
            </trkpt>
            <trkpt lat="47.323669" lon="15.3884796">
                <ele>912.7</ele>
                <time>2021-08-19T14:45:52.000Z</time>
                <name>Position 64</name>
            </trkpt>
            <trkpt lat="47.3237854" lon="15.3884553">
                <ele>903.1</ele>
                <time>2021-08-19T15:17:38.000Z</time>
                <name>Position 65</name>
            </trkpt>
            <trkpt lat="47.3237704" lon="15.3883174">
                <ele>903.5</ele>
                <time>2021-08-19T15:18:36.000Z</time>
                <name>Position 66</name>
            </trkpt>
            <trkpt lat="47.3236758" lon="15.3882754">
                <ele>898.6</ele>
                <time>2021-08-19T15:19:25.000Z</time>
                <name>Position 67</name>
            </trkpt>
            <trkpt lat="47.3235843" lon="15.388324">
                <ele>894.5</ele>
                <time>2021-08-19T15:19:39.000Z</time>
                <name>Position 68</name>
            </trkpt>
            <trkpt lat="47.3234859" lon="15.3883013">
                <ele>891.9</ele>
                <time>2021-08-19T15:19:53.000Z</time>
                <name>Position 69</name>
            </trkpt>
            <trkpt lat="47.3233985" lon="15.3882447">
                <ele>887.7</ele>
                <time>2021-08-19T15:20:05.000Z</time>
                <name>Position 70</name>
            </trkpt>
            <trkpt lat="47.3233363" lon="15.3881259">
                <ele>885.9</ele>
                <time>2021-08-19T15:20:23.000Z</time>
                <name>Position 71</name>
            </trkpt>
            <trkpt lat="47.3232412" lon="15.3881665">
                <ele>880.8</ele>
                <time>2021-08-19T15:20:42.000Z</time>
                <name>Position 72</name>
            </trkpt>
            <trkpt lat="47.3232223" lon="15.3883102">
                <ele>879.8</ele>
                <time>2021-08-19T15:20:50.000Z</time>
                <name>Position 73</name>
            </trkpt>
            <trkpt lat="47.3232779" lon="15.3884348">
                <ele>879.2</ele>
                <time>2021-08-19T15:21:00.000Z</time>
                <name>Position 74</name>
            </trkpt>
            <trkpt lat="47.3233129" lon="15.3885751">
                <ele>878.8</ele>
                <time>2021-08-19T15:21:09.000Z</time>
                <name>Position 75</name>
            </trkpt>
            <trkpt lat="47.3233059" lon="15.3887128">
                <ele>878.3</ele>
                <time>2021-08-19T15:21:16.000Z</time>
                <name>Position 76</name>
            </trkpt>
            <trkpt lat="47.3233133" lon="15.3888537">
                <ele>878.3</ele>
                <time>2021-08-19T15:21:25.000Z</time>
                <name>Position 77</name>
            </trkpt>
            <trkpt lat="47.3233109" lon="15.3889927">
                <ele>877.1</ele>
                <time>2021-08-19T15:21:34.000Z</time>
                <name>Position 78</name>
            </trkpt>
            <trkpt lat="47.3232774" lon="15.3891257">
                <ele>876.5</ele>
                <time>2021-08-19T15:21:43.000Z</time>
                <name>Position 79</name>
            </trkpt>
            <trkpt lat="47.3232463" lon="15.3892555">
                <ele>875.7</ele>
                <time>2021-08-19T15:21:57.000Z</time>
                <name>Position 80</name>
            </trkpt>
            <trkpt lat="47.3231651" lon="15.3893276">
                <ele>874.4</ele>
                <time>2021-08-19T15:22:06.000Z</time>
                <name>Position 81</name>
            </trkpt>
            <trkpt lat="47.3230727" lon="15.3893424">
                <ele>872.8</ele>
                <time>2021-08-19T15:22:14.000Z</time>
                <name>Position 82</name>
            </trkpt>
            <trkpt lat="47.3229812" lon="15.389368">
                <ele>870.9</ele>
                <time>2021-08-19T15:22:25.000Z</time>
                <name>Position 83</name>
            </trkpt>
            <trkpt lat="47.3228955" lon="15.3894097">
                <ele>869.2</ele>
                <time>2021-08-19T15:22:35.000Z</time>
                <name>Position 84</name>
            </trkpt>
            <trkpt lat="47.322804" lon="15.3894414">
                <ele>868.4</ele>
                <time>2021-08-19T15:22:43.000Z</time>
                <name>Position 85</name>
            </trkpt>
            <trkpt lat="47.3227171" lon="15.3894901">
                <ele>866.8</ele>
                <time>2021-08-19T15:22:52.000Z</time>
                <name>Position 86</name>
            </trkpt>
            <trkpt lat="47.3226329" lon="15.3895674">
                <ele>865.7</ele>
                <time>2021-08-19T15:23:00.000Z</time>
                <name>Position 87</name>
            </trkpt>
            <trkpt lat="47.3225466" lon="15.3896485">
                <ele>864.4</ele>
                <time>2021-08-19T15:23:09.000Z</time>
                <name>Position 88</name>
            </trkpt>
            <trkpt lat="47.3224784" lon="15.3897401">
                <ele>863.9</ele>
                <time>2021-08-19T15:23:18.000Z</time>
                <name>Position 89</name>
            </trkpt>
            <trkpt lat="47.3224521" lon="15.3898763">
                <ele>862.0</ele>
                <time>2021-08-19T15:23:26.000Z</time>
                <name>Position 90</name>
            </trkpt>
            <trkpt lat="47.3224493" lon="15.3900148">
                <ele>860.5</ele>
                <time>2021-08-19T15:23:35.000Z</time>
                <name>Position 91</name>
            </trkpt>
            <trkpt lat="47.3224499" lon="15.3901541">
                <ele>858.5</ele>
                <time>2021-08-19T15:23:47.000Z</time>
                <name>Position 92</name>
            </trkpt>
            <trkpt lat="47.3224623" lon="15.390302">
                <ele>857.0</ele>
                <time>2021-08-19T15:23:58.000Z</time>
                <name>Position 93</name>
            </trkpt>
            <trkpt lat="47.3224748" lon="15.3904423">
                <ele>855.2</ele>
                <time>2021-08-19T15:24:07.000Z</time>
                <name>Position 94</name>
            </trkpt>
            <trkpt lat="47.3224981" lon="15.3905801">
                <ele>853.6</ele>
                <time>2021-08-19T15:24:17.000Z</time>
                <name>Position 95</name>
            </trkpt>
            <trkpt lat="47.322501" lon="15.3907202">
                <ele>852.1</ele>
                <time>2021-08-19T15:24:27.000Z</time>
                <name>Position 96</name>
            </trkpt>
            <trkpt lat="47.3225466" lon="15.3908542">
                <ele>850.8</ele>
                <time>2021-08-19T15:24:38.000Z</time>
                <name>Position 97</name>
            </trkpt>
            <trkpt lat="47.3225521" lon="15.3909973">
                <ele>849.7</ele>
                <time>2021-08-19T15:24:49.000Z</time>
                <name>Position 98</name>
            </trkpt>
            <trkpt lat="47.3225455" lon="15.3911431">
                <ele>848.0</ele>
                <time>2021-08-19T15:25:02.000Z</time>
                <name>Position 99</name>
            </trkpt>
            <trkpt lat="47.3224776" lon="15.3912647">
                <ele>846.4</ele>
                <time>2021-08-19T15:25:16.000Z</time>
                <name>Position 100</name>
            </trkpt>
            <trkpt lat="47.3224128" lon="15.3913637">
                <ele>845.1</ele>
                <time>2021-08-19T15:25:25.000Z</time>
                <name>Position 101</name>
            </trkpt>
            <trkpt lat="47.3223346" lon="15.3914397">
                <ele>843.1</ele>
                <time>2021-08-19T15:25:35.000Z</time>
                <name>Position 102</name>
            </trkpt>
            <trkpt lat="47.322247" lon="15.3914961">
                <ele>842.1</ele>
                <time>2021-08-19T15:25:43.000Z</time>
                <name>Position 103</name>
            </trkpt>
            <trkpt lat="47.3221626" lon="15.3915443">
                <ele>841.3</ele>
                <time>2021-08-19T15:25:52.000Z</time>
                <name>Position 104</name>
            </trkpt>
            <trkpt lat="47.3220836" lon="15.3916135">
                <ele>843.7</ele>
                <time>2021-08-19T15:26:11.000Z</time>
                <name>Position 105</name>
            </trkpt>
            <trkpt lat="47.3220362" lon="15.3917316">
                <ele>845.1</ele>
                <time>2021-08-19T15:26:24.000Z</time>
                <name>Position 106</name>
            </trkpt>
            <trkpt lat="47.3220105" lon="15.3918851">
                <ele>846.5</ele>
                <time>2021-08-19T15:26:41.000Z</time>
                <name>Position 107</name>
            </trkpt>
            <trkpt lat="47.321959" lon="15.3919966">
                <ele>847.5</ele>
                <time>2021-08-19T15:26:46.000Z</time>
                <name>Position 108</name>
            </trkpt>
            <trkpt lat="47.3218994" lon="15.392103">
                <ele>848.0</ele>
                <time>2021-08-19T15:26:55.000Z</time>
                <name>Position 109</name>
            </trkpt>
            <trkpt lat="47.3218214" lon="15.392202">
                <ele>848.8</ele>
                <time>2021-08-19T15:27:05.000Z</time>
                <name>Position 110</name>
            </trkpt>
            <trkpt lat="47.3217492" lon="15.3922975">
                <ele>849.0</ele>
                <time>2021-08-19T15:27:15.000Z</time>
                <name>Position 111</name>
            </trkpt>
            <trkpt lat="47.3216942" lon="15.3924068">
                <ele>850.6</ele>
                <time>2021-08-19T15:27:25.000Z</time>
                <name>Position 112</name>
            </trkpt>
            <trkpt lat="47.3216293" lon="15.3925269">
                <ele>851.3</ele>
                <time>2021-08-19T15:27:37.000Z</time>
                <name>Position 113</name>
            </trkpt>
            <trkpt lat="47.3215657" lon="15.3926302">
                <ele>852.9</ele>
                <time>2021-08-19T15:27:50.000Z</time>
                <name>Position 114</name>
            </trkpt>
            <trkpt lat="47.321542" lon="15.3927663">
                <ele>854.3</ele>
                <time>2021-08-19T15:28:02.000Z</time>
                <name>Position 115</name>
            </trkpt>
            <trkpt lat="47.3215143" lon="15.392898">
                <ele>854.7</ele>
                <time>2021-08-19T15:28:12.000Z</time>
                <name>Position 116</name>
            </trkpt>
            <trkpt lat="47.321498" lon="15.3930388">
                <ele>855.8</ele>
                <time>2021-08-19T15:28:21.000Z</time>
                <name>Position 117</name>
            </trkpt>
            <trkpt lat="47.3215111" lon="15.393175">
                <ele>855.7</ele>
                <time>2021-08-19T15:28:31.000Z</time>
                <name>Position 118</name>
            </trkpt>
            <trkpt lat="47.3215256" lon="15.3933068">
                <ele>855.3</ele>
                <time>2021-08-19T15:28:40.000Z</time>
                <name>Position 119</name>
            </trkpt>
            <trkpt lat="47.3215485" lon="15.3934393">
                <ele>855.4</ele>
                <time>2021-08-19T15:28:49.000Z</time>
                <name>Position 120</name>
            </trkpt>
            <trkpt lat="47.3215675" lon="15.3935817">
                <ele>854.9</ele>
                <time>2021-08-19T15:28:58.000Z</time>
                <name>Position 121</name>
            </trkpt>
            <trkpt lat="47.3215462" lon="15.393725">
                <ele>853.6</ele>
                <time>2021-08-19T15:29:06.000Z</time>
                <name>Position 122</name>
            </trkpt>
            <trkpt lat="47.3215522" lon="15.3938574">
                <ele>853.8</ele>
                <time>2021-08-19T15:29:13.000Z</time>
                <name>Position 123</name>
            </trkpt>
            <trkpt lat="47.3215506" lon="15.3939935">
                <ele>854.3</ele>
                <time>2021-08-19T15:29:25.000Z</time>
                <name>Position 124</name>
            </trkpt>
            <trkpt lat="47.3215639" lon="15.3941276">
                <ele>855.3</ele>
                <time>2021-08-19T15:29:35.000Z</time>
                <name>Position 125</name>
            </trkpt>
            <trkpt lat="47.3215727" lon="15.394261">
                <ele>857.0</ele>
                <time>2021-08-19T15:29:47.000Z</time>
                <name>Position 126</name>
            </trkpt>
            <trkpt lat="47.3216048" lon="15.3943861">
                <ele>860.0</ele>
                <time>2021-08-19T15:30:05.000Z</time>
                <name>Position 127</name>
            </trkpt>
            <trkpt lat="47.3216237" lon="15.3945228">
                <ele>862.1</ele>
                <time>2021-08-19T15:30:15.000Z</time>
                <name>Position 128</name>
            </trkpt>
            <trkpt lat="47.3216254" lon="15.3946571">
                <ele>864.0</ele>
                <time>2021-08-19T15:30:25.000Z</time>
                <name>Position 129</name>
            </trkpt>
            <trkpt lat="47.3216235" lon="15.3947953">
                <ele>866.2</ele>
                <time>2021-08-19T15:30:35.000Z</time>
                <name>Position 130</name>
            </trkpt>
            <trkpt lat="47.3216411" lon="15.3949314">
                <ele>868.7</ele>
                <time>2021-08-19T15:30:50.000Z</time>
                <name>Position 131</name>
            </trkpt>
            <trkpt lat="47.3216164" lon="15.3950669">
                <ele>870.9</ele>
                <time>2021-08-19T15:31:04.000Z</time>
                <name>Position 132</name>
            </trkpt>
            <trkpt lat="47.3216419" lon="15.395201">
                <ele>873.3</ele>
                <time>2021-08-19T15:31:19.000Z</time>
                <name>Position 133</name>
            </trkpt>
            <trkpt lat="47.3216908" lon="15.3953212">
                <ele>877.2</ele>
                <time>2021-08-19T15:31:37.000Z</time>
                <name>Position 134</name>
            </trkpt>
            <trkpt lat="47.3217655" lon="15.3953974">
                <ele>875.5</ele>
                <time>2021-08-19T15:31:48.000Z</time>
                <name>Position 135</name>
            </trkpt>
            <trkpt lat="47.3218262" lon="15.3955079">
                <ele>869.9</ele>
                <time>2021-08-19T15:32:06.000Z</time>
                <name>Position 136</name>
            </trkpt>
            <trkpt lat="47.3218288" lon="15.3956523">
                <ele>865.8</ele>
                <time>2021-08-19T15:32:21.000Z</time>
                <name>Position 137</name>
            </trkpt>
            <trkpt lat="47.3217903" lon="15.3957789">
                <ele>864.2</ele>
                <time>2021-08-19T15:32:30.000Z</time>
                <name>Position 138</name>
            </trkpt>
            <trkpt lat="47.3217497" lon="15.3958983">
                <ele>862.2</ele>
                <time>2021-08-19T15:32:39.000Z</time>
                <name>Position 139</name>
            </trkpt>
            <trkpt lat="47.3216764" lon="15.3959862">
                <ele>860.7</ele>
                <time>2021-08-19T15:32:48.000Z</time>
                <name>Position 140</name>
            </trkpt>
            <trkpt lat="47.3216078" lon="15.3960894">
                <ele>858.9</ele>
                <time>2021-08-19T15:32:57.000Z</time>
                <name>Position 141</name>
            </trkpt>
            <trkpt lat="47.3215403" lon="15.396191">
                <ele>856.8</ele>
                <time>2021-08-19T15:33:06.000Z</time>
                <name>Position 142</name>
            </trkpt>
            <trkpt lat="47.3215058" lon="15.3963214">
                <ele>855.2</ele>
                <time>2021-08-19T15:33:16.000Z</time>
                <name>Position 143</name>
            </trkpt>
            <trkpt lat="47.321416" lon="15.3963808">
                <ele>849.9</ele>
                <time>2021-08-19T15:33:31.000Z</time>
                <name>Position 144</name>
            </trkpt>
            <trkpt lat="47.3213376" lon="15.3964663">
                <ele>849.0</ele>
                <time>2021-08-19T15:33:40.000Z</time>
                <name>Position 145</name>
            </trkpt>
            <trkpt lat="47.3212609" lon="15.3965528">
                <ele>847.0</ele>
                <time>2021-08-19T15:33:52.000Z</time>
                <name>Position 146</name>
            </trkpt>
            <trkpt lat="47.3211779" lon="15.3966356">
                <ele>845.4</ele>
                <time>2021-08-19T15:34:01.000Z</time>
                <name>Position 147</name>
            </trkpt>
            <trkpt lat="47.3211109" lon="15.3967384">
                <ele>843.5</ele>
                <time>2021-08-19T15:34:09.000Z</time>
                <name>Position 148</name>
            </trkpt>
            <trkpt lat="47.3210505" lon="15.3968532">
                <ele>842.0</ele>
                <time>2021-08-19T15:34:18.000Z</time>
                <name>Position 149</name>
            </trkpt>
            <trkpt lat="47.3209861" lon="15.3969633">
                <ele>840.7</ele>
                <time>2021-08-19T15:34:27.000Z</time>
                <name>Position 150</name>
            </trkpt>
            <trkpt lat="47.3209209" lon="15.3970639">
                <ele>838.3</ele>
                <time>2021-08-19T15:34:35.000Z</time>
                <name>Position 151</name>
            </trkpt>
            <trkpt lat="47.3208925" lon="15.3971921">
                <ele>836.7</ele>
                <time>2021-08-19T15:34:43.000Z</time>
                <name>Position 152</name>
            </trkpt>
            <trkpt lat="47.3208639" lon="15.397318">
                <ele>834.2</ele>
                <time>2021-08-19T15:34:53.000Z</time>
                <name>Position 153</name>
            </trkpt>
            <trkpt lat="47.3208338" lon="15.397449">
                <ele>832.8</ele>
                <time>2021-08-19T15:35:00.000Z</time>
                <name>Position 154</name>
            </trkpt>
            <trkpt lat="47.3208009" lon="15.3975821">
                <ele>830.9</ele>
                <time>2021-08-19T15:35:09.000Z</time>
                <name>Position 155</name>
            </trkpt>
            <trkpt lat="47.3207806" lon="15.3977205">
                <ele>828.7</ele>
                <time>2021-08-19T15:35:18.000Z</time>
                <name>Position 156</name>
            </trkpt>
            <trkpt lat="47.3207692" lon="15.3978737">
                <ele>827.1</ele>
                <time>2021-08-19T15:35:28.000Z</time>
                <name>Position 157</name>
            </trkpt>
            <trkpt lat="47.3207624" lon="15.3980125">
                <ele>825.5</ele>
                <time>2021-08-19T15:35:36.000Z</time>
                <name>Position 158</name>
            </trkpt>
            <trkpt lat="47.3207717" lon="15.3981629">
                <ele>824.1</ele>
                <time>2021-08-19T15:35:44.000Z</time>
                <name>Position 159</name>
            </trkpt>
            <trkpt lat="47.3207622" lon="15.3983046">
                <ele>822.3</ele>
                <time>2021-08-19T15:35:52.000Z</time>
                <name>Position 160</name>
            </trkpt>
            <trkpt lat="47.3207696" lon="15.3984505">
                <ele>821.2</ele>
                <time>2021-08-19T15:36:01.000Z</time>
                <name>Position 161</name>
            </trkpt>
            <trkpt lat="47.3207749" lon="15.3985963">
                <ele>821.4</ele>
                <time>2021-08-19T15:36:10.000Z</time>
                <name>Position 162</name>
            </trkpt>
            <trkpt lat="47.3207784" lon="15.3987321">
                <ele>822.0</ele>
                <time>2021-08-19T15:36:18.000Z</time>
                <name>Position 163</name>
            </trkpt>
            <trkpt lat="47.3207966" lon="15.3988678">
                <ele>821.1</ele>
                <time>2021-08-19T15:36:27.000Z</time>
                <name>Position 164</name>
            </trkpt>
            <trkpt lat="47.3208104" lon="15.3990058">
                <ele>821.8</ele>
                <time>2021-08-19T15:36:36.000Z</time>
                <name>Position 165</name>
            </trkpt>
            <trkpt lat="47.3208275" lon="15.3991464">
                <ele>822.7</ele>
                <time>2021-08-19T15:36:45.000Z</time>
                <name>Position 166</name>
            </trkpt>
            <trkpt lat="47.3208406" lon="15.3992835">
                <ele>822.3</ele>
                <time>2021-08-19T15:36:54.000Z</time>
                <name>Position 167</name>
            </trkpt>
            <trkpt lat="47.3208549" lon="15.3994191">
                <ele>823.1</ele>
                <time>2021-08-19T15:37:03.000Z</time>
                <name>Position 168</name>
            </trkpt>
            <trkpt lat="47.3208583" lon="15.3995543">
                <ele>823.5</ele>
                <time>2021-08-19T15:37:12.000Z</time>
                <name>Position 169</name>
            </trkpt>
            <trkpt lat="47.320844" lon="15.3996988">
                <ele>824.8</ele>
                <time>2021-08-19T15:37:23.000Z</time>
                <name>Position 170</name>
            </trkpt>
            <trkpt lat="47.3208531" lon="15.3998372">
                <ele>825.5</ele>
                <time>2021-08-19T15:37:33.000Z</time>
                <name>Position 171</name>
            </trkpt>
            <trkpt lat="47.3208554" lon="15.3999744">
                <ele>826.6</ele>
                <time>2021-08-19T15:37:43.000Z</time>
                <name>Position 172</name>
            </trkpt>
            <trkpt lat="47.3208315" lon="15.4001137">
                <ele>827.3</ele>
                <time>2021-08-19T15:37:55.000Z</time>
                <name>Position 173</name>
            </trkpt>
            <trkpt lat="47.320833" lon="15.4002504">
                <ele>829.3</ele>
                <time>2021-08-19T15:38:05.000Z</time>
                <name>Position 174</name>
            </trkpt>
            <trkpt lat="47.3208287" lon="15.4003855">
                <ele>830.4</ele>
                <time>2021-08-19T15:38:15.000Z</time>
                <name>Position 175</name>
            </trkpt>
            <trkpt lat="47.3208205" lon="15.4005244">
                <ele>830.7</ele>
                <time>2021-08-19T15:38:24.000Z</time>
                <name>Position 176</name>
            </trkpt>
            <trkpt lat="47.3208048" lon="15.4006757">
                <ele>832.2</ele>
                <time>2021-08-19T15:38:35.000Z</time>
                <name>Position 177</name>
            </trkpt>
            <trkpt lat="47.3207852" lon="15.4008078">
                <ele>833.0</ele>
                <time>2021-08-19T15:38:46.000Z</time>
                <name>Position 178</name>
            </trkpt>
            <trkpt lat="47.3207722" lon="15.4009422">
                <ele>834.7</ele>
                <time>2021-08-19T15:38:57.000Z</time>
                <name>Position 179</name>
            </trkpt>
            <trkpt lat="47.3207659" lon="15.4010818">
                <ele>835.1</ele>
                <time>2021-08-19T15:39:08.000Z</time>
                <name>Position 180</name>
            </trkpt>
            <trkpt lat="47.3207783" lon="15.4012173">
                <ele>837.1</ele>
                <time>2021-08-19T15:39:20.000Z</time>
                <name>Position 181</name>
            </trkpt>
            <trkpt lat="47.3207335" lon="15.4013526">
                <ele>838.3</ele>
                <time>2021-08-19T15:39:32.000Z</time>
                <name>Position 182</name>
            </trkpt>
            <trkpt lat="47.3207052" lon="15.4014793">
                <ele>839.8</ele>
                <time>2021-08-19T15:39:51.000Z</time>
                <name>Position 183</name>
            </trkpt>
            <trkpt lat="47.3206828" lon="15.4016127">
                <ele>840.8</ele>
                <time>2021-08-19T15:40:03.000Z</time>
                <name>Position 184</name>
            </trkpt>
            <trkpt lat="47.3206633" lon="15.4017465">
                <ele>841.7</ele>
                <time>2021-08-19T15:40:14.000Z</time>
                <name>Position 185</name>
            </trkpt>
            <trkpt lat="47.3206446" lon="15.4018877">
                <ele>843.1</ele>
                <time>2021-08-19T15:40:25.000Z</time>
                <name>Position 186</name>
            </trkpt>
            <trkpt lat="47.3206427" lon="15.4020322">
                <ele>844.3</ele>
                <time>2021-08-19T15:40:38.000Z</time>
                <name>Position 187</name>
            </trkpt>
            <trkpt lat="47.3206494" lon="15.4021793">
                <ele>845.0</ele>
                <time>2021-08-19T15:40:48.000Z</time>
                <name>Position 188</name>
            </trkpt>
            <trkpt lat="47.3206748" lon="15.4023075">
                <ele>845.1</ele>
                <time>2021-08-19T15:40:57.000Z</time>
                <name>Position 189</name>
            </trkpt>
            <trkpt lat="47.3207576" lon="15.4023607">
                <ele>845.8</ele>
                <time>2021-08-19T15:41:07.000Z</time>
                <name>Position 190</name>
            </trkpt>
            <trkpt lat="47.3208504" lon="15.4024078">
                <ele>847.4</ele>
                <time>2021-08-19T15:41:27.000Z</time>
                <name>Position 191</name>
            </trkpt>
            <trkpt lat="47.3209404" lon="15.4024097">
                <ele>848.4</ele>
                <time>2021-08-19T15:41:37.000Z</time>
                <name>Position 192</name>
            </trkpt>
            <trkpt lat="47.3210307" lon="15.402433">
                <ele>849.0</ele>
                <time>2021-08-19T15:41:50.000Z</time>
                <name>Position 193</name>
            </trkpt>
            <trkpt lat="47.3211292" lon="15.402419">
                <ele>849.2</ele>
                <time>2021-08-19T15:42:01.000Z</time>
                <name>Position 194</name>
            </trkpt>
            <trkpt lat="47.3212247" lon="15.4024342">
                <ele>849.4</ele>
                <time>2021-08-19T15:42:09.000Z</time>
                <name>Position 195</name>
            </trkpt>
            <trkpt lat="47.3213153" lon="15.4024442">
                <ele>849.4</ele>
                <time>2021-08-19T15:42:19.000Z</time>
                <name>Position 196</name>
            </trkpt>
            <trkpt lat="47.3214183" lon="15.4024563">
                <ele>849.5</ele>
                <time>2021-08-19T15:42:29.000Z</time>
                <name>Position 197</name>
            </trkpt>
            <trkpt lat="47.3215125" lon="15.4024901">
                <ele>849.5</ele>
                <time>2021-08-19T15:42:38.000Z</time>
                <name>Position 198</name>
            </trkpt>
            <trkpt lat="47.3215991" lon="15.4025404">
                <ele>850.4</ele>
                <time>2021-08-19T15:42:51.000Z</time>
                <name>Position 199</name>
            </trkpt>
            <trkpt lat="47.3216833" lon="15.4025928">
                <ele>850.6</ele>
                <time>2021-08-19T15:43:00.000Z</time>
                <name>Position 200</name>
            </trkpt>
            <trkpt lat="47.3217719" lon="15.4026288">
                <ele>850.7</ele>
                <time>2021-08-19T15:43:09.000Z</time>
                <name>Position 201</name>
            </trkpt>
            <trkpt lat="47.3218567" lon="15.4026845">
                <ele>850.6</ele>
                <time>2021-08-19T15:43:18.000Z</time>
                <name>Position 202</name>
            </trkpt>
            <trkpt lat="47.321948" lon="15.4027091">
                <ele>851.0</ele>
                <time>2021-08-19T15:43:28.000Z</time>
                <name>Position 203</name>
            </trkpt>
            <trkpt lat="47.3220445" lon="15.402739">
                <ele>851.5</ele>
                <time>2021-08-19T15:43:35.000Z</time>
                <name>Position 204</name>
            </trkpt>
            <trkpt lat="47.3221316" lon="15.4027793">
                <ele>851.9</ele>
                <time>2021-08-19T15:43:45.000Z</time>
                <name>Position 205</name>
            </trkpt>
            <trkpt lat="47.3222139" lon="15.4028541">
                <ele>852.0</ele>
                <time>2021-08-19T15:43:56.000Z</time>
                <name>Position 206</name>
            </trkpt>
            <trkpt lat="47.3223126" lon="15.4028898">
                <ele>852.5</ele>
                <time>2021-08-19T15:44:07.000Z</time>
                <name>Position 207</name>
            </trkpt>
            <trkpt lat="47.3223972" lon="15.4029476">
                <ele>852.9</ele>
                <time>2021-08-19T15:44:16.000Z</time>
                <name>Position 208</name>
            </trkpt>
            <trkpt lat="47.3224827" lon="15.4030136">
                <ele>852.9</ele>
                <time>2021-08-19T15:44:27.000Z</time>
                <name>Position 209</name>
            </trkpt>
            <trkpt lat="47.3225404" lon="15.4031173">
                <ele>853.3</ele>
                <time>2021-08-19T15:44:37.000Z</time>
                <name>Position 210</name>
            </trkpt>
            <trkpt lat="47.3225942" lon="15.4033642">
                <ele>851.9</ele>
                <time>2021-08-19T15:44:55.000Z</time>
                <name>Position 211</name>
            </trkpt>
            <trkpt lat="47.3225881" lon="15.4034991">
                <ele>850.7</ele>
                <time>2021-08-19T15:45:03.000Z</time>
                <name>Position 212</name>
            </trkpt>
            <trkpt lat="47.3225907" lon="15.4036319">
                <ele>850.0</ele>
                <time>2021-08-19T15:45:10.000Z</time>
                <name>Position 213</name>
            </trkpt>
            <trkpt lat="47.3225726" lon="15.4037726">
                <ele>849.4</ele>
                <time>2021-08-19T15:45:18.000Z</time>
                <name>Position 214</name>
            </trkpt>
            <trkpt lat="47.3225721" lon="15.4039097">
                <ele>848.7</ele>
                <time>2021-08-19T15:45:26.000Z</time>
                <name>Position 215</name>
            </trkpt>
            <trkpt lat="47.3225411" lon="15.4041685">
                <ele>847.7</ele>
                <time>2021-08-19T15:45:45.000Z</time>
                <name>Position 216</name>
            </trkpt>
            <trkpt lat="47.3224505" lon="15.4042249">
                <ele>847.9</ele>
                <time>2021-08-19T15:45:54.000Z</time>
                <name>Position 217</name>
            </trkpt>
            <trkpt lat="47.3223542" lon="15.4042307">
                <ele>847.7</ele>
                <time>2021-08-19T15:46:05.000Z</time>
                <name>Position 218</name>
            </trkpt>
            <trkpt lat="47.3222573" lon="15.4042619">
                <ele>847.5</ele>
                <time>2021-08-19T15:46:14.000Z</time>
                <name>Position 219</name>
            </trkpt>
            <trkpt lat="47.3221661" lon="15.4043103">
                <ele>847.2</ele>
                <time>2021-08-19T15:46:23.000Z</time>
                <name>Position 220</name>
            </trkpt>
            <trkpt lat="47.3221019" lon="15.4044219">
                <ele>846.6</ele>
                <time>2021-08-19T15:46:30.000Z</time>
                <name>Position 221</name>
            </trkpt>
            <trkpt lat="47.3220429" lon="15.4045221">
                <ele>846.2</ele>
                <time>2021-08-19T15:46:37.000Z</time>
                <name>Position 222</name>
            </trkpt>
            <trkpt lat="47.3219948" lon="15.4046348">
                <ele>846.8</ele>
                <time>2021-08-19T15:46:45.000Z</time>
                <name>Position 223</name>
            </trkpt>
            <trkpt lat="47.3219576" lon="15.4047592">
                <ele>846.9</ele>
                <time>2021-08-19T15:46:55.000Z</time>
                <name>Position 224</name>
            </trkpt>
            <trkpt lat="47.3218936" lon="15.4048591">
                <ele>847.4</ele>
                <time>2021-08-19T15:47:05.000Z</time>
                <name>Position 225</name>
            </trkpt>
            <trkpt lat="47.3218275" lon="15.404968">
                <ele>847.8</ele>
                <time>2021-08-19T15:47:13.000Z</time>
                <name>Position 226</name>
            </trkpt>
            <trkpt lat="47.3217732" lon="15.4050872">
                <ele>848.5</ele>
                <time>2021-08-19T15:47:23.000Z</time>
                <name>Position 227</name>
            </trkpt>
            <trkpt lat="47.3217276" lon="15.4052192">
                <ele>848.3</ele>
                <time>2021-08-19T15:47:31.000Z</time>
                <name>Position 228</name>
            </trkpt>
            <trkpt lat="47.3216637" lon="15.4053213">
                <ele>847.9</ele>
                <time>2021-08-19T15:47:40.000Z</time>
                <name>Position 229</name>
            </trkpt>
            <trkpt lat="47.3215914" lon="15.4054114">
                <ele>847.0</ele>
                <time>2021-08-19T15:47:51.000Z</time>
                <name>Position 230</name>
            </trkpt>
            <trkpt lat="47.3215475" lon="15.405533">
                <ele>846.1</ele>
                <time>2021-08-19T15:48:00.000Z</time>
                <name>Position 231</name>
            </trkpt>
            <trkpt lat="47.3214869" lon="15.4056377">
                <ele>845.3</ele>
                <time>2021-08-19T15:48:08.000Z</time>
                <name>Position 232</name>
            </trkpt>
            <trkpt lat="47.3214204" lon="15.4057354">
                <ele>844.7</ele>
                <time>2021-08-19T15:48:17.000Z</time>
                <name>Position 233</name>
            </trkpt>
            <trkpt lat="47.3213529" lon="15.4058424">
                <ele>844.2</ele>
                <time>2021-08-19T15:48:26.000Z</time>
                <name>Position 234</name>
            </trkpt>
            <trkpt lat="47.3212959" lon="15.405965">
                <ele>843.6</ele>
                <time>2021-08-19T15:48:34.000Z</time>
                <name>Position 235</name>
            </trkpt>
            <trkpt lat="47.3212506" lon="15.406082">
                <ele>843.1</ele>
                <time>2021-08-19T15:48:43.000Z</time>
                <name>Position 236</name>
            </trkpt>
            <trkpt lat="47.3211909" lon="15.4061961">
                <ele>842.6</ele>
                <time>2021-08-19T15:48:53.000Z</time>
                <name>Position 237</name>
            </trkpt>
            <trkpt lat="47.3211299" lon="15.406303">
                <ele>842.5</ele>
                <time>2021-08-19T15:49:03.000Z</time>
                <name>Position 238</name>
            </trkpt>
            <trkpt lat="47.3210475" lon="15.4063779">
                <ele>843.4</ele>
                <time>2021-08-19T15:49:12.000Z</time>
                <name>Position 239</name>
            </trkpt>
            <trkpt lat="47.3209995" lon="15.4065034">
                <ele>844.6</ele>
                <time>2021-08-19T15:49:25.000Z</time>
                <name>Position 240</name>
            </trkpt>
            <trkpt lat="47.3209328" lon="15.4066071">
                <ele>846.0</ele>
                <time>2021-08-19T15:49:36.000Z</time>
                <name>Position 241</name>
            </trkpt>
            <trkpt lat="47.3208905" lon="15.406739">
                <ele>846.9</ele>
                <time>2021-08-19T15:49:46.000Z</time>
                <name>Position 242</name>
            </trkpt>
            <trkpt lat="47.3208199" lon="15.4068295">
                <ele>847.8</ele>
                <time>2021-08-19T15:49:55.000Z</time>
                <name>Position 243</name>
            </trkpt>
            <trkpt lat="47.3207459" lon="15.4069148">
                <ele>849.1</ele>
                <time>2021-08-19T15:50:05.000Z</time>
                <name>Position 244</name>
            </trkpt>
            <trkpt lat="47.3207363" lon="15.4070496">
                <ele>850.9</ele>
                <time>2021-08-19T15:50:17.000Z</time>
                <name>Position 245</name>
            </trkpt>
            <trkpt lat="47.3206737" lon="15.4071764">
                <ele>852.5</ele>
                <time>2021-08-19T15:50:29.000Z</time>
                <name>Position 246</name>
            </trkpt>
            <trkpt lat="47.3206368" lon="15.4073066">
                <ele>854.5</ele>
                <time>2021-08-19T15:50:43.000Z</time>
                <name>Position 247</name>
            </trkpt>
            <trkpt lat="47.3205957" lon="15.4074337">
                <ele>855.5</ele>
                <time>2021-08-19T15:50:52.000Z</time>
                <name>Position 248</name>
            </trkpt>
            <trkpt lat="47.320528" lon="15.4075236">
                <ele>856.1</ele>
                <time>2021-08-19T15:50:59.000Z</time>
                <name>Position 249</name>
            </trkpt>
            <trkpt lat="47.3204733" lon="15.4076346">
                <ele>856.7</ele>
                <time>2021-08-19T15:51:07.000Z</time>
                <name>Position 250</name>
            </trkpt>
            <trkpt lat="47.3204439" lon="15.4077601">
                <ele>857.5</ele>
                <time>2021-08-19T15:51:17.000Z</time>
                <name>Position 251</name>
            </trkpt>
            <trkpt lat="47.3204064" lon="15.4078809">
                <ele>858.8</ele>
                <time>2021-08-19T15:51:28.000Z</time>
                <name>Position 252</name>
            </trkpt>
            <trkpt lat="47.3203745" lon="15.4080145">
                <ele>860.1</ele>
                <time>2021-08-19T15:51:39.000Z</time>
                <name>Position 253</name>
            </trkpt>
            <trkpt lat="47.3203305" lon="15.4081365">
                <ele>861.2</ele>
                <time>2021-08-19T15:51:48.000Z</time>
                <name>Position 254</name>
            </trkpt>
            <trkpt lat="47.3202762" lon="15.4082469">
                <ele>861.8</ele>
                <time>2021-08-19T15:51:58.000Z</time>
                <name>Position 255</name>
            </trkpt>
            <trkpt lat="47.3202193" lon="15.408367">
                <ele>862.2</ele>
                <time>2021-08-19T15:52:07.000Z</time>
                <name>Position 256</name>
            </trkpt>
            <trkpt lat="47.3202033" lon="15.4084994">
                <ele>863.2</ele>
                <time>2021-08-19T15:52:17.000Z</time>
                <name>Position 257</name>
            </trkpt>
            <trkpt lat="47.3201911" lon="15.4086372">
                <ele>863.6</ele>
                <time>2021-08-19T15:52:27.000Z</time>
                <name>Position 258</name>
            </trkpt>
            <trkpt lat="47.320156" lon="15.4087659">
                <ele>864.1</ele>
                <time>2021-08-19T15:52:34.000Z</time>
                <name>Position 259</name>
            </trkpt>
            <trkpt lat="47.3201974" lon="15.4088975">
                <ele>864.5</ele>
                <time>2021-08-19T15:52:42.000Z</time>
                <name>Position 260</name>
            </trkpt>
            <trkpt lat="47.3202645" lon="15.4089948">
                <ele>865.4</ele>
                <time>2021-08-19T15:52:53.000Z</time>
                <name>Position 261</name>
            </trkpt>
            <trkpt lat="47.3203566" lon="15.4089907">
                <ele>864.8</ele>
                <time>2021-08-19T15:53:00.000Z</time>
                <name>Position 262</name>
            </trkpt>
            <trkpt lat="47.3204419" lon="15.409034">
                <ele>864.4</ele>
                <time>2021-08-19T15:53:08.000Z</time>
                <name>Position 263</name>
            </trkpt>
            <trkpt lat="47.3205403" lon="15.4090436">
                <ele>864.9</ele>
                <time>2021-08-19T15:53:18.000Z</time>
                <name>Position 264</name>
            </trkpt>
            <trkpt lat="47.320638" lon="15.4090491">
                <ele>865.1</ele>
                <time>2021-08-19T15:53:27.000Z</time>
                <name>Position 265</name>
            </trkpt>
            <trkpt lat="47.3207354" lon="15.4090424">
                <ele>865.5</ele>
                <time>2021-08-19T15:53:36.000Z</time>
                <name>Position 266</name>
            </trkpt>
            <trkpt lat="47.3208305" lon="15.4089957">
                <ele>866.2</ele>
                <time>2021-08-19T15:53:43.000Z</time>
                <name>Position 267</name>
            </trkpt>
            <trkpt lat="47.3209195" lon="15.4089686">
                <ele>866.7</ele>
                <time>2021-08-19T15:53:53.000Z</time>
                <name>Position 268</name>
            </trkpt>
            <trkpt lat="47.3210126" lon="15.4089626">
                <ele>867.0</ele>
                <time>2021-08-19T15:54:00.000Z</time>
                <name>Position 269</name>
            </trkpt>
            <trkpt lat="47.3211074" lon="15.4089615">
                <ele>867.7</ele>
                <time>2021-08-19T15:54:09.000Z</time>
                <name>Position 270</name>
            </trkpt>
            <trkpt lat="47.3210009" lon="15.4089239">
                <ele>865.8</ele>
                <time>2021-08-19T15:56:04.000Z</time>
                <name>Position 271</name>
            </trkpt>
            <trkpt lat="47.3208805" lon="15.4089753">
                <ele>865.0</ele>
                <time>2021-08-19T15:56:07.000Z</time>
                <name>Position 272</name>
            </trkpt>
            <trkpt lat="47.3209874" lon="15.408936">
                <ele>865.7</ele>
                <time>2021-08-19T15:56:31.000Z</time>
                <name>Position 273</name>
            </trkpt>
            <trkpt lat="47.3208934" lon="15.4089413">
                <ele>865.0</ele>
                <time>2021-08-19T15:56:43.000Z</time>
                <name>Position 274</name>
            </trkpt>
            <trkpt lat="47.3209436" lon="15.4090735">
                <ele>864.0</ele>
                <time>2021-08-19T15:56:54.000Z</time>
                <name>Position 275</name>
            </trkpt>
        </trkseg>
    </trk>
</gpx>
