<?xml version="1.0"?>
<gpx xmlns="http://www.topografix.com/GPX/1/1" xmlns:xsi="http://www.w3.org/2001/XMLSchema-instance" version="1.1" creator="AllTrails.com" xsi:schemaLocation="http://www.topografix.com/GPX/1/1 http://www.topografix.com/GPX/1/1/gpx.xsd">
  <metadata>
    <name><![CDATA[Karte – 26. Mai 2023]]></name>
    <desc><![CDATA[]]></desc>
    <link href="http://www.alltrails.com">
      <text>AllTrails, LLC</text>
    </link>
    <bounds minlat="47.65282" minlon="13.6192558" maxlat="47.6593635" maxlon="13.62726"/>
  </metadata>
  <trk>
    <name><![CDATA[Karte – 26. Mai 2023]]></name>
    <src>AllTrails</src>
    <trkseg>
      <trkpt lat="47.65282" lon="13.62694">
        <ele>734.77</ele>
      </trkpt>
      <trkpt lat="47.65287" lon="13.62698">
        <ele>735.18</ele>
      </trkpt>
      <trkpt lat="47.65296" lon="13.62692">
        <ele>733.9</ele>
      </trkpt>
      <trkpt lat="47.65307" lon="13.62701">
        <ele>735.15</ele>
      </trkpt>
      <trkpt lat="47.65312" lon="13.62707">
        <ele>736.92</ele>
      </trkpt>
      <trkpt lat="47.65314" lon="13.62712">
        <ele>738.21</ele>
      </trkpt>
      <trkpt lat="47.65317" lon="13.62714">
        <ele>739.21</ele>
      </trkpt>
      <trkpt lat="47.65321" lon="13.62716">
        <ele>740.5</ele>
      </trkpt>
      <trkpt lat="47.65321" lon="13.62716">
        <ele>740.5</ele>
      </trkpt>
      <trkpt lat="47.65321" lon="13.62716">
        <ele>740.5</ele>
      </trkpt>
      <trkpt lat="47.65321" lon="13.62716">
        <ele>740.5</ele>
      </trkpt>
      <trkpt lat="47.65324" lon="13.62717">
        <ele>741.4</ele>
      </trkpt>
      <trkpt lat="47.6533" lon="13.62717">
        <ele>742.75</ele>
      </trkpt>
      <trkpt lat="47.65336" lon="13.62717">
        <ele>744.65</ele>
      </trkpt>
      <trkpt lat="47.65343" lon="13.62723">
        <ele>749.76</ele>
      </trkpt>
      <trkpt lat="47.65351" lon="13.62721">
        <ele>752.78</ele>
      </trkpt>
      <trkpt lat="47.6536" lon="13.62726">
        <ele>758.7</ele>
      </trkpt>
      <trkpt lat="47.6538" lon="13.62714">
        <ele>762.71</ele>
      </trkpt>
      <trkpt lat="47.65384" lon="13.62709">
        <ele>762.48</ele>
      </trkpt>
      <trkpt lat="47.65405" lon="13.62702">
        <ele>767.53</ele>
      </trkpt>
      <trkpt lat="47.65409" lon="13.62698">
        <ele>767.11</ele>
      </trkpt>
      <trkpt lat="47.65419" lon="13.62688">
        <ele>767.06</ele>
      </trkpt>
      <trkpt lat="47.65424" lon="13.62686">
        <ele>768.28</ele>
      </trkpt>
      <trkpt lat="47.65433" lon="13.62685">
        <ele>771.12</ele>
      </trkpt>
      <trkpt lat="47.65447" lon="13.62686">
        <ele>777.14</ele>
      </trkpt>
      <trkpt lat="47.65454" lon="13.62684">
        <ele>779.6</ele>
      </trkpt>
      <trkpt lat="47.65461" lon="13.62677">
        <ele>779.57</ele>
      </trkpt>
      <trkpt lat="47.65461" lon="13.62677">
        <ele>779.57</ele>
      </trkpt>
      <trkpt lat="47.65461" lon="13.62677">
        <ele>779.57</ele>
      </trkpt>
      <trkpt lat="47.65476" lon="13.6266">
        <ele>777.59</ele>
      </trkpt>
      <trkpt lat="47.65491" lon="13.62655">
        <ele>778.35</ele>
      </trkpt>
      <trkpt lat="47.65502" lon="13.62643">
        <ele>774.44</ele>
      </trkpt>
      <trkpt lat="47.65512" lon="13.62638">
        <ele>772.75</ele>
      </trkpt>
      <trkpt lat="47.65529" lon="13.62637">
        <ele>774.32</ele>
      </trkpt>
      <trkpt lat="47.65542" lon="13.62636">
        <ele>778.16</ele>
      </trkpt>
      <trkpt lat="47.65549" lon="13.62641">
        <ele>782.84</ele>
      </trkpt>
      <trkpt lat="47.65553" lon="13.62638">
        <ele>782.78</ele>
      </trkpt>
      <trkpt lat="47.65554" lon="13.62625">
        <ele>777.38</ele>
      </trkpt>
      <trkpt lat="47.65557" lon="13.62617">
        <ele>775.05</ele>
      </trkpt>
      <trkpt lat="47.65571" lon="13.62614">
        <ele>779.02</ele>
      </trkpt>
      <trkpt lat="47.65577" lon="13.62607">
        <ele>778.59</ele>
      </trkpt>
      <trkpt lat="47.65585" lon="13.62599">
        <ele>778.8</ele>
      </trkpt>
      <trkpt lat="47.65609" lon="13.62596">
        <ele>786.26</ele>
      </trkpt>
      <trkpt lat="47.65626" lon="13.62589">
        <ele>791.75</ele>
      </trkpt>
      <trkpt lat="47.65648" lon="13.62573">
        <ele>793.69</ele>
      </trkpt>
      <trkpt lat="47.65671" lon="13.62547">
        <ele>791.52</ele>
      </trkpt>
      <trkpt lat="47.6568" lon="13.62536">
        <ele>792.14</ele>
      </trkpt>
      <trkpt lat="47.65686" lon="13.62523">
        <ele>791.52</ele>
      </trkpt>
      <trkpt lat="47.65698" lon="13.62508">
        <ele>794.35</ele>
      </trkpt>
      <trkpt lat="47.65708" lon="13.62494">
        <ele>795.17</ele>
      </trkpt>
      <trkpt lat="47.65728" lon="13.62443">
        <ele>791.03</ele>
      </trkpt>
      <trkpt lat="47.65733" lon="13.62437">
        <ele>790.04</ele>
      </trkpt>
      <trkpt lat="47.65754" lon="13.62425">
        <ele>792.91</ele>
      </trkpt>
      <trkpt lat="47.65792" lon="13.62372">
        <ele>792.52</ele>
      </trkpt>
      <trkpt lat="47.6581" lon="13.62338">
        <ele>791.3</ele>
      </trkpt>
      <trkpt lat="47.65825" lon="13.62305">
        <ele>788.55</ele>
      </trkpt>
      <trkpt lat="47.65826" lon="13.62299">
        <ele>787.33</ele>
      </trkpt>
      <trkpt lat="47.65825" lon="13.62283">
        <ele>782.69</ele>
      </trkpt>
      <trkpt lat="47.65828" lon="13.62275">
        <ele>781.75</ele>
      </trkpt>
      <trkpt lat="47.65842" lon="13.62257">
        <ele>780.57</ele>
      </trkpt>
      <trkpt lat="47.65855" lon="13.62235">
        <ele>778.95</ele>
      </trkpt>
      <trkpt lat="47.65867" lon="13.62219">
        <ele>779.98</ele>
      </trkpt>
      <trkpt lat="47.65871" lon="13.62215">
        <ele>780.01</ele>
      </trkpt>
      <trkpt lat="47.65871" lon="13.62215">
        <ele>780.01</ele>
      </trkpt>
      <trkpt lat="47.65871" lon="13.62215">
        <ele>780.01</ele>
      </trkpt>
      <trkpt lat="47.65879" lon="13.62205">
        <ele>781.36</ele>
      </trkpt>
      <trkpt lat="47.65882" lon="13.62197">
        <ele>782.5</ele>
      </trkpt>
      <trkpt lat="47.65884" lon="13.62189">
        <ele>782.52</ele>
      </trkpt>
      <trkpt lat="47.65884" lon="13.62189">
        <ele>782.52</ele>
      </trkpt>
      <trkpt lat="47.65884" lon="13.62189">
        <ele>782.52</ele>
      </trkpt>
      <trkpt lat="47.65889" lon="13.62173">
        <ele>782.22</ele>
      </trkpt>
      <trkpt lat="47.65892" lon="13.62148">
        <ele>776.67</ele>
      </trkpt>
      <trkpt lat="47.65895" lon="13.6213">
        <ele>772.39</ele>
      </trkpt>
      <trkpt lat="47.65895" lon="13.62127">
        <ele>771.23</ele>
      </trkpt>
      <trkpt lat="47.65895" lon="13.62124">
        <ele>770.06</ele>
      </trkpt>
      <trkpt lat="47.65897" lon="13.6212">
        <ele>770.14</ele>
      </trkpt>
      <trkpt lat="47.65899" lon="13.62117">
        <ele>770.63</ele>
      </trkpt>
      <trkpt lat="47.659" lon="13.62114">
        <ele>770.3</ele>
      </trkpt>
      <trkpt lat="47.65905" lon="13.6211">
        <ele>772.94</ele>
      </trkpt>
      <trkpt lat="47.65913" lon="13.62104">
        <ele>777.75</ele>
      </trkpt>
      <trkpt lat="47.6592" lon="13.62095">
        <ele>782.38</ele>
      </trkpt>
      <trkpt lat="47.6592" lon="13.62095">
        <ele>782.38</ele>
      </trkpt>
      <trkpt lat="47.65918" lon="13.62073">
        <ele>773.18</ele>
      </trkpt>
      <trkpt lat="47.65918" lon="13.62073">
        <ele>773.18</ele>
      </trkpt>
      <trkpt lat="47.65918" lon="13.62061">
        <ele>769.33</ele>
      </trkpt>
      <trkpt lat="47.65918" lon="13.62061">
        <ele>769.33</ele>
      </trkpt>
      <trkpt lat="47.65917" lon="13.62035">
        <ele>754.58</ele>
      </trkpt>
      <trkpt lat="47.65917" lon="13.62035">
        <ele>754.58</ele>
      </trkpt>
      <trkpt lat="47.65916" lon="13.62019">
        <ele>743.34</ele>
      </trkpt>
      <trkpt lat="47.65916" lon="13.62019">
        <ele>743.34</ele>
      </trkpt>
      <trkpt lat="47.65918" lon="13.61991">
        <ele>730.24</ele>
      </trkpt>
      <trkpt lat="47.65918" lon="13.61991">
        <ele>730.24</ele>
      </trkpt>
      <trkpt lat="47.65922" lon="13.61963">
        <ele>723.69</ele>
      </trkpt>
      <trkpt lat="47.65922" lon="13.61963">
        <ele>723.69</ele>
      </trkpt>
      <trkpt lat="47.65928" lon="13.61948">
        <ele>722.68</ele>
      </trkpt>
      <trkpt lat="47.65928" lon="13.61948">
        <ele>722.68</ele>
      </trkpt>
      <trkpt lat="47.6593" lon="13.61926">
        <ele>716.2</ele>
      </trkpt>
      <trkpt lat="47.6593" lon="13.61926">
        <ele>716.2</ele>
      </trkpt>
      <trkpt lat="47.65936" lon="13.61926">
        <ele>719.74</ele>
      </trkpt>
      <trkpt lat="47.65936" lon="13.61926">
        <ele>719.74</ele>
      </trkpt>
      <trkpt lat="47.65936" lon="13.61926">
        <ele>719.74</ele>
      </trkpt>
      <trkpt lat="47.65935" lon="13.61941">
        <ele>725.94</ele>
      </trkpt>
      <trkpt lat="47.65935" lon="13.61964">
        <ele>735.48</ele>
      </trkpt>
      <trkpt lat="47.6593" lon="13.62">
        <ele>752.6</ele>
      </trkpt>
      <trkpt lat="47.65928" lon="13.62005">
        <ele>752.12</ele>
      </trkpt>
      <trkpt lat="47.65927" lon="13.6201">
        <ele>753.37</ele>
      </trkpt>
      <trkpt lat="47.65927" lon="13.62016">
        <ele>756.76</ele>
      </trkpt>
      <trkpt lat="47.65927" lon="13.62028">
        <ele>763.51</ele>
      </trkpt>
      <trkpt lat="47.65927" lon="13.62034">
        <ele>766.73</ele>
      </trkpt>
      <trkpt lat="47.65927" lon="13.62034">
        <ele>766.73</ele>
      </trkpt>
      <trkpt lat="47.65927" lon="13.62034">
        <ele>766.73</ele>
      </trkpt>
      <trkpt lat="47.65926" lon="13.62045">
        <ele>771.39</ele>
      </trkpt>
      <trkpt lat="47.65926" lon="13.62053">
        <ele>775.71</ele>
      </trkpt>
      <trkpt lat="47.65925" lon="13.62056">
        <ele>776.03</ele>
      </trkpt>
      <trkpt lat="47.65924" lon="13.62057">
        <ele>775.15</ele>
      </trkpt>
      <trkpt lat="47.65922" lon="13.6206">
        <ele>773.71</ele>
      </trkpt>
      <trkpt lat="47.65922" lon="13.62064">
        <ele>774.96</ele>
      </trkpt>
      <trkpt lat="47.65921" lon="13.62068">
        <ele>775.04</ele>
      </trkpt>
      <trkpt lat="47.65922" lon="13.62072">
        <ele>777.44</ele>
      </trkpt>
      <trkpt lat="47.65921" lon="13.62086">
        <ele>780.69</ele>
      </trkpt>
      <trkpt lat="47.6592" lon="13.62095">
        <ele>782.38</ele>
      </trkpt>
      <trkpt lat="47.65919" lon="13.62097">
        <ele>781.79</ele>
      </trkpt>
      <trkpt lat="47.65913" lon="13.62104">
        <ele>777.75</ele>
      </trkpt>
      <trkpt lat="47.65905" lon="13.6211">
        <ele>772.94</ele>
      </trkpt>
      <trkpt lat="47.659" lon="13.62114">
        <ele>770.3</ele>
      </trkpt>
      <trkpt lat="47.65899" lon="13.62117">
        <ele>770.63</ele>
      </trkpt>
      <trkpt lat="47.65897" lon="13.6212">
        <ele>770.14</ele>
      </trkpt>
      <trkpt lat="47.65895" lon="13.62124">
        <ele>770.06</ele>
      </trkpt>
      <trkpt lat="47.65895" lon="13.62127">
        <ele>771.23</ele>
      </trkpt>
      <trkpt lat="47.65895" lon="13.6213">
        <ele>772.39</ele>
      </trkpt>
      <trkpt lat="47.65892" lon="13.62148">
        <ele>776.67</ele>
      </trkpt>
      <trkpt lat="47.65889" lon="13.62173">
        <ele>782.22</ele>
      </trkpt>
      <trkpt lat="47.65882" lon="13.62197">
        <ele>782.5</ele>
      </trkpt>
      <trkpt lat="47.65879" lon="13.62205">
        <ele>781.36</ele>
      </trkpt>
      <trkpt lat="47.65867" lon="13.62219">
        <ele>779.98</ele>
      </trkpt>
      <trkpt lat="47.65855" lon="13.62235">
        <ele>778.95</ele>
      </trkpt>
      <trkpt lat="47.6585" lon="13.62243">
        <ele>778.89</ele>
      </trkpt>
      <trkpt lat="47.6585" lon="13.62243">
        <ele>778.89</ele>
      </trkpt>
      <trkpt lat="47.6585" lon="13.62243">
        <ele>778.89</ele>
      </trkpt>
      <trkpt lat="47.65842" lon="13.62257">
        <ele>780.57</ele>
      </trkpt>
      <trkpt lat="47.65828" lon="13.62275">
        <ele>781.75</ele>
      </trkpt>
      <trkpt lat="47.65825" lon="13.62283">
        <ele>782.69</ele>
      </trkpt>
      <trkpt lat="47.65826" lon="13.62299">
        <ele>787.33</ele>
      </trkpt>
      <trkpt lat="47.65825" lon="13.62305">
        <ele>788.55</ele>
      </trkpt>
      <trkpt lat="47.6581" lon="13.62338">
        <ele>791.3</ele>
      </trkpt>
      <trkpt lat="47.65792" lon="13.62372">
        <ele>792.52</ele>
      </trkpt>
      <trkpt lat="47.65754" lon="13.62425">
        <ele>792.91</ele>
      </trkpt>
      <trkpt lat="47.65733" lon="13.62437">
        <ele>790.04</ele>
      </trkpt>
      <trkpt lat="47.65728" lon="13.62443">
        <ele>791.03</ele>
      </trkpt>
      <trkpt lat="47.65708" lon="13.62494">
        <ele>795.17</ele>
      </trkpt>
      <trkpt lat="47.65698" lon="13.62508">
        <ele>794.35</ele>
      </trkpt>
      <trkpt lat="47.65686" lon="13.62523">
        <ele>791.52</ele>
      </trkpt>
      <trkpt lat="47.6568" lon="13.62536">
        <ele>792.14</ele>
      </trkpt>
      <trkpt lat="47.65671" lon="13.62547">
        <ele>791.52</ele>
      </trkpt>
      <trkpt lat="47.65648" lon="13.62573">
        <ele>793.69</ele>
      </trkpt>
      <trkpt lat="47.65626" lon="13.62589">
        <ele>791.75</ele>
      </trkpt>
      <trkpt lat="47.65609" lon="13.62596">
        <ele>786.26</ele>
      </trkpt>
      <trkpt lat="47.65585" lon="13.62599">
        <ele>778.8</ele>
      </trkpt>
      <trkpt lat="47.65577" lon="13.62607">
        <ele>778.59</ele>
      </trkpt>
      <trkpt lat="47.65571" lon="13.62614">
        <ele>779.02</ele>
      </trkpt>
      <trkpt lat="47.65557" lon="13.62617">
        <ele>775.05</ele>
      </trkpt>
      <trkpt lat="47.65554" lon="13.62625">
        <ele>777.38</ele>
      </trkpt>
      <trkpt lat="47.65553" lon="13.62638">
        <ele>782.78</ele>
      </trkpt>
      <trkpt lat="47.65549" lon="13.62641">
        <ele>782.84</ele>
      </trkpt>
      <trkpt lat="47.65542" lon="13.62636">
        <ele>778.16</ele>
      </trkpt>
      <trkpt lat="47.65529" lon="13.62637">
        <ele>774.32</ele>
      </trkpt>
      <trkpt lat="47.65512" lon="13.62638">
        <ele>772.75</ele>
      </trkpt>
      <trkpt lat="47.65502" lon="13.62643">
        <ele>774.44</ele>
      </trkpt>
      <trkpt lat="47.65491" lon="13.62655">
        <ele>778.35</ele>
      </trkpt>
      <trkpt lat="47.65476" lon="13.6266">
        <ele>777.59</ele>
      </trkpt>
      <trkpt lat="47.65454" lon="13.62684">
        <ele>779.6</ele>
      </trkpt>
      <trkpt lat="47.65447" lon="13.62686">
        <ele>777.14</ele>
      </trkpt>
      <trkpt lat="47.65433" lon="13.62685">
        <ele>771.12</ele>
      </trkpt>
      <trkpt lat="47.65424" lon="13.62686">
        <ele>768.28</ele>
      </trkpt>
      <trkpt lat="47.65419" lon="13.62688">
        <ele>767.06</ele>
      </trkpt>
      <trkpt lat="47.65409" lon="13.62698">
        <ele>767.11</ele>
      </trkpt>
      <trkpt lat="47.65405" lon="13.62702">
        <ele>767.53</ele>
      </trkpt>
      <trkpt lat="47.65384" lon="13.62709">
        <ele>762.48</ele>
      </trkpt>
      <trkpt lat="47.6538" lon="13.62714">
        <ele>762.71</ele>
      </trkpt>
      <trkpt lat="47.6536" lon="13.62726">
        <ele>758.7</ele>
      </trkpt>
      <trkpt lat="47.65351" lon="13.62721">
        <ele>752.78</ele>
      </trkpt>
      <trkpt lat="47.65343" lon="13.62723">
        <ele>749.76</ele>
      </trkpt>
      <trkpt lat="47.65336" lon="13.62717">
        <ele>744.65</ele>
      </trkpt>
      <trkpt lat="47.6533" lon="13.62717">
        <ele>742.75</ele>
      </trkpt>
      <trkpt lat="47.65324" lon="13.62717">
        <ele>741.4</ele>
      </trkpt>
      <trkpt lat="47.6532" lon="13.62716">
        <ele>740.28</ele>
      </trkpt>
      <trkpt lat="47.65317" lon="13.62714">
        <ele>739.21</ele>
      </trkpt>
      <trkpt lat="47.65314" lon="13.62712">
        <ele>738.21</ele>
      </trkpt>
      <trkpt lat="47.65312" lon="13.62707">
        <ele>736.92</ele>
      </trkpt>
      <trkpt lat="47.65307" lon="13.62701">
        <ele>735.15</ele>
      </trkpt>
      <trkpt lat="47.65296" lon="13.62692">
        <ele>733.9</ele>
      </trkpt>
      <trkpt lat="47.65296" lon="13.62687">
        <ele>733.0</ele>
      </trkpt>
      <trkpt lat="47.65296" lon="13.62679">
        <ele>731.56</ele>
      </trkpt>
      <trkpt lat="47.65296" lon="13.62662">
        <ele>728.23</ele>
      </trkpt>
    </trkseg>
  </trk>
</gpx>
