<?xml version="1.0" encoding="UTF-8" standalone="yes"?>
<gpx xmlns="http://www.topografix.com/GPX/1/1" creator="RouteConverter 2.27.2" version="1.1">
  <wpt lat="46.9550595" lon="10.1758665">
    <ele>2485.8</ele>
    <time>2021-07-20T15:53:49.000Z</time>
    <name>0000189</name>
    <sym>Waypoint</sym>
    <type>Wegpunkt</type>
    <extensions>
      <om:oruxmapsextensions xmlns:om="http://www.oruxmaps.com/oruxmapsextensions/1/0" xmlns:gpxtpx="http://www.garmin.com/xmlschemas/TrackPointExtension/v1" xmlns:xsi="http://www.w3.org/2001/XMLSchema-instance">
        <om:ext subtype="0" type="ICON">1</om:ext>
      </om:oruxmapsextensions>
    </extensions>
  </wpt>
  <trk>
    <name>2021-07-20 16:10</name>
    <desc>&lt;p&gt;Startzeit: 16:10 20.07.2021&lt;br/&gt;Zielzeit: 19:32 20.07.2021&lt;br/&gt;Strecke: 6,
7 km (03:21)&lt;br/&gt;Bewegungszeit: 02:34&lt;br/&gt;Ø-Geschwindigkeit: 2 km/h&lt;br/&gt;Netto-Geschwindigkeit: 2,
61 km/h&lt;br/&gt;Max. Geschwindigkeit: 6,
92 km/h&lt;br/&gt;Minimale Höhe: 1562 m&lt;br/&gt;Maximale Höhe: 2528 m&lt;br/&gt;Steig-Geschw.: 539,
1 m/h&lt;br/&gt;Sink-Geschw.: -563 m/h&lt;br/&gt;Aufstieg: 917 m&lt;br/&gt;Abstieg: -932 m&lt;br/&gt;Steigzeit: 01:42&lt;br/&gt;Sinkzeit: 01:39&lt;br/&gt;&lt;/p&gt;&lt;hr align="center" width="480" style="height: 2px; width: 517px"/&gt;</desc>
    <type>Berg/ Bergsteigen</type>
    <trkseg>
      <trkpt lat="46.9685568" lon="10.1883549">
        <ele>1575.0</ele>
        <name>Position 1</name>
      </trkpt>
      <trkpt lat="46.968374" lon="10.1883364">
        <ele>1574.0</ele>
        <name>Position 2</name>
      </trkpt>
      <trkpt lat="46.9682218" lon="10.1881664">
        <ele>1568.7</ele>
        <name>Position 3</name>
      </trkpt>
      <trkpt lat="46.9680618" lon="10.1880443">
        <ele>1567.0</ele>
        <name>Position 4</name>
      </trkpt>
      <trkpt lat="46.9678671" lon="10.1879396">
        <ele>1567.7</ele>
        <name>Position 5</name>
      </trkpt>
      <trkpt lat="46.9677063" lon="10.1878057">
        <ele>1570.3</ele>
        <name>Position 6</name>
      </trkpt>
      <trkpt lat="46.9675205" lon="10.1877284">
        <ele>1572.0</ele>
        <name>Position 7</name>
      </trkpt>
      <trkpt lat="46.9673419" lon="10.1877663">
        <ele>1572.2</ele>
        <name>Position 8</name>
      </trkpt>
      <trkpt lat="46.9671569" lon="10.1877368">
        <ele>1574.5</ele>
        <name>Position 9</name>
      </trkpt>
      <trkpt lat="46.9669624" lon="10.1878016">
        <ele>1576.1</ele>
        <name>Position 10</name>
      </trkpt>
      <trkpt lat="46.966778" lon="10.1878392">
        <ele>1579.4</ele>
        <name>Position 11</name>
      </trkpt>
      <trkpt lat="46.9666117" lon="10.1877054">
        <ele>1580.7</ele>
        <name>Position 12</name>
      </trkpt>
      <trkpt lat="46.9664378" lon="10.1875787">
        <ele>1579.8</ele>
        <name>Position 13</name>
      </trkpt>
      <trkpt lat="46.9662831" lon="10.1873891">
        <ele>1578.1</ele>
        <name>Position 14</name>
      </trkpt>
      <trkpt lat="46.9662036" lon="10.1871168">
        <ele>1577.7</ele>
        <name>Position 15</name>
      </trkpt>
      <trkpt lat="46.9660489" lon="10.1869596">
        <ele>1577.3</ele>
        <name>Position 16</name>
      </trkpt>
      <trkpt lat="46.9658703" lon="10.1868098">
        <ele>1577.6</ele>
        <name>Position 17</name>
      </trkpt>
      <trkpt lat="46.9656862" lon="10.1867183">
        <ele>1578.6</ele>
        <name>Position 18</name>
      </trkpt>
      <trkpt lat="46.9655372" lon="10.1865344">
        <ele>1580.6</ele>
        <name>Position 19</name>
      </trkpt>
      <trkpt lat="46.9653742" lon="10.1864196">
        <ele>1581.2</ele>
        <name>Position 20</name>
      </trkpt>
      <trkpt lat="46.9652272" lon="10.1862127">
        <ele>1581.8</ele>
        <name>Position 21</name>
      </trkpt>
      <trkpt lat="46.9650794" lon="10.1860263">
        <ele>1582.8</ele>
        <name>Position 22</name>
      </trkpt>
      <trkpt lat="46.9648804" lon="10.1859918">
        <ele>1583.5</ele>
        <name>Position 23</name>
      </trkpt>
      <trkpt lat="46.9647015" lon="10.1859644">
        <ele>1581.6</ele>
        <name>Position 24</name>
      </trkpt>
      <trkpt lat="46.9647257" lon="10.1857017">
        <ele>1591.2</ele>
        <name>Position 25</name>
      </trkpt>
      <trkpt lat="46.9647141" lon="10.1854135">
        <ele>1597.8</ele>
        <name>Position 26</name>
      </trkpt>
      <trkpt lat="46.9647017" lon="10.1851255">
        <ele>1601.3</ele>
        <name>Position 27</name>
      </trkpt>
      <trkpt lat="46.9646488" lon="10.1848641">
        <ele>1607.0</ele>
        <name>Position 28</name>
      </trkpt>
      <trkpt lat="46.9645951" lon="10.1846104">
        <ele>1612.2</ele>
        <name>Position 29</name>
      </trkpt>
      <trkpt lat="46.9645682" lon="10.1843301">
        <ele>1615.4</ele>
        <name>Position 30</name>
      </trkpt>
      <trkpt lat="46.964584" lon="10.1840647">
        <ele>1619.3</ele>
        <name>Position 31</name>
      </trkpt>
      <trkpt lat="46.9645564" lon="10.1838019">
        <ele>1622.1</ele>
        <name>Position 32</name>
      </trkpt>
      <trkpt lat="46.9645065" lon="10.1835233">
        <ele>1625.9</ele>
        <name>Position 33</name>
      </trkpt>
      <trkpt lat="46.9644588" lon="10.1832597">
        <ele>1631.1</ele>
        <name>Position 34</name>
      </trkpt>
      <trkpt lat="46.9644606" lon="10.1829846">
        <ele>1634.6</ele>
        <name>Position 35</name>
      </trkpt>
      <trkpt lat="46.9644426" lon="10.1827219">
        <ele>1640.4</ele>
        <name>Position 36</name>
      </trkpt>
      <trkpt lat="46.9643141" lon="10.1825148">
        <ele>1647.6</ele>
        <name>Position 37</name>
      </trkpt>
      <trkpt lat="46.9642411" lon="10.1822674">
        <ele>1655.2</ele>
        <name>Position 38</name>
      </trkpt>
      <trkpt lat="46.9642559" lon="10.1819899">
        <ele>1661.7</ele>
        <name>Position 39</name>
      </trkpt>
      <trkpt lat="46.9640752" lon="10.1819489">
        <ele>1672.1</ele>
        <name>Position 40</name>
      </trkpt>
      <trkpt lat="46.9640419" lon="10.1816844">
        <ele>1676.9</ele>
        <name>Position 41</name>
      </trkpt>
      <trkpt lat="46.9638544" lon="10.1817016">
        <ele>1685.8</ele>
        <name>Position 42</name>
      </trkpt>
      <trkpt lat="46.9636667" lon="10.1817307">
        <ele>1697.3</ele>
        <name>Position 43</name>
      </trkpt>
      <trkpt lat="46.9635163" lon="10.1815588">
        <ele>1704.9</ele>
        <name>Position 44</name>
      </trkpt>
      <trkpt lat="46.9634115" lon="10.1813281">
        <ele>1712.2</ele>
        <name>Position 45</name>
      </trkpt>
      <trkpt lat="46.9632298" lon="10.1813358">
        <ele>1725.8</ele>
        <name>Position 46</name>
      </trkpt>
      <trkpt lat="46.9630376" lon="10.1812808">
        <ele>1736.0</ele>
        <name>Position 47</name>
      </trkpt>
      <trkpt lat="46.962927" lon="10.1810723">
        <ele>1740.8</ele>
        <name>Position 48</name>
      </trkpt>
      <trkpt lat="46.9628301" lon="10.180838">
        <ele>1750.2</ele>
        <name>Position 49</name>
      </trkpt>
      <trkpt lat="46.9626876" lon="10.1806727">
        <ele>1761.1</ele>
        <name>Position 50</name>
      </trkpt>
      <trkpt lat="46.9624975" lon="10.1806277">
        <ele>1767.3</ele>
        <name>Position 51</name>
      </trkpt>
      <trkpt lat="46.9623822" lon="10.1804132">
        <ele>1774.3</ele>
        <name>Position 52</name>
      </trkpt>
      <trkpt lat="46.962388" lon="10.1801426">
        <ele>1779.2</ele>
        <name>Position 53</name>
      </trkpt>
      <trkpt lat="46.9622419" lon="10.1799865">
        <ele>1788.2</ele>
        <name>Position 54</name>
      </trkpt>
      <trkpt lat="46.9620933" lon="10.1801382">
        <ele>1795.9</ele>
        <name>Position 55</name>
      </trkpt>
      <trkpt lat="46.9619817" lon="10.1799238">
        <ele>1804.7</ele>
        <name>Position 56</name>
      </trkpt>
      <trkpt lat="46.9618466" lon="10.1797338">
        <ele>1814.3</ele>
        <name>Position 57</name>
      </trkpt>
      <trkpt lat="46.9617566" lon="10.1794999">
        <ele>1820.7</ele>
        <name>Position 58</name>
      </trkpt>
      <trkpt lat="46.9616028" lon="10.1796451">
        <ele>1833.2</ele>
        <name>Position 59</name>
      </trkpt>
      <trkpt lat="46.9614406" lon="10.1795255">
        <ele>1844.2</ele>
        <name>Position 60</name>
      </trkpt>
      <trkpt lat="46.9613242" lon="10.1793103">
        <ele>1849.1</ele>
        <name>Position 61</name>
      </trkpt>
      <trkpt lat="46.9613005" lon="10.1790443">
        <ele>1859.5</ele>
        <name>Position 62</name>
      </trkpt>
      <trkpt lat="46.9611374" lon="10.1789156">
        <ele>1869.1</ele>
        <name>Position 63</name>
      </trkpt>
      <trkpt lat="46.9609879" lon="10.1790943">
        <ele>1875.6</ele>
        <name>Position 64</name>
      </trkpt>
      <trkpt lat="46.9608109" lon="10.1791819">
        <ele>1889.3</ele>
        <name>Position 65</name>
      </trkpt>
      <trkpt lat="46.9607162" lon="10.1794086">
        <ele>1896.8</ele>
        <name>Position 66</name>
      </trkpt>
      <trkpt lat="46.9607142" lon="10.1796754">
        <ele>1901.5</ele>
        <name>Position 67</name>
      </trkpt>
      <trkpt lat="46.9607922" lon="10.1799318">
        <ele>1911.1</ele>
        <name>Position 68</name>
      </trkpt>
      <trkpt lat="46.9607501" lon="10.1801922">
        <ele>1918.0</ele>
        <name>Position 69</name>
      </trkpt>
      <trkpt lat="46.9606098" lon="10.1803779">
        <ele>1923.0</ele>
        <name>Position 70</name>
      </trkpt>
      <trkpt lat="46.9605025" lon="10.1806112">
        <ele>1932.6</ele>
        <name>Position 71</name>
      </trkpt>
      <trkpt lat="46.9603939" lon="10.1808239">
        <ele>1936.5</ele>
        <name>Position 72</name>
      </trkpt>
      <trkpt lat="46.9603177" lon="10.1810694">
        <ele>1943.9</ele>
        <name>Position 73</name>
      </trkpt>
      <trkpt lat="46.960214" lon="10.1812985">
        <ele>1952.8</ele>
        <name>Position 74</name>
      </trkpt>
      <trkpt lat="46.9600259" lon="10.1813656">
        <ele>1957.1</ele>
        <name>Position 75</name>
      </trkpt>
      <trkpt lat="46.9598423" lon="10.1813834">
        <ele>1958.5</ele>
        <name>Position 76</name>
      </trkpt>
      <trkpt lat="46.9596892" lon="10.1812317">
        <ele>1967.2</ele>
        <name>Position 77</name>
      </trkpt>
      <trkpt lat="46.9595593" lon="10.1810294">
        <ele>1977.1</ele>
        <name>Position 78</name>
      </trkpt>
      <trkpt lat="46.9594079" lon="10.1808834">
        <ele>1982.0</ele>
        <name>Position 79</name>
      </trkpt>
      <trkpt lat="46.959287" lon="10.1806823">
        <ele>1992.2</ele>
        <name>Position 80</name>
      </trkpt>
      <trkpt lat="46.9591421" lon="10.1805258">
        <ele>2004.7</ele>
        <name>Position 81</name>
      </trkpt>
      <trkpt lat="46.958987" lon="10.1806639">
        <ele>2007.6</ele>
        <name>Position 82</name>
      </trkpt>
      <trkpt lat="46.9588295" lon="10.1808092">
        <ele>2011.8</ele>
        <name>Position 83</name>
      </trkpt>
      <trkpt lat="46.9586505" lon="10.1808904">
        <ele>2019.3</ele>
        <name>Position 84</name>
      </trkpt>
      <trkpt lat="46.9584844" lon="10.1810202">
        <ele>2024.9</ele>
        <name>Position 85</name>
      </trkpt>
      <trkpt lat="46.9583719" lon="10.1812266">
        <ele>2030.8</ele>
        <name>Position 86</name>
      </trkpt>
      <trkpt lat="46.9582712" lon="10.1809891">
        <ele>2042.6</ele>
        <name>Position 87</name>
      </trkpt>
      <trkpt lat="46.9582819" lon="10.1807257">
        <ele>2049.2</ele>
        <name>Position 88</name>
      </trkpt>
      <trkpt lat="46.9582518" lon="10.1804652">
        <ele>2055.3</ele>
        <name>Position 89</name>
      </trkpt>
      <trkpt lat="46.9582604" lon="10.1802003">
        <ele>2060.8</ele>
        <name>Position 90</name>
      </trkpt>
      <trkpt lat="46.9581533" lon="10.1799764">
        <ele>2072.7</ele>
        <name>Position 91</name>
      </trkpt>
      <trkpt lat="46.9579801" lon="10.1798883">
        <ele>2084.2</ele>
        <name>Position 92</name>
      </trkpt>
      <trkpt lat="46.9578093" lon="10.1797537">
        <ele>2091.6</ele>
        <name>Position 93</name>
      </trkpt>
      <trkpt lat="46.9576374" lon="10.1796659">
        <ele>2104.8</ele>
        <name>Position 94</name>
      </trkpt>
      <trkpt lat="46.9576041" lon="10.1794">
        <ele>2113.2</ele>
        <name>Position 95</name>
      </trkpt>
      <trkpt lat="46.9574164" lon="10.1794396">
        <ele>2122.6</ele>
        <name>Position 96</name>
      </trkpt>
      <trkpt lat="46.9572312" lon="10.1794646">
        <ele>2130.3</ele>
        <name>Position 97</name>
      </trkpt>
      <trkpt lat="46.9570527" lon="10.1795057">
        <ele>2136.4</ele>
        <name>Position 98</name>
      </trkpt>
      <trkpt lat="46.9568828" lon="10.1795947">
        <ele>2144.0</ele>
        <name>Position 99</name>
      </trkpt>
      <trkpt lat="46.9567267" lon="10.1797293">
        <ele>2149.2</ele>
        <name>Position 100</name>
      </trkpt>
      <trkpt lat="46.9565573" lon="10.1798333">
        <ele>2156.9</ele>
        <name>Position 101</name>
      </trkpt>
      <trkpt lat="46.9563769" lon="10.179909">
        <ele>2163.6</ele>
        <name>Position 102</name>
      </trkpt>
      <trkpt lat="46.9562042" lon="10.1799906">
        <ele>2169.5</ele>
        <name>Position 103</name>
      </trkpt>
      <trkpt lat="46.9560315" lon="10.1800647">
        <ele>2178.0</ele>
        <name>Position 104</name>
      </trkpt>
      <trkpt lat="46.9558427" lon="10.1800478">
        <ele>2185.8</ele>
        <name>Position 105</name>
      </trkpt>
      <trkpt lat="46.9556572" lon="10.1800657">
        <ele>2193.8</ele>
        <name>Position 106</name>
      </trkpt>
      <trkpt lat="46.9554881" lon="10.1799698">
        <ele>2197.8</ele>
        <name>Position 107</name>
      </trkpt>
      <trkpt lat="46.9553073" lon="10.1798746">
        <ele>2206.6</ele>
        <name>Position 108</name>
      </trkpt>
      <trkpt lat="46.9551174" lon="10.1798363">
        <ele>2210.7</ele>
        <name>Position 109</name>
      </trkpt>
      <trkpt lat="46.954938" lon="10.1797383">
        <ele>2218.8</ele>
        <name>Position 110</name>
      </trkpt>
      <trkpt lat="46.9547805" lon="10.1796049">
        <ele>2225.6</ele>
        <name>Position 111</name>
      </trkpt>
      <trkpt lat="46.9546262" lon="10.1794677">
        <ele>2234.1</ele>
        <name>Position 112</name>
      </trkpt>
      <trkpt lat="46.9544539" lon="10.1793888">
        <ele>2240.2</ele>
        <name>Position 113</name>
      </trkpt>
      <trkpt lat="46.9543231" lon="10.1791946">
        <ele>2240.9</ele>
        <name>Position 114</name>
      </trkpt>
      <trkpt lat="46.9542524" lon="10.178947">
        <ele>2243.1</ele>
        <name>Position 115</name>
      </trkpt>
      <trkpt lat="46.9541485" lon="10.1787171">
        <ele>2248.0</ele>
        <name>Position 116</name>
      </trkpt>
      <trkpt lat="46.9540529" lon="10.1784766">
        <ele>2252.9</ele>
        <name>Position 117</name>
      </trkpt>
      <trkpt lat="46.9540489" lon="10.1782108">
        <ele>2254.4</ele>
        <name>Position 118</name>
      </trkpt>
      <trkpt lat="46.9538936" lon="10.1780533">
        <ele>2259.8</ele>
        <name>Position 119</name>
      </trkpt>
      <trkpt lat="46.9537901" lon="10.1778372">
        <ele>2265.4</ele>
        <name>Position 120</name>
      </trkpt>
      <trkpt lat="46.9536143" lon="10.1777795">
        <ele>2268.9</ele>
        <name>Position 121</name>
      </trkpt>
      <trkpt lat="46.9534427" lon="10.1778619">
        <ele>2275.1</ele>
        <name>Position 122</name>
      </trkpt>
      <trkpt lat="46.9532776" lon="10.1779698">
        <ele>2278.8</ele>
        <name>Position 123</name>
      </trkpt>
      <trkpt lat="46.9531082" lon="10.1780847">
        <ele>2285.3</ele>
        <name>Position 124</name>
      </trkpt>
      <trkpt lat="46.9529477" lon="10.1782213">
        <ele>2293.5</ele>
        <name>Position 125</name>
      </trkpt>
      <trkpt lat="46.952772" lon="10.1782954">
        <ele>2298.8</ele>
        <name>Position 126</name>
      </trkpt>
      <trkpt lat="46.9525871" lon="10.1783224">
        <ele>2300.2</ele>
        <name>Position 127</name>
      </trkpt>
      <trkpt lat="46.9524055" lon="10.1782915">
        <ele>2306.9</ele>
        <name>Position 128</name>
      </trkpt>
      <trkpt lat="46.9522291" lon="10.1783653">
        <ele>2307.9</ele>
        <name>Position 129</name>
      </trkpt>
      <trkpt lat="46.9520375" lon="10.1783339">
        <ele>2314.4</ele>
        <name>Position 130</name>
      </trkpt>
      <trkpt lat="46.9520399" lon="10.1780612">
        <ele>2322.1</ele>
        <name>Position 131</name>
      </trkpt>
      <trkpt lat="46.9519346" lon="10.1778329">
        <ele>2331.5</ele>
        <name>Position 132</name>
      </trkpt>
      <trkpt lat="46.9520311" lon="10.1776071">
        <ele>2341.1</ele>
        <name>Position 133</name>
      </trkpt>
      <trkpt lat="46.9521295" lon="10.1773704">
        <ele>2349.6</ele>
        <name>Position 134</name>
      </trkpt>
      <trkpt lat="46.95222" lon="10.1771323">
        <ele>2353.4</ele>
        <name>Position 135</name>
      </trkpt>
      <trkpt lat="46.9523914" lon="10.1770064">
        <ele>2353.3</ele>
        <name>Position 136</name>
      </trkpt>
      <trkpt lat="46.9525287" lon="10.1768229">
        <ele>2355.5</ele>
        <name>Position 137</name>
      </trkpt>
      <trkpt lat="46.9523738" lon="10.1766713">
        <ele>2362.9</ele>
        <name>Position 138</name>
      </trkpt>
      <trkpt lat="46.9522151" lon="10.1765231">
        <ele>2365.8</ele>
        <name>Position 139</name>
      </trkpt>
      <trkpt lat="46.9522811" lon="10.1762681">
        <ele>2368.1</ele>
        <name>Position 140</name>
      </trkpt>
      <trkpt lat="46.9523809" lon="10.1760367">
        <ele>2370.3</ele>
        <name>Position 141</name>
      </trkpt>
      <trkpt lat="46.9524421" lon="10.1757883">
        <ele>2373.6</ele>
        <name>Position 142</name>
      </trkpt>
      <trkpt lat="46.9525743" lon="10.1755689">
        <ele>2375.3</ele>
        <name>Position 143</name>
      </trkpt>
      <trkpt lat="46.9527589" lon="10.1754832">
        <ele>2373.5</ele>
        <name>Position 144</name>
      </trkpt>
      <trkpt lat="46.9529078" lon="10.1753085">
        <ele>2375.2</ele>
        <name>Position 145</name>
      </trkpt>
      <trkpt lat="46.9530553" lon="10.1751374">
        <ele>2377.6</ele>
        <name>Position 146</name>
      </trkpt>
      <trkpt lat="46.953233" lon="10.1750762">
        <ele>2380.4</ele>
        <name>Position 147</name>
      </trkpt>
      <trkpt lat="46.9534137" lon="10.1750722">
        <ele>2381.6</ele>
        <name>Position 148</name>
      </trkpt>
      <trkpt lat="46.9535977" lon="10.1751293">
        <ele>2380.8</ele>
        <name>Position 149</name>
      </trkpt>
      <trkpt lat="46.9537389" lon="10.175303">
        <ele>2382.5</ele>
        <name>Position 150</name>
      </trkpt>
      <trkpt lat="46.9538384" lon="10.1755483">
        <ele>2383.0</ele>
        <name>Position 151</name>
      </trkpt>
      <trkpt lat="46.954005" lon="10.1756611">
        <ele>2392.7</ele>
        <name>Position 152</name>
      </trkpt>
      <trkpt lat="46.9541782" lon="10.1757342">
        <ele>2407.1</ele>
        <name>Position 153</name>
      </trkpt>
      <trkpt lat="46.9543357" lon="10.1758726">
        <ele>2413.0</ele>
        <name>Position 154</name>
      </trkpt>
      <trkpt lat="46.9545229" lon="10.1758066">
        <ele>2424.7</ele>
        <name>Position 155</name>
      </trkpt>
      <trkpt lat="46.9546144" lon="10.1760342">
        <ele>2439.7</ele>
        <name>Position 156</name>
      </trkpt>
      <trkpt lat="46.9548001" lon="10.1760152">
        <ele>2456.0</ele>
        <name>Position 157</name>
      </trkpt>
      <trkpt lat="46.9549723" lon="10.1759291">
        <ele>2460.6</ele>
        <name>Position 158</name>
      </trkpt>
      <trkpt lat="46.9551408" lon="10.1760341">
        <ele>2474.7</ele>
        <name>Position 159</name>
      </trkpt>
      <trkpt lat="46.9550223" lon="10.1758352">
        <ele>2481.6</ele>
        <name>Position 160</name>
      </trkpt>
      <trkpt lat="46.9552034" lon="10.1758083">
        <ele>2485.6</ele>
        <name>Position 161</name>
      </trkpt>
      <trkpt lat="46.9552752" lon="10.1755515">
        <ele>2488.2</ele>
        <name>Position 162</name>
      </trkpt>
      <trkpt lat="46.9554606" lon="10.1756131">
        <ele>2486.5</ele>
        <name>Position 163</name>
      </trkpt>
      <trkpt lat="46.955278" lon="10.1755799">
        <ele>2528.2</ele>
        <name>Position 164</name>
      </trkpt>
      <trkpt lat="46.9552719" lon="10.1758437">
        <ele>2487.1</ele>
        <name>Position 165</name>
      </trkpt>
      <trkpt lat="46.955095" lon="10.1758964">
        <ele>2487.9</ele>
        <name>Position 166</name>
      </trkpt>
      <trkpt lat="46.9551009" lon="10.1761609">
        <ele>2476.3</ele>
        <name>Position 167</name>
      </trkpt>
      <trkpt lat="46.9549165" lon="10.1761801">
        <ele>2461.4</ele>
        <name>Position 168</name>
      </trkpt>
      <trkpt lat="46.9548941" lon="10.1759152">
        <ele>2459.0</ele>
        <name>Position 169</name>
      </trkpt>
      <trkpt lat="46.9547493" lon="10.1761004">
        <ele>2454.9</ele>
        <name>Position 170</name>
      </trkpt>
      <trkpt lat="46.9545956" lon="10.1759522">
        <ele>2448.9</ele>
        <name>Position 171</name>
      </trkpt>
      <trkpt lat="46.9544103" lon="10.1760272">
        <ele>2433.5</ele>
        <name>Position 172</name>
      </trkpt>
      <trkpt lat="46.9542727" lon="10.1758505">
        <ele>2417.3</ele>
        <name>Position 173</name>
      </trkpt>
      <trkpt lat="46.9540979" lon="10.1757823">
        <ele>2408.0</ele>
        <name>Position 174</name>
      </trkpt>
      <trkpt lat="46.9539566" lon="10.1755987">
        <ele>2396.0</ele>
        <name>Position 175</name>
      </trkpt>
      <trkpt lat="46.9539128" lon="10.1753302">
        <ele>2391.4</ele>
        <name>Position 176</name>
      </trkpt>
      <trkpt lat="46.9538791" lon="10.1755895">
        <ele>2387.8</ele>
        <name>Position 177</name>
      </trkpt>
      <trkpt lat="46.9536803" lon="10.1756214">
        <ele>2386.0</ele>
        <name>Position 178</name>
      </trkpt>
      <trkpt lat="46.9535177" lon="10.175497">
        <ele>2384.5</ele>
        <name>Position 179</name>
      </trkpt>
      <trkpt lat="46.9534045" lon="10.1752615">
        <ele>2382.8</ele>
        <name>Position 180</name>
      </trkpt>
      <trkpt lat="46.9532651" lon="10.1750383">
        <ele>2381.0</ele>
        <name>Position 181</name>
      </trkpt>
      <trkpt lat="46.9530821" lon="10.1750744">
        <ele>2377.7</ele>
        <name>Position 182</name>
      </trkpt>
      <trkpt lat="46.9529412" lon="10.1752552">
        <ele>2376.0</ele>
        <name>Position 183</name>
      </trkpt>
      <trkpt lat="46.9528001" lon="10.1754745">
        <ele>2376.2</ele>
        <name>Position 184</name>
      </trkpt>
      <trkpt lat="46.952614" lon="10.1755967">
        <ele>2373.2</ele>
        <name>Position 185</name>
      </trkpt>
      <trkpt lat="46.9524886" lon="10.1758196">
        <ele>2373.2</ele>
        <name>Position 186</name>
      </trkpt>
      <trkpt lat="46.9524382" lon="10.1760777">
        <ele>2373.6</ele>
        <name>Position 187</name>
      </trkpt>
      <trkpt lat="46.9523792" lon="10.1763411">
        <ele>2376.2</ele>
        <name>Position 188</name>
      </trkpt>
      <trkpt lat="46.9524327" lon="10.1766217">
        <ele>2372.5</ele>
        <name>Position 189</name>
      </trkpt>
      <trkpt lat="46.9526077" lon="10.176715">
        <ele>2365.8</ele>
        <name>Position 190</name>
      </trkpt>
      <trkpt lat="46.9524928" lon="10.1769204">
        <ele>2361.0</ele>
        <name>Position 191</name>
      </trkpt>
      <trkpt lat="46.9523987" lon="10.1771581">
        <ele>2359.2</ele>
        <name>Position 192</name>
      </trkpt>
      <trkpt lat="46.952344" lon="10.1774165">
        <ele>2355.1</ele>
        <name>Position 193</name>
      </trkpt>
      <trkpt lat="46.9523165" lon="10.1776787">
        <ele>2350.5</ele>
        <name>Position 194</name>
      </trkpt>
      <trkpt lat="46.9521631" lon="10.1778405">
        <ele>2342.9</ele>
        <name>Position 195</name>
      </trkpt>
      <trkpt lat="46.9520612" lon="10.1780797">
        <ele>2334.0</ele>
        <name>Position 196</name>
      </trkpt>
      <trkpt lat="46.9522151" lon="10.1782456">
        <ele>2320.3</ele>
        <name>Position 197</name>
      </trkpt>
      <trkpt lat="46.9523947" lon="10.1782221">
        <ele>2313.5</ele>
        <name>Position 198</name>
      </trkpt>
      <trkpt lat="46.9525611" lon="10.1781146">
        <ele>2310.4</ele>
        <name>Position 199</name>
      </trkpt>
      <trkpt lat="46.9527497" lon="10.17808">
        <ele>2307.2</ele>
        <name>Position 200</name>
      </trkpt>
      <trkpt lat="46.9529341" lon="10.1781524">
        <ele>2303.2</ele>
        <name>Position 201</name>
      </trkpt>
      <trkpt lat="46.9530983" lon="10.1780407">
        <ele>2297.8</ele>
        <name>Position 202</name>
      </trkpt>
      <trkpt lat="46.9532652" lon="10.1779327">
        <ele>2289.9</ele>
        <name>Position 203</name>
      </trkpt>
      <trkpt lat="46.9534217" lon="10.1777432">
        <ele>2280.7</ele>
        <name>Position 204</name>
      </trkpt>
      <trkpt lat="46.9536186" lon="10.1777002">
        <ele>2275.6</ele>
        <name>Position 205</name>
      </trkpt>
      <trkpt lat="46.9538016" lon="10.1778088">
        <ele>2272.0</ele>
        <name>Position 206</name>
      </trkpt>
      <trkpt lat="46.9538418" lon="10.1780716">
        <ele>2265.7</ele>
        <name>Position 207</name>
      </trkpt>
      <trkpt lat="46.9540343" lon="10.1781121">
        <ele>2258.2</ele>
        <name>Position 208</name>
      </trkpt>
      <trkpt lat="46.9540484" lon="10.1783972">
        <ele>2253.7</ele>
        <name>Position 209</name>
      </trkpt>
      <trkpt lat="46.9541825" lon="10.1785812">
        <ele>2250.9</ele>
        <name>Position 210</name>
      </trkpt>
      <trkpt lat="46.9542722" lon="10.1788353">
        <ele>2247.4</ele>
        <name>Position 211</name>
      </trkpt>
      <trkpt lat="46.9543747" lon="10.1790689">
        <ele>2245.4</ele>
        <name>Position 212</name>
      </trkpt>
      <trkpt lat="46.9545006" lon="10.1792843">
        <ele>2243.2</ele>
        <name>Position 213</name>
      </trkpt>
      <trkpt lat="46.9546762" lon="10.1793687">
        <ele>2240.0</ele>
        <name>Position 214</name>
      </trkpt>
      <trkpt lat="46.9548647" lon="10.179468">
        <ele>2234.7</ele>
        <name>Position 215</name>
      </trkpt>
      <trkpt lat="46.9550068" lon="10.1796506">
        <ele>2227.6</ele>
        <name>Position 216</name>
      </trkpt>
      <trkpt lat="46.9551778" lon="10.1797401">
        <ele>2223.5</ele>
        <name>Position 217</name>
      </trkpt>
      <trkpt lat="46.9553717" lon="10.179748">
        <ele>2218.2</ele>
        <name>Position 218</name>
      </trkpt>
      <trkpt lat="46.9555454" lon="10.1798357">
        <ele>2213.2</ele>
        <name>Position 219</name>
      </trkpt>
      <trkpt lat="46.9557181" lon="10.1799519">
        <ele>2206.6</ele>
        <name>Position 220</name>
      </trkpt>
      <trkpt lat="46.9558987" lon="10.1799468">
        <ele>2197.9</ele>
        <name>Position 221</name>
      </trkpt>
      <trkpt lat="46.9560783" lon="10.1799153">
        <ele>2190.8</ele>
        <name>Position 222</name>
      </trkpt>
      <trkpt lat="46.9562625" lon="10.1798543">
        <ele>2179.4</ele>
        <name>Position 223</name>
      </trkpt>
      <trkpt lat="46.9564527" lon="10.1797695">
        <ele>2174.7</ele>
        <name>Position 224</name>
      </trkpt>
      <trkpt lat="46.9566308" lon="10.1797124">
        <ele>2169.7</ele>
        <name>Position 225</name>
      </trkpt>
      <trkpt lat="46.9568055" lon="10.1795933">
        <ele>2162.9</ele>
        <name>Position 226</name>
      </trkpt>
      <trkpt lat="46.9569817" lon="10.179489">
        <ele>2155.9</ele>
        <name>Position 227</name>
      </trkpt>
      <trkpt lat="46.9571461" lon="10.1793784">
        <ele>2148.0</ele>
        <name>Position 228</name>
      </trkpt>
      <trkpt lat="46.9573312" lon="10.1793218">
        <ele>2140.9</ele>
        <name>Position 229</name>
      </trkpt>
      <trkpt lat="46.957515" lon="10.1792971">
        <ele>2132.5</ele>
        <name>Position 230</name>
      </trkpt>
      <trkpt lat="46.9576971" lon="10.1793494">
        <ele>2125.4</ele>
        <name>Position 231</name>
      </trkpt>
      <trkpt lat="46.957856" lon="10.1794747">
        <ele>2110.9</ele>
        <name>Position 232</name>
      </trkpt>
      <trkpt lat="46.9580101" lon="10.1796337">
        <ele>2100.2</ele>
        <name>Position 233</name>
      </trkpt>
      <trkpt lat="46.9581538" lon="10.1797922">
        <ele>2089.3</ele>
        <name>Position 234</name>
      </trkpt>
      <trkpt lat="46.9583005" lon="10.1799834">
        <ele>2080.1</ele>
        <name>Position 235</name>
      </trkpt>
      <trkpt lat="46.9583425" lon="10.180252">
        <ele>2071.0</ele>
        <name>Position 236</name>
      </trkpt>
      <trkpt lat="46.958356" lon="10.1805258">
        <ele>2060.5</ele>
        <name>Position 237</name>
      </trkpt>
      <trkpt lat="46.9583627" lon="10.1807919">
        <ele>2054.8</ele>
        <name>Position 238</name>
      </trkpt>
      <trkpt lat="46.9584009" lon="10.1810647">
        <ele>2046.6</ele>
        <name>Position 239</name>
      </trkpt>
      <trkpt lat="46.9585701" lon="10.1809727">
        <ele>2035.1</ele>
        <name>Position 240</name>
      </trkpt>
      <trkpt lat="46.9587137" lon="10.1807925">
        <ele>2024.6</ele>
        <name>Position 241</name>
      </trkpt>
      <trkpt lat="46.9588799" lon="10.1806709">
        <ele>2017.2</ele>
        <name>Position 242</name>
      </trkpt>
      <trkpt lat="46.959059" lon="10.1805539">
        <ele>2012.2</ele>
        <name>Position 243</name>
      </trkpt>
      <trkpt lat="46.9592408" lon="10.1805855">
        <ele>2004.6</ele>
        <name>Position 244</name>
      </trkpt>
      <trkpt lat="46.9593823" lon="10.1807485">
        <ele>1996.1</ele>
        <name>Position 245</name>
      </trkpt>
      <trkpt lat="46.9595431" lon="10.1808782">
        <ele>1988.6</ele>
        <name>Position 246</name>
      </trkpt>
      <trkpt lat="46.9596861" lon="10.1810637">
        <ele>1980.7</ele>
        <name>Position 247</name>
      </trkpt>
      <trkpt lat="46.9598422" lon="10.1812367">
        <ele>1971.7</ele>
        <name>Position 248</name>
      </trkpt>
      <trkpt lat="46.9600313" lon="10.181246">
        <ele>1966.1</ele>
        <name>Position 249</name>
      </trkpt>
      <trkpt lat="46.9602158" lon="10.1813165">
        <ele>1957.1</ele>
        <name>Position 250</name>
      </trkpt>
      <trkpt lat="46.9603646" lon="10.1811257">
        <ele>1952.7</ele>
        <name>Position 251</name>
      </trkpt>
      <trkpt lat="46.9604405" lon="10.1808522">
        <ele>1945.9</ele>
        <name>Position 252</name>
      </trkpt>
      <trkpt lat="46.9605306" lon="10.1806227">
        <ele>1940.2</ele>
        <name>Position 253</name>
      </trkpt>
      <trkpt lat="46.9606345" lon="10.1804012">
        <ele>1933.8</ele>
        <name>Position 254</name>
      </trkpt>
      <trkpt lat="46.9607634" lon="10.1802125">
        <ele>1927.7</ele>
        <name>Position 255</name>
      </trkpt>
      <trkpt lat="46.9608578" lon="10.1799833">
        <ele>1923.0</ele>
        <name>Position 256</name>
      </trkpt>
      <trkpt lat="46.9608524" lon="10.1797073">
        <ele>1911.6</ele>
        <name>Position 257</name>
      </trkpt>
      <trkpt lat="46.9608233" lon="10.1794208">
        <ele>1904.1</ele>
        <name>Position 258</name>
      </trkpt>
      <trkpt lat="46.96086" lon="10.1791553">
        <ele>1893.4</ele>
        <name>Position 259</name>
      </trkpt>
      <trkpt lat="46.9610296" lon="10.1790183">
        <ele>1881.0</ele>
        <name>Position 260</name>
      </trkpt>
      <trkpt lat="46.9612182" lon="10.1789266">
        <ele>1870.3</ele>
        <name>Position 261</name>
      </trkpt>
      <trkpt lat="46.9613234" lon="10.1791437">
        <ele>1859.1</ele>
        <name>Position 262</name>
      </trkpt>
      <trkpt lat="46.9614177" lon="10.1793988">
        <ele>1849.8</ele>
        <name>Position 263</name>
      </trkpt>
      <trkpt lat="46.9615503" lon="10.1795991">
        <ele>1845.1</ele>
        <name>Position 264</name>
      </trkpt>
      <trkpt lat="46.9617037" lon="10.1794577">
        <ele>1832.8</ele>
        <name>Position 265</name>
      </trkpt>
      <trkpt lat="46.9618685" lon="10.1795712">
        <ele>1824.8</ele>
        <name>Position 266</name>
      </trkpt>
      <trkpt lat="46.9619751" lon="10.1797966">
        <ele>1816.9</ele>
        <name>Position 267</name>
      </trkpt>
      <trkpt lat="46.9620997" lon="10.1799971">
        <ele>1808.6</ele>
        <name>Position 268</name>
      </trkpt>
      <trkpt lat="46.9622803" lon="10.179973">
        <ele>1797.3</ele>
        <name>Position 269</name>
      </trkpt>
      <trkpt lat="46.9624485" lon="10.1800831">
        <ele>1787.5</ele>
        <name>Position 270</name>
      </trkpt>
      <trkpt lat="46.962421" lon="10.1803462">
        <ele>1781.2</ele>
        <name>Position 271</name>
      </trkpt>
      <trkpt lat="46.962492" lon="10.1806007">
        <ele>1771.6</ele>
        <name>Position 272</name>
      </trkpt>
      <trkpt lat="46.9626678" lon="10.1807084">
        <ele>1766.3</ele>
        <name>Position 273</name>
      </trkpt>
      <trkpt lat="46.9628425" lon="10.1807758">
        <ele>1755.8</ele>
        <name>Position 274</name>
      </trkpt>
      <trkpt lat="46.9629538" lon="10.1810075">
        <ele>1745.5</ele>
        <name>Position 275</name>
      </trkpt>
      <trkpt lat="46.963075" lon="10.181203">
        <ele>1738.3</ele>
        <name>Position 276</name>
      </trkpt>
      <trkpt lat="46.9632507" lon="10.1812708">
        <ele>1732.1</ele>
        <name>Position 277</name>
      </trkpt>
      <trkpt lat="46.9634459" lon="10.1812167">
        <ele>1716.3</ele>
        <name>Position 278</name>
      </trkpt>
      <trkpt lat="46.9635432" lon="10.1814421">
        <ele>1711.0</ele>
        <name>Position 279</name>
      </trkpt>
      <trkpt lat="46.9636777" lon="10.1816483">
        <ele>1702.9</ele>
        <name>Position 280</name>
      </trkpt>
      <trkpt lat="46.9638593" lon="10.1816774">
        <ele>1692.2</ele>
        <name>Position 281</name>
      </trkpt>
      <trkpt lat="46.9640296" lon="10.181788">
        <ele>1683.8</ele>
        <name>Position 282</name>
      </trkpt>
      <trkpt lat="46.9641479" lon="10.1820165">
        <ele>1669.0</ele>
        <name>Position 283</name>
      </trkpt>
      <trkpt lat="46.9642528" lon="10.1822388">
        <ele>1654.7</ele>
        <name>Position 284</name>
      </trkpt>
      <trkpt lat="46.9643312" lon="10.1824827">
        <ele>1649.1</ele>
        <name>Position 285</name>
      </trkpt>
      <trkpt lat="46.9644612" lon="10.1826668">
        <ele>1642.6</ele>
        <name>Position 286</name>
      </trkpt>
      <trkpt lat="46.964497" lon="10.1829396">
        <ele>1636.0</ele>
        <name>Position 287</name>
      </trkpt>
      <trkpt lat="46.9645143" lon="10.1832349">
        <ele>1630.5</ele>
        <name>Position 288</name>
      </trkpt>
      <trkpt lat="46.9645679" lon="10.1834939">
        <ele>1623.8</ele>
        <name>Position 289</name>
      </trkpt>
      <trkpt lat="46.9645517" lon="10.1837651">
        <ele>1620.3</ele>
        <name>Position 290</name>
      </trkpt>
      <trkpt lat="46.964566" lon="10.184044">
        <ele>1617.4</ele>
        <name>Position 291</name>
      </trkpt>
      <trkpt lat="46.9645949" lon="10.1843092">
        <ele>1612.5</ele>
        <name>Position 292</name>
      </trkpt>
      <trkpt lat="46.9646144" lon="10.1845849">
        <ele>1609.6</ele>
        <name>Position 293</name>
      </trkpt>
      <trkpt lat="46.9646619" lon="10.1848501">
        <ele>1605.0</ele>
        <name>Position 294</name>
      </trkpt>
      <trkpt lat="46.9647463" lon="10.1850989">
        <ele>1598.0</ele>
        <name>Position 295</name>
      </trkpt>
      <trkpt lat="46.9647645" lon="10.1853655">
        <ele>1595.6</ele>
        <name>Position 296</name>
      </trkpt>
      <trkpt lat="46.9647288" lon="10.1856477">
        <ele>1590.2</ele>
        <name>Position 297</name>
      </trkpt>
      <trkpt lat="46.9646735" lon="10.1859037">
        <ele>1582.8</ele>
        <name>Position 298</name>
      </trkpt>
      <trkpt lat="46.9648474" lon="10.1859779">
        <ele>1582.3</ele>
        <name>Position 299</name>
      </trkpt>
      <trkpt lat="46.965022" lon="10.1860703">
        <ele>1581.6</ele>
        <name>Position 300</name>
      </trkpt>
      <trkpt lat="46.9652105" lon="10.1860758">
        <ele>1579.5</ele>
        <name>Position 301</name>
      </trkpt>
      <trkpt lat="46.9653123" lon="10.1863143">
        <ele>1577.6</ele>
        <name>Position 302</name>
      </trkpt>
      <trkpt lat="46.9654618" lon="10.1865202">
        <ele>1577.0</ele>
        <name>Position 303</name>
      </trkpt>
      <trkpt lat="46.9656193" lon="10.1866936">
        <ele>1576.7</ele>
        <name>Position 304</name>
      </trkpt>
      <trkpt lat="46.965781" lon="10.1868218">
        <ele>1574.8</ele>
        <name>Position 305</name>
      </trkpt>
      <trkpt lat="46.9659434" lon="10.1869389">
        <ele>1572.9</ele>
        <name>Position 306</name>
      </trkpt>
      <trkpt lat="46.9661166" lon="10.1870841">
        <ele>1573.3</ele>
        <name>Position 307</name>
      </trkpt>
      <trkpt lat="46.9663035" lon="10.1870834">
        <ele>1573.3</ele>
        <name>Position 308</name>
      </trkpt>
      <trkpt lat="46.9664946" lon="10.1871018">
        <ele>1572.6</ele>
        <name>Position 309</name>
      </trkpt>
      <trkpt lat="46.9666795" lon="10.1871236">
        <ele>1572.0</ele>
        <name>Position 310</name>
      </trkpt>
      <trkpt lat="46.9668674" lon="10.187189">
        <ele>1569.1</ele>
        <name>Position 311</name>
      </trkpt>
      <trkpt lat="46.9670775" lon="10.1872168">
        <ele>1569.8</ele>
        <name>Position 312</name>
      </trkpt>
      <trkpt lat="46.9672639" lon="10.1872548">
        <ele>1569.2</ele>
        <name>Position 313</name>
      </trkpt>
      <trkpt lat="46.9674493" lon="10.1872422">
        <ele>1568.2</ele>
        <name>Position 314</name>
      </trkpt>
      <trkpt lat="46.9675135" lon="10.187524">
        <ele>1567.2</ele>
        <name>Position 315</name>
      </trkpt>
      <trkpt lat="46.9676329" lon="10.1877315">
        <ele>1567.8</ele>
        <name>Position 316</name>
      </trkpt>
      <trkpt lat="46.9678008" lon="10.1878349">
        <ele>1567.9</ele>
        <name>Position 317</name>
      </trkpt>
      <trkpt lat="46.967973" lon="10.1879488">
        <ele>1565.3</ele>
        <name>Position 318</name>
      </trkpt>
      <trkpt lat="46.9681202" lon="10.188107">
        <ele>1564.1</ele>
        <name>Position 319</name>
      </trkpt>
      <trkpt lat="46.9682639" lon="10.1883014">
        <ele>1563.7</ele>
        <name>Position 320</name>
      </trkpt>
      <trkpt lat="46.9684059" lon="10.1884784">
        <ele>1562.6</ele>
        <name>Position 321</name>
      </trkpt>
      <trkpt lat="46.9685982" lon="10.18843">
        <ele>1562.2</ele>
        <name>Position 322</name>
      </trkpt>
    </trkseg>
  </trk>
</gpx>