<?xml version="1.0" encoding="UTF-8" standalone="yes"?>
<gpx xmlns:gpxtpx1="http://www.garmin.com/xmlschemas/TrackPointExtension/v1" xmlns="http://www.topografix.com/GPX/1/1" xmlns:trp="http://www.garmin.com/xmlschemas/TripExtensions/v1" xmlns:gpxx="http://www.garmin.com/xmlschemas/GpxExtensions/v3" xmlns:gpxtpx="http://www.garmin.com/xmlschemas/TrackPointExtension/v2" version="1.1" creator="Generated by Christian Pesch's RouteConverter. See http://www.routeconverter.com">
    <metadata>
        <name>2018-09-09 08:14</name>
        <link href="http://www.oruxmaps.com">
            <text>OruxMaps</text>
        </link>
        <time>2018-09-09T06:14:57Z</time>
        <bounds minlat="46.6590018" minlon="10.9818042" maxlat="46.6607720" maxlon="10.9849445"/>
    </metadata>
    <wpt lat="46.6602116" lon="10.9843979">
        <ele>1298.0</ele>
        <time>2018-09-09T06:31:09.000Z</time>
        <name>0000015</name>
        <sym>Waypoint</sym>
        <type>Wegpunkt</type>
        <extensions>
            <om:oruxmapsextensions xmlns:om="http://www.oruxmaps.com/oruxmapsextensions/1/0" xmlns:gpxtpx="http://www.garmin.com/xmlschemas/TrackPointExtension/v1" xmlns:xsi="http://www.w3.org/2001/XMLSchema-instance">
                <om:ext subtype="0" type="ICON">1</om:ext>
</om:oruxmapsextensions>
        </extensions>
    </wpt>
    <trk>
        <name>2018-09-09 08:14</name>
        <desc>&lt;p&gt;Startzeit: 09/09/2018 08:15&lt;br/&gt;Zielzeit: 09/09/2018 09:52&lt;br/&gt;Strecke: 1,
3 km (01:37)&lt;br/&gt;Bewegungszeit: 00:23&lt;br/&gt;Ø-Geschwindigkeit: 0,
79 km/h&lt;br/&gt;Netto-Geschwindigkeit: 3,
33 km/h&lt;br/&gt;Max. Geschwindigkeit: 7,
97 km/h&lt;br/&gt;Minimale Höhe: 1292 m&lt;br/&gt;Maximale Höhe: 1390 m&lt;br/&gt;Steig-Geschw.: 71,
7 m/h&lt;br/&gt;Sink-Geschw.: -352,
4 m/h&lt;br/&gt;Aufstieg: 93 m&lt;br/&gt;Abstieg: -113 m&lt;br/&gt;Steigzeit: 01:18&lt;br/&gt;Sinkzeit: 00:19&lt;br/&gt;&lt;/p&gt;&lt;hr align="center" width="480" style="height: 2px; width: 517px"/&gt;</desc>
        <type>Berg/ Bergsteigen</type>
        <extensions>
            <om:oruxmapsextensions xmlns:om="http://www.oruxmaps.com/oruxmapsextensions/1/0" xmlns:gpxtpx="http://www.garmin.com/xmlschemas/TrackPointExtension/v1" xmlns:xsi="http://www.w3.org/2001/XMLSchema-instance">
                <om:ext subtype="0" type="TYPE">7</om:ext>
                <om:ext type="DIFFICULTY">0</om:ext>
</om:oruxmapsextensions>
        </extensions>
        <trkseg>
            <trkpt lat="46.658517" lon="10.9832081">
                <ele>1280.0</ele>
                <time>2018-09-09T06:17:36.000Z</time>
                <name>Position 1</name>
            </trkpt>
            <trkpt lat="46.6589493" lon="10.9830986">
                <ele>1290.0</ele>
                <time>2018-09-09T06:17:54.000Z</time>
                <name>Position 2</name>
            </trkpt>
            <trkpt lat="46.6592357" lon="10.9832185">
                <ele>1300.0</ele>
                <time>2018-09-09T06:18:02.000Z</time>
                <name>Position 3</name>
            </trkpt>
            <trkpt lat="46.6593376" lon="10.9833962">
                <ele>1314.0</ele>
                <time>2018-09-09T06:18:16.000Z</time>
                <name>Position 4</name>
            </trkpt>
            <trkpt lat="46.6596422" lon="10.9836174">
                <ele>1330.2</ele>
                <time>2018-09-09T06:58:03.000Z</time>
                <name>Position 5</name>
            </trkpt>
            <trkpt lat="46.6597057" lon="10.9837377">
                <ele>1330.0</ele>
                <time>2018-09-09T06:58:13.000Z</time>
                <name>Position 6</name>
            </trkpt>
            <trkpt lat="46.6597751" lon="10.9838469">
                <ele>1326.4</ele>
                <time>2018-09-09T06:58:21.000Z</time>
                <name>Position 7</name>
            </trkpt>
            <trkpt lat="46.659792" lon="10.9839898">
                <ele>1324.1</ele>
                <time>2018-09-09T06:58:29.000Z</time>
                <name>Position 8</name>
            </trkpt>
            <trkpt lat="46.6598085" lon="10.9841304">
                <ele>1322.6</ele>
                <time>2018-09-09T06:58:39.000Z</time>
                <name>Position 9</name>
            </trkpt>
            <trkpt lat="46.6599043" lon="10.9841786">
                <ele>1313.9</ele>
                <time>2018-09-09T06:58:47.000Z</time>
                <name>Position 10</name>
            </trkpt>
            <trkpt lat="46.6600034" lon="10.9842425">
                <ele>1336.9</ele>
                <time>2018-09-09T06:58:59.000Z</time>
                <name>Position 11</name>
            </trkpt>
            <trkpt lat="46.6600735" lon="10.9843342">
                <ele>1318.5</ele>
                <time>2018-09-09T06:59:09.000Z</time>
                <name>Position 12</name>
            </trkpt>
            <trkpt lat="46.660139" lon="10.9844681">
                <ele>1312.6</ele>
                <time>2018-09-09T06:59:17.000Z</time>
                <name>Position 13</name>
            </trkpt>
            <trkpt lat="46.6601988" lon="10.984598">
                <ele>1307.1</ele>
                <time>2018-09-09T06:59:25.000Z</time>
                <name>Position 14</name>
            </trkpt>
            <trkpt lat="46.6602406" lon="10.9847239">
                <ele>1313.5</ele>
                <time>2018-09-09T06:59:35.000Z</time>
                <name>Position 15</name>
            </trkpt>
            <trkpt lat="46.660323" lon="10.9847792">
                <ele>1307.3</ele>
                <time>2018-09-09T07:00:01.000Z</time>
                <name>Position 16</name>
            </trkpt>
            <trkpt lat="46.6604193" lon="10.9847574">
                <ele>1302.9</ele>
                <time>2018-09-09T07:00:31.000Z</time>
                <name>Position 17</name>
            </trkpt>
            <trkpt lat="46.6604751" lon="10.9846502">
                <ele>1316.8</ele>
                <time>2018-09-09T07:05:13.000Z</time>
                <name>Position 18</name>
            </trkpt>
            <trkpt lat="46.660498" lon="10.9845125">
                <ele>1324.6</ele>
                <time>2018-09-09T07:08:13.000Z</time>
                <name>Position 19</name>
            </trkpt>
            <trkpt lat="46.6605522" lon="10.9846195">
                <ele>1322.4</ele>
                <time>2018-09-09T07:10:35.000Z</time>
                <name>Position 20</name>
            </trkpt>
            <trkpt lat="46.6605996" lon="10.9847547">
                <ele>1338.5</ele>
                <time>2018-09-09T07:16:03.000Z</time>
                <name>Position 21</name>
            </trkpt>
            <trkpt lat="46.6606678" lon="10.9847292">
                <ele>1343.7</ele>
                <time>2018-09-09T07:46:51.000Z</time>
                <name>Position 22</name>
            </trkpt>
            <trkpt lat="46.6606321" lon="10.9845902">
                <ele>1346.7</ele>
                <time>2018-09-09T07:47:23.000Z</time>
                <name>Position 23</name>
            </trkpt>
            <trkpt lat="46.6606675" lon="10.9844356">
                <ele>1353.0</ele>
                <time>2018-09-09T07:47:31.000Z</time>
                <name>Position 24</name>
            </trkpt>
            <trkpt lat="46.6606971" lon="10.9842882">
                <ele>1356.1</ele>
                <time>2018-09-09T07:47:41.000Z</time>
                <name>Position 25</name>
            </trkpt>
            <trkpt lat="46.6606237" lon="10.9841985">
                <ele>1353.5</ele>
                <time>2018-09-09T07:47:49.000Z</time>
                <name>Position 26</name>
            </trkpt>
            <trkpt lat="46.6605491" lon="10.9841127">
                <ele>1344.6</ele>
                <time>2018-09-09T07:47:57.000Z</time>
                <name>Position 27</name>
            </trkpt>
            <trkpt lat="46.6604649" lon="10.9840233">
                <ele>1345.5</ele>
                <time>2018-09-09T07:48:05.000Z</time>
                <name>Position 28</name>
            </trkpt>
            <trkpt lat="46.6603437" lon="10.983972">
                <ele>1345.5</ele>
                <time>2018-09-09T07:48:13.000Z</time>
                <name>Position 29</name>
            </trkpt>
            <trkpt lat="46.6603819" lon="10.983829">
                <ele>1340.9</ele>
                <time>2018-09-09T07:48:21.000Z</time>
                <name>Position 30</name>
            </trkpt>
            <trkpt lat="46.6603094" lon="10.9837494">
                <ele>1342.2</ele>
                <time>2018-09-09T07:48:35.000Z</time>
                <name>Position 31</name>
            </trkpt>
            <trkpt lat="46.6601915" lon="10.9837318">
                <ele>1345.9</ele>
                <time>2018-09-09T07:48:43.000Z</time>
                <name>Position 32</name>
            </trkpt>
            <trkpt lat="46.660102" lon="10.9836542">
                <ele>1339.1</ele>
                <time>2018-09-09T07:48:53.000Z</time>
                <name>Position 33</name>
            </trkpt>
            <trkpt lat="46.6600037" lon="10.9836255">
                <ele>1334.4</ele>
                <time>2018-09-09T07:48:59.000Z</time>
                <name>Position 34</name>
            </trkpt>
            <trkpt lat="46.6599161" lon="10.9836637">
                <ele>1330.9</ele>
                <time>2018-09-09T07:49:05.000Z</time>
                <name>Position 35</name>
            </trkpt>
            <trkpt lat="46.6598883" lon="10.983643">
                <ele>1332.6</ele>
                <time>2018-09-09T07:49:39.000Z</time>
                <name>Position 36</name>
            </trkpt>
            <trkpt lat="46.6593463" lon="10.9833999">
                <ele>1315.0</ele>
                <time>2018-09-09T07:49:53.000Z</time>
                <name>Position 37</name>
            </trkpt>
            <trkpt lat="46.6592543" lon="10.9832473">
                <ele>1315.0</ele>
                <time>2018-09-09T07:51:08.000Z</time>
                <name>Position 38</name>
            </trkpt>
            <trkpt lat="46.6591642" lon="10.9831467">
                <ele>1310.0</ele>
                <time>2018-09-09T07:51:16.000Z</time>
                <name>Position 39</name>
            </trkpt>
            <trkpt lat="46.6589272" lon="10.9830939">
                <ele>1295.0</ele>
                <time>2018-09-09T07:51:24.000Z</time>
                <name>Position 40</name>
            </trkpt>
            <trkpt lat="46.6585246" lon="10.9832123">
                <ele>1280.0</ele>
                <time>2018-09-09T07:51:30.000Z</time>
                <name>Position 41</name>
            </trkpt>
        </trkseg>
    </trk>
</gpx>
