<?xml version="1.0"?>
<gpx xmlns="http://www.topografix.com/GPX/1/1" xmlns:xsi="http://www.w3.org/2001/XMLSchema-instance" version="1.1" creator="AllTrails.com" xsi:schemaLocation="http://www.topografix.com/GPX/1/1 http://www.topografix.com/GPX/1/1/gpx.xsd">
  <metadata>
    <name><![CDATA[Karte – 23. Juni 2022 6:52 Uhr]]></name>
    <desc><![CDATA[]]></desc>
    <link href="http://www.alltrails.com">
      <text>AllTrails, LLC</text>
    </link>
    <bounds minlat="47.57957" minlon="15.10966" maxlat="47.6019332" maxlon="15.12897"/>
  </metadata>
  <trk>
    <name><![CDATA[Karte – 23. Juni 2022 6:52 Uhr]]></name>
    <src>AllTrails</src>
    <trkseg>
      <trkpt lat="47.5798" lon="15.11394">
        <ele>877.46</ele>
      </trkpt>
      <trkpt lat="47.57977" lon="15.11391">
        <ele>877.32</ele>
      </trkpt>
      <trkpt lat="47.57983" lon="15.11381">
        <ele>877.89</ele>
      </trkpt>
      <trkpt lat="47.57992" lon="15.11364">
        <ele>879.06</ele>
      </trkpt>
      <trkpt lat="47.58002" lon="15.11348">
        <ele>880.22</ele>
      </trkpt>
      <trkpt lat="47.5801" lon="15.11332">
        <ele>880.69</ele>
      </trkpt>
      <trkpt lat="47.58018" lon="15.11318">
        <ele>880.58</ele>
      </trkpt>
      <trkpt lat="47.58021" lon="15.11313">
        <ele>880.41</ele>
      </trkpt>
      <trkpt lat="47.58029" lon="15.11296">
        <ele>879.85</ele>
      </trkpt>
      <trkpt lat="47.58037" lon="15.11273">
        <ele>878.39</ele>
      </trkpt>
      <trkpt lat="47.58055" lon="15.11253">
        <ele>875.17</ele>
      </trkpt>
      <trkpt lat="47.58057" lon="15.1125">
        <ele>874.95</ele>
      </trkpt>
      <trkpt lat="47.58077" lon="15.11225">
        <ele>876.03</ele>
      </trkpt>
      <trkpt lat="47.58096" lon="15.112">
        <ele>879.79</ele>
      </trkpt>
      <trkpt lat="47.58146" lon="15.11132">
        <ele>886.05</ele>
      </trkpt>
      <trkpt lat="47.58148" lon="15.11128">
        <ele>885.43</ele>
      </trkpt>
      <trkpt lat="47.58161" lon="15.11109">
        <ele>883.85</ele>
      </trkpt>
      <trkpt lat="47.58184" lon="15.1107">
        <ele>881.5</ele>
      </trkpt>
      <trkpt lat="47.58199" lon="15.11047">
        <ele>882.17</ele>
      </trkpt>
      <trkpt lat="47.5822" lon="15.11014">
        <ele>883.19</ele>
      </trkpt>
      <trkpt lat="47.5822" lon="15.11014">
        <ele>883.19</ele>
      </trkpt>
      <trkpt lat="47.5822" lon="15.11014">
        <ele>883.19</ele>
      </trkpt>
      <trkpt lat="47.58231" lon="15.11009">
        <ele>881.98</ele>
      </trkpt>
      <trkpt lat="47.58252" lon="15.10997">
        <ele>879.08</ele>
      </trkpt>
      <trkpt lat="47.58276" lon="15.10989">
        <ele>880.31</ele>
      </trkpt>
      <trkpt lat="47.58294" lon="15.10988">
        <ele>882.94</ele>
      </trkpt>
      <trkpt lat="47.58313" lon="15.1099">
        <ele>884.61</ele>
      </trkpt>
      <trkpt lat="47.58349" lon="15.10993">
        <ele>887.57</ele>
      </trkpt>
      <trkpt lat="47.58372" lon="15.11">
        <ele>891.57</ele>
      </trkpt>
      <trkpt lat="47.58394" lon="15.11003">
        <ele>894.75</ele>
      </trkpt>
      <trkpt lat="47.58411" lon="15.11004">
        <ele>898.66</ele>
      </trkpt>
      <trkpt lat="47.58435" lon="15.10997">
        <ele>901.98</ele>
      </trkpt>
      <trkpt lat="47.58471" lon="15.10986">
        <ele>903.48</ele>
      </trkpt>
      <trkpt lat="47.5849" lon="15.10978">
        <ele>905.85</ele>
      </trkpt>
      <trkpt lat="47.58521" lon="15.10967">
        <ele>906.39</ele>
      </trkpt>
      <trkpt lat="47.58549" lon="15.10966">
        <ele>908.09</ele>
      </trkpt>
      <trkpt lat="47.58591" lon="15.10975">
        <ele>907.23</ele>
      </trkpt>
      <trkpt lat="47.58628" lon="15.10987">
        <ele>911.39</ele>
      </trkpt>
      <trkpt lat="47.58657" lon="15.11001">
        <ele>918.22</ele>
      </trkpt>
      <trkpt lat="47.58689" lon="15.11022">
        <ele>923.28</ele>
      </trkpt>
      <trkpt lat="47.58749" lon="15.11074">
        <ele>934.93</ele>
      </trkpt>
      <trkpt lat="47.58765" lon="15.11085">
        <ele>932.56</ele>
      </trkpt>
      <trkpt lat="47.58784" lon="15.11094">
        <ele>928.96</ele>
      </trkpt>
      <trkpt lat="47.58786" lon="15.11099">
        <ele>929.72</ele>
      </trkpt>
      <trkpt lat="47.58786" lon="15.11103">
        <ele>930.41</ele>
      </trkpt>
      <trkpt lat="47.58782" lon="15.11107">
        <ele>931.59</ele>
      </trkpt>
      <trkpt lat="47.58809" lon="15.11128">
        <ele>934.26</ele>
      </trkpt>
      <trkpt lat="47.58832" lon="15.11157">
        <ele>947.45</ele>
      </trkpt>
      <trkpt lat="47.58892" lon="15.11226">
        <ele>948.69</ele>
      </trkpt>
      <trkpt lat="47.58908" lon="15.11236">
        <ele>946.74</ele>
      </trkpt>
      <trkpt lat="47.58935" lon="15.11249">
        <ele>946.6</ele>
      </trkpt>
      <trkpt lat="47.58967" lon="15.11265">
        <ele>955.79</ele>
      </trkpt>
      <trkpt lat="47.58975" lon="15.11274">
        <ele>958.84</ele>
      </trkpt>
      <trkpt lat="47.58986" lon="15.11311">
        <ele>967.5</ele>
      </trkpt>
      <trkpt lat="47.59005" lon="15.11346">
        <ele>969.01</ele>
      </trkpt>
      <trkpt lat="47.59066" lon="15.11361">
        <ele>968.37</ele>
      </trkpt>
      <trkpt lat="47.59067" lon="15.11361">
        <ele>968.4</ele>
      </trkpt>
      <trkpt lat="47.59068" lon="15.11361">
        <ele>968.44</ele>
      </trkpt>
      <trkpt lat="47.59095" lon="15.11373">
        <ele>973.7</ele>
      </trkpt>
      <trkpt lat="47.59118" lon="15.11393">
        <ele>979.31</ele>
      </trkpt>
      <trkpt lat="47.5916" lon="15.11402">
        <ele>979.7</ele>
      </trkpt>
      <trkpt lat="47.59173" lon="15.11418">
        <ele>979.02</ele>
      </trkpt>
      <trkpt lat="47.59181" lon="15.11443">
        <ele>982.45</ele>
      </trkpt>
      <trkpt lat="47.59187" lon="15.11512">
        <ele>989.91</ele>
      </trkpt>
      <trkpt lat="47.59194" lon="15.11522">
        <ele>991.53</ele>
      </trkpt>
      <trkpt lat="47.59216" lon="15.11542">
        <ele>993.4</ele>
      </trkpt>
      <trkpt lat="47.59226" lon="15.11558">
        <ele>994.27</ele>
      </trkpt>
      <trkpt lat="47.59246" lon="15.11565">
        <ele>995.71</ele>
      </trkpt>
      <trkpt lat="47.59257" lon="15.11569">
        <ele>999.18</ele>
      </trkpt>
      <trkpt lat="47.59267" lon="15.11579">
        <ele>1002.18</ele>
      </trkpt>
      <trkpt lat="47.5928" lon="15.11581">
        <ele>1006.41</ele>
      </trkpt>
      <trkpt lat="47.59297" lon="15.11594">
        <ele>1015.33</ele>
      </trkpt>
      <trkpt lat="47.59308" lon="15.11608">
        <ele>1024.25</ele>
      </trkpt>
      <trkpt lat="47.59319" lon="15.11592">
        <ele>1024.79</ele>
      </trkpt>
      <trkpt lat="47.59321" lon="15.11587">
        <ele>1024.28</ele>
      </trkpt>
      <trkpt lat="47.59326" lon="15.1158">
        <ele>1025.01</ele>
      </trkpt>
      <trkpt lat="47.59333" lon="15.11576">
        <ele>1027.28</ele>
      </trkpt>
      <trkpt lat="47.59339" lon="15.11571">
        <ele>1029.76</ele>
      </trkpt>
      <trkpt lat="47.5934" lon="15.1157">
        <ele>1030.18</ele>
      </trkpt>
      <trkpt lat="47.59341" lon="15.11567">
        <ele>1030.26</ele>
      </trkpt>
      <trkpt lat="47.59344" lon="15.11567">
        <ele>1032.14</ele>
      </trkpt>
      <trkpt lat="47.59344" lon="15.11565">
        <ele>1031.81</ele>
      </trkpt>
      <trkpt lat="47.59347" lon="15.11566">
        <ele>1033.86</ele>
      </trkpt>
      <trkpt lat="47.5935" lon="15.11565">
        <ele>1035.62</ele>
      </trkpt>
      <trkpt lat="47.59351" lon="15.11563">
        <ele>1036.01</ele>
      </trkpt>
      <trkpt lat="47.59351" lon="15.1156">
        <ele>1035.64</ele>
      </trkpt>
      <trkpt lat="47.59353" lon="15.11558">
        <ele>1036.73</ele>
      </trkpt>
      <trkpt lat="47.59354" lon="15.11552">
        <ele>1036.98</ele>
      </trkpt>
      <trkpt lat="47.59361" lon="15.11551">
        <ele>1041.44</ele>
      </trkpt>
      <trkpt lat="47.59369" lon="15.11555">
        <ele>1054.36</ele>
      </trkpt>
      <trkpt lat="47.59372" lon="15.11566">
        <ele>1059.02</ele>
      </trkpt>
      <trkpt lat="47.59369" lon="15.11604">
        <ele>1060.82</ele>
      </trkpt>
      <trkpt lat="47.59364" lon="15.11654">
        <ele>1072.86</ele>
      </trkpt>
      <trkpt lat="47.59346" lon="15.11718">
        <ele>1098.38</ele>
      </trkpt>
      <trkpt lat="47.59333" lon="15.11771">
        <ele>1105.71</ele>
      </trkpt>
      <trkpt lat="47.59303" lon="15.11764">
        <ele>1094.22</ele>
      </trkpt>
      <trkpt lat="47.59277" lon="15.11783">
        <ele>1092.48</ele>
      </trkpt>
      <trkpt lat="47.59272" lon="15.11792">
        <ele>1089.34</ele>
      </trkpt>
      <trkpt lat="47.59283" lon="15.11801">
        <ele>1099.54</ele>
      </trkpt>
      <trkpt lat="47.59299" lon="15.11815">
        <ele>1107.34</ele>
      </trkpt>
      <trkpt lat="47.59316" lon="15.11841">
        <ele>1118.07</ele>
      </trkpt>
      <trkpt lat="47.59319" lon="15.11849">
        <ele>1120.64</ele>
      </trkpt>
      <trkpt lat="47.59331" lon="15.1187">
        <ele>1129.83</ele>
      </trkpt>
      <trkpt lat="47.59352" lon="15.11909">
        <ele>1141.41</ele>
      </trkpt>
      <trkpt lat="47.5935" lon="15.11924">
        <ele>1139.02</ele>
      </trkpt>
      <trkpt lat="47.59344" lon="15.11955">
        <ele>1129.56</ele>
      </trkpt>
      <trkpt lat="47.59344" lon="15.11977">
        <ele>1122.17</ele>
      </trkpt>
      <trkpt lat="47.59355" lon="15.11998">
        <ele>1121.56</ele>
      </trkpt>
      <trkpt lat="47.59374" lon="15.12008">
        <ele>1133.25</ele>
      </trkpt>
      <trkpt lat="47.59388" lon="15.12018">
        <ele>1142.42</ele>
      </trkpt>
      <trkpt lat="47.59388" lon="15.12018">
        <ele>1142.42</ele>
      </trkpt>
      <trkpt lat="47.59388" lon="15.12018">
        <ele>1142.42</ele>
      </trkpt>
      <trkpt lat="47.59396" lon="15.12023">
        <ele>1145.02</ele>
      </trkpt>
      <trkpt lat="47.59407" lon="15.12023">
        <ele>1149.63</ele>
      </trkpt>
      <trkpt lat="47.59418" lon="15.12021">
        <ele>1154.43</ele>
      </trkpt>
      <trkpt lat="47.59428" lon="15.12022">
        <ele>1157.74</ele>
      </trkpt>
      <trkpt lat="47.59442" lon="15.12042">
        <ele>1161.61</ele>
      </trkpt>
      <trkpt lat="47.59457" lon="15.12049">
        <ele>1164.21</ele>
      </trkpt>
      <trkpt lat="47.59469" lon="15.12066">
        <ele>1163.52</ele>
      </trkpt>
      <trkpt lat="47.59483" lon="15.12076">
        <ele>1168.64</ele>
      </trkpt>
      <trkpt lat="47.59481" lon="15.12079">
        <ele>1167.29</ele>
      </trkpt>
      <trkpt lat="47.59472" lon="15.12098">
        <ele>1162.99</ele>
      </trkpt>
      <trkpt lat="47.5947" lon="15.12117">
        <ele>1162.46</ele>
      </trkpt>
      <trkpt lat="47.59474" lon="15.12135">
        <ele>1162.17</ele>
      </trkpt>
      <trkpt lat="47.59482" lon="15.12144">
        <ele>1162.31</ele>
      </trkpt>
      <trkpt lat="47.59491" lon="15.1215">
        <ele>1162.94</ele>
      </trkpt>
      <trkpt lat="47.59501" lon="15.12164">
        <ele>1164.84</ele>
      </trkpt>
      <trkpt lat="47.59505" lon="15.12187">
        <ele>1164.54</ele>
      </trkpt>
      <trkpt lat="47.59519" lon="15.12204">
        <ele>1164.92</ele>
      </trkpt>
      <trkpt lat="47.59523" lon="15.12234">
        <ele>1169.96</ele>
      </trkpt>
      <trkpt lat="47.59541" lon="15.12275">
        <ele>1182.95</ele>
      </trkpt>
      <trkpt lat="47.59557" lon="15.12362">
        <ele>1192.45</ele>
      </trkpt>
      <trkpt lat="47.59568" lon="15.12414">
        <ele>1200.18</ele>
      </trkpt>
      <trkpt lat="47.59587" lon="15.12452">
        <ele>1210.67</ele>
      </trkpt>
      <trkpt lat="47.596" lon="15.12502">
        <ele>1226.24</ele>
      </trkpt>
      <trkpt lat="47.59609" lon="15.12542">
        <ele>1228.52</ele>
      </trkpt>
      <trkpt lat="47.59619" lon="15.12564">
        <ele>1230.5</ele>
      </trkpt>
      <trkpt lat="47.59609" lon="15.12593">
        <ele>1224.72</ele>
      </trkpt>
      <trkpt lat="47.59617" lon="15.12599">
        <ele>1226.95</ele>
      </trkpt>
      <trkpt lat="47.5963" lon="15.12603">
        <ele>1230.75</ele>
      </trkpt>
      <trkpt lat="47.59637" lon="15.12648">
        <ele>1227.52</ele>
      </trkpt>
      <trkpt lat="47.5966" lon="15.12714">
        <ele>1229.31</ele>
      </trkpt>
      <trkpt lat="47.59673" lon="15.12755">
        <ele>1230.91</ele>
      </trkpt>
      <trkpt lat="47.59679" lon="15.12795">
        <ele>1232.12</ele>
      </trkpt>
      <trkpt lat="47.59681" lon="15.12808">
        <ele>1232.63</ele>
      </trkpt>
      <trkpt lat="47.59681" lon="15.12808">
        <ele>1232.63</ele>
      </trkpt>
      <trkpt lat="47.59681" lon="15.12808">
        <ele>1232.63</ele>
      </trkpt>
      <trkpt lat="47.59679" lon="15.12795">
        <ele>1232.12</ele>
      </trkpt>
      <trkpt lat="47.5972" lon="15.12806">
        <ele>1240.4</ele>
      </trkpt>
      <trkpt lat="47.59754" lon="15.12836">
        <ele>1253.12</ele>
      </trkpt>
      <trkpt lat="47.59763" lon="15.12832">
        <ele>1257.05</ele>
      </trkpt>
      <trkpt lat="47.59767" lon="15.12834">
        <ele>1258.02</ele>
      </trkpt>
      <trkpt lat="47.59769" lon="15.12841">
        <ele>1257.63</ele>
      </trkpt>
      <trkpt lat="47.59771" lon="15.12841">
        <ele>1258.31</ele>
      </trkpt>
      <trkpt lat="47.59773" lon="15.12836">
        <ele>1259.83</ele>
      </trkpt>
      <trkpt lat="47.59778" lon="15.1284">
        <ele>1260.92</ele>
      </trkpt>
      <trkpt lat="47.59783" lon="15.12841">
        <ele>1263.38</ele>
      </trkpt>
      <trkpt lat="47.59785" lon="15.12838">
        <ele>1264.8</ele>
      </trkpt>
      <trkpt lat="47.59791" lon="15.12842">
        <ele>1267.52</ele>
      </trkpt>
      <trkpt lat="47.59792" lon="15.1284">
        <ele>1268.19</ele>
      </trkpt>
      <trkpt lat="47.59799" lon="15.12842">
        <ele>1271.8</ele>
      </trkpt>
      <trkpt lat="47.59806" lon="15.12842">
        <ele>1275.93</ele>
      </trkpt>
      <trkpt lat="47.59808" lon="15.12845">
        <ele>1278.77</ele>
      </trkpt>
      <trkpt lat="47.59811" lon="15.1285">
        <ele>1282.81</ele>
      </trkpt>
      <trkpt lat="47.59811" lon="15.12855">
        <ele>1282.75</ele>
      </trkpt>
      <trkpt lat="47.59817" lon="15.1285">
        <ele>1290.76</ele>
      </trkpt>
      <trkpt lat="47.59819" lon="15.12851">
        <ele>1293.33</ele>
      </trkpt>
      <trkpt lat="47.5982" lon="15.12847">
        <ele>1295.02</ele>
      </trkpt>
      <trkpt lat="47.59827" lon="15.12868">
        <ele>1303.26</ele>
      </trkpt>
      <trkpt lat="47.5983" lon="15.12883">
        <ele>1309.48</ele>
      </trkpt>
      <trkpt lat="47.59833" lon="15.12889">
        <ele>1314.58</ele>
      </trkpt>
      <trkpt lat="47.59835" lon="15.12892">
        <ele>1318.61</ele>
      </trkpt>
      <trkpt lat="47.59843" lon="15.12888">
        <ele>1330.11</ele>
      </trkpt>
      <trkpt lat="47.59844" lon="15.12893">
        <ele>1332.89</ele>
      </trkpt>
      <trkpt lat="47.59849" lon="15.12884">
        <ele>1338.54</ele>
      </trkpt>
      <trkpt lat="47.59851" lon="15.12886">
        <ele>1342.2</ele>
      </trkpt>
      <trkpt lat="47.59852" lon="15.12892">
        <ele>1345.12</ele>
      </trkpt>
      <trkpt lat="47.59856" lon="15.12897">
        <ele>1352.1</ele>
      </trkpt>
      <trkpt lat="47.59864" lon="15.12891">
        <ele>1360.4</ele>
      </trkpt>
      <trkpt lat="47.59866" lon="15.12881">
        <ele>1358.38</ele>
      </trkpt>
      <trkpt lat="47.59861" lon="15.12851">
        <ele>1347.31</ele>
      </trkpt>
      <trkpt lat="47.59863" lon="15.12846">
        <ele>1347.01</ele>
      </trkpt>
      <trkpt lat="47.59874" lon="15.12862">
        <ele>1355.39</ele>
      </trkpt>
      <trkpt lat="47.59876" lon="15.12846">
        <ele>1352.67</ele>
      </trkpt>
      <trkpt lat="47.59884" lon="15.12858">
        <ele>1358.46</ele>
      </trkpt>
      <trkpt lat="47.59893" lon="15.12838">
        <ele>1360.09</ele>
      </trkpt>
      <trkpt lat="47.59905" lon="15.12834">
        <ele>1369.38</ele>
      </trkpt>
      <trkpt lat="47.59908" lon="15.12821">
        <ele>1372.82</ele>
      </trkpt>
      <trkpt lat="47.59909" lon="15.12812">
        <ele>1374.27</ele>
      </trkpt>
      <trkpt lat="47.59913" lon="15.128">
        <ele>1378.64</ele>
      </trkpt>
      <trkpt lat="47.59922" lon="15.12796">
        <ele>1383.35</ele>
      </trkpt>
      <trkpt lat="47.59925" lon="15.12798">
        <ele>1384.28</ele>
      </trkpt>
      <trkpt lat="47.59931" lon="15.12792">
        <ele>1386.88</ele>
      </trkpt>
      <trkpt lat="47.5994" lon="15.12757">
        <ele>1389.73</ele>
      </trkpt>
      <trkpt lat="47.59945" lon="15.1275">
        <ele>1390.12</ele>
      </trkpt>
      <trkpt lat="47.59955" lon="15.1274">
        <ele>1392.59</ele>
      </trkpt>
      <trkpt lat="47.59961" lon="15.12744">
        <ele>1393.62</ele>
      </trkpt>
      <trkpt lat="47.59965" lon="15.12733">
        <ele>1394.31</ele>
      </trkpt>
      <trkpt lat="47.59971" lon="15.12734">
        <ele>1395.24</ele>
      </trkpt>
      <trkpt lat="47.59974" lon="15.12727">
        <ele>1395.54</ele>
      </trkpt>
      <trkpt lat="47.59978" lon="15.12727">
        <ele>1396.38</ele>
      </trkpt>
      <trkpt lat="47.59983" lon="15.12714">
        <ele>1397.62</ele>
      </trkpt>
      <trkpt lat="47.5999" lon="15.12715">
        <ele>1399.1</ele>
      </trkpt>
      <trkpt lat="47.59998" lon="15.12707">
        <ele>1401.12</ele>
      </trkpt>
      <trkpt lat="47.60007" lon="15.12707">
        <ele>1404.96</ele>
      </trkpt>
      <trkpt lat="47.60015" lon="15.12699">
        <ele>1409.31</ele>
      </trkpt>
      <trkpt lat="47.6002" lon="15.12685">
        <ele>1415.03</ele>
      </trkpt>
      <trkpt lat="47.60032" lon="15.12687">
        <ele>1421.36</ele>
      </trkpt>
      <trkpt lat="47.60046" lon="15.12701">
        <ele>1431.43</ele>
      </trkpt>
      <trkpt lat="47.60055" lon="15.12698">
        <ele>1439.39</ele>
      </trkpt>
      <trkpt lat="47.60063" lon="15.12705">
        <ele>1443.72</ele>
      </trkpt>
      <trkpt lat="47.60071" lon="15.12721">
        <ele>1449.46</ele>
      </trkpt>
      <trkpt lat="47.60077" lon="15.12714">
        <ele>1452.59</ele>
      </trkpt>
      <trkpt lat="47.60082" lon="15.12725">
        <ele>1457.41</ele>
      </trkpt>
      <trkpt lat="47.60103" lon="15.12682">
        <ele>1471.56</ele>
      </trkpt>
      <trkpt lat="47.60116" lon="15.12646">
        <ele>1489.53</ele>
      </trkpt>
      <trkpt lat="47.60122" lon="15.12626">
        <ele>1494.67</ele>
      </trkpt>
      <trkpt lat="47.60137" lon="15.12623">
        <ele>1499.71</ele>
      </trkpt>
      <trkpt lat="47.60149" lon="15.12612">
        <ele>1508.46</ele>
      </trkpt>
      <trkpt lat="47.60158" lon="15.12618">
        <ele>1513.9</ele>
      </trkpt>
      <trkpt lat="47.60162" lon="15.1263">
        <ele>1515.95</ele>
      </trkpt>
      <trkpt lat="47.60171" lon="15.12633">
        <ele>1522.0</ele>
      </trkpt>
      <trkpt lat="47.60171" lon="15.12633">
        <ele>1522.0</ele>
      </trkpt>
      <trkpt lat="47.6019" lon="15.12628">
        <ele>1534.99</ele>
      </trkpt>
      <trkpt lat="47.6019" lon="15.12628">
        <ele>1534.99</ele>
      </trkpt>
      <trkpt lat="47.60193" lon="15.12629">
        <ele>1536.82</ele>
      </trkpt>
      <trkpt lat="47.60193" lon="15.12629">
        <ele>1536.82</ele>
      </trkpt>
      <trkpt lat="47.60187" lon="15.12621">
        <ele>1533.97</ele>
      </trkpt>
      <trkpt lat="47.60187" lon="15.12621">
        <ele>1533.97</ele>
      </trkpt>
      <trkpt lat="47.60176" lon="15.12602">
        <ele>1526.4</ele>
      </trkpt>
      <trkpt lat="47.60176" lon="15.12602">
        <ele>1526.4</ele>
      </trkpt>
      <trkpt lat="47.60172" lon="15.1258">
        <ele>1522.03</ele>
      </trkpt>
      <trkpt lat="47.60172" lon="15.1258">
        <ele>1522.03</ele>
      </trkpt>
      <trkpt lat="47.60171" lon="15.12569">
        <ele>1520.02</ele>
      </trkpt>
      <trkpt lat="47.60171" lon="15.12569">
        <ele>1520.02</ele>
      </trkpt>
      <trkpt lat="47.60172" lon="15.12546">
        <ele>1519.65</ele>
      </trkpt>
      <trkpt lat="47.60172" lon="15.12546">
        <ele>1519.65</ele>
      </trkpt>
      <trkpt lat="47.60173" lon="15.12527">
        <ele>1521.63</ele>
      </trkpt>
      <trkpt lat="47.60173" lon="15.12527">
        <ele>1521.63</ele>
      </trkpt>
      <trkpt lat="47.60176" lon="15.12506">
        <ele>1526.1</ele>
      </trkpt>
      <trkpt lat="47.60176" lon="15.12506">
        <ele>1526.1</ele>
      </trkpt>
      <trkpt lat="47.60177" lon="15.12482">
        <ele>1530.28</ele>
      </trkpt>
      <trkpt lat="47.60177" lon="15.12482">
        <ele>1530.28</ele>
      </trkpt>
      <trkpt lat="47.60177" lon="15.12459">
        <ele>1537.65</ele>
      </trkpt>
      <trkpt lat="47.60177" lon="15.12459">
        <ele>1537.65</ele>
      </trkpt>
      <trkpt lat="47.60172" lon="15.12442">
        <ele>1541.67</ele>
      </trkpt>
      <trkpt lat="47.60172" lon="15.12442">
        <ele>1541.67</ele>
      </trkpt>
      <trkpt lat="47.60166" lon="15.12409">
        <ele>1552.4</ele>
      </trkpt>
      <trkpt lat="47.60166" lon="15.12409">
        <ele>1552.4</ele>
      </trkpt>
      <trkpt lat="47.60161" lon="15.12424">
        <ele>1542.06</ele>
      </trkpt>
      <trkpt lat="47.60161" lon="15.12424">
        <ele>1542.06</ele>
      </trkpt>
      <trkpt lat="47.60146" lon="15.1243">
        <ele>1529.82</ele>
      </trkpt>
      <trkpt lat="47.60146" lon="15.1243">
        <ele>1529.82</ele>
      </trkpt>
      <trkpt lat="47.60118" lon="15.12415">
        <ele>1523.12</ele>
      </trkpt>
      <trkpt lat="47.60118" lon="15.12415">
        <ele>1523.12</ele>
      </trkpt>
      <trkpt lat="47.60103" lon="15.12409">
        <ele>1519.89</ele>
      </trkpt>
      <trkpt lat="47.60103" lon="15.12409">
        <ele>1519.89</ele>
      </trkpt>
      <trkpt lat="47.60126" lon="15.12426">
        <ele>1522.16</ele>
      </trkpt>
      <trkpt lat="47.60126" lon="15.12426">
        <ele>1522.16</ele>
      </trkpt>
      <trkpt lat="47.60153" lon="15.12431">
        <ele>1533.97</ele>
      </trkpt>
      <trkpt lat="47.60153" lon="15.12431">
        <ele>1533.97</ele>
      </trkpt>
      <trkpt lat="47.60166" lon="15.12428">
        <ele>1543.67</ele>
      </trkpt>
      <trkpt lat="47.60166" lon="15.12428">
        <ele>1543.67</ele>
      </trkpt>
      <trkpt lat="47.60179" lon="15.12471">
        <ele>1533.86</ele>
      </trkpt>
      <trkpt lat="47.60179" lon="15.12471">
        <ele>1533.86</ele>
      </trkpt>
      <trkpt lat="47.60172" lon="15.126">
        <ele>1523.4</ele>
      </trkpt>
      <trkpt lat="47.60172" lon="15.126">
        <ele>1523.4</ele>
      </trkpt>
      <trkpt lat="47.60176" lon="15.12617">
        <ele>1526.56</ele>
      </trkpt>
      <trkpt lat="47.60176" lon="15.12617">
        <ele>1526.56</ele>
      </trkpt>
      <trkpt lat="47.60178" lon="15.12626">
        <ele>1527.16</ele>
      </trkpt>
      <trkpt lat="47.60178" lon="15.12626">
        <ele>1527.16</ele>
      </trkpt>
      <trkpt lat="47.60178" lon="15.12626">
        <ele>1527.16</ele>
      </trkpt>
      <trkpt lat="47.60171" lon="15.12633">
        <ele>1522.0</ele>
      </trkpt>
      <trkpt lat="47.60162" lon="15.1263">
        <ele>1515.95</ele>
      </trkpt>
      <trkpt lat="47.60158" lon="15.12618">
        <ele>1513.9</ele>
      </trkpt>
      <trkpt lat="47.60149" lon="15.12612">
        <ele>1508.46</ele>
      </trkpt>
      <trkpt lat="47.60137" lon="15.12623">
        <ele>1499.71</ele>
      </trkpt>
      <trkpt lat="47.60122" lon="15.12626">
        <ele>1494.67</ele>
      </trkpt>
      <trkpt lat="47.60116" lon="15.12646">
        <ele>1489.53</ele>
      </trkpt>
      <trkpt lat="47.60103" lon="15.12682">
        <ele>1471.56</ele>
      </trkpt>
      <trkpt lat="47.60082" lon="15.12725">
        <ele>1457.41</ele>
      </trkpt>
      <trkpt lat="47.60077" lon="15.12714">
        <ele>1452.59</ele>
      </trkpt>
      <trkpt lat="47.60071" lon="15.12721">
        <ele>1449.46</ele>
      </trkpt>
      <trkpt lat="47.60063" lon="15.12705">
        <ele>1443.72</ele>
      </trkpt>
      <trkpt lat="47.60055" lon="15.12698">
        <ele>1439.39</ele>
      </trkpt>
      <trkpt lat="47.60046" lon="15.12701">
        <ele>1431.43</ele>
      </trkpt>
      <trkpt lat="47.60032" lon="15.12687">
        <ele>1421.36</ele>
      </trkpt>
      <trkpt lat="47.6002" lon="15.12685">
        <ele>1415.03</ele>
      </trkpt>
      <trkpt lat="47.60015" lon="15.12699">
        <ele>1409.31</ele>
      </trkpt>
      <trkpt lat="47.60007" lon="15.12707">
        <ele>1404.96</ele>
      </trkpt>
      <trkpt lat="47.59998" lon="15.12707">
        <ele>1401.12</ele>
      </trkpt>
      <trkpt lat="47.5999" lon="15.12715">
        <ele>1399.1</ele>
      </trkpt>
      <trkpt lat="47.59983" lon="15.12714">
        <ele>1397.62</ele>
      </trkpt>
      <trkpt lat="47.59978" lon="15.12727">
        <ele>1396.38</ele>
      </trkpt>
      <trkpt lat="47.59974" lon="15.12727">
        <ele>1395.54</ele>
      </trkpt>
      <trkpt lat="47.59971" lon="15.12734">
        <ele>1395.24</ele>
      </trkpt>
      <trkpt lat="47.59965" lon="15.12733">
        <ele>1394.31</ele>
      </trkpt>
      <trkpt lat="47.59961" lon="15.12744">
        <ele>1393.62</ele>
      </trkpt>
      <trkpt lat="47.59955" lon="15.1274">
        <ele>1392.59</ele>
      </trkpt>
      <trkpt lat="47.59945" lon="15.1275">
        <ele>1390.12</ele>
      </trkpt>
      <trkpt lat="47.5994" lon="15.12757">
        <ele>1389.73</ele>
      </trkpt>
      <trkpt lat="47.59931" lon="15.12792">
        <ele>1386.88</ele>
      </trkpt>
      <trkpt lat="47.59925" lon="15.12798">
        <ele>1384.28</ele>
      </trkpt>
      <trkpt lat="47.59922" lon="15.12796">
        <ele>1383.35</ele>
      </trkpt>
      <trkpt lat="47.59913" lon="15.128">
        <ele>1378.64</ele>
      </trkpt>
      <trkpt lat="47.59909" lon="15.12812">
        <ele>1374.27</ele>
      </trkpt>
      <trkpt lat="47.59908" lon="15.12821">
        <ele>1372.82</ele>
      </trkpt>
      <trkpt lat="47.59905" lon="15.12834">
        <ele>1369.38</ele>
      </trkpt>
      <trkpt lat="47.59893" lon="15.12838">
        <ele>1360.09</ele>
      </trkpt>
      <trkpt lat="47.59884" lon="15.12858">
        <ele>1358.46</ele>
      </trkpt>
      <trkpt lat="47.59876" lon="15.12846">
        <ele>1352.67</ele>
      </trkpt>
      <trkpt lat="47.59874" lon="15.12862">
        <ele>1355.39</ele>
      </trkpt>
      <trkpt lat="47.59863" lon="15.12846">
        <ele>1347.01</ele>
      </trkpt>
      <trkpt lat="47.59861" lon="15.12851">
        <ele>1347.31</ele>
      </trkpt>
      <trkpt lat="47.59866" lon="15.12881">
        <ele>1358.38</ele>
      </trkpt>
      <trkpt lat="47.59864" lon="15.12891">
        <ele>1360.4</ele>
      </trkpt>
      <trkpt lat="47.59856" lon="15.12897">
        <ele>1352.1</ele>
      </trkpt>
      <trkpt lat="47.59852" lon="15.12892">
        <ele>1345.12</ele>
      </trkpt>
      <trkpt lat="47.59851" lon="15.12886">
        <ele>1342.2</ele>
      </trkpt>
      <trkpt lat="47.59849" lon="15.12884">
        <ele>1338.54</ele>
      </trkpt>
      <trkpt lat="47.59844" lon="15.12893">
        <ele>1332.89</ele>
      </trkpt>
      <trkpt lat="47.59843" lon="15.12888">
        <ele>1330.11</ele>
      </trkpt>
      <trkpt lat="47.59835" lon="15.12892">
        <ele>1318.61</ele>
      </trkpt>
      <trkpt lat="47.59833" lon="15.12889">
        <ele>1314.58</ele>
      </trkpt>
      <trkpt lat="47.5983" lon="15.12883">
        <ele>1309.48</ele>
      </trkpt>
      <trkpt lat="47.59827" lon="15.12868">
        <ele>1303.26</ele>
      </trkpt>
      <trkpt lat="47.5982" lon="15.12847">
        <ele>1295.02</ele>
      </trkpt>
      <trkpt lat="47.59819" lon="15.12851">
        <ele>1293.33</ele>
      </trkpt>
      <trkpt lat="47.59817" lon="15.1285">
        <ele>1290.76</ele>
      </trkpt>
      <trkpt lat="47.59811" lon="15.12855">
        <ele>1282.75</ele>
      </trkpt>
      <trkpt lat="47.59811" lon="15.1285">
        <ele>1282.81</ele>
      </trkpt>
      <trkpt lat="47.59808" lon="15.12845">
        <ele>1278.77</ele>
      </trkpt>
      <trkpt lat="47.59806" lon="15.12842">
        <ele>1275.93</ele>
      </trkpt>
      <trkpt lat="47.59799" lon="15.12842">
        <ele>1271.8</ele>
      </trkpt>
      <trkpt lat="47.59792" lon="15.1284">
        <ele>1268.19</ele>
      </trkpt>
      <trkpt lat="47.59791" lon="15.12842">
        <ele>1267.52</ele>
      </trkpt>
      <trkpt lat="47.59785" lon="15.12838">
        <ele>1264.8</ele>
      </trkpt>
      <trkpt lat="47.59783" lon="15.12841">
        <ele>1263.38</ele>
      </trkpt>
      <trkpt lat="47.59778" lon="15.1284">
        <ele>1260.92</ele>
      </trkpt>
      <trkpt lat="47.59773" lon="15.12836">
        <ele>1259.83</ele>
      </trkpt>
      <trkpt lat="47.59771" lon="15.12841">
        <ele>1258.31</ele>
      </trkpt>
      <trkpt lat="47.59769" lon="15.12841">
        <ele>1257.63</ele>
      </trkpt>
      <trkpt lat="47.59767" lon="15.12834">
        <ele>1258.02</ele>
      </trkpt>
      <trkpt lat="47.59763" lon="15.12832">
        <ele>1257.05</ele>
      </trkpt>
      <trkpt lat="47.59754" lon="15.12836">
        <ele>1253.12</ele>
      </trkpt>
      <trkpt lat="47.5972" lon="15.12806">
        <ele>1240.4</ele>
      </trkpt>
      <trkpt lat="47.59679" lon="15.12795">
        <ele>1232.12</ele>
      </trkpt>
      <trkpt lat="47.59673" lon="15.12755">
        <ele>1230.91</ele>
      </trkpt>
      <trkpt lat="47.5966" lon="15.12714">
        <ele>1229.31</ele>
      </trkpt>
      <trkpt lat="47.59637" lon="15.12648">
        <ele>1227.52</ele>
      </trkpt>
      <trkpt lat="47.5963" lon="15.12603">
        <ele>1230.75</ele>
      </trkpt>
      <trkpt lat="47.59628" lon="15.12588">
        <ele>1231.79</ele>
      </trkpt>
      <trkpt lat="47.59619" lon="15.12564">
        <ele>1230.5</ele>
      </trkpt>
      <trkpt lat="47.59609" lon="15.12542">
        <ele>1228.52</ele>
      </trkpt>
      <trkpt lat="47.59602" lon="15.1251">
        <ele>1227.18</ele>
      </trkpt>
      <trkpt lat="47.59602" lon="15.1251">
        <ele>1227.18</ele>
      </trkpt>
      <trkpt lat="47.59602" lon="15.1251">
        <ele>1227.18</ele>
      </trkpt>
      <trkpt lat="47.596" lon="15.12502">
        <ele>1226.24</ele>
      </trkpt>
      <trkpt lat="47.59587" lon="15.12452">
        <ele>1210.67</ele>
      </trkpt>
      <trkpt lat="47.59568" lon="15.12414">
        <ele>1200.18</ele>
      </trkpt>
      <trkpt lat="47.59557" lon="15.12362">
        <ele>1192.45</ele>
      </trkpt>
      <trkpt lat="47.59541" lon="15.12275">
        <ele>1182.95</ele>
      </trkpt>
      <trkpt lat="47.59523" lon="15.12234">
        <ele>1169.96</ele>
      </trkpt>
      <trkpt lat="47.59519" lon="15.12204">
        <ele>1164.92</ele>
      </trkpt>
      <trkpt lat="47.59505" lon="15.12187">
        <ele>1164.54</ele>
      </trkpt>
      <trkpt lat="47.59501" lon="15.12164">
        <ele>1164.84</ele>
      </trkpt>
      <trkpt lat="47.59491" lon="15.1215">
        <ele>1162.94</ele>
      </trkpt>
      <trkpt lat="47.59482" lon="15.12144">
        <ele>1162.31</ele>
      </trkpt>
      <trkpt lat="47.59474" lon="15.12135">
        <ele>1162.17</ele>
      </trkpt>
      <trkpt lat="47.5947" lon="15.12117">
        <ele>1162.46</ele>
      </trkpt>
      <trkpt lat="47.59472" lon="15.12098">
        <ele>1162.99</ele>
      </trkpt>
      <trkpt lat="47.59481" lon="15.12079">
        <ele>1167.29</ele>
      </trkpt>
      <trkpt lat="47.59483" lon="15.12076">
        <ele>1168.64</ele>
      </trkpt>
      <trkpt lat="47.59469" lon="15.12066">
        <ele>1163.52</ele>
      </trkpt>
      <trkpt lat="47.59457" lon="15.12049">
        <ele>1164.21</ele>
      </trkpt>
      <trkpt lat="47.59442" lon="15.12042">
        <ele>1161.61</ele>
      </trkpt>
      <trkpt lat="47.59428" lon="15.12022">
        <ele>1157.74</ele>
      </trkpt>
      <trkpt lat="47.59418" lon="15.12021">
        <ele>1154.43</ele>
      </trkpt>
      <trkpt lat="47.59407" lon="15.12023">
        <ele>1149.63</ele>
      </trkpt>
      <trkpt lat="47.59396" lon="15.12023">
        <ele>1145.02</ele>
      </trkpt>
      <trkpt lat="47.59374" lon="15.12008">
        <ele>1133.25</ele>
      </trkpt>
      <trkpt lat="47.59355" lon="15.11998">
        <ele>1121.56</ele>
      </trkpt>
      <trkpt lat="47.59344" lon="15.11977">
        <ele>1122.17</ele>
      </trkpt>
      <trkpt lat="47.59344" lon="15.11955">
        <ele>1129.56</ele>
      </trkpt>
      <trkpt lat="47.5935" lon="15.11924">
        <ele>1139.02</ele>
      </trkpt>
      <trkpt lat="47.59352" lon="15.11909">
        <ele>1141.41</ele>
      </trkpt>
      <trkpt lat="47.59331" lon="15.1187">
        <ele>1129.83</ele>
      </trkpt>
      <trkpt lat="47.59319" lon="15.11849">
        <ele>1120.64</ele>
      </trkpt>
      <trkpt lat="47.59316" lon="15.11841">
        <ele>1118.07</ele>
      </trkpt>
      <trkpt lat="47.59299" lon="15.11815">
        <ele>1107.34</ele>
      </trkpt>
      <trkpt lat="47.59283" lon="15.11801">
        <ele>1099.54</ele>
      </trkpt>
      <trkpt lat="47.59272" lon="15.11792">
        <ele>1089.34</ele>
      </trkpt>
      <trkpt lat="47.59277" lon="15.11783">
        <ele>1092.48</ele>
      </trkpt>
      <trkpt lat="47.59303" lon="15.11764">
        <ele>1094.22</ele>
      </trkpt>
      <trkpt lat="47.59333" lon="15.11771">
        <ele>1105.71</ele>
      </trkpt>
      <trkpt lat="47.59346" lon="15.11718">
        <ele>1098.38</ele>
      </trkpt>
      <trkpt lat="47.59364" lon="15.11654">
        <ele>1072.86</ele>
      </trkpt>
      <trkpt lat="47.59369" lon="15.11604">
        <ele>1060.82</ele>
      </trkpt>
      <trkpt lat="47.59372" lon="15.11566">
        <ele>1059.02</ele>
      </trkpt>
      <trkpt lat="47.59369" lon="15.11555">
        <ele>1054.36</ele>
      </trkpt>
      <trkpt lat="47.59361" lon="15.11551">
        <ele>1041.44</ele>
      </trkpt>
      <trkpt lat="47.59354" lon="15.11552">
        <ele>1036.98</ele>
      </trkpt>
      <trkpt lat="47.59353" lon="15.11558">
        <ele>1036.73</ele>
      </trkpt>
      <trkpt lat="47.59351" lon="15.1156">
        <ele>1035.64</ele>
      </trkpt>
      <trkpt lat="47.59351" lon="15.11563">
        <ele>1036.01</ele>
      </trkpt>
      <trkpt lat="47.5935" lon="15.11565">
        <ele>1035.62</ele>
      </trkpt>
      <trkpt lat="47.59347" lon="15.11566">
        <ele>1033.86</ele>
      </trkpt>
      <trkpt lat="47.59344" lon="15.11565">
        <ele>1031.81</ele>
      </trkpt>
      <trkpt lat="47.59344" lon="15.11567">
        <ele>1032.14</ele>
      </trkpt>
      <trkpt lat="47.59341" lon="15.11567">
        <ele>1030.26</ele>
      </trkpt>
      <trkpt lat="47.5934" lon="15.1157">
        <ele>1030.18</ele>
      </trkpt>
      <trkpt lat="47.59339" lon="15.11571">
        <ele>1029.76</ele>
      </trkpt>
      <trkpt lat="47.59333" lon="15.11576">
        <ele>1027.28</ele>
      </trkpt>
      <trkpt lat="47.59326" lon="15.1158">
        <ele>1025.01</ele>
      </trkpt>
      <trkpt lat="47.59321" lon="15.11587">
        <ele>1024.28</ele>
      </trkpt>
      <trkpt lat="47.59319" lon="15.11592">
        <ele>1024.79</ele>
      </trkpt>
      <trkpt lat="47.59308" lon="15.11608">
        <ele>1024.25</ele>
      </trkpt>
      <trkpt lat="47.59297" lon="15.11594">
        <ele>1015.33</ele>
      </trkpt>
      <trkpt lat="47.5928" lon="15.11581">
        <ele>1006.41</ele>
      </trkpt>
      <trkpt lat="47.59267" lon="15.11579">
        <ele>1002.18</ele>
      </trkpt>
      <trkpt lat="47.59257" lon="15.11569">
        <ele>999.18</ele>
      </trkpt>
      <trkpt lat="47.59246" lon="15.11565">
        <ele>995.71</ele>
      </trkpt>
      <trkpt lat="47.59226" lon="15.11558">
        <ele>994.27</ele>
      </trkpt>
      <trkpt lat="47.59216" lon="15.11542">
        <ele>993.4</ele>
      </trkpt>
      <trkpt lat="47.59194" lon="15.11522">
        <ele>991.53</ele>
      </trkpt>
      <trkpt lat="47.59187" lon="15.11512">
        <ele>989.91</ele>
      </trkpt>
      <trkpt lat="47.59181" lon="15.11443">
        <ele>982.45</ele>
      </trkpt>
      <trkpt lat="47.59173" lon="15.11418">
        <ele>979.02</ele>
      </trkpt>
      <trkpt lat="47.5916" lon="15.11402">
        <ele>979.7</ele>
      </trkpt>
      <trkpt lat="47.59118" lon="15.11393">
        <ele>979.31</ele>
      </trkpt>
      <trkpt lat="47.59095" lon="15.11373">
        <ele>973.7</ele>
      </trkpt>
      <trkpt lat="47.59068" lon="15.11361">
        <ele>968.44</ele>
      </trkpt>
      <trkpt lat="47.59067" lon="15.11361">
        <ele>968.4</ele>
      </trkpt>
      <trkpt lat="47.59066" lon="15.11361">
        <ele>968.37</ele>
      </trkpt>
      <trkpt lat="47.59005" lon="15.11346">
        <ele>969.01</ele>
      </trkpt>
      <trkpt lat="47.58986" lon="15.11311">
        <ele>967.5</ele>
      </trkpt>
      <trkpt lat="47.58975" lon="15.11274">
        <ele>958.84</ele>
      </trkpt>
      <trkpt lat="47.58967" lon="15.11265">
        <ele>955.79</ele>
      </trkpt>
      <trkpt lat="47.58935" lon="15.11249">
        <ele>946.6</ele>
      </trkpt>
      <trkpt lat="47.58908" lon="15.11236">
        <ele>946.74</ele>
      </trkpt>
      <trkpt lat="47.58892" lon="15.11226">
        <ele>948.69</ele>
      </trkpt>
      <trkpt lat="47.58867" lon="15.11198">
        <ele>948.56</ele>
      </trkpt>
      <trkpt lat="47.58867" lon="15.11198">
        <ele>948.56</ele>
      </trkpt>
      <trkpt lat="47.58867" lon="15.11198">
        <ele>948.56</ele>
      </trkpt>
      <trkpt lat="47.58832" lon="15.11157">
        <ele>947.45</ele>
      </trkpt>
      <trkpt lat="47.58809" lon="15.11128">
        <ele>934.26</ele>
      </trkpt>
      <trkpt lat="47.58782" lon="15.11107">
        <ele>931.59</ele>
      </trkpt>
      <trkpt lat="47.58786" lon="15.11103">
        <ele>930.41</ele>
      </trkpt>
      <trkpt lat="47.58786" lon="15.11099">
        <ele>929.72</ele>
      </trkpt>
      <trkpt lat="47.58784" lon="15.11094">
        <ele>928.96</ele>
      </trkpt>
      <trkpt lat="47.58765" lon="15.11085">
        <ele>932.56</ele>
      </trkpt>
      <trkpt lat="47.58749" lon="15.11074">
        <ele>934.93</ele>
      </trkpt>
      <trkpt lat="47.58689" lon="15.11022">
        <ele>923.28</ele>
      </trkpt>
      <trkpt lat="47.58657" lon="15.11001">
        <ele>918.22</ele>
      </trkpt>
      <trkpt lat="47.58628" lon="15.10987">
        <ele>911.39</ele>
      </trkpt>
      <trkpt lat="47.58591" lon="15.10975">
        <ele>907.23</ele>
      </trkpt>
      <trkpt lat="47.58549" lon="15.10966">
        <ele>908.09</ele>
      </trkpt>
      <trkpt lat="47.58521" lon="15.10967">
        <ele>906.39</ele>
      </trkpt>
      <trkpt lat="47.5849" lon="15.10978">
        <ele>905.85</ele>
      </trkpt>
      <trkpt lat="47.58471" lon="15.10986">
        <ele>903.48</ele>
      </trkpt>
      <trkpt lat="47.58435" lon="15.10997">
        <ele>901.98</ele>
      </trkpt>
      <trkpt lat="47.58411" lon="15.11004">
        <ele>898.66</ele>
      </trkpt>
      <trkpt lat="47.58394" lon="15.11003">
        <ele>894.75</ele>
      </trkpt>
      <trkpt lat="47.58372" lon="15.11">
        <ele>891.57</ele>
      </trkpt>
      <trkpt lat="47.58349" lon="15.10993">
        <ele>887.57</ele>
      </trkpt>
      <trkpt lat="47.58313" lon="15.1099">
        <ele>884.61</ele>
      </trkpt>
      <trkpt lat="47.58294" lon="15.10988">
        <ele>882.94</ele>
      </trkpt>
      <trkpt lat="47.58276" lon="15.10989">
        <ele>880.31</ele>
      </trkpt>
      <trkpt lat="47.58252" lon="15.10997">
        <ele>879.08</ele>
      </trkpt>
      <trkpt lat="47.58231" lon="15.11009">
        <ele>881.98</ele>
      </trkpt>
      <trkpt lat="47.5822" lon="15.11014">
        <ele>883.19</ele>
      </trkpt>
      <trkpt lat="47.58199" lon="15.11047">
        <ele>882.17</ele>
      </trkpt>
      <trkpt lat="47.58184" lon="15.1107">
        <ele>881.5</ele>
      </trkpt>
      <trkpt lat="47.58161" lon="15.11109">
        <ele>883.85</ele>
      </trkpt>
      <trkpt lat="47.58148" lon="15.11128">
        <ele>885.43</ele>
      </trkpt>
      <trkpt lat="47.58146" lon="15.11132">
        <ele>886.05</ele>
      </trkpt>
      <trkpt lat="47.58096" lon="15.112">
        <ele>879.79</ele>
      </trkpt>
      <trkpt lat="47.58077" lon="15.11225">
        <ele>876.03</ele>
      </trkpt>
      <trkpt lat="47.58057" lon="15.1125">
        <ele>874.95</ele>
      </trkpt>
      <trkpt lat="47.58055" lon="15.11253">
        <ele>875.17</ele>
      </trkpt>
      <trkpt lat="47.58037" lon="15.11273">
        <ele>878.39</ele>
      </trkpt>
      <trkpt lat="47.58029" lon="15.11296">
        <ele>879.85</ele>
      </trkpt>
      <trkpt lat="47.58021" lon="15.11313">
        <ele>880.41</ele>
      </trkpt>
      <trkpt lat="47.58018" lon="15.11318">
        <ele>880.58</ele>
      </trkpt>
      <trkpt lat="47.5801" lon="15.11332">
        <ele>880.69</ele>
      </trkpt>
      <trkpt lat="47.58002" lon="15.11348">
        <ele>880.22</ele>
      </trkpt>
      <trkpt lat="47.57992" lon="15.11364">
        <ele>879.06</ele>
      </trkpt>
      <trkpt lat="47.57983" lon="15.11381">
        <ele>877.89</ele>
      </trkpt>
      <trkpt lat="47.57974" lon="15.11397">
        <ele>877.09</ele>
      </trkpt>
      <trkpt lat="47.57957" lon="15.11429">
        <ele>875.66</ele>
      </trkpt>
    </trkseg>
  </trk>
</gpx>
