<?xml version="1.0" encoding="UTF-8" standalone="yes"?>
<gpx xmlns:gpxtpx1="http://www.garmin.com/xmlschemas/TrackPointExtension/v1" xmlns="http://www.topografix.com/GPX/1/1" xmlns:trp="http://www.garmin.com/xmlschemas/TripExtensions/v1" xmlns:gpxx="http://www.garmin.com/xmlschemas/GpxExtensions/v3" xmlns:gpxtpx="http://www.garmin.com/xmlschemas/TrackPointExtension/v2" version="1.1" creator="Generated by Christian Pesch's RouteConverter. See http://www.routeconverter.com">
    <metadata>
        <name>2019-10-12 13:04</name>
        <link href="https://www.oruxmaps.com">
            <text>OruxMaps</text>
        </link>
        <time>2019-10-12T11:04:30Z</time>
        <bounds minlat="46.4341345" minlon="7.8621465" maxlat="46.4550502" maxlon="7.9151680"/>
    </metadata>
    <wpt lat="46.4535789" lon="7.9145382">
        <ele>2202.9</ele>
        <time>2019-10-12T12:31:38.000Z</time>
        <name>0000004</name>
        <sym>Waypoint</sym>
        <type>Wegpunkt</type>
        <extensions>
            <om:oruxmapsextensions xmlns:om="http://www.oruxmaps.com/oruxmapsextensions/1/0" xmlns:gpxtpx="http://www.garmin.com/xmlschemas/TrackPointExtension/v1" xmlns:xsi="http://www.w3.org/2001/XMLSchema-instance">
                <om:ext subtype="0" type="ICON">1</om:ext>
</om:oruxmapsextensions>
        </extensions>
    </wpt>
    <trk>
        <name>2019-10-12 13:04</name>
        <desc>&lt;p&gt;Startzeit: 13:04 12.10.2019&lt;br/&gt;Zielzeit: 16:11 12.10.2019&lt;br/&gt;Strecke: 10,
3 km (03:06)&lt;br/&gt;Bewegungszeit: 02:12&lt;br/&gt;Ø-Geschwindigkeit: 3,
3 km/h&lt;br/&gt;Netto-Geschwindigkeit: 4,
66 km/h&lt;br/&gt;Max. Geschwindigkeit: 8,
58 km/h&lt;br/&gt;Minimale Höhe: 1762 m&lt;br/&gt;Maximale Höhe: 2330 m&lt;br/&gt;Steig-Geschw.: 273,
2 m/h&lt;br/&gt;Sink-Geschw.: -546,
2 m/h&lt;br/&gt;Aufstieg: 566 m&lt;br/&gt;Abstieg: -565 m&lt;br/&gt;Steigzeit: 02:04&lt;br/&gt;Sinkzeit: 01:02&lt;br/&gt;&lt;/p&gt;&lt;hr align="center" width="480" style="height: 2px; width: 517px"/&gt;</desc>
        <type>Berg/ Bergsteigen</type>
        <extensions>
            <om:oruxmapsextensions xmlns:om="http://www.oruxmaps.com/oruxmapsextensions/1/0" xmlns:gpxtpx="http://www.garmin.com/xmlschemas/TrackPointExtension/v1" xmlns:xsi="http://www.w3.org/2001/XMLSchema-instance">
                <om:ext subtype="0" type="TYPE">7</om:ext>
                <om:ext type="DIFFICULTY">0</om:ext>
</om:oruxmapsextensions>
        </extensions>
        <trkseg>
            <trkpt lat="46.4343237" lon="7.8622531">
                <ele>1762.7</ele>
                <time>2019-10-12T11:06:47.000Z</time>
                <name>Position 1</name>
            </trkpt>
            <trkpt lat="46.4344518" lon="7.8624513">
                <ele>1762.9</ele>
                <time>2019-10-12T11:07:13.000Z</time>
                <name>Position 2</name>
            </trkpt>
            <trkpt lat="46.4345172" lon="7.8627241">
                <ele>1763.3</ele>
                <time>2019-10-12T11:07:27.000Z</time>
                <name>Position 3</name>
            </trkpt>
            <trkpt lat="46.4345837" lon="7.8629867">
                <ele>1763.2</ele>
                <time>2019-10-12T11:07:41.000Z</time>
                <name>Position 4</name>
            </trkpt>
            <trkpt lat="46.4346748" lon="7.8632324">
                <ele>1764.6</ele>
                <time>2019-10-12T11:07:55.000Z</time>
                <name>Position 5</name>
            </trkpt>
            <trkpt lat="46.4347593" lon="7.8635155">
                <ele>1762.4</ele>
                <time>2019-10-12T11:08:07.000Z</time>
                <name>Position 6</name>
            </trkpt>
            <trkpt lat="46.434841" lon="7.8637564">
                <ele>1764.8</ele>
                <time>2019-10-12T11:08:27.000Z</time>
                <name>Position 7</name>
            </trkpt>
            <trkpt lat="46.4349386" lon="7.8640167">
                <ele>1766.1</ele>
                <time>2019-10-12T11:08:43.000Z</time>
                <name>Position 8</name>
            </trkpt>
            <trkpt lat="46.4350359" lon="7.8642736">
                <ele>1766.3</ele>
                <time>2019-10-12T11:08:57.000Z</time>
                <name>Position 9</name>
            </trkpt>
            <trkpt lat="46.4350769" lon="7.8645704">
                <ele>1766.5</ele>
                <time>2019-10-12T11:09:11.000Z</time>
                <name>Position 10</name>
            </trkpt>
            <trkpt lat="46.4351418" lon="7.8648147">
                <ele>1767.1</ele>
                <time>2019-10-12T11:09:23.000Z</time>
                <name>Position 11</name>
            </trkpt>
            <trkpt lat="46.435113" lon="7.8650939">
                <ele>1768.5</ele>
                <time>2019-10-12T11:09:49.000Z</time>
                <name>Position 12</name>
            </trkpt>
            <trkpt lat="46.4350589" lon="7.86535">
                <ele>1768.8</ele>
                <time>2019-10-12T11:10:03.000Z</time>
                <name>Position 13</name>
            </trkpt>
            <trkpt lat="46.4351169" lon="7.8656181">
                <ele>1770.6</ele>
                <time>2019-10-12T11:10:17.000Z</time>
                <name>Position 14</name>
            </trkpt>
            <trkpt lat="46.4351605" lon="7.8659026">
                <ele>1774.0</ele>
                <time>2019-10-12T11:10:37.000Z</time>
                <name>Position 15</name>
            </trkpt>
            <trkpt lat="46.4352278" lon="7.8661773">
                <ele>1775.7</ele>
                <time>2019-10-12T11:10:53.000Z</time>
                <name>Position 16</name>
            </trkpt>
            <trkpt lat="46.4353059" lon="7.8664496">
                <ele>1781.5</ele>
                <time>2019-10-12T11:11:11.000Z</time>
                <name>Position 17</name>
            </trkpt>
            <trkpt lat="46.4353797" lon="7.8667177">
                <ele>1782.5</ele>
                <time>2019-10-12T11:11:29.000Z</time>
                <name>Position 18</name>
            </trkpt>
            <trkpt lat="46.4354574" lon="7.8669548">
                <ele>1784.4</ele>
                <time>2019-10-12T11:11:57.000Z</time>
                <name>Position 19</name>
            </trkpt>
            <trkpt lat="46.4355717" lon="7.8671796">
                <ele>1784.7</ele>
                <time>2019-10-12T11:12:13.000Z</time>
                <name>Position 20</name>
            </trkpt>
            <trkpt lat="46.4356711" lon="7.8674044">
                <ele>1787.0</ele>
                <time>2019-10-12T11:12:29.000Z</time>
                <name>Position 21</name>
            </trkpt>
            <trkpt lat="46.4356734" lon="7.8676777">
                <ele>1789.9</ele>
                <time>2019-10-12T11:12:47.000Z</time>
                <name>Position 22</name>
            </trkpt>
            <trkpt lat="46.4357463" lon="7.8679203">
                <ele>1790.5</ele>
                <time>2019-10-12T11:13:03.000Z</time>
                <name>Position 23</name>
            </trkpt>
            <trkpt lat="46.435829" lon="7.8681726">
                <ele>1794.7</ele>
                <time>2019-10-12T11:13:19.000Z</time>
                <name>Position 24</name>
            </trkpt>
            <trkpt lat="46.4358897" lon="7.868427">
                <ele>1797.2</ele>
                <time>2019-10-12T11:13:33.000Z</time>
                <name>Position 25</name>
            </trkpt>
            <trkpt lat="46.4359999" lon="7.8686355">
                <ele>1798.9</ele>
                <time>2019-10-12T11:13:47.000Z</time>
                <name>Position 26</name>
            </trkpt>
            <trkpt lat="46.4360797" lon="7.8688799">
                <ele>1800.9</ele>
                <time>2019-10-12T11:14:01.000Z</time>
                <name>Position 27</name>
            </trkpt>
            <trkpt lat="46.4361997" lon="7.8690749">
                <ele>1801.7</ele>
                <time>2019-10-12T11:14:15.000Z</time>
                <name>Position 28</name>
            </trkpt>
            <trkpt lat="46.4363027" lon="7.8692896">
                <ele>1801.1</ele>
                <time>2019-10-12T11:14:27.000Z</time>
                <name>Position 29</name>
            </trkpt>
            <trkpt lat="46.4364154" lon="7.8694972">
                <ele>1802.2</ele>
                <time>2019-10-12T11:14:41.000Z</time>
                <name>Position 30</name>
            </trkpt>
            <trkpt lat="46.4365189" lon="7.8697415">
                <ele>1803.9</ele>
                <time>2019-10-12T11:14:55.000Z</time>
                <name>Position 31</name>
            </trkpt>
            <trkpt lat="46.4366414" lon="7.8699724">
                <ele>1809.4</ele>
                <time>2019-10-12T11:15:11.000Z</time>
                <name>Position 32</name>
            </trkpt>
            <trkpt lat="46.4366827" lon="7.8702287">
                <ele>1807.8</ele>
                <time>2019-10-12T11:15:23.000Z</time>
                <name>Position 33</name>
            </trkpt>
            <trkpt lat="46.4367292" lon="7.870489">
                <ele>1811.6</ele>
                <time>2019-10-12T11:15:37.000Z</time>
                <name>Position 34</name>
            </trkpt>
            <trkpt lat="46.4367902" lon="7.8707698">
                <ele>1814.8</ele>
                <time>2019-10-12T11:15:57.000Z</time>
                <name>Position 35</name>
            </trkpt>
            <trkpt lat="46.4368663" lon="7.8710281">
                <ele>1812.9</ele>
                <time>2019-10-12T11:16:07.000Z</time>
                <name>Position 36</name>
            </trkpt>
            <trkpt lat="46.436946" lon="7.8712856">
                <ele>1816.8</ele>
                <time>2019-10-12T11:16:23.000Z</time>
                <name>Position 37</name>
            </trkpt>
            <trkpt lat="46.4370397" lon="7.8715501">
                <ele>1820.6</ele>
                <time>2019-10-12T11:16:39.000Z</time>
                <name>Position 38</name>
            </trkpt>
            <trkpt lat="46.4371341" lon="7.8718068">
                <ele>1820.5</ele>
                <time>2019-10-12T11:16:53.000Z</time>
                <name>Position 39</name>
            </trkpt>
            <trkpt lat="46.4371893" lon="7.8720707">
                <ele>1823.4</ele>
                <time>2019-10-12T11:17:09.000Z</time>
                <name>Position 40</name>
            </trkpt>
            <trkpt lat="46.4372309" lon="7.8723354">
                <ele>1825.8</ele>
                <time>2019-10-12T11:17:23.000Z</time>
                <name>Position 41</name>
            </trkpt>
            <trkpt lat="46.4372408" lon="7.8726172">
                <ele>1827.8</ele>
                <time>2019-10-12T11:17:39.000Z</time>
                <name>Position 42</name>
            </trkpt>
            <trkpt lat="46.4372477" lon="7.8729202">
                <ele>1829.6</ele>
                <time>2019-10-12T11:17:55.000Z</time>
                <name>Position 43</name>
            </trkpt>
            <trkpt lat="46.4372169" lon="7.8731839">
                <ele>1831.3</ele>
                <time>2019-10-12T11:18:07.000Z</time>
                <name>Position 44</name>
            </trkpt>
            <trkpt lat="46.4371733" lon="7.8734538">
                <ele>1832.0</ele>
                <time>2019-10-12T11:18:21.000Z</time>
                <name>Position 45</name>
            </trkpt>
            <trkpt lat="46.437356" lon="7.8735418">
                <ele>1830.7</ele>
                <time>2019-10-12T11:18:37.000Z</time>
                <name>Position 46</name>
            </trkpt>
            <trkpt lat="46.4374807" lon="7.8737606">
                <ele>1831.4</ele>
                <time>2019-10-12T11:18:51.000Z</time>
                <name>Position 47</name>
            </trkpt>
            <trkpt lat="46.4376495" lon="7.8738619">
                <ele>1833.2</ele>
                <time>2019-10-12T11:19:03.000Z</time>
                <name>Position 48</name>
            </trkpt>
            <trkpt lat="46.4377988" lon="7.8740119">
                <ele>1836.6</ele>
                <time>2019-10-12T11:19:17.000Z</time>
                <name>Position 49</name>
            </trkpt>
            <trkpt lat="46.4379477" lon="7.8742222">
                <ele>1837.2</ele>
                <time>2019-10-12T11:19:31.000Z</time>
                <name>Position 50</name>
            </trkpt>
            <trkpt lat="46.4380785" lon="7.8744048">
                <ele>1834.2</ele>
                <time>2019-10-12T11:19:45.000Z</time>
                <name>Position 51</name>
            </trkpt>
            <trkpt lat="46.4382413" lon="7.8745277">
                <ele>1837.8</ele>
                <time>2019-10-12T11:19:59.000Z</time>
                <name>Position 52</name>
            </trkpt>
            <trkpt lat="46.4384023" lon="7.874715">
                <ele>1834.8</ele>
                <time>2019-10-12T11:20:13.000Z</time>
                <name>Position 53</name>
            </trkpt>
            <trkpt lat="46.4384976" lon="7.8749365">
                <ele>1835.5</ele>
                <time>2019-10-12T11:20:27.000Z</time>
                <name>Position 54</name>
            </trkpt>
            <trkpt lat="46.4386149" lon="7.8751896">
                <ele>1835.6</ele>
                <time>2019-10-12T11:20:41.000Z</time>
                <name>Position 55</name>
            </trkpt>
            <trkpt lat="46.4387476" lon="7.8753943">
                <ele>1837.7</ele>
                <time>2019-10-12T11:20:55.000Z</time>
                <name>Position 56</name>
            </trkpt>
            <trkpt lat="46.438845" lon="7.8756236">
                <ele>1837.4</ele>
                <time>2019-10-12T11:21:09.000Z</time>
                <name>Position 57</name>
            </trkpt>
            <trkpt lat="46.4389408" lon="7.8758897">
                <ele>1840.5</ele>
                <time>2019-10-12T11:21:31.000Z</time>
                <name>Position 58</name>
            </trkpt>
            <trkpt lat="46.4390371" lon="7.8761553">
                <ele>1840.3</ele>
                <time>2019-10-12T11:21:45.000Z</time>
                <name>Position 59</name>
            </trkpt>
            <trkpt lat="46.4390573" lon="7.8764532">
                <ele>1840.6</ele>
                <time>2019-10-12T11:21:57.000Z</time>
                <name>Position 60</name>
            </trkpt>
            <trkpt lat="46.4391108" lon="7.8767199">
                <ele>1841.6</ele>
                <time>2019-10-12T11:22:11.000Z</time>
                <name>Position 61</name>
            </trkpt>
            <trkpt lat="46.4392554" lon="7.8769079">
                <ele>1842.2</ele>
                <time>2019-10-12T11:22:25.000Z</time>
                <name>Position 62</name>
            </trkpt>
            <trkpt lat="46.4393564" lon="7.8771576">
                <ele>1843.3</ele>
                <time>2019-10-12T11:22:39.000Z</time>
                <name>Position 63</name>
            </trkpt>
            <trkpt lat="46.439436" lon="7.8774114">
                <ele>1844.2</ele>
                <time>2019-10-12T11:22:51.000Z</time>
                <name>Position 64</name>
            </trkpt>
            <trkpt lat="46.4395137" lon="7.8776538">
                <ele>1845.2</ele>
                <time>2019-10-12T11:23:03.000Z</time>
                <name>Position 65</name>
            </trkpt>
            <trkpt lat="46.439562" lon="7.8779259">
                <ele>1845.4</ele>
                <time>2019-10-12T11:23:15.000Z</time>
                <name>Position 66</name>
            </trkpt>
            <trkpt lat="46.4396153" lon="7.8781978">
                <ele>1846.5</ele>
                <time>2019-10-12T11:23:29.000Z</time>
                <name>Position 67</name>
            </trkpt>
            <trkpt lat="46.4396526" lon="7.878473">
                <ele>1847.6</ele>
                <time>2019-10-12T11:23:41.000Z</time>
                <name>Position 68</name>
            </trkpt>
            <trkpt lat="46.439766" lon="7.8787051">
                <ele>1847.6</ele>
                <time>2019-10-12T11:23:57.000Z</time>
                <name>Position 69</name>
            </trkpt>
            <trkpt lat="46.4398423" lon="7.878962">
                <ele>1848.0</ele>
                <time>2019-10-12T11:24:09.000Z</time>
                <name>Position 70</name>
            </trkpt>
            <trkpt lat="46.4399083" lon="7.8792647">
                <ele>1848.1</ele>
                <time>2019-10-12T11:24:23.000Z</time>
                <name>Position 71</name>
            </trkpt>
            <trkpt lat="46.4399142" lon="7.8795445">
                <ele>1850.8</ele>
                <time>2019-10-12T11:24:35.000Z</time>
                <name>Position 72</name>
            </trkpt>
            <trkpt lat="46.4399554" lon="7.879806">
                <ele>1851.6</ele>
                <time>2019-10-12T11:24:47.000Z</time>
                <name>Position 73</name>
            </trkpt>
            <trkpt lat="46.4399996" lon="7.8800706">
                <ele>1852.7</ele>
                <time>2019-10-12T11:24:59.000Z</time>
                <name>Position 74</name>
            </trkpt>
            <trkpt lat="46.4400432" lon="7.8803523">
                <ele>1855.2</ele>
                <time>2019-10-12T11:25:15.000Z</time>
                <name>Position 75</name>
            </trkpt>
            <trkpt lat="46.440015" lon="7.8806181">
                <ele>1855.8</ele>
                <time>2019-10-12T11:25:27.000Z</time>
                <name>Position 76</name>
            </trkpt>
            <trkpt lat="46.4401254" lon="7.8808622">
                <ele>1857.1</ele>
                <time>2019-10-12T11:25:43.000Z</time>
                <name>Position 77</name>
            </trkpt>
            <trkpt lat="46.4402858" lon="7.8810636">
                <ele>1859.3</ele>
                <time>2019-10-12T11:25:57.000Z</time>
                <name>Position 78</name>
            </trkpt>
            <trkpt lat="46.4403968" lon="7.8812727">
                <ele>1860.7</ele>
                <time>2019-10-12T11:26:09.000Z</time>
                <name>Position 79</name>
            </trkpt>
            <trkpt lat="46.4404743" lon="7.8815289">
                <ele>1853.5</ele>
                <time>2019-10-12T11:26:21.000Z</time>
                <name>Position 80</name>
            </trkpt>
            <trkpt lat="46.4405339" lon="7.8817814">
                <ele>1857.6</ele>
                <time>2019-10-12T11:26:35.000Z</time>
                <name>Position 81</name>
            </trkpt>
            <trkpt lat="46.4406586" lon="7.8820051">
                <ele>1861.4</ele>
                <time>2019-10-12T11:26:51.000Z</time>
                <name>Position 82</name>
            </trkpt>
            <trkpt lat="46.4407026" lon="7.88228">
                <ele>1865.5</ele>
                <time>2019-10-12T11:27:07.000Z</time>
                <name>Position 83</name>
            </trkpt>
            <trkpt lat="46.4407862" lon="7.8825487">
                <ele>1865.1</ele>
                <time>2019-10-12T11:27:21.000Z</time>
                <name>Position 84</name>
            </trkpt>
            <trkpt lat="46.4409098" lon="7.8827763">
                <ele>1867.4</ele>
                <time>2019-10-12T11:27:37.000Z</time>
                <name>Position 85</name>
            </trkpt>
            <trkpt lat="46.4410584" lon="7.8829819">
                <ele>1870.3</ele>
                <time>2019-10-12T11:27:53.000Z</time>
                <name>Position 86</name>
            </trkpt>
            <trkpt lat="46.4411428" lon="7.8832197">
                <ele>1871.9</ele>
                <time>2019-10-12T11:28:19.000Z</time>
                <name>Position 87</name>
            </trkpt>
            <trkpt lat="46.4412225" lon="7.8834986">
                <ele>1869.4</ele>
                <time>2019-10-12T11:28:33.000Z</time>
                <name>Position 88</name>
            </trkpt>
            <trkpt lat="46.4412902" lon="7.8837814">
                <ele>1870.5</ele>
                <time>2019-10-12T11:28:45.000Z</time>
                <name>Position 89</name>
            </trkpt>
            <trkpt lat="46.4413512" lon="7.8840389">
                <ele>1875.5</ele>
                <time>2019-10-12T11:28:59.000Z</time>
                <name>Position 90</name>
            </trkpt>
            <trkpt lat="46.4413601" lon="7.8843396">
                <ele>1876.4</ele>
                <time>2019-10-12T11:29:15.000Z</time>
                <name>Position 91</name>
            </trkpt>
            <trkpt lat="46.4413239" lon="7.8846131">
                <ele>1877.9</ele>
                <time>2019-10-12T11:29:29.000Z</time>
                <name>Position 92</name>
            </trkpt>
            <trkpt lat="46.4413174" lon="7.8849159">
                <ele>1878.7</ele>
                <time>2019-10-12T11:29:43.000Z</time>
                <name>Position 93</name>
            </trkpt>
            <trkpt lat="46.4413249" lon="7.8851886">
                <ele>1882.2</ele>
                <time>2019-10-12T11:29:57.000Z</time>
                <name>Position 94</name>
            </trkpt>
            <trkpt lat="46.4413283" lon="7.8854943">
                <ele>1884.8</ele>
                <time>2019-10-12T11:30:13.000Z</time>
                <name>Position 95</name>
            </trkpt>
            <trkpt lat="46.4413402" lon="7.8857565">
                <ele>1886.5</ele>
                <time>2019-10-12T11:30:29.000Z</time>
                <name>Position 96</name>
            </trkpt>
            <trkpt lat="46.4414406" lon="7.8859991">
                <ele>1887.9</ele>
                <time>2019-10-12T11:30:45.000Z</time>
                <name>Position 97</name>
            </trkpt>
            <trkpt lat="46.4415427" lon="7.886239">
                <ele>1889.8</ele>
                <time>2019-10-12T11:31:01.000Z</time>
                <name>Position 98</name>
            </trkpt>
            <trkpt lat="46.4415927" lon="7.8865138">
                <ele>1892.8</ele>
                <time>2019-10-12T11:31:17.000Z</time>
                <name>Position 99</name>
            </trkpt>
            <trkpt lat="46.4417079" lon="7.8867286">
                <ele>1895.0</ele>
                <time>2019-10-12T11:31:29.000Z</time>
                <name>Position 100</name>
            </trkpt>
            <trkpt lat="46.441799" lon="7.8869618">
                <ele>1896.0</ele>
                <time>2019-10-12T11:31:49.000Z</time>
                <name>Position 101</name>
            </trkpt>
            <trkpt lat="46.4419362" lon="7.8871758">
                <ele>1899.3</ele>
                <time>2019-10-12T11:32:07.000Z</time>
                <name>Position 102</name>
            </trkpt>
            <trkpt lat="46.4420678" lon="7.8873629">
                <ele>1899.4</ele>
                <time>2019-10-12T11:32:23.000Z</time>
                <name>Position 103</name>
            </trkpt>
            <trkpt lat="46.4422109" lon="7.8875366">
                <ele>1899.1</ele>
                <time>2019-10-12T11:32:35.000Z</time>
                <name>Position 104</name>
            </trkpt>
            <trkpt lat="46.4423777" lon="7.8876473">
                <ele>1902.7</ele>
                <time>2019-10-12T11:33:07.000Z</time>
                <name>Position 105</name>
            </trkpt>
            <trkpt lat="46.4425472" lon="7.8877882">
                <ele>1904.0</ele>
                <time>2019-10-12T11:33:21.000Z</time>
                <name>Position 106</name>
            </trkpt>
            <trkpt lat="46.4426126" lon="7.8880579">
                <ele>1904.0</ele>
                <time>2019-10-12T11:33:35.000Z</time>
                <name>Position 107</name>
            </trkpt>
            <trkpt lat="46.4426838" lon="7.8883428">
                <ele>1905.6</ele>
                <time>2019-10-12T11:33:59.000Z</time>
                <name>Position 108</name>
            </trkpt>
            <trkpt lat="46.4427147" lon="7.8886006">
                <ele>1909.8</ele>
                <time>2019-10-12T11:34:13.000Z</time>
                <name>Position 109</name>
            </trkpt>
            <trkpt lat="46.4427445" lon="7.8888824">
                <ele>1911.3</ele>
                <time>2019-10-12T11:34:29.000Z</time>
                <name>Position 110</name>
            </trkpt>
            <trkpt lat="46.4427858" lon="7.8891414">
                <ele>1915.1</ele>
                <time>2019-10-12T11:34:45.000Z</time>
                <name>Position 111</name>
            </trkpt>
            <trkpt lat="46.4428088" lon="7.8894003">
                <ele>1917.0</ele>
                <time>2019-10-12T11:34:59.000Z</time>
                <name>Position 112</name>
            </trkpt>
            <trkpt lat="46.4428603" lon="7.8896534">
                <ele>1916.8</ele>
                <time>2019-10-12T11:35:13.000Z</time>
                <name>Position 113</name>
            </trkpt>
            <trkpt lat="46.442965" lon="7.889876">
                <ele>1919.0</ele>
                <time>2019-10-12T11:35:25.000Z</time>
                <name>Position 114</name>
            </trkpt>
            <trkpt lat="46.4430309" lon="7.8901567">
                <ele>1917.3</ele>
                <time>2019-10-12T11:35:39.000Z</time>
                <name>Position 115</name>
            </trkpt>
            <trkpt lat="46.4431116" lon="7.8904185">
                <ele>1917.4</ele>
                <time>2019-10-12T11:35:53.000Z</time>
                <name>Position 116</name>
            </trkpt>
            <trkpt lat="46.4431542" lon="7.8906818">
                <ele>1921.9</ele>
                <time>2019-10-12T11:36:09.000Z</time>
                <name>Position 117</name>
            </trkpt>
            <trkpt lat="46.4431583" lon="7.8909613">
                <ele>1925.0</ele>
                <time>2019-10-12T11:36:21.000Z</time>
                <name>Position 118</name>
            </trkpt>
            <trkpt lat="46.4431322" lon="7.8912615">
                <ele>1926.3</ele>
                <time>2019-10-12T11:36:35.000Z</time>
                <name>Position 119</name>
            </trkpt>
            <trkpt lat="46.4431011" lon="7.8915365">
                <ele>1928.8</ele>
                <time>2019-10-12T11:36:49.000Z</time>
                <name>Position 120</name>
            </trkpt>
            <trkpt lat="46.4431777" lon="7.8918027">
                <ele>1929.2</ele>
                <time>2019-10-12T11:37:03.000Z</time>
                <name>Position 121</name>
            </trkpt>
            <trkpt lat="46.4432358" lon="7.8920648">
                <ele>1930.7</ele>
                <time>2019-10-12T11:37:17.000Z</time>
                <name>Position 122</name>
            </trkpt>
            <trkpt lat="46.443297" lon="7.8923276">
                <ele>1931.5</ele>
                <time>2019-10-12T11:37:31.000Z</time>
                <name>Position 123</name>
            </trkpt>
            <trkpt lat="46.4433641" lon="7.8926076">
                <ele>1932.1</ele>
                <time>2019-10-12T11:37:47.000Z</time>
                <name>Position 124</name>
            </trkpt>
            <trkpt lat="46.4433847" lon="7.8928697">
                <ele>1936.8</ele>
                <time>2019-10-12T11:38:07.000Z</time>
                <name>Position 125</name>
            </trkpt>
            <trkpt lat="46.4434525" lon="7.89313">
                <ele>1942.0</ele>
                <time>2019-10-12T11:38:33.000Z</time>
                <name>Position 126</name>
            </trkpt>
            <trkpt lat="46.4434967" lon="7.8934055">
                <ele>1945.8</ele>
                <time>2019-10-12T11:38:53.000Z</time>
                <name>Position 127</name>
            </trkpt>
            <trkpt lat="46.4434939" lon="7.893697">
                <ele>1950.9</ele>
                <time>2019-10-12T11:39:13.000Z</time>
                <name>Position 128</name>
            </trkpt>
            <trkpt lat="46.4435528" lon="7.8939524">
                <ele>1953.8</ele>
                <time>2019-10-12T11:39:31.000Z</time>
                <name>Position 129</name>
            </trkpt>
            <trkpt lat="46.4436212" lon="7.8942061">
                <ele>1957.6</ele>
                <time>2019-10-12T11:39:51.000Z</time>
                <name>Position 130</name>
            </trkpt>
            <trkpt lat="46.4437003" lon="7.8944459">
                <ele>1958.9</ele>
                <time>2019-10-12T11:40:03.000Z</time>
                <name>Position 131</name>
            </trkpt>
            <trkpt lat="46.4437543" lon="7.894735">
                <ele>1960.4</ele>
                <time>2019-10-12T11:40:37.000Z</time>
                <name>Position 132</name>
            </trkpt>
            <trkpt lat="46.4438312" lon="7.8950111">
                <ele>1961.2</ele>
                <time>2019-10-12T11:40:51.000Z</time>
                <name>Position 133</name>
            </trkpt>
            <trkpt lat="46.4438939" lon="7.8952913">
                <ele>1959.0</ele>
                <time>2019-10-12T11:41:03.000Z</time>
                <name>Position 134</name>
            </trkpt>
            <trkpt lat="46.4439743" lon="7.8955594">
                <ele>1959.4</ele>
                <time>2019-10-12T11:41:15.000Z</time>
                <name>Position 135</name>
            </trkpt>
            <trkpt lat="46.4440848" lon="7.8958136">
                <ele>1959.4</ele>
                <time>2019-10-12T11:41:27.000Z</time>
                <name>Position 136</name>
            </trkpt>
            <trkpt lat="46.4441601" lon="7.8960513">
                <ele>1956.6</ele>
                <time>2019-10-12T11:41:39.000Z</time>
                <name>Position 137</name>
            </trkpt>
            <trkpt lat="46.4442615" lon="7.8963105">
                <ele>1960.0</ele>
                <time>2019-10-12T11:42:03.000Z</time>
                <name>Position 138</name>
            </trkpt>
            <trkpt lat="46.444298" lon="7.8965827">
                <ele>1959.0</ele>
                <time>2019-10-12T11:42:15.000Z</time>
                <name>Position 139</name>
            </trkpt>
            <trkpt lat="46.4443536" lon="7.8968835">
                <ele>1959.1</ele>
                <time>2019-10-12T11:42:33.000Z</time>
                <name>Position 140</name>
            </trkpt>
            <trkpt lat="46.4444303" lon="7.8971293">
                <ele>1964.1</ele>
                <time>2019-10-12T11:42:49.000Z</time>
                <name>Position 141</name>
            </trkpt>
            <trkpt lat="46.444538" lon="7.8973384">
                <ele>1966.7</ele>
                <time>2019-10-12T11:43:13.000Z</time>
                <name>Position 142</name>
            </trkpt>
            <trkpt lat="46.4447132" lon="7.8972382">
                <ele>1966.6</ele>
                <time>2019-10-12T11:43:29.000Z</time>
                <name>Position 143</name>
            </trkpt>
            <trkpt lat="46.4448871" lon="7.8971015">
                <ele>1969.2</ele>
                <time>2019-10-12T11:43:47.000Z</time>
                <name>Position 144</name>
            </trkpt>
            <trkpt lat="46.4450494" lon="7.8972552">
                <ele>1965.5</ele>
                <time>2019-10-12T11:43:59.000Z</time>
                <name>Position 145</name>
            </trkpt>
            <trkpt lat="46.4452084" lon="7.8974163">
                <ele>1966.8</ele>
                <time>2019-10-12T11:44:13.000Z</time>
                <name>Position 146</name>
            </trkpt>
            <trkpt lat="46.4453995" lon="7.8974992">
                <ele>1970.4</ele>
                <time>2019-10-12T11:44:29.000Z</time>
                <name>Position 147</name>
            </trkpt>
            <trkpt lat="46.4455675" lon="7.8975991">
                <ele>1971.2</ele>
                <time>2019-10-12T11:44:43.000Z</time>
                <name>Position 148</name>
            </trkpt>
            <trkpt lat="46.4457061" lon="7.8977868">
                <ele>1973.6</ele>
                <time>2019-10-12T11:44:57.000Z</time>
                <name>Position 149</name>
            </trkpt>
            <trkpt lat="46.4458212" lon="7.8980274">
                <ele>1979.5</ele>
                <time>2019-10-12T11:45:13.000Z</time>
                <name>Position 150</name>
            </trkpt>
            <trkpt lat="46.4459413" lon="7.8982241">
                <ele>1978.9</ele>
                <time>2019-10-12T11:45:25.000Z</time>
                <name>Position 151</name>
            </trkpt>
            <trkpt lat="46.4460738" lon="7.8984109">
                <ele>1982.0</ele>
                <time>2019-10-12T11:45:39.000Z</time>
                <name>Position 152</name>
            </trkpt>
            <trkpt lat="46.4462304" lon="7.898576">
                <ele>1980.5</ele>
                <time>2019-10-12T11:45:53.000Z</time>
                <name>Position 153</name>
            </trkpt>
            <trkpt lat="46.4463696" lon="7.898757">
                <ele>1983.4</ele>
                <time>2019-10-12T11:46:09.000Z</time>
                <name>Position 154</name>
            </trkpt>
            <trkpt lat="46.4464768" lon="7.8989666">
                <ele>1986.8</ele>
                <time>2019-10-12T11:46:23.000Z</time>
                <name>Position 155</name>
            </trkpt>
            <trkpt lat="46.4466324" lon="7.8991384">
                <ele>1989.3</ele>
                <time>2019-10-12T11:46:41.000Z</time>
                <name>Position 156</name>
            </trkpt>
            <trkpt lat="46.4467574" lon="7.8993421">
                <ele>1991.7</ele>
                <time>2019-10-12T11:46:59.000Z</time>
                <name>Position 157</name>
            </trkpt>
            <trkpt lat="46.4468778" lon="7.8995779">
                <ele>1999.0</ele>
                <time>2019-10-12T11:47:21.000Z</time>
                <name>Position 158</name>
            </trkpt>
            <trkpt lat="46.4469889" lon="7.8997857">
                <ele>2000.3</ele>
                <time>2019-10-12T11:47:37.000Z</time>
                <name>Position 159</name>
            </trkpt>
            <trkpt lat="46.4471229" lon="7.9000075">
                <ele>1999.9</ele>
                <time>2019-10-12T11:47:51.000Z</time>
                <name>Position 160</name>
            </trkpt>
            <trkpt lat="46.4472575" lon="7.9001816">
                <ele>1999.4</ele>
                <time>2019-10-12T11:48:07.000Z</time>
                <name>Position 161</name>
            </trkpt>
            <trkpt lat="46.4474332" lon="7.9003155">
                <ele>2007.8</ele>
                <time>2019-10-12T11:48:29.000Z</time>
                <name>Position 162</name>
            </trkpt>
            <trkpt lat="46.4475709" lon="7.900534">
                <ele>2010.6</ele>
                <time>2019-10-12T11:48:45.000Z</time>
                <name>Position 163</name>
            </trkpt>
            <trkpt lat="46.4476361" lon="7.9007975">
                <ele>2014.2</ele>
                <time>2019-10-12T11:49:01.000Z</time>
                <name>Position 164</name>
            </trkpt>
            <trkpt lat="46.4477845" lon="7.9009951">
                <ele>2019.9</ele>
                <time>2019-10-12T11:49:19.000Z</time>
                <name>Position 165</name>
            </trkpt>
            <trkpt lat="46.4479314" lon="7.9011995">
                <ele>2020.9</ele>
                <time>2019-10-12T11:49:33.000Z</time>
                <name>Position 166</name>
            </trkpt>
            <trkpt lat="46.4480251" lon="7.9014299">
                <ele>2022.1</ele>
                <time>2019-10-12T11:49:47.000Z</time>
                <name>Position 167</name>
            </trkpt>
            <trkpt lat="46.4480659" lon="7.9016854">
                <ele>2026.9</ele>
                <time>2019-10-12T11:50:03.000Z</time>
                <name>Position 168</name>
            </trkpt>
            <trkpt lat="46.4481541" lon="7.9019263">
                <ele>2025.5</ele>
                <time>2019-10-12T11:50:15.000Z</time>
                <name>Position 169</name>
            </trkpt>
            <trkpt lat="46.4482241" lon="7.9021671">
                <ele>2027.1</ele>
                <time>2019-10-12T11:50:27.000Z</time>
                <name>Position 170</name>
            </trkpt>
            <trkpt lat="46.4483337" lon="7.9024126">
                <ele>2029.0</ele>
                <time>2019-10-12T11:50:41.000Z</time>
                <name>Position 171</name>
            </trkpt>
            <trkpt lat="46.4484275" lon="7.9026399">
                <ele>2032.3</ele>
                <time>2019-10-12T11:50:59.000Z</time>
                <name>Position 172</name>
            </trkpt>
            <trkpt lat="46.4485522" lon="7.9028467">
                <ele>2032.5</ele>
                <time>2019-10-12T11:51:15.000Z</time>
                <name>Position 173</name>
            </trkpt>
            <trkpt lat="46.448661" lon="7.9030721">
                <ele>2037.4</ele>
                <time>2019-10-12T11:51:31.000Z</time>
                <name>Position 174</name>
            </trkpt>
            <trkpt lat="46.4487758" lon="7.9032904">
                <ele>2040.5</ele>
                <time>2019-10-12T11:51:47.000Z</time>
                <name>Position 175</name>
            </trkpt>
            <trkpt lat="46.4489587" lon="7.9033928">
                <ele>2046.2</ele>
                <time>2019-10-12T11:52:12.000Z</time>
                <name>Position 176</name>
            </trkpt>
            <trkpt lat="46.44912" lon="7.9035329">
                <ele>2049.8</ele>
                <time>2019-10-12T11:52:28.000Z</time>
                <name>Position 177</name>
            </trkpt>
            <trkpt lat="46.4492192" lon="7.9037782">
                <ele>2054.1</ele>
                <time>2019-10-12T11:52:48.000Z</time>
                <name>Position 178</name>
            </trkpt>
            <trkpt lat="46.4493237" lon="7.9040061">
                <ele>2057.3</ele>
                <time>2019-10-12T11:53:06.000Z</time>
                <name>Position 179</name>
            </trkpt>
            <trkpt lat="46.4494409" lon="7.904211">
                <ele>2062.1</ele>
                <time>2019-10-12T11:53:28.000Z</time>
                <name>Position 180</name>
            </trkpt>
            <trkpt lat="46.4495135" lon="7.9044652">
                <ele>2065.9</ele>
                <time>2019-10-12T11:54:04.000Z</time>
                <name>Position 181</name>
            </trkpt>
            <trkpt lat="46.4496204" lon="7.9047273">
                <ele>2068.3</ele>
                <time>2019-10-12T11:54:20.000Z</time>
                <name>Position 182</name>
            </trkpt>
            <trkpt lat="46.4497026" lon="7.9049639">
                <ele>2070.6</ele>
                <time>2019-10-12T11:54:34.000Z</time>
                <name>Position 183</name>
            </trkpt>
            <trkpt lat="46.44961" lon="7.9052026">
                <ele>2067.9</ele>
                <time>2019-10-12T11:54:54.000Z</time>
                <name>Position 184</name>
            </trkpt>
            <trkpt lat="46.4495835" lon="7.9054665">
                <ele>2067.5</ele>
                <time>2019-10-12T11:55:08.000Z</time>
                <name>Position 185</name>
            </trkpt>
            <trkpt lat="46.4495461" lon="7.9057305">
                <ele>2073.1</ele>
                <time>2019-10-12T11:55:42.000Z</time>
                <name>Position 186</name>
            </trkpt>
            <trkpt lat="46.4495344" lon="7.906">
                <ele>2077.7</ele>
                <time>2019-10-12T11:56:04.000Z</time>
                <name>Position 187</name>
            </trkpt>
            <trkpt lat="46.4495573" lon="7.9062722">
                <ele>2077.4</ele>
                <time>2019-10-12T11:56:44.000Z</time>
                <name>Position 188</name>
            </trkpt>
            <trkpt lat="46.4496572" lon="7.9064953">
                <ele>2077.7</ele>
                <time>2019-10-12T11:57:02.000Z</time>
                <name>Position 189</name>
            </trkpt>
            <trkpt lat="46.4498027" lon="7.9066984">
                <ele>2083.2</ele>
                <time>2019-10-12T11:57:26.000Z</time>
                <name>Position 190</name>
            </trkpt>
            <trkpt lat="46.4499338" lon="7.9068806">
                <ele>2086.5</ele>
                <time>2019-10-12T11:58:00.000Z</time>
                <name>Position 191</name>
            </trkpt>
            <trkpt lat="46.4500881" lon="7.907041">
                <ele>2096.6</ele>
                <time>2019-10-12T11:58:40.000Z</time>
                <name>Position 192</name>
            </trkpt>
            <trkpt lat="46.4502298" lon="7.9072043">
                <ele>2106.0</ele>
                <time>2019-10-12T11:59:32.000Z</time>
                <name>Position 193</name>
            </trkpt>
            <trkpt lat="46.4503404" lon="7.9074188">
                <ele>2111.4</ele>
                <time>2019-10-12T12:00:00.000Z</time>
                <name>Position 194</name>
            </trkpt>
            <trkpt lat="46.4504499" lon="7.9076439">
                <ele>2117.0</ele>
                <time>2019-10-12T12:00:30.000Z</time>
                <name>Position 195</name>
            </trkpt>
            <trkpt lat="46.4505397" lon="7.9078887">
                <ele>2125.9</ele>
                <time>2019-10-12T12:01:04.000Z</time>
                <name>Position 196</name>
            </trkpt>
            <trkpt lat="46.4506188" lon="7.9081297">
                <ele>2129.0</ele>
                <time>2019-10-12T12:01:26.000Z</time>
                <name>Position 197</name>
            </trkpt>
            <trkpt lat="46.4507685" lon="7.9082942">
                <ele>2136.8</ele>
                <time>2019-10-12T12:01:50.000Z</time>
                <name>Position 198</name>
            </trkpt>
            <trkpt lat="46.4508821" lon="7.9085138">
                <ele>2136.2</ele>
                <time>2019-10-12T12:02:02.000Z</time>
                <name>Position 199</name>
            </trkpt>
            <trkpt lat="46.4510211" lon="7.9086897">
                <ele>2142.7</ele>
                <time>2019-10-12T12:02:30.000Z</time>
                <name>Position 200</name>
            </trkpt>
            <trkpt lat="46.4511455" lon="7.908881">
                <ele>2144.6</ele>
                <time>2019-10-12T12:02:52.000Z</time>
                <name>Position 201</name>
            </trkpt>
            <trkpt lat="46.4512165" lon="7.9091218">
                <ele>2148.3</ele>
                <time>2019-10-12T12:03:46.000Z</time>
                <name>Position 202</name>
            </trkpt>
            <trkpt lat="46.4512777" lon="7.9093999">
                <ele>2151.3</ele>
                <time>2019-10-12T12:04:44.000Z</time>
                <name>Position 203</name>
            </trkpt>
            <trkpt lat="46.4514174" lon="7.9095808">
                <ele>2154.3</ele>
                <time>2019-10-12T12:05:14.000Z</time>
                <name>Position 204</name>
            </trkpt>
            <trkpt lat="46.4514631" lon="7.9098571">
                <ele>2156.3</ele>
                <time>2019-10-12T12:05:36.000Z</time>
                <name>Position 205</name>
            </trkpt>
            <trkpt lat="46.4515061" lon="7.9101267">
                <ele>2155.4</ele>
                <time>2019-10-12T12:05:52.000Z</time>
                <name>Position 206</name>
            </trkpt>
            <trkpt lat="46.4516151" lon="7.9103351">
                <ele>2156.0</ele>
                <time>2019-10-12T12:06:08.000Z</time>
                <name>Position 207</name>
            </trkpt>
            <trkpt lat="46.4517531" lon="7.9105404">
                <ele>2152.3</ele>
                <time>2019-10-12T12:06:26.000Z</time>
                <name>Position 208</name>
            </trkpt>
            <trkpt lat="46.4518546" lon="7.9107791">
                <ele>2155.9</ele>
                <time>2019-10-12T12:06:52.000Z</time>
                <name>Position 209</name>
            </trkpt>
            <trkpt lat="46.4519376" lon="7.9110414">
                <ele>2158.7</ele>
                <time>2019-10-12T12:07:12.000Z</time>
                <name>Position 210</name>
            </trkpt>
            <trkpt lat="46.4520327" lon="7.9112745">
                <ele>2160.2</ele>
                <time>2019-10-12T12:07:30.000Z</time>
                <name>Position 211</name>
            </trkpt>
            <trkpt lat="46.4521254" lon="7.9115036">
                <ele>2162.9</ele>
                <time>2019-10-12T12:07:48.000Z</time>
                <name>Position 212</name>
            </trkpt>
            <trkpt lat="46.452182" lon="7.9117605">
                <ele>2160.5</ele>
                <time>2019-10-12T12:08:30.000Z</time>
                <name>Position 213</name>
            </trkpt>
            <trkpt lat="46.452281" lon="7.9119973">
                <ele>2166.2</ele>
                <time>2019-10-12T12:08:56.000Z</time>
                <name>Position 214</name>
            </trkpt>
            <trkpt lat="46.4523921" lon="7.9122029">
                <ele>2167.6</ele>
                <time>2019-10-12T12:09:14.000Z</time>
                <name>Position 215</name>
            </trkpt>
            <trkpt lat="46.4525136" lon="7.912432">
                <ele>2171.4</ele>
                <time>2019-10-12T12:09:32.000Z</time>
                <name>Position 216</name>
            </trkpt>
            <trkpt lat="46.4526136" lon="7.9126821">
                <ele>2175.9</ele>
                <time>2019-10-12T12:09:54.000Z</time>
                <name>Position 217</name>
            </trkpt>
            <trkpt lat="46.4527304" lon="7.9128965">
                <ele>2176.9</ele>
                <time>2019-10-12T12:10:12.000Z</time>
                <name>Position 218</name>
            </trkpt>
            <trkpt lat="46.4528552" lon="7.9130927">
                <ele>2182.9</ele>
                <time>2019-10-12T12:10:30.000Z</time>
                <name>Position 219</name>
            </trkpt>
            <trkpt lat="46.4529854" lon="7.9133034">
                <ele>2186.1</ele>
                <time>2019-10-12T12:10:54.000Z</time>
                <name>Position 220</name>
            </trkpt>
            <trkpt lat="46.4530702" lon="7.9135445">
                <ele>2187.4</ele>
                <time>2019-10-12T12:11:20.000Z</time>
                <name>Position 221</name>
            </trkpt>
            <trkpt lat="46.4531092" lon="7.9138103">
                <ele>2189.6</ele>
                <time>2019-10-12T12:11:34.000Z</time>
                <name>Position 222</name>
            </trkpt>
            <trkpt lat="46.4531667" lon="7.9140793">
                <ele>2191.2</ele>
                <time>2019-10-12T12:11:50.000Z</time>
                <name>Position 223</name>
            </trkpt>
            <trkpt lat="46.4532373" lon="7.9143248">
                <ele>2191.6</ele>
                <time>2019-10-12T12:12:10.000Z</time>
                <name>Position 224</name>
            </trkpt>
            <trkpt lat="46.4533232" lon="7.9145631">
                <ele>2191.2</ele>
                <time>2019-10-12T12:12:26.000Z</time>
                <name>Position 225</name>
            </trkpt>
            <trkpt lat="46.4533436" lon="7.9148286">
                <ele>2191.9</ele>
                <time>2019-10-12T12:13:22.000Z</time>
                <name>Position 226</name>
            </trkpt>
            <trkpt lat="46.4533944" lon="7.9150889">
                <ele>2195.6</ele>
                <time>2019-10-12T12:13:40.000Z</time>
                <name>Position 227</name>
            </trkpt>
            <trkpt lat="46.45322" lon="7.9150228">
                <ele>2196.2</ele>
                <time>2019-10-12T12:20:02.000Z</time>
                <name>Position 228</name>
            </trkpt>
            <trkpt lat="46.4533775" lon="7.915168">
                <ele>2194.6</ele>
                <time>2019-10-12T12:26:04.000Z</time>
                <name>Position 229</name>
            </trkpt>
            <trkpt lat="46.4533884" lon="7.9148782">
                <ele>2192.8</ele>
                <time>2019-10-12T12:26:24.000Z</time>
                <name>Position 230</name>
            </trkpt>
            <trkpt lat="46.4534606" lon="7.9146218">
                <ele>2196.4</ele>
                <time>2019-10-12T12:27:04.000Z</time>
                <name>Position 231</name>
            </trkpt>
            <trkpt lat="46.4535803" lon="7.9143993">
                <ele>2194.8</ele>
                <time>2019-10-12T12:33:20.000Z</time>
                <name>Position 232</name>
            </trkpt>
            <trkpt lat="46.4536461" lon="7.9146427">
                <ele>2194.6</ele>
                <time>2019-10-12T12:34:56.000Z</time>
                <name>Position 233</name>
            </trkpt>
            <trkpt lat="46.4537614" lon="7.9144376">
                <ele>2215.5</ele>
                <time>2019-10-12T12:44:12.000Z</time>
                <name>Position 234</name>
            </trkpt>
            <trkpt lat="46.4539533" lon="7.9143917">
                <ele>2244.3</ele>
                <time>2019-10-12T12:51:32.000Z</time>
                <name>Position 235</name>
            </trkpt>
            <trkpt lat="46.4541406" lon="7.9143842">
                <ele>2258.5</ele>
                <time>2019-10-12T12:54:40.000Z</time>
                <name>Position 236</name>
            </trkpt>
            <trkpt lat="46.4543274" lon="7.9143264">
                <ele>2270.8</ele>
                <time>2019-10-12T12:57:24.000Z</time>
                <name>Position 237</name>
            </trkpt>
            <trkpt lat="46.4545038" lon="7.9143828">
                <ele>2281.2</ele>
                <time>2019-10-12T12:59:10.000Z</time>
                <name>Position 238</name>
            </trkpt>
            <trkpt lat="46.4546836" lon="7.9143904">
                <ele>2305.6</ele>
                <time>2019-10-12T13:05:31.000Z</time>
                <name>Position 239</name>
            </trkpt>
            <trkpt lat="46.4548634" lon="7.9144592">
                <ele>2316.7</ele>
                <time>2019-10-12T13:06:21.000Z</time>
                <name>Position 240</name>
            </trkpt>
            <trkpt lat="46.4550321" lon="7.9145864">
                <ele>2319.4</ele>
                <time>2019-10-12T13:07:33.000Z</time>
                <name>Position 241</name>
            </trkpt>
            <trkpt lat="46.4550502" lon="7.9143109">
                <ele>2330.3</ele>
                <time>2019-10-12T13:13:13.000Z</time>
                <name>Position 242</name>
            </trkpt>
            <trkpt lat="46.4549773" lon="7.9140581">
                <ele>2328.4</ele>
                <time>2019-10-12T13:13:33.000Z</time>
                <name>Position 243</name>
            </trkpt>
            <trkpt lat="46.4549173" lon="7.9137896">
                <ele>2325.8</ele>
                <time>2019-10-12T13:13:51.000Z</time>
                <name>Position 244</name>
            </trkpt>
            <trkpt lat="46.4547734" lon="7.9136054">
                <ele>2325.2</ele>
                <time>2019-10-12T13:14:07.000Z</time>
                <name>Position 245</name>
            </trkpt>
            <trkpt lat="46.4546294" lon="7.9134352">
                <ele>2322.8</ele>
                <time>2019-10-12T13:14:23.000Z</time>
                <name>Position 246</name>
            </trkpt>
            <trkpt lat="46.4544861" lon="7.9132596">
                <ele>2321.5</ele>
                <time>2019-10-12T13:14:39.000Z</time>
                <name>Position 247</name>
            </trkpt>
            <trkpt lat="46.4543512" lon="7.9130809">
                <ele>2318.2</ele>
                <time>2019-10-12T13:15:01.000Z</time>
                <name>Position 248</name>
            </trkpt>
            <trkpt lat="46.4542042" lon="7.9129058">
                <ele>2315.1</ele>
                <time>2019-10-12T13:15:23.000Z</time>
                <name>Position 249</name>
            </trkpt>
            <trkpt lat="46.4540878" lon="7.9126798">
                <ele>2312.4</ele>
                <time>2019-10-12T13:15:41.000Z</time>
                <name>Position 250</name>
            </trkpt>
            <trkpt lat="46.4539747" lon="7.9124469">
                <ele>2307.4</ele>
                <time>2019-10-12T13:16:01.000Z</time>
                <name>Position 251</name>
            </trkpt>
            <trkpt lat="46.453831" lon="7.912255">
                <ele>2304.7</ele>
                <time>2019-10-12T13:16:31.000Z</time>
                <name>Position 252</name>
            </trkpt>
            <trkpt lat="46.4536991" lon="7.9120499">
                <ele>2302.9</ele>
                <time>2019-10-12T13:16:51.000Z</time>
                <name>Position 253</name>
            </trkpt>
            <trkpt lat="46.4535651" lon="7.9118393">
                <ele>2300.6</ele>
                <time>2019-10-12T13:17:23.000Z</time>
                <name>Position 254</name>
            </trkpt>
            <trkpt lat="46.4534179" lon="7.9116732">
                <ele>2297.6</ele>
                <time>2019-10-12T13:17:43.000Z</time>
                <name>Position 255</name>
            </trkpt>
            <trkpt lat="46.4533207" lon="7.9114509">
                <ele>2294.1</ele>
                <time>2019-10-12T13:17:59.000Z</time>
                <name>Position 256</name>
            </trkpt>
            <trkpt lat="46.453196" lon="7.9112597">
                <ele>2293.0</ele>
                <time>2019-10-12T13:18:17.000Z</time>
                <name>Position 257</name>
            </trkpt>
            <trkpt lat="46.4530802" lon="7.9110384">
                <ele>2288.6</ele>
                <time>2019-10-12T13:18:33.000Z</time>
                <name>Position 258</name>
            </trkpt>
            <trkpt lat="46.4529603" lon="7.9108115">
                <ele>2282.1</ele>
                <time>2019-10-12T13:18:55.000Z</time>
                <name>Position 259</name>
            </trkpt>
            <trkpt lat="46.4528037" lon="7.9106551">
                <ele>2275.9</ele>
                <time>2019-10-12T13:19:17.000Z</time>
                <name>Position 260</name>
            </trkpt>
            <trkpt lat="46.4526889" lon="7.9104291">
                <ele>2269.1</ele>
                <time>2019-10-12T13:19:35.000Z</time>
                <name>Position 261</name>
            </trkpt>
            <trkpt lat="46.4526014" lon="7.9101723">
                <ele>2266.4</ele>
                <time>2019-10-12T13:19:49.000Z</time>
                <name>Position 262</name>
            </trkpt>
            <trkpt lat="46.4524909" lon="7.9099144">
                <ele>2259.7</ele>
                <time>2019-10-12T13:20:07.000Z</time>
                <name>Position 263</name>
            </trkpt>
            <trkpt lat="46.4523815" lon="7.9096792">
                <ele>2254.7</ele>
                <time>2019-10-12T13:20:21.000Z</time>
                <name>Position 264</name>
            </trkpt>
            <trkpt lat="46.4522576" lon="7.90946">
                <ele>2251.2</ele>
                <time>2019-10-12T13:20:37.000Z</time>
                <name>Position 265</name>
            </trkpt>
            <trkpt lat="46.452172" lon="7.9092159">
                <ele>2241.5</ele>
                <time>2019-10-12T13:20:59.000Z</time>
                <name>Position 266</name>
            </trkpt>
            <trkpt lat="46.4520853" lon="7.9089734">
                <ele>2231.6</ele>
                <time>2019-10-12T13:21:19.000Z</time>
                <name>Position 267</name>
            </trkpt>
            <trkpt lat="46.4520311" lon="7.9087141">
                <ele>2228.5</ele>
                <time>2019-10-12T13:21:39.000Z</time>
                <name>Position 268</name>
            </trkpt>
            <trkpt lat="46.4519525" lon="7.908479">
                <ele>2220.3</ele>
                <time>2019-10-12T13:22:03.000Z</time>
                <name>Position 269</name>
            </trkpt>
            <trkpt lat="46.4518844" lon="7.908196">
                <ele>2215.2</ele>
                <time>2019-10-12T13:22:27.000Z</time>
                <name>Position 270</name>
            </trkpt>
            <trkpt lat="46.4517685" lon="7.9079577">
                <ele>2210.8</ele>
                <time>2019-10-12T13:22:51.000Z</time>
                <name>Position 271</name>
            </trkpt>
            <trkpt lat="46.4517028" lon="7.9076871">
                <ele>2207.4</ele>
                <time>2019-10-12T13:23:05.000Z</time>
                <name>Position 272</name>
            </trkpt>
            <trkpt lat="46.4516516" lon="7.9074316">
                <ele>2204.1</ele>
                <time>2019-10-12T13:23:21.000Z</time>
                <name>Position 273</name>
            </trkpt>
            <trkpt lat="46.4515579" lon="7.9071671">
                <ele>2200.6</ele>
                <time>2019-10-12T13:23:37.000Z</time>
                <name>Position 274</name>
            </trkpt>
            <trkpt lat="46.4514727" lon="7.9069182">
                <ele>2198.8</ele>
                <time>2019-10-12T13:23:53.000Z</time>
                <name>Position 275</name>
            </trkpt>
            <trkpt lat="46.4514065" lon="7.9066623">
                <ele>2197.7</ele>
                <time>2019-10-12T13:24:09.000Z</time>
                <name>Position 276</name>
            </trkpt>
            <trkpt lat="46.4512962" lon="7.9064552">
                <ele>2190.3</ele>
                <time>2019-10-12T13:24:41.000Z</time>
                <name>Position 277</name>
            </trkpt>
            <trkpt lat="46.4512171" lon="7.9062068">
                <ele>2184.1</ele>
                <time>2019-10-12T13:25:03.000Z</time>
                <name>Position 278</name>
            </trkpt>
            <trkpt lat="46.4510456" lon="7.9060987">
                <ele>2173.4</ele>
                <time>2019-10-12T13:25:35.000Z</time>
                <name>Position 279</name>
            </trkpt>
            <trkpt lat="46.4510931" lon="7.9058447">
                <ele>2159.4</ele>
                <time>2019-10-12T13:26:17.000Z</time>
                <name>Position 280</name>
            </trkpt>
            <trkpt lat="46.4510442" lon="7.905589">
                <ele>2157.4</ele>
                <time>2019-10-12T13:26:37.000Z</time>
                <name>Position 281</name>
            </trkpt>
            <trkpt lat="46.450981" lon="7.9053167">
                <ele>2152.2</ele>
                <time>2019-10-12T13:26:55.000Z</time>
                <name>Position 282</name>
            </trkpt>
            <trkpt lat="46.4509495" lon="7.9050576">
                <ele>2150.6</ele>
                <time>2019-10-12T13:27:09.000Z</time>
                <name>Position 283</name>
            </trkpt>
            <trkpt lat="46.45094" lon="7.9047754">
                <ele>2147.8</ele>
                <time>2019-10-12T13:27:25.000Z</time>
                <name>Position 284</name>
            </trkpt>
            <trkpt lat="46.4509086" lon="7.9045124">
                <ele>2139.7</ele>
                <time>2019-10-12T13:27:43.000Z</time>
                <name>Position 285</name>
            </trkpt>
            <trkpt lat="46.4509262" lon="7.9042217">
                <ele>2135.6</ele>
                <time>2019-10-12T13:27:59.000Z</time>
                <name>Position 286</name>
            </trkpt>
            <trkpt lat="46.4508901" lon="7.9039474">
                <ele>2135.2</ele>
                <time>2019-10-12T13:28:13.000Z</time>
                <name>Position 287</name>
            </trkpt>
            <trkpt lat="46.4508493" lon="7.9036767">
                <ele>2131.3</ele>
                <time>2019-10-12T13:28:29.000Z</time>
                <name>Position 288</name>
            </trkpt>
            <trkpt lat="46.4507018" lon="7.9034974">
                <ele>2128.2</ele>
                <time>2019-10-12T13:28:43.000Z</time>
                <name>Position 289</name>
            </trkpt>
            <trkpt lat="46.4505556" lon="7.9033399">
                <ele>2123.1</ele>
                <time>2019-10-12T13:28:59.000Z</time>
                <name>Position 290</name>
            </trkpt>
            <trkpt lat="46.4503711" lon="7.9033071">
                <ele>2116.5</ele>
                <time>2019-10-12T13:29:15.000Z</time>
                <name>Position 291</name>
            </trkpt>
            <trkpt lat="46.4501892" lon="7.9033788">
                <ele>2109.4</ele>
                <time>2019-10-12T13:29:35.000Z</time>
                <name>Position 292</name>
            </trkpt>
            <trkpt lat="46.450127" lon="7.9036292">
                <ele>2103.5</ele>
                <time>2019-10-12T13:29:53.000Z</time>
                <name>Position 293</name>
            </trkpt>
            <trkpt lat="46.4501269" lon="7.9039175">
                <ele>2100.2</ele>
                <time>2019-10-12T13:30:09.000Z</time>
                <name>Position 294</name>
            </trkpt>
            <trkpt lat="46.4500881" lon="7.9041883">
                <ele>2094.7</ele>
                <time>2019-10-12T13:30:27.000Z</time>
                <name>Position 295</name>
            </trkpt>
            <trkpt lat="46.4500258" lon="7.9044516">
                <ele>2091.3</ele>
                <time>2019-10-12T13:30:45.000Z</time>
                <name>Position 296</name>
            </trkpt>
            <trkpt lat="46.4498766" lon="7.904604">
                <ele>2084.4</ele>
                <time>2019-10-12T13:31:03.000Z</time>
                <name>Position 297</name>
            </trkpt>
            <trkpt lat="46.4497009" lon="7.9045481">
                <ele>2077.5</ele>
                <time>2019-10-12T13:31:17.000Z</time>
                <name>Position 298</name>
            </trkpt>
            <trkpt lat="46.4495628" lon="7.9043798">
                <ele>2074.8</ele>
                <time>2019-10-12T13:31:31.000Z</time>
                <name>Position 299</name>
            </trkpt>
            <trkpt lat="46.4494524" lon="7.9041415">
                <ele>2065.7</ele>
                <time>2019-10-12T13:32:13.000Z</time>
                <name>Position 300</name>
            </trkpt>
            <trkpt lat="46.4492995" lon="7.9039545">
                <ele>2069.5</ele>
                <time>2019-10-12T13:32:25.000Z</time>
                <name>Position 301</name>
            </trkpt>
            <trkpt lat="46.4492014" lon="7.9037151">
                <ele>2064.4</ele>
                <time>2019-10-12T13:32:37.000Z</time>
                <name>Position 302</name>
            </trkpt>
            <trkpt lat="46.4490752" lon="7.903504">
                <ele>2058.7</ele>
                <time>2019-10-12T13:32:51.000Z</time>
                <name>Position 303</name>
            </trkpt>
            <trkpt lat="46.4489386" lon="7.9033107">
                <ele>2054.3</ele>
                <time>2019-10-12T13:33:03.000Z</time>
                <name>Position 304</name>
            </trkpt>
            <trkpt lat="46.4487672" lon="7.9032294">
                <ele>2049.7</ele>
                <time>2019-10-12T13:33:17.000Z</time>
                <name>Position 305</name>
            </trkpt>
            <trkpt lat="46.4486378" lon="7.9030393">
                <ele>2045.9</ele>
                <time>2019-10-12T13:33:31.000Z</time>
                <name>Position 306</name>
            </trkpt>
            <trkpt lat="46.4485238" lon="7.9028264">
                <ele>2042.8</ele>
                <time>2019-10-12T13:33:45.000Z</time>
                <name>Position 307</name>
            </trkpt>
            <trkpt lat="46.448383" lon="7.9026018">
                <ele>2041.8</ele>
                <time>2019-10-12T13:33:57.000Z</time>
                <name>Position 308</name>
            </trkpt>
            <trkpt lat="46.4482958" lon="7.9023666">
                <ele>2037.8</ele>
                <time>2019-10-12T13:34:09.000Z</time>
                <name>Position 309</name>
            </trkpt>
            <trkpt lat="46.4481897" lon="7.9020956">
                <ele>2035.2</ele>
                <time>2019-10-12T13:34:23.000Z</time>
                <name>Position 310</name>
            </trkpt>
            <trkpt lat="46.4481134" lon="7.9018395">
                <ele>2033.6</ele>
                <time>2019-10-12T13:34:35.000Z</time>
                <name>Position 311</name>
            </trkpt>
            <trkpt lat="46.448046" lon="7.9015968">
                <ele>2031.7</ele>
                <time>2019-10-12T13:34:47.000Z</time>
                <name>Position 312</name>
            </trkpt>
            <trkpt lat="46.447996" lon="7.9013314">
                <ele>2029.6</ele>
                <time>2019-10-12T13:34:59.000Z</time>
                <name>Position 313</name>
            </trkpt>
            <trkpt lat="46.4478783" lon="7.9011035">
                <ele>2027.1</ele>
                <time>2019-10-12T13:35:11.000Z</time>
                <name>Position 314</name>
            </trkpt>
            <trkpt lat="46.4477239" lon="7.9009195">
                <ele>2025.5</ele>
                <time>2019-10-12T13:35:23.000Z</time>
                <name>Position 315</name>
            </trkpt>
            <trkpt lat="46.447596" lon="7.9007006">
                <ele>2022.2</ele>
                <time>2019-10-12T13:35:35.000Z</time>
                <name>Position 316</name>
            </trkpt>
            <trkpt lat="46.4474324" lon="7.9004432">
                <ele>2022.2</ele>
                <time>2019-10-12T13:35:47.000Z</time>
                <name>Position 317</name>
            </trkpt>
            <trkpt lat="46.4472868" lon="7.9002891">
                <ele>2017.9</ele>
                <time>2019-10-12T13:36:01.000Z</time>
                <name>Position 318</name>
            </trkpt>
            <trkpt lat="46.4471542" lon="7.9000984">
                <ele>2014.3</ele>
                <time>2019-10-12T13:36:15.000Z</time>
                <name>Position 319</name>
            </trkpt>
            <trkpt lat="46.4470245" lon="7.8998776">
                <ele>2009.8</ele>
                <time>2019-10-12T13:36:29.000Z</time>
                <name>Position 320</name>
            </trkpt>
            <trkpt lat="46.4469149" lon="7.8996652">
                <ele>2005.1</ele>
                <time>2019-10-12T13:36:43.000Z</time>
                <name>Position 321</name>
            </trkpt>
            <trkpt lat="46.4468077" lon="7.8994196">
                <ele>2002.8</ele>
                <time>2019-10-12T13:36:55.000Z</time>
                <name>Position 322</name>
            </trkpt>
            <trkpt lat="46.446681" lon="7.8991917">
                <ele>1998.9</ele>
                <time>2019-10-12T13:37:09.000Z</time>
                <name>Position 323</name>
            </trkpt>
            <trkpt lat="46.4465267" lon="7.899029">
                <ele>1995.2</ele>
                <time>2019-10-12T13:37:21.000Z</time>
                <name>Position 324</name>
            </trkpt>
            <trkpt lat="46.4464023" lon="7.8988026">
                <ele>1992.2</ele>
                <time>2019-10-12T13:37:33.000Z</time>
                <name>Position 325</name>
            </trkpt>
            <trkpt lat="46.4462815" lon="7.8985976">
                <ele>1988.8</ele>
                <time>2019-10-12T13:37:43.000Z</time>
                <name>Position 326</name>
            </trkpt>
            <trkpt lat="46.4461289" lon="7.8984294">
                <ele>1985.4</ele>
                <time>2019-10-12T13:37:55.000Z</time>
                <name>Position 327</name>
            </trkpt>
            <trkpt lat="46.4460031" lon="7.8982073">
                <ele>1983.1</ele>
                <time>2019-10-12T13:38:07.000Z</time>
                <name>Position 328</name>
            </trkpt>
            <trkpt lat="46.4458819" lon="7.8980089">
                <ele>1980.6</ele>
                <time>2019-10-12T13:38:19.000Z</time>
                <name>Position 329</name>
            </trkpt>
            <trkpt lat="46.4457438" lon="7.8978108">
                <ele>1977.9</ele>
                <time>2019-10-12T13:38:31.000Z</time>
                <name>Position 330</name>
            </trkpt>
            <trkpt lat="46.4456067" lon="7.8976187">
                <ele>1976.1</ele>
                <time>2019-10-12T13:38:43.000Z</time>
                <name>Position 331</name>
            </trkpt>
            <trkpt lat="46.4454372" lon="7.8975108">
                <ele>1975.5</ele>
                <time>2019-10-12T13:38:57.000Z</time>
                <name>Position 332</name>
            </trkpt>
            <trkpt lat="46.445265" lon="7.8973817">
                <ele>1974.1</ele>
                <time>2019-10-12T13:39:11.000Z</time>
                <name>Position 333</name>
            </trkpt>
            <trkpt lat="46.4451014" lon="7.8972502">
                <ele>1971.1</ele>
                <time>2019-10-12T13:39:23.000Z</time>
                <name>Position 334</name>
            </trkpt>
            <trkpt lat="46.4449299" lon="7.8971199">
                <ele>1971.9</ele>
                <time>2019-10-12T13:39:37.000Z</time>
                <name>Position 335</name>
            </trkpt>
            <trkpt lat="46.4447711" lon="7.8972698">
                <ele>1971.6</ele>
                <time>2019-10-12T13:39:53.000Z</time>
                <name>Position 336</name>
            </trkpt>
            <trkpt lat="46.4445935" lon="7.8974085">
                <ele>1972.2</ele>
                <time>2019-10-12T13:40:07.000Z</time>
                <name>Position 337</name>
            </trkpt>
            <trkpt lat="46.4444221" lon="7.8972306">
                <ele>1972.4</ele>
                <time>2019-10-12T13:40:41.000Z</time>
                <name>Position 338</name>
            </trkpt>
            <trkpt lat="46.4443534" lon="7.8969682">
                <ele>1969.8</ele>
                <time>2019-10-12T13:40:57.000Z</time>
                <name>Position 339</name>
            </trkpt>
            <trkpt lat="46.4442793" lon="7.8966936">
                <ele>1968.1</ele>
                <time>2019-10-12T13:41:11.000Z</time>
                <name>Position 340</name>
            </trkpt>
            <trkpt lat="46.444225" lon="7.8963943">
                <ele>1967.1</ele>
                <time>2019-10-12T13:41:23.000Z</time>
                <name>Position 341</name>
            </trkpt>
            <trkpt lat="46.4441593" lon="7.8961429">
                <ele>1967.1</ele>
                <time>2019-10-12T13:41:35.000Z</time>
                <name>Position 342</name>
            </trkpt>
            <trkpt lat="46.4440853" lon="7.8959025">
                <ele>1966.7</ele>
                <time>2019-10-12T13:41:45.000Z</time>
                <name>Position 343</name>
            </trkpt>
            <trkpt lat="46.4439969" lon="7.8956431">
                <ele>1965.5</ele>
                <time>2019-10-12T13:41:57.000Z</time>
                <name>Position 344</name>
            </trkpt>
            <trkpt lat="46.4439121" lon="7.8953682">
                <ele>1963.2</ele>
                <time>2019-10-12T13:42:11.000Z</time>
                <name>Position 345</name>
            </trkpt>
            <trkpt lat="46.4438437" lon="7.8951025">
                <ele>1963.9</ele>
                <time>2019-10-12T13:42:23.000Z</time>
                <name>Position 346</name>
            </trkpt>
            <trkpt lat="46.4437993" lon="7.8948238">
                <ele>1963.4</ele>
                <time>2019-10-12T13:42:39.000Z</time>
                <name>Position 347</name>
            </trkpt>
            <trkpt lat="46.4437502" lon="7.8945605">
                <ele>1963.5</ele>
                <time>2019-10-12T13:42:53.000Z</time>
                <name>Position 348</name>
            </trkpt>
            <trkpt lat="46.4436488" lon="7.8943036">
                <ele>1963.9</ele>
                <time>2019-10-12T13:43:05.000Z</time>
                <name>Position 349</name>
            </trkpt>
            <trkpt lat="46.4435841" lon="7.8940294">
                <ele>1961.8</ele>
                <time>2019-10-12T13:43:21.000Z</time>
                <name>Position 350</name>
            </trkpt>
            <trkpt lat="46.44346" lon="7.8937903">
                <ele>1962.8</ele>
                <time>2019-10-12T13:43:31.000Z</time>
                <name>Position 351</name>
            </trkpt>
            <trkpt lat="46.4434387" lon="7.8935067">
                <ele>1961.5</ele>
                <time>2019-10-12T13:43:45.000Z</time>
                <name>Position 352</name>
            </trkpt>
            <trkpt lat="46.4434154" lon="7.8932435">
                <ele>1958.6</ele>
                <time>2019-10-12T13:43:59.000Z</time>
                <name>Position 353</name>
            </trkpt>
            <trkpt lat="46.4433511" lon="7.8929634">
                <ele>1950.5</ele>
                <time>2019-10-12T13:44:17.000Z</time>
                <name>Position 354</name>
            </trkpt>
            <trkpt lat="46.4433603" lon="7.8926777">
                <ele>1945.9</ele>
                <time>2019-10-12T13:44:35.000Z</time>
                <name>Position 355</name>
            </trkpt>
            <trkpt lat="46.4432795" lon="7.8924343">
                <ele>1942.2</ele>
                <time>2019-10-12T13:44:49.000Z</time>
                <name>Position 356</name>
            </trkpt>
            <trkpt lat="46.4432242" lon="7.892151">
                <ele>1939.4</ele>
                <time>2019-10-12T13:45:03.000Z</time>
                <name>Position 357</name>
            </trkpt>
            <trkpt lat="46.4431502" lon="7.8918944">
                <ele>1938.0</ele>
                <time>2019-10-12T13:45:17.000Z</time>
                <name>Position 358</name>
            </trkpt>
            <trkpt lat="46.4431067" lon="7.8916">
                <ele>1937.1</ele>
                <time>2019-10-12T13:45:31.000Z</time>
                <name>Position 359</name>
            </trkpt>
            <trkpt lat="46.4431114" lon="7.8913321">
                <ele>1934.5</ele>
                <time>2019-10-12T13:45:45.000Z</time>
                <name>Position 360</name>
            </trkpt>
            <trkpt lat="46.4431384" lon="7.8910587">
                <ele>1935.5</ele>
                <time>2019-10-12T13:45:57.000Z</time>
                <name>Position 361</name>
            </trkpt>
            <trkpt lat="46.443106" lon="7.8907916">
                <ele>1934.1</ele>
                <time>2019-10-12T13:46:08.000Z</time>
                <name>Position 362</name>
            </trkpt>
            <trkpt lat="46.4430677" lon="7.8904923">
                <ele>1930.8</ele>
                <time>2019-10-12T13:46:24.000Z</time>
                <name>Position 363</name>
            </trkpt>
            <trkpt lat="46.4430029" lon="7.8902161">
                <ele>1931.7</ele>
                <time>2019-10-12T13:46:36.000Z</time>
                <name>Position 364</name>
            </trkpt>
            <trkpt lat="46.4429224" lon="7.8899377">
                <ele>1928.3</ele>
                <time>2019-10-12T13:46:50.000Z</time>
                <name>Position 365</name>
            </trkpt>
            <trkpt lat="46.4428452" lon="7.8896517">
                <ele>1926.3</ele>
                <time>2019-10-12T13:47:04.000Z</time>
                <name>Position 366</name>
            </trkpt>
            <trkpt lat="46.4427473" lon="7.8894258">
                <ele>1925.4</ele>
                <time>2019-10-12T13:47:16.000Z</time>
                <name>Position 367</name>
            </trkpt>
            <trkpt lat="46.4427128" lon="7.8891569">
                <ele>1922.8</ele>
                <time>2019-10-12T13:47:28.000Z</time>
                <name>Position 368</name>
            </trkpt>
            <trkpt lat="46.4426744" lon="7.888883">
                <ele>1921.5</ele>
                <time>2019-10-12T13:47:42.000Z</time>
                <name>Position 369</name>
            </trkpt>
            <trkpt lat="46.4426514" lon="7.88861">
                <ele>1918.0</ele>
                <time>2019-10-12T13:47:54.000Z</time>
                <name>Position 370</name>
            </trkpt>
            <trkpt lat="46.4426575" lon="7.8883406">
                <ele>1913.3</ele>
                <time>2019-10-12T13:48:08.000Z</time>
                <name>Position 371</name>
            </trkpt>
            <trkpt lat="46.4426107" lon="7.8880811">
                <ele>1911.7</ele>
                <time>2019-10-12T13:48:20.000Z</time>
                <name>Position 372</name>
            </trkpt>
            <trkpt lat="46.4425315" lon="7.8878275">
                <ele>1911.8</ele>
                <time>2019-10-12T13:48:34.000Z</time>
                <name>Position 373</name>
            </trkpt>
            <trkpt lat="46.4423549" lon="7.8876979">
                <ele>1909.8</ele>
                <time>2019-10-12T13:48:46.000Z</time>
                <name>Position 374</name>
            </trkpt>
            <trkpt lat="46.4422016" lon="7.887557">
                <ele>1909.1</ele>
                <time>2019-10-12T13:48:58.000Z</time>
                <name>Position 375</name>
            </trkpt>
            <trkpt lat="46.4420564" lon="7.8873632">
                <ele>1906.1</ele>
                <time>2019-10-12T13:49:14.000Z</time>
                <name>Position 376</name>
            </trkpt>
            <trkpt lat="46.4419666" lon="7.8871324">
                <ele>1906.6</ele>
                <time>2019-10-12T13:49:26.000Z</time>
                <name>Position 377</name>
            </trkpt>
            <trkpt lat="46.4418307" lon="7.8869361">
                <ele>1904.4</ele>
                <time>2019-10-12T13:49:40.000Z</time>
                <name>Position 378</name>
            </trkpt>
            <trkpt lat="46.441728" lon="7.8867005">
                <ele>1901.5</ele>
                <time>2019-10-12T13:49:52.000Z</time>
                <name>Position 379</name>
            </trkpt>
            <trkpt lat="46.441595" lon="7.8865213">
                <ele>1899.7</ele>
                <time>2019-10-12T13:50:02.000Z</time>
                <name>Position 380</name>
            </trkpt>
            <trkpt lat="46.4415441" lon="7.8862396">
                <ele>1896.2</ele>
                <time>2019-10-12T13:50:16.000Z</time>
                <name>Position 381</name>
            </trkpt>
            <trkpt lat="46.4414182" lon="7.8860442">
                <ele>1896.5</ele>
                <time>2019-10-12T13:50:30.000Z</time>
                <name>Position 382</name>
            </trkpt>
            <trkpt lat="46.4413083" lon="7.8857892">
                <ele>1894.1</ele>
                <time>2019-10-12T13:50:44.000Z</time>
                <name>Position 383</name>
            </trkpt>
            <trkpt lat="46.4413044" lon="7.8855278">
                <ele>1892.0</ele>
                <time>2019-10-12T13:50:56.000Z</time>
                <name>Position 384</name>
            </trkpt>
            <trkpt lat="46.4413182" lon="7.8852561">
                <ele>1889.8</ele>
                <time>2019-10-12T13:51:08.000Z</time>
                <name>Position 385</name>
            </trkpt>
            <trkpt lat="46.4412949" lon="7.8849545">
                <ele>1888.1</ele>
                <time>2019-10-12T13:51:22.000Z</time>
                <name>Position 386</name>
            </trkpt>
            <trkpt lat="46.4412805" lon="7.8846563">
                <ele>1888.8</ele>
                <time>2019-10-12T13:51:36.000Z</time>
                <name>Position 387</name>
            </trkpt>
            <trkpt lat="46.4413012" lon="7.8843791">
                <ele>1886.1</ele>
                <time>2019-10-12T13:51:48.000Z</time>
                <name>Position 388</name>
            </trkpt>
            <trkpt lat="46.4413297" lon="7.8841193">
                <ele>1882.3</ele>
                <time>2019-10-12T13:52:00.000Z</time>
                <name>Position 389</name>
            </trkpt>
            <trkpt lat="46.4413015" lon="7.8838539">
                <ele>1880.0</ele>
                <time>2019-10-12T13:52:12.000Z</time>
                <name>Position 390</name>
            </trkpt>
            <trkpt lat="46.4412325" lon="7.8836028">
                <ele>1878.3</ele>
                <time>2019-10-12T13:52:24.000Z</time>
                <name>Position 391</name>
            </trkpt>
            <trkpt lat="46.4411726" lon="7.8833443">
                <ele>1878.6</ele>
                <time>2019-10-12T13:52:36.000Z</time>
                <name>Position 392</name>
            </trkpt>
            <trkpt lat="46.441088" lon="7.8830847">
                <ele>1877.6</ele>
                <time>2019-10-12T13:52:50.000Z</time>
                <name>Position 393</name>
            </trkpt>
            <trkpt lat="46.4409447" lon="7.8828737">
                <ele>1876.8</ele>
                <time>2019-10-12T13:53:02.000Z</time>
                <name>Position 394</name>
            </trkpt>
            <trkpt lat="46.4408192" lon="7.8826422">
                <ele>1876.0</ele>
                <time>2019-10-12T13:53:16.000Z</time>
                <name>Position 395</name>
            </trkpt>
            <trkpt lat="46.4407168" lon="7.8823927">
                <ele>1873.8</ele>
                <time>2019-10-12T13:53:30.000Z</time>
                <name>Position 396</name>
            </trkpt>
            <trkpt lat="46.4406951" lon="7.8821042">
                <ele>1872.1</ele>
                <time>2019-10-12T13:53:44.000Z</time>
                <name>Position 397</name>
            </trkpt>
            <trkpt lat="46.4406285" lon="7.8818281">
                <ele>1870.7</ele>
                <time>2019-10-12T13:53:58.000Z</time>
                <name>Position 398</name>
            </trkpt>
            <trkpt lat="46.4405171" lon="7.8815821">
                <ele>1869.2</ele>
                <time>2019-10-12T13:54:12.000Z</time>
                <name>Position 399</name>
            </trkpt>
            <trkpt lat="46.4404163" lon="7.8813015">
                <ele>1868.2</ele>
                <time>2019-10-12T13:54:26.000Z</time>
                <name>Position 400</name>
            </trkpt>
            <trkpt lat="46.4402843" lon="7.8811134">
                <ele>1868.6</ele>
                <time>2019-10-12T13:54:38.000Z</time>
                <name>Position 401</name>
            </trkpt>
            <trkpt lat="46.4401489" lon="7.8809174">
                <ele>1867.4</ele>
                <time>2019-10-12T13:54:50.000Z</time>
                <name>Position 402</name>
            </trkpt>
            <trkpt lat="46.4400092" lon="7.8807085">
                <ele>1866.1</ele>
                <time>2019-10-12T13:55:02.000Z</time>
                <name>Position 403</name>
            </trkpt>
            <trkpt lat="46.4400008" lon="7.8804314">
                <ele>1863.6</ele>
                <time>2019-10-12T13:55:14.000Z</time>
                <name>Position 404</name>
            </trkpt>
            <trkpt lat="46.4399964" lon="7.8801528">
                <ele>1861.8</ele>
                <time>2019-10-12T13:55:26.000Z</time>
                <name>Position 405</name>
            </trkpt>
            <trkpt lat="46.4399155" lon="7.8798688">
                <ele>1862.2</ele>
                <time>2019-10-12T13:55:38.000Z</time>
                <name>Position 406</name>
            </trkpt>
            <trkpt lat="46.4398527" lon="7.8796204">
                <ele>1861.0</ele>
                <time>2019-10-12T13:55:50.000Z</time>
                <name>Position 407</name>
            </trkpt>
            <trkpt lat="46.4398662" lon="7.8793368">
                <ele>1859.3</ele>
                <time>2019-10-12T13:56:02.000Z</time>
                <name>Position 408</name>
            </trkpt>
            <trkpt lat="46.4398234" lon="7.8790597">
                <ele>1857.8</ele>
                <time>2019-10-12T13:56:14.000Z</time>
                <name>Position 409</name>
            </trkpt>
            <trkpt lat="46.4397633" lon="7.8787832">
                <ele>1856.8</ele>
                <time>2019-10-12T13:56:26.000Z</time>
                <name>Position 410</name>
            </trkpt>
            <trkpt lat="46.4396482" lon="7.8785704">
                <ele>1855.6</ele>
                <time>2019-10-12T13:56:38.000Z</time>
                <name>Position 411</name>
            </trkpt>
            <trkpt lat="46.4395991" lon="7.8782983">
                <ele>1854.3</ele>
                <time>2019-10-12T13:56:50.000Z</time>
                <name>Position 412</name>
            </trkpt>
            <trkpt lat="46.4395284" lon="7.8780159">
                <ele>1853.9</ele>
                <time>2019-10-12T13:57:02.000Z</time>
                <name>Position 413</name>
            </trkpt>
            <trkpt lat="46.4394882" lon="7.8777218">
                <ele>1852.7</ele>
                <time>2019-10-12T13:57:14.000Z</time>
                <name>Position 414</name>
            </trkpt>
            <trkpt lat="46.4394085" lon="7.8774697">
                <ele>1851.8</ele>
                <time>2019-10-12T13:57:26.000Z</time>
                <name>Position 415</name>
            </trkpt>
            <trkpt lat="46.4393239" lon="7.8772016">
                <ele>1848.6</ele>
                <time>2019-10-12T13:57:40.000Z</time>
                <name>Position 416</name>
            </trkpt>
            <trkpt lat="46.4392398" lon="7.8769453">
                <ele>1848.1</ele>
                <time>2019-10-12T13:57:52.000Z</time>
                <name>Position 417</name>
            </trkpt>
            <trkpt lat="46.4391054" lon="7.8767138">
                <ele>1847.0</ele>
                <time>2019-10-12T13:58:06.000Z</time>
                <name>Position 418</name>
            </trkpt>
            <trkpt lat="46.4390227" lon="7.8764624">
                <ele>1847.0</ele>
                <time>2019-10-12T13:58:16.000Z</time>
                <name>Position 419</name>
            </trkpt>
            <trkpt lat="46.4390071" lon="7.876177">
                <ele>1845.6</ele>
                <time>2019-10-12T13:58:30.000Z</time>
                <name>Position 420</name>
            </trkpt>
            <trkpt lat="46.4389233" lon="7.8759275">
                <ele>1845.2</ele>
                <time>2019-10-12T13:58:42.000Z</time>
                <name>Position 421</name>
            </trkpt>
            <trkpt lat="46.4388162" lon="7.8756732">
                <ele>1847.4</ele>
                <time>2019-10-12T13:58:54.000Z</time>
                <name>Position 422</name>
            </trkpt>
            <trkpt lat="46.4387048" lon="7.8754163">
                <ele>1846.0</ele>
                <time>2019-10-12T13:59:08.000Z</time>
                <name>Position 423</name>
            </trkpt>
            <trkpt lat="46.4385999" lon="7.8751888">
                <ele>1844.8</ele>
                <time>2019-10-12T13:59:20.000Z</time>
                <name>Position 424</name>
            </trkpt>
            <trkpt lat="46.4384859" lon="7.8749728">
                <ele>1843.8</ele>
                <time>2019-10-12T13:59:32.000Z</time>
                <name>Position 425</name>
            </trkpt>
            <trkpt lat="46.438425" lon="7.8747172">
                <ele>1842.5</ele>
                <time>2019-10-12T14:00:04.000Z</time>
                <name>Position 426</name>
            </trkpt>
            <trkpt lat="46.4382578" lon="7.8745424">
                <ele>1842.4</ele>
                <time>2019-10-12T14:00:18.000Z</time>
                <name>Position 427</name>
            </trkpt>
            <trkpt lat="46.4381075" lon="7.8743795">
                <ele>1841.7</ele>
                <time>2019-10-12T14:00:30.000Z</time>
                <name>Position 428</name>
            </trkpt>
            <trkpt lat="46.437973" lon="7.8741971">
                <ele>1841.5</ele>
                <time>2019-10-12T14:00:42.000Z</time>
                <name>Position 429</name>
            </trkpt>
            <trkpt lat="46.4378285" lon="7.8740333">
                <ele>1842.9</ele>
                <time>2019-10-12T14:00:52.000Z</time>
                <name>Position 430</name>
            </trkpt>
            <trkpt lat="46.437677" lon="7.8738625">
                <ele>1841.3</ele>
                <time>2019-10-12T14:01:06.000Z</time>
                <name>Position 431</name>
            </trkpt>
            <trkpt lat="46.4375025" lon="7.8737409">
                <ele>1840.7</ele>
                <time>2019-10-12T14:01:18.000Z</time>
                <name>Position 432</name>
            </trkpt>
            <trkpt lat="46.4373401" lon="7.8735938">
                <ele>1839.3</ele>
                <time>2019-10-12T14:01:34.000Z</time>
                <name>Position 433</name>
            </trkpt>
            <trkpt lat="46.4372006" lon="7.8734048">
                <ele>1837.3</ele>
                <time>2019-10-12T14:01:48.000Z</time>
                <name>Position 434</name>
            </trkpt>
            <trkpt lat="46.4372387" lon="7.8731372">
                <ele>1837.1</ele>
                <time>2019-10-12T14:02:00.000Z</time>
                <name>Position 435</name>
            </trkpt>
            <trkpt lat="46.43724" lon="7.8728584">
                <ele>1833.7</ele>
                <time>2019-10-12T14:02:12.000Z</time>
                <name>Position 436</name>
            </trkpt>
            <trkpt lat="46.4372345" lon="7.8725637">
                <ele>1833.6</ele>
                <time>2019-10-12T14:02:24.000Z</time>
                <name>Position 437</name>
            </trkpt>
            <trkpt lat="46.4372103" lon="7.8722803">
                <ele>1832.5</ele>
                <time>2019-10-12T14:02:36.000Z</time>
                <name>Position 438</name>
            </trkpt>
            <trkpt lat="46.4371937" lon="7.8719695">
                <ele>1833.7</ele>
                <time>2019-10-12T14:02:48.000Z</time>
                <name>Position 439</name>
            </trkpt>
            <trkpt lat="46.437094" lon="7.8717345">
                <ele>1831.7</ele>
                <time>2019-10-12T14:02:58.000Z</time>
                <name>Position 440</name>
            </trkpt>
            <trkpt lat="46.4369933" lon="7.8714833">
                <ele>1828.6</ele>
                <time>2019-10-12T14:03:14.000Z</time>
                <name>Position 441</name>
            </trkpt>
            <trkpt lat="46.4369208" lon="7.8712148">
                <ele>1826.1</ele>
                <time>2019-10-12T14:03:26.000Z</time>
                <name>Position 442</name>
            </trkpt>
            <trkpt lat="46.4368148" lon="7.8709484">
                <ele>1823.6</ele>
                <time>2019-10-12T14:03:38.000Z</time>
                <name>Position 443</name>
            </trkpt>
            <trkpt lat="46.4367191" lon="7.8706988">
                <ele>1820.4</ele>
                <time>2019-10-12T14:03:50.000Z</time>
                <name>Position 444</name>
            </trkpt>
            <trkpt lat="46.43667" lon="7.870396">
                <ele>1819.3</ele>
                <time>2019-10-12T14:04:00.000Z</time>
                <name>Position 445</name>
            </trkpt>
            <trkpt lat="46.4366116" lon="7.8701325">
                <ele>1817.2</ele>
                <time>2019-10-12T14:04:12.000Z</time>
                <name>Position 446</name>
            </trkpt>
            <trkpt lat="46.4365498" lon="7.8698565">
                <ele>1815.8</ele>
                <time>2019-10-12T14:04:24.000Z</time>
                <name>Position 447</name>
            </trkpt>
            <trkpt lat="46.4364275" lon="7.8696337">
                <ele>1812.9</ele>
                <time>2019-10-12T14:04:36.000Z</time>
                <name>Position 448</name>
            </trkpt>
            <trkpt lat="46.4363293" lon="7.8694103">
                <ele>1811.3</ele>
                <time>2019-10-12T14:04:48.000Z</time>
                <name>Position 449</name>
            </trkpt>
            <trkpt lat="46.4362075" lon="7.8691667">
                <ele>1810.9</ele>
                <time>2019-10-12T14:05:00.000Z</time>
                <name>Position 450</name>
            </trkpt>
            <trkpt lat="46.4360912" lon="7.868944">
                <ele>1810.6</ele>
                <time>2019-10-12T14:05:12.000Z</time>
                <name>Position 451</name>
            </trkpt>
            <trkpt lat="46.4359945" lon="7.8686817">
                <ele>1810.6</ele>
                <time>2019-10-12T14:05:26.000Z</time>
                <name>Position 452</name>
            </trkpt>
            <trkpt lat="46.4358765" lon="7.8684543">
                <ele>1807.7</ele>
                <time>2019-10-12T14:05:38.000Z</time>
                <name>Position 453</name>
            </trkpt>
            <trkpt lat="46.4358237" lon="7.8681989">
                <ele>1805.1</ele>
                <time>2019-10-12T14:05:50.000Z</time>
                <name>Position 454</name>
            </trkpt>
            <trkpt lat="46.4357411" lon="7.8679497">
                <ele>1803.2</ele>
                <time>2019-10-12T14:06:02.000Z</time>
                <name>Position 455</name>
            </trkpt>
            <trkpt lat="46.4356433" lon="7.8677224">
                <ele>1801.8</ele>
                <time>2019-10-12T14:06:14.000Z</time>
                <name>Position 456</name>
            </trkpt>
            <trkpt lat="46.435647" lon="7.8674307">
                <ele>1798.4</ele>
                <time>2019-10-12T14:06:28.000Z</time>
                <name>Position 457</name>
            </trkpt>
            <trkpt lat="46.4355536" lon="7.8671773">
                <ele>1796.5</ele>
                <time>2019-10-12T14:06:40.000Z</time>
                <name>Position 458</name>
            </trkpt>
            <trkpt lat="46.4354241" lon="7.8669447">
                <ele>1793.9</ele>
                <time>2019-10-12T14:06:54.000Z</time>
                <name>Position 459</name>
            </trkpt>
            <trkpt lat="46.4353513" lon="7.8666779">
                <ele>1791.4</ele>
                <time>2019-10-12T14:07:08.000Z</time>
                <name>Position 460</name>
            </trkpt>
            <trkpt lat="46.4352796" lon="7.8664281">
                <ele>1789.0</ele>
                <time>2019-10-12T14:07:20.000Z</time>
                <name>Position 461</name>
            </trkpt>
            <trkpt lat="46.4352024" lon="7.8661585">
                <ele>1786.7</ele>
                <time>2019-10-12T14:07:32.000Z</time>
                <name>Position 462</name>
            </trkpt>
            <trkpt lat="46.4351389" lon="7.8659085">
                <ele>1784.6</ele>
                <time>2019-10-12T14:07:44.000Z</time>
                <name>Position 463</name>
            </trkpt>
            <trkpt lat="46.4350631" lon="7.8656517">
                <ele>1780.8</ele>
                <time>2019-10-12T14:08:00.000Z</time>
                <name>Position 464</name>
            </trkpt>
            <trkpt lat="46.4350379" lon="7.8653904">
                <ele>1776.0</ele>
                <time>2019-10-12T14:08:14.000Z</time>
                <name>Position 465</name>
            </trkpt>
            <trkpt lat="46.4350789" lon="7.8651097">
                <ele>1776.3</ele>
                <time>2019-10-12T14:08:26.000Z</time>
                <name>Position 466</name>
            </trkpt>
            <trkpt lat="46.4351424" lon="7.8648504">
                <ele>1774.8</ele>
                <time>2019-10-12T14:08:40.000Z</time>
                <name>Position 467</name>
            </trkpt>
            <trkpt lat="46.4350809" lon="7.8645814">
                <ele>1773.7</ele>
                <time>2019-10-12T14:08:52.000Z</time>
                <name>Position 468</name>
            </trkpt>
            <trkpt lat="46.4350187" lon="7.8643179">
                <ele>1773.1</ele>
                <time>2019-10-12T14:09:04.000Z</time>
                <name>Position 469</name>
            </trkpt>
            <trkpt lat="46.4349391" lon="7.8640491">
                <ele>1772.1</ele>
                <time>2019-10-12T14:09:16.000Z</time>
                <name>Position 470</name>
            </trkpt>
            <trkpt lat="46.4348509" lon="7.8637899">
                <ele>1772.0</ele>
                <time>2019-10-12T14:09:30.000Z</time>
                <name>Position 471</name>
            </trkpt>
            <trkpt lat="46.4347596" lon="7.863534">
                <ele>1772.8</ele>
                <time>2019-10-12T14:09:42.000Z</time>
                <name>Position 472</name>
            </trkpt>
            <trkpt lat="46.4346737" lon="7.8632745">
                <ele>1772.2</ele>
                <time>2019-10-12T14:09:54.000Z</time>
                <name>Position 473</name>
            </trkpt>
            <trkpt lat="46.434579" lon="7.863048">
                <ele>1772.1</ele>
                <time>2019-10-12T14:10:06.000Z</time>
                <name>Position 474</name>
            </trkpt>
            <trkpt lat="46.4345082" lon="7.8627994">
                <ele>1772.9</ele>
                <time>2019-10-12T14:10:18.000Z</time>
                <name>Position 475</name>
            </trkpt>
            <trkpt lat="46.4344385" lon="7.8625106">
                <ele>1771.1</ele>
                <time>2019-10-12T14:10:32.000Z</time>
                <name>Position 476</name>
            </trkpt>
            <trkpt lat="46.4343299" lon="7.8622988">
                <ele>1768.4</ele>
                <time>2019-10-12T14:10:50.000Z</time>
                <name>Position 477</name>
            </trkpt>
            <trkpt lat="46.4341445" lon="7.8622256">
                <ele>1769.7</ele>
                <time>2019-10-12T14:11:02.000Z</time>
                <name>Position 478</name>
            </trkpt>
        </trkseg>
    </trk>
</gpx>
