<?xml version="1.0" encoding="UTF-8" standalone="yes"?>
<gpx xmlns:gpxtpx1="http://www.garmin.com/xmlschemas/TrackPointExtension/v1" xmlns="http://www.topografix.com/GPX/1/1" xmlns:trp="http://www.garmin.com/xmlschemas/TripExtensions/v1" xmlns:gpxx="http://www.garmin.com/xmlschemas/GpxExtensions/v3" xmlns:gpxtpx="http://www.garmin.com/xmlschemas/TrackPointExtension/v2" version="1.1" creator="RouteConverter 2.27.2">
    <trk>
        <name>2024-09-07 09:06:52</name>
        <extensions>
            <mytracks:color xmlns:mytracks="http://mytracks.stichling.info/myTracksGPX/1/0" xmlns:xsd="http://www.w3.org/2001/XMLSchema" xmlns:xsi="http://www.w3.org/2001/XMLSchema-instance" alpha="1.000000" blue="1.000000" green="0.000000" red="0.000000"/>
            <mytracks:area xmlns:mytracks="http://mytracks.stichling.info/myTracksGPX/1/0" xmlns:xsd="http://www.w3.org/2001/XMLSchema" xmlns:xsi="http://www.w3.org/2001/XMLSchema-instance" areaDistance="0.000000" showArea="no"/>
            <mytracks:directionArrows xmlns:mytracks="http://mytracks.stichling.info/myTracksGPX/1/0" xmlns:xsd="http://www.w3.org/2001/XMLSchema" xmlns:xsi="http://www.w3.org/2001/XMLSchema-instance" showDirectionArrows="yes"/>
            <mytracks:sync xmlns:mytracks="http://mytracks.stichling.info/myTracksGPX/1/0" xmlns:xsd="http://www.w3.org/2001/XMLSchema" xmlns:xsi="http://www.w3.org/2001/XMLSchema-instance" syncPhotosOniPhone="no"/>
            <mytracks:timezone xmlns:mytracks="http://mytracks.stichling.info/myTracksGPX/1/0" xmlns:xsd="http://www.w3.org/2001/XMLSchema" xmlns:xsi="http://www.w3.org/2001/XMLSchema-instance" offset="120"/>
        </extensions>
        <trkseg>
            <trkpt lat="45.9479384" lon="10.9005212">
                <ele>114.3</ele>
                <time>2024-09-07T07:06:52.706Z</time>
                <name>001Position 1</name>
                <extensions>
                    <mytracks:gradient xmlns:mytracks="http://mytracks.stichling.info/myTracksGPX/1/0" xmlns:xsd="http://www.w3.org/2001/XMLSchema" xmlns:xsi="http://www.w3.org/2001/XMLSchema-instance">0</mytracks:gradient>
                    <mytracks:length xmlns:mytracks="http://mytracks.stichling.info/myTracksGPX/1/0" xmlns:xsd="http://www.w3.org/2001/XMLSchema" xmlns:xsi="http://www.w3.org/2001/XMLSchema-instance">0</mytracks:length>
                </extensions>
            </trkpt>
            <trkpt lat="45.9485425" lon="10.8996549">
                <ele>115.0</ele>
                <time>2024-09-07T07:06:54.856Z</time>
                <name>002Position 2</name>
            </trkpt>
            <trkpt lat="45.9490013" lon="10.8993613">
                <ele>115.0</ele>
                <time>2024-09-07T07:06:55.931Z</time>
                <name>003Position 3</name>
            </trkpt>
            <trkpt lat="45.94946" lon="10.8990676">
                <ele>113.4</ele>
                <time>2024-09-07T07:06:57.006Z</time>
                <name>004Position 4</name>
                <extensions>
                    <mytracks:speed xmlns:mytracks="http://mytracks.stichling.info/myTracksGPX/1/0" xmlns:xsd="http://www.w3.org/2001/XMLSchema" xmlns:xsi="http://www.w3.org/2001/XMLSchema-instance">6.253326500191645</mytracks:speed>
                    <mytracks:length xmlns:mytracks="http://mytracks.stichling.info/myTracksGPX/1/0" xmlns:xsd="http://www.w3.org/2001/XMLSchema" xmlns:xsi="http://www.w3.org/2001/XMLSchema-instance">0.007468578655979292</mytracks:length>
                </extensions>
            </trkpt>
            <trkpt lat="45.9500379" lon="10.8982089">
                <ele>115.0</ele>
                <time>2024-09-07T07:06:57.506Z</time>
                <name>005Position 5</name>
            </trkpt>
            <trkpt lat="45.9501011" lon="10.8977149">
                <ele>113.2</ele>
                <time>2024-09-07T07:06:58.005Z</time>
                <name>006Position 6</name>
                <extensions>
                    <mytracks:speed xmlns:mytracks="http://mytracks.stichling.info/myTracksGPX/1/0" xmlns:xsd="http://www.w3.org/2001/XMLSchema" xmlns:xsi="http://www.w3.org/2001/XMLSchema-instance">5.980837418374747</mytracks:speed>
                    <mytracks:length xmlns:mytracks="http://mytracks.stichling.info/myTracksGPX/1/0" xmlns:xsd="http://www.w3.org/2001/XMLSchema" xmlns:xsi="http://www.w3.org/2001/XMLSchema-instance">0.001660689466687717</mytracks:length>
                </extensions>
            </trkpt>
            <trkpt lat="45.9502897" lon="10.8976915">
                <ele>112.6</ele>
                <time>2024-09-07T07:07:16.011Z</time>
                <name>007Position 7</name>
                <extensions>
                    <mytracks:speed xmlns:mytracks="http://mytracks.stichling.info/myTracksGPX/1/0" xmlns:xsd="http://www.w3.org/2001/XMLSchema" xmlns:xsi="http://www.w3.org/2001/XMLSchema-instance">2.702892761543948</mytracks:speed>
                    <mytracks:gradient xmlns:mytracks="http://mytracks.stichling.info/myTracksGPX/1/0" xmlns:xsd="http://www.w3.org/2001/XMLSchema" xmlns:xsi="http://www.w3.org/2001/XMLSchema-instance">0.2996785354739309</mytracks:gradient>
                    <mytracks:length xmlns:mytracks="http://mytracks.stichling.info/myTracksGPX/1/0" xmlns:xsd="http://www.w3.org/2001/XMLSchema" xmlns:xsi="http://www.w3.org/2001/XMLSchema-instance">0.001446011378093334</mytracks:length>
                </extensions>
            </trkpt>
            <trkpt lat="45.9504556" lon="10.8975595">
                <ele>115.1</ele>
                <time>2024-09-07T07:07:30.000Z</time>
                <name>008Position 8</name>
                <extensions>
                    <mytracks:speed xmlns:mytracks="http://mytracks.stichling.info/myTracksGPX/1/0" xmlns:xsd="http://www.w3.org/2001/XMLSchema" xmlns:xsi="http://www.w3.org/2001/XMLSchema-instance">6.398672399762019</mytracks:speed>
                    <mytracks:gradient xmlns:mytracks="http://mytracks.stichling.info/myTracksGPX/1/0" xmlns:xsd="http://www.w3.org/2001/XMLSchema" xmlns:xsi="http://www.w3.org/2001/XMLSchema-instance">0.0144518291893569</mytracks:gradient>
                    <mytracks:length xmlns:mytracks="http://mytracks.stichling.info/myTracksGPX/1/0" xmlns:xsd="http://www.w3.org/2001/XMLSchema" xmlns:xsi="http://www.w3.org/2001/XMLSchema-instance">0.001633328624854348</mytracks:length>
                </extensions>
            </trkpt>
            <trkpt lat="45.9506196" lon="10.897431">
                <ele>115.0</ele>
                <time>2024-09-07T07:07:41.000Z</time>
                <name>009Position 9</name>
                <extensions>
                    <mytracks:speed xmlns:mytracks="http://mytracks.stichling.info/myTracksGPX/1/0" xmlns:xsd="http://www.w3.org/2001/XMLSchema" xmlns:xsi="http://www.w3.org/2001/XMLSchema-instance">6.462615208527636</mytracks:speed>
                    <mytracks:length xmlns:mytracks="http://mytracks.stichling.info/myTracksGPX/1/0" xmlns:xsd="http://www.w3.org/2001/XMLSchema" xmlns:xsi="http://www.w3.org/2001/XMLSchema-instance">0.001703553015777859</mytracks:length>
                </extensions>
            </trkpt>
            <trkpt lat="45.9508033" lon="10.8973497">
                <ele>115.5</ele>
                <time>2024-09-07T07:07:55.000Z</time>
                <name>010Position 10</name>
                <extensions>
                    <mytracks:speed xmlns:mytracks="http://mytracks.stichling.info/myTracksGPX/1/0" xmlns:xsd="http://www.w3.org/2001/XMLSchema" xmlns:xsi="http://www.w3.org/2001/XMLSchema-instance">7.123989378222472</mytracks:speed>
                    <mytracks:gradient xmlns:mytracks="http://mytracks.stichling.info/myTracksGPX/1/0" xmlns:xsd="http://www.w3.org/2001/XMLSchema" xmlns:xsi="http://www.w3.org/2001/XMLSchema-instance">0.08610548290469321</mytracks:gradient>
                    <mytracks:length xmlns:mytracks="http://mytracks.stichling.info/myTracksGPX/1/0" xmlns:xsd="http://www.w3.org/2001/XMLSchema" xmlns:xsi="http://www.w3.org/2001/XMLSchema-instance">0.00199364125728608</mytracks:length>
                </extensions>
            </trkpt>
            <trkpt lat="45.9509784" lon="10.8972735">
                <ele>116.2</ele>
                <time>2024-09-07T07:08:09.001Z</time>
                <name>011Position 11</name>
                <extensions>
                    <mytracks:speed xmlns:mytracks="http://mytracks.stichling.info/myTracksGPX/1/0" xmlns:xsd="http://www.w3.org/2001/XMLSchema" xmlns:xsi="http://www.w3.org/2001/XMLSchema-instance">8.162813778739098</mytracks:speed>
                    <mytracks:length xmlns:mytracks="http://mytracks.stichling.info/myTracksGPX/1/0" xmlns:xsd="http://www.w3.org/2001/XMLSchema" xmlns:xsi="http://www.w3.org/2001/XMLSchema-instance">0.002268536503285641</mytracks:length>
                </extensions>
            </trkpt>
            <trkpt lat="45.9511482" lon="10.8971877">
                <ele>115.5</ele>
                <time>2024-09-07T07:08:22.000Z</time>
                <name>012Position 12</name>
                <extensions>
                    <mytracks:speed xmlns:mytracks="http://mytracks.stichling.info/myTracksGPX/1/0" xmlns:xsd="http://www.w3.org/2001/XMLSchema" xmlns:xsi="http://www.w3.org/2001/XMLSchema-instance">4.721054738027516</mytracks:speed>
                    <mytracks:gradient xmlns:mytracks="http://mytracks.stichling.info/myTracksGPX/1/0" xmlns:xsd="http://www.w3.org/2001/XMLSchema" xmlns:xsi="http://www.w3.org/2001/XMLSchema-instance">0.09402826823199263</mytracks:gradient>
                    <mytracks:length xmlns:mytracks="http://mytracks.stichling.info/myTracksGPX/1/0" xmlns:xsd="http://www.w3.org/2001/XMLSchema" xmlns:xsi="http://www.w3.org/2001/XMLSchema-instance">0.001312031921402727</mytracks:length>
                </extensions>
            </trkpt>
            <trkpt lat="45.9513364" lon="10.8971729">
                <ele>116.5</ele>
                <time>2024-09-07T07:08:36.996Z</time>
                <name>013Position 13</name>
                <extensions>
                    <mytracks:speed xmlns:mytracks="http://mytracks.stichling.info/myTracksGPX/1/0" xmlns:xsd="http://www.w3.org/2001/XMLSchema" xmlns:xsi="http://www.w3.org/2001/XMLSchema-instance">5.697403142589231</mytracks:speed>
                    <mytracks:length xmlns:mytracks="http://mytracks.stichling.info/myTracksGPX/1/0" xmlns:xsd="http://www.w3.org/2001/XMLSchema" xmlns:xsi="http://www.w3.org/2001/XMLSchema-instance">0.0013492840996538</mytracks:length>
                </extensions>
            </trkpt>
            <trkpt lat="45.9515219" lon="10.8972017">
                <ele>115.8</ele>
                <time>2024-09-07T07:08:49.999Z</time>
                <name>014Position 14</name>
                <extensions>
                    <mytracks:speed xmlns:mytracks="http://mytracks.stichling.info/myTracksGPX/1/0" xmlns:xsd="http://www.w3.org/2001/XMLSchema" xmlns:xsi="http://www.w3.org/2001/XMLSchema-instance">7.71671546347117</mytracks:speed>
                    <mytracks:length xmlns:mytracks="http://mytracks.stichling.info/myTracksGPX/1/0" xmlns:xsd="http://www.w3.org/2001/XMLSchema" xmlns:xsi="http://www.w3.org/2001/XMLSchema-instance">0.002396058592675157</mytracks:length>
                </extensions>
            </trkpt>
            <trkpt lat="45.951696" lon="10.897283">
                <ele>116.5</ele>
                <time>2024-09-07T07:09:04.500Z</time>
                <name>015Position 15</name>
                <extensions>
                    <mytracks:speed xmlns:mytracks="http://mytracks.stichling.info/myTracksGPX/1/0" xmlns:xsd="http://www.w3.org/2001/XMLSchema" xmlns:xsi="http://www.w3.org/2001/XMLSchema-instance">5.243320238456363</mytracks:speed>
                    <mytracks:gradient xmlns:mytracks="http://mytracks.stichling.info/myTracksGPX/1/0" xmlns:xsd="http://www.w3.org/2001/XMLSchema" xmlns:xsi="http://www.w3.org/2001/XMLSchema-instance">0.07974115137741657</mytracks:gradient>
                    <mytracks:length xmlns:mytracks="http://mytracks.stichling.info/myTracksGPX/1/0" xmlns:xsd="http://www.w3.org/2001/XMLSchema" xmlns:xsi="http://www.w3.org/2001/XMLSchema-instance">0.001473792150465739</mytracks:length>
                </extensions>
            </trkpt>
            <trkpt lat="45.951886" lon="10.8972729">
                <ele>116.3</ele>
                <time>2024-09-07T07:09:15.500Z</time>
                <name>016Position 16</name>
                <extensions>
                    <mytracks:speed xmlns:mytracks="http://mytracks.stichling.info/myTracksGPX/1/0" xmlns:xsd="http://www.w3.org/2001/XMLSchema" xmlns:xsi="http://www.w3.org/2001/XMLSchema-instance">5.812449392210703</mytracks:speed>
                    <mytracks:gradient xmlns:mytracks="http://mytracks.stichling.info/myTracksGPX/1/0" xmlns:xsd="http://www.w3.org/2001/XMLSchema" xmlns:xsi="http://www.w3.org/2001/XMLSchema-instance">0.05575692123899506</mytracks:gradient>
                    <mytracks:length xmlns:mytracks="http://mytracks.stichling.info/myTracksGPX/1/0" xmlns:xsd="http://www.w3.org/2001/XMLSchema" xmlns:xsi="http://www.w3.org/2001/XMLSchema-instance">0.001446011378093334</mytracks:length>
                </extensions>
            </trkpt>
            <trkpt lat="45.9520656" lon="10.8973336">
                <ele>118.1</ele>
                <time>2024-09-07T07:09:30.002Z</time>
                <name>017Position 17</name>
                <extensions>
                    <mytracks:speed xmlns:mytracks="http://mytracks.stichling.info/myTracksGPX/1/0" xmlns:xsd="http://www.w3.org/2001/XMLSchema" xmlns:xsi="http://www.w3.org/2001/XMLSchema-instance">5.885707591116915</mytracks:speed>
                    <mytracks:gradient xmlns:mytracks="http://mytracks.stichling.info/myTracksGPX/1/0" xmlns:xsd="http://www.w3.org/2001/XMLSchema" xmlns:xsi="http://www.w3.org/2001/XMLSchema-instance">0.084357882121366</mytracks:gradient>
                    <mytracks:length xmlns:mytracks="http://mytracks.stichling.info/myTracksGPX/1/0" xmlns:xsd="http://www.w3.org/2001/XMLSchema" xmlns:xsi="http://www.w3.org/2001/XMLSchema-instance">0.00183104571694989</mytracks:length>
                </extensions>
            </trkpt>
            <trkpt lat="45.9522318" lon="10.8974536">
                <ele>118.2</ele>
                <time>2024-09-07T07:09:44.000Z</time>
                <name>018Position 18</name>
                <extensions>
                    <mytracks:speed xmlns:mytracks="http://mytracks.stichling.info/myTracksGPX/1/0" xmlns:xsd="http://www.w3.org/2001/XMLSchema" xmlns:xsi="http://www.w3.org/2001/XMLSchema-instance">5.520188831698971</mytracks:speed>
                    <mytracks:length xmlns:mytracks="http://mytracks.stichling.info/myTracksGPX/1/0" xmlns:xsd="http://www.w3.org/2001/XMLSchema" xmlns:xsi="http://www.w3.org/2001/XMLSchema-instance">0.001542516013262744</mytracks:length>
                </extensions>
            </trkpt>
            <trkpt lat="45.9523961" lon="10.8975614">
                <ele>118.0</ele>
                <time>2024-09-07T07:09:56.001Z</time>
                <name>019Position 19</name>
                <extensions>
                    <mytracks:speed xmlns:mytracks="http://mytracks.stichling.info/myTracksGPX/1/0" xmlns:xsd="http://www.w3.org/2001/XMLSchema" xmlns:xsi="http://www.w3.org/2001/XMLSchema-instance">7.125676935749846</mytracks:speed>
                    <mytracks:length xmlns:mytracks="http://mytracks.stichling.info/myTracksGPX/1/0" xmlns:xsd="http://www.w3.org/2001/XMLSchema" xmlns:xsi="http://www.w3.org/2001/XMLSchema-instance">0.001989115391613426</mytracks:length>
                </extensions>
            </trkpt>
            <trkpt lat="45.9525812" lon="10.8976488">
                <ele>119.4</ele>
                <time>2024-09-07T07:10:09.998Z</time>
                <name>020Position 20</name>
                <extensions>
                    <mytracks:speed xmlns:mytracks="http://mytracks.stichling.info/myTracksGPX/1/0" xmlns:xsd="http://www.w3.org/2001/XMLSchema" xmlns:xsi="http://www.w3.org/2001/XMLSchema-instance">7.804749151284252</mytracks:speed>
                    <mytracks:gradient xmlns:mytracks="http://mytracks.stichling.info/myTracksGPX/1/0" xmlns:xsd="http://www.w3.org/2001/XMLSchema" xmlns:xsi="http://www.w3.org/2001/XMLSchema-instance">0.1542853105900804</mytracks:gradient>
                    <mytracks:length xmlns:mytracks="http://mytracks.stichling.info/myTracksGPX/1/0" xmlns:xsd="http://www.w3.org/2001/XMLSchema" xmlns:xsi="http://www.w3.org/2001/XMLSchema-instance">0.002169017067140007</mytracks:length>
                </extensions>
            </trkpt>
            <trkpt lat="45.9527619" lon="10.8976315">
                <ele>119.9</ele>
                <time>2024-09-07T07:10:22.999Z</time>
                <name>021Position 21</name>
                <extensions>
                    <mytracks:speed xmlns:mytracks="http://mytracks.stichling.info/myTracksGPX/1/0" xmlns:xsd="http://www.w3.org/2001/XMLSchema" xmlns:xsi="http://www.w3.org/2001/XMLSchema-instance">5.155485402848504</mytracks:speed>
                    <mytracks:length xmlns:mytracks="http://mytracks.stichling.info/myTracksGPX/1/0" xmlns:xsd="http://www.w3.org/2001/XMLSchema" xmlns:xsi="http://www.w3.org/2001/XMLSchema-instance">0.001342587859314532</mytracks:length>
                </extensions>
            </trkpt>
            <trkpt lat="45.9529529" lon="10.8976141">
                <ele>119.8</ele>
                <time>2024-09-07T07:10:36.997Z</time>
                <name>022Position 22</name>
                <extensions>
                    <mytracks:speed xmlns:mytracks="http://mytracks.stichling.info/myTracksGPX/1/0" xmlns:xsd="http://www.w3.org/2001/XMLSchema" xmlns:xsi="http://www.w3.org/2001/XMLSchema-instance">5.713531066121409</mytracks:speed>
                    <mytracks:gradient xmlns:mytracks="http://mytracks.stichling.info/myTracksGPX/1/0" xmlns:xsd="http://www.w3.org/2001/XMLSchema" xmlns:xsi="http://www.w3.org/2001/XMLSchema-instance">0.01673024164556687</mytracks:gradient>
                    <mytracks:length xmlns:mytracks="http://mytracks.stichling.info/myTracksGPX/1/0" xmlns:xsd="http://www.w3.org/2001/XMLSchema" xmlns:xsi="http://www.w3.org/2001/XMLSchema-instance">0.001747944209968967</mytracks:length>
                </extensions>
            </trkpt>
            <trkpt lat="45.9531308" lon="10.897681">
                <ele>118.9</ele>
                <time>2024-09-07T07:10:51.001Z</time>
                <name>023Position 23</name>
                <extensions>
                    <mytracks:speed xmlns:mytracks="http://mytracks.stichling.info/myTracksGPX/1/0" xmlns:xsd="http://www.w3.org/2001/XMLSchema" xmlns:xsi="http://www.w3.org/2001/XMLSchema-instance">6.152012637380543</mytracks:speed>
                    <mytracks:gradient xmlns:mytracks="http://mytracks.stichling.info/myTracksGPX/1/0" xmlns:xsd="http://www.w3.org/2001/XMLSchema" xmlns:xsi="http://www.w3.org/2001/XMLSchema-instance">0.1052820700226028</mytracks:gradient>
                    <mytracks:length xmlns:mytracks="http://mytracks.stichling.info/myTracksGPX/1/0" xmlns:xsd="http://www.w3.org/2001/XMLSchema" xmlns:xsi="http://www.w3.org/2001/XMLSchema-instance">0.001711470423339392</mytracks:length>
                </extensions>
            </trkpt>
            <trkpt lat="45.953309" lon="10.8975995">
                <ele>120.5</ele>
                <time>2024-09-07T07:11:04.000Z</time>
                <name>024Position 24</name>
                <extensions>
                    <mytracks:speed xmlns:mytracks="http://mytracks.stichling.info/myTracksGPX/1/0" xmlns:xsd="http://www.w3.org/2001/XMLSchema" xmlns:xsi="http://www.w3.org/2001/XMLSchema-instance">5.171840067558014</mytracks:speed>
                    <mytracks:gradient xmlns:mytracks="http://mytracks.stichling.info/myTracksGPX/1/0" xmlns:xsd="http://www.w3.org/2001/XMLSchema" xmlns:xsi="http://www.w3.org/2001/XMLSchema-instance">0.05469820181868015</mytracks:gradient>
                    <mytracks:length xmlns:mytracks="http://mytracks.stichling.info/myTracksGPX/1/0" xmlns:xsd="http://www.w3.org/2001/XMLSchema" xmlns:xsi="http://www.w3.org/2001/XMLSchema-instance">0.001636085299600387</mytracks:length>
                </extensions>
            </trkpt>
            <trkpt lat="45.9534894" lon="10.897494">
                <ele>122.1</ele>
                <time>2024-09-07T07:11:17.999Z</time>
                <name>025Position 25</name>
                <extensions>
                    <mytracks:speed xmlns:mytracks="http://mytracks.stichling.info/myTracksGPX/1/0" xmlns:xsd="http://www.w3.org/2001/XMLSchema" xmlns:xsi="http://www.w3.org/2001/XMLSchema-instance">5.540210970172548</mytracks:speed>
                    <mytracks:gradient xmlns:mytracks="http://mytracks.stichling.info/myTracksGPX/1/0" xmlns:xsd="http://www.w3.org/2001/XMLSchema" xmlns:xsi="http://www.w3.org/2001/XMLSchema-instance">0.01687617061048923</mytracks:gradient>
                    <mytracks:length xmlns:mytracks="http://mytracks.stichling.info/myTracksGPX/1/0" xmlns:xsd="http://www.w3.org/2001/XMLSchema" xmlns:xsi="http://www.w3.org/2001/XMLSchema-instance">0.001740192756209597</mytracks:length>
                </extensions>
            </trkpt>
            <trkpt lat="45.9536591" lon="10.8973857">
                <ele>123.3</ele>
                <time>2024-09-07T07:11:31.000Z</time>
                <name>026Position 26</name>
                <extensions>
                    <mytracks:speed xmlns:mytracks="http://mytracks.stichling.info/myTracksGPX/1/0" xmlns:xsd="http://www.w3.org/2001/XMLSchema" xmlns:xsi="http://www.w3.org/2001/XMLSchema-instance">6.02764461454657</mytracks:speed>
                    <mytracks:gradient xmlns:mytracks="http://mytracks.stichling.info/myTracksGPX/1/0" xmlns:xsd="http://www.w3.org/2001/XMLSchema" xmlns:xsi="http://www.w3.org/2001/XMLSchema-instance">0.008091041514019287</mytracks:gradient>
                    <mytracks:length xmlns:mytracks="http://mytracks.stichling.info/myTracksGPX/1/0" xmlns:xsd="http://www.w3.org/2001/XMLSchema" xmlns:xsi="http://www.w3.org/2001/XMLSchema-instance">0.001813736320957729</mytracks:length>
                </extensions>
            </trkpt>
            <trkpt lat="45.9538078" lon="10.8972307">
                <ele>123.0</ele>
                <time>2024-09-07T07:11:44.962Z</time>
                <name>027Position 27</name>
                <extensions>
                    <mytracks:speed xmlns:mytracks="http://mytracks.stichling.info/myTracksGPX/1/0" xmlns:xsd="http://www.w3.org/2001/XMLSchema" xmlns:xsi="http://www.w3.org/2001/XMLSchema-instance">5.810904703850817</mytracks:speed>
                    <mytracks:length xmlns:mytracks="http://mytracks.stichling.info/myTracksGPX/1/0" xmlns:xsd="http://www.w3.org/2001/XMLSchema" xmlns:xsi="http://www.w3.org/2001/XMLSchema-instance">0.001747944209968967</mytracks:length>
                </extensions>
            </trkpt>
            <trkpt lat="45.9538639" lon="10.8969721">
                <ele>123.3</ele>
                <time>2024-09-07T07:11:58.006Z</time>
                <name>028Position 28</name>
                <extensions>
                    <mytracks:speed xmlns:mytracks="http://mytracks.stichling.info/myTracksGPX/1/0" xmlns:xsd="http://www.w3.org/2001/XMLSchema" xmlns:xsi="http://www.w3.org/2001/XMLSchema-instance">4.8596714687183</mytracks:speed>
                    <mytracks:gradient xmlns:mytracks="http://mytracks.stichling.info/myTracksGPX/1/0" xmlns:xsd="http://www.w3.org/2001/XMLSchema" xmlns:xsi="http://www.w3.org/2001/XMLSchema-instance">0.0858063119771556</mytracks:gradient>
                    <mytracks:length xmlns:mytracks="http://mytracks.stichling.info/myTracksGPX/1/0" xmlns:xsd="http://www.w3.org/2001/XMLSchema" xmlns:xsi="http://www.w3.org/2001/XMLSchema-instance">0.001352619788550522</mytracks:length>
                </extensions>
            </trkpt>
            <trkpt lat="45.9539188" lon="10.8967152">
                <ele>126.5</ele>
                <time>2024-09-07T07:12:16.999Z</time>
                <name>029Position 29</name>
                <extensions>
                    <mytracks:speed xmlns:mytracks="http://mytracks.stichling.info/myTracksGPX/1/0" xmlns:xsd="http://www.w3.org/2001/XMLSchema" xmlns:xsi="http://www.w3.org/2001/XMLSchema-instance">3.517733232784623</mytracks:speed>
                    <mytracks:gradient xmlns:mytracks="http://mytracks.stichling.info/myTracksGPX/1/0" xmlns:xsd="http://www.w3.org/2001/XMLSchema" xmlns:xsi="http://www.w3.org/2001/XMLSchema-instance">0.1704139504328872</mytracks:gradient>
                    <mytracks:length xmlns:mytracks="http://mytracks.stichling.info/myTracksGPX/1/0" xmlns:xsd="http://www.w3.org/2001/XMLSchema" xmlns:xsi="http://www.w3.org/2001/XMLSchema-instance">0.0009774187151823676</mytracks:length>
                </extensions>
            </trkpt>
            <trkpt lat="45.9539959" lon="10.8964615">
                <ele>128.4</ele>
                <time>2024-09-07T07:12:30.999Z</time>
                <name>030Position 30</name>
                <extensions>
                    <mytracks:speed xmlns:mytracks="http://mytracks.stichling.info/myTracksGPX/1/0" xmlns:xsd="http://www.w3.org/2001/XMLSchema" xmlns:xsi="http://www.w3.org/2001/XMLSchema-instance">5.673490058539741</mytracks:speed>
                    <mytracks:gradient xmlns:mytracks="http://mytracks.stichling.info/myTracksGPX/1/0" xmlns:xsd="http://www.w3.org/2001/XMLSchema" xmlns:xsi="http://www.w3.org/2001/XMLSchema-instance">0.1086514134738501</mytracks:gradient>
                    <mytracks:length xmlns:mytracks="http://mytracks.stichling.info/myTracksGPX/1/0" xmlns:xsd="http://www.w3.org/2001/XMLSchema" xmlns:xsi="http://www.w3.org/2001/XMLSchema-instance">0.001666107717516284</mytracks:length>
                </extensions>
            </trkpt>
            <trkpt lat="45.9538669" lon="10.8962559">
                <ele>132.3</ele>
                <time>2024-09-07T07:12:47.998Z</time>
                <name>031Position 31</name>
                <extensions>
                    <mytracks:speed xmlns:mytracks="http://mytracks.stichling.info/myTracksGPX/1/0" xmlns:xsd="http://www.w3.org/2001/XMLSchema" xmlns:xsi="http://www.w3.org/2001/XMLSchema-instance">6.399277515871526</mytracks:speed>
                    <mytracks:gradient xmlns:mytracks="http://mytracks.stichling.info/myTracksGPX/1/0" xmlns:xsd="http://www.w3.org/2001/XMLSchema" xmlns:xsi="http://www.w3.org/2001/XMLSchema-instance">0.07027912589126545</mytracks:gradient>
                    <mytracks:length xmlns:mytracks="http://mytracks.stichling.info/myTracksGPX/1/0" xmlns:xsd="http://www.w3.org/2001/XMLSchema" xmlns:xsi="http://www.w3.org/2001/XMLSchema-instance">0.001778612237325146</mytracks:length>
                </extensions>
            </trkpt>
            <trkpt lat="45.953805" lon="10.8960126">
                <ele>134.5</ele>
                <time>2024-09-07T07:13:05.993Z</time>
                <name>032Position 32</name>
                <extensions>
                    <mytracks:speed xmlns:mytracks="http://mytracks.stichling.info/myTracksGPX/1/0" xmlns:xsd="http://www.w3.org/2001/XMLSchema" xmlns:xsi="http://www.w3.org/2001/XMLSchema-instance">7.923425598328446</mytracks:speed>
                    <mytracks:length xmlns:mytracks="http://mytracks.stichling.info/myTracksGPX/1/0" xmlns:xsd="http://www.w3.org/2001/XMLSchema" xmlns:xsi="http://www.w3.org/2001/XMLSchema-instance">0.002204053338996776</mytracks:length>
                </extensions>
            </trkpt>
            <trkpt lat="45.9538324" lon="10.8957532">
                <ele>136.2</ele>
                <time>2024-09-07T07:13:23.986Z</time>
                <name>033Position 33</name>
                <extensions>
                    <mytracks:speed xmlns:mytracks="http://mytracks.stichling.info/myTracksGPX/1/0" xmlns:xsd="http://www.w3.org/2001/XMLSchema" xmlns:xsi="http://www.w3.org/2001/XMLSchema-instance">3.442463083744652</mytracks:speed>
                    <mytracks:gradient xmlns:mytracks="http://mytracks.stichling.info/myTracksGPX/1/0" xmlns:xsd="http://www.w3.org/2001/XMLSchema" xmlns:xsi="http://www.w3.org/2001/XMLSchema-instance">0.2553639839109288</mytracks:gradient>
                    <mytracks:length xmlns:mytracks="http://mytracks.stichling.info/myTracksGPX/1/0" xmlns:xsd="http://www.w3.org/2001/XMLSchema" xmlns:xsi="http://www.w3.org/2001/XMLSchema-instance">0.001052883387838818</mytracks:length>
                </extensions>
            </trkpt>
            <trkpt lat="45.9539872" lon="10.8955977">
                <ele>140.4</ele>
                <time>2024-09-07T07:13:55.996Z</time>
                <name>034Position 34</name>
                <extensions>
                    <mytracks:speed xmlns:mytracks="http://mytracks.stichling.info/myTracksGPX/1/0" xmlns:xsd="http://www.w3.org/2001/XMLSchema" xmlns:xsi="http://www.w3.org/2001/XMLSchema-instance">5.838684808408969</mytracks:speed>
                    <mytracks:gradient xmlns:mytracks="http://mytracks.stichling.info/myTracksGPX/1/0" xmlns:xsd="http://www.w3.org/2001/XMLSchema" xmlns:xsi="http://www.w3.org/2001/XMLSchema-instance">0.1431947325127266</mytracks:gradient>
                    <mytracks:length xmlns:mytracks="http://mytracks.stichling.info/myTracksGPX/1/0" xmlns:xsd="http://www.w3.org/2001/XMLSchema" xmlns:xsi="http://www.w3.org/2001/XMLSchema-instance">0.00183104571694989</mytracks:length>
                </extensions>
            </trkpt>
            <trkpt lat="45.9539645" lon="10.8953365">
                <ele>145.1</ele>
                <time>2024-09-07T07:14:14.000Z</time>
                <name>035Position 35</name>
                <extensions>
                    <mytracks:speed xmlns:mytracks="http://mytracks.stichling.info/myTracksGPX/1/0" xmlns:xsd="http://www.w3.org/2001/XMLSchema" xmlns:xsi="http://www.w3.org/2001/XMLSchema-instance">2.795863918639568</mytracks:speed>
                    <mytracks:gradient xmlns:mytracks="http://mytracks.stichling.info/myTracksGPX/1/0" xmlns:xsd="http://www.w3.org/2001/XMLSchema" xmlns:xsi="http://www.w3.org/2001/XMLSchema-instance">0.3380234955600052</mytracks:gradient>
                    <mytracks:length xmlns:mytracks="http://mytracks.stichling.info/myTracksGPX/1/0" xmlns:xsd="http://www.w3.org/2001/XMLSchema" xmlns:xsi="http://www.w3.org/2001/XMLSchema-instance">0.0007770789043545636</mytracks:length>
                </extensions>
            </trkpt>
            <trkpt lat="45.9539656" lon="10.8950683">
                <ele>154.6</ele>
                <time>2024-09-07T07:15:02.988Z</time>
                <name>036Position 36</name>
                <extensions>
                    <mytracks:speed xmlns:mytracks="http://mytracks.stichling.info/myTracksGPX/1/0" xmlns:xsd="http://www.w3.org/2001/XMLSchema" xmlns:xsi="http://www.w3.org/2001/XMLSchema-instance">3.553524713975662</mytracks:speed>
                    <mytracks:gradient xmlns:mytracks="http://mytracks.stichling.info/myTracksGPX/1/0" xmlns:xsd="http://www.w3.org/2001/XMLSchema" xmlns:xsi="http://www.w3.org/2001/XMLSchema-instance">0.2548090333741536</mytracks:gradient>
                    <mytracks:length xmlns:mytracks="http://mytracks.stichling.info/myTracksGPX/1/0" xmlns:xsd="http://www.w3.org/2001/XMLSchema" xmlns:xsi="http://www.w3.org/2001/XMLSchema-instance">0.001237804845677201</mytracks:length>
                </extensions>
            </trkpt>
            <trkpt lat="45.9541802" lon="10.8949713">
                <ele>166.5</ele>
                <time>2024-09-07T07:16:15.765Z</time>
                <name>037Position 37</name>
                <extensions>
                    <mytracks:speed xmlns:mytracks="http://mytracks.stichling.info/myTracksGPX/1/0" xmlns:xsd="http://www.w3.org/2001/XMLSchema" xmlns:xsi="http://www.w3.org/2001/XMLSchema-instance">1.786109900138811</mytracks:speed>
                    <mytracks:gradient xmlns:mytracks="http://mytracks.stichling.info/myTracksGPX/1/0" xmlns:xsd="http://www.w3.org/2001/XMLSchema" xmlns:xsi="http://www.w3.org/2001/XMLSchema-instance">0.354225343009681</mytracks:gradient>
                    <mytracks:length xmlns:mytracks="http://mytracks.stichling.info/myTracksGPX/1/0" xmlns:xsd="http://www.w3.org/2001/XMLSchema" xmlns:xsi="http://www.w3.org/2001/XMLSchema-instance">0.02741773481523787</mytracks:length>
                </extensions>
            </trkpt>
            <trkpt lat="45.9552027" lon="10.8948392">
                <ele>207.0</ele>
                <time>2024-09-07T07:20:08.000Z</time>
                <name>038Position 38</name>
                <extensions>
                    <mytracks:speed xmlns:mytracks="http://mytracks.stichling.info/myTracksGPX/1/0" xmlns:xsd="http://www.w3.org/2001/XMLSchema" xmlns:xsi="http://www.w3.org/2001/XMLSchema-instance">1.769536457083103</mytracks:speed>
                    <mytracks:gradient xmlns:mytracks="http://mytracks.stichling.info/myTracksGPX/1/0" xmlns:xsd="http://www.w3.org/2001/XMLSchema" xmlns:xsi="http://www.w3.org/2001/XMLSchema-instance">0.3542632486108168</mytracks:gradient>
                    <mytracks:length xmlns:mytracks="http://mytracks.stichling.info/myTracksGPX/1/0" xmlns:xsd="http://www.w3.org/2001/XMLSchema" xmlns:xsi="http://www.w3.org/2001/XMLSchema-instance">0.1141521856041659</mytracks:length>
                </extensions>
            </trkpt>
            <trkpt lat="45.9555766" lon="10.8950943">
                <ele>217.3</ele>
                <time>2024-09-07T07:21:34.999Z</time>
                <name>039Position 39</name>
                <extensions>
                    <mytracks:speed xmlns:mytracks="http://mytracks.stichling.info/myTracksGPX/1/0" xmlns:xsd="http://www.w3.org/2001/XMLSchema" xmlns:xsi="http://www.w3.org/2001/XMLSchema-instance">1.981376952101967</mytracks:speed>
                    <mytracks:gradient xmlns:mytracks="http://mytracks.stichling.info/myTracksGPX/1/0" xmlns:xsd="http://www.w3.org/2001/XMLSchema" xmlns:xsi="http://www.w3.org/2001/XMLSchema-instance">0.1524387801519678</mytracks:gradient>
                    <mytracks:length xmlns:mytracks="http://mytracks.stichling.info/myTracksGPX/1/0" xmlns:xsd="http://www.w3.org/2001/XMLSchema" xmlns:xsi="http://www.w3.org/2001/XMLSchema-instance">0.02712027475817397</mytracks:length>
                </extensions>
            </trkpt>
            <trkpt lat="45.9557326" lon="10.894879">
                <ele>238.2</ele>
                <time>2024-09-07T07:23:30.999Z</time>
                <name>040Position 40</name>
                <extensions>
                    <mytracks:speed xmlns:mytracks="http://mytracks.stichling.info/myTracksGPX/1/0" xmlns:xsd="http://www.w3.org/2001/XMLSchema" xmlns:xsi="http://www.w3.org/2001/XMLSchema-instance">0.732569850529406</mytracks:speed>
                    <mytracks:gradient xmlns:mytracks="http://mytracks.stichling.info/myTracksGPX/1/0" xmlns:xsd="http://www.w3.org/2001/XMLSchema" xmlns:xsi="http://www.w3.org/2001/XMLSchema-instance">0.9357064808355934</mytracks:gradient>
                    <mytracks:length xmlns:mytracks="http://mytracks.stichling.info/myTracksGPX/1/0" xmlns:xsd="http://www.w3.org/2001/XMLSchema" xmlns:xsi="http://www.w3.org/2001/XMLSchema-instance">0.01433208609520845</mytracks:length>
                </extensions>
            </trkpt>
            <trkpt lat="45.9560941" lon="10.8948935">
                <ele>257.9</ele>
                <time>2024-09-07T07:25:18.000Z</time>
                <name>041Position 41</name>
                <extensions>
                    <mytracks:speed xmlns:mytracks="http://mytracks.stichling.info/myTracksGPX/1/0" xmlns:xsd="http://www.w3.org/2001/XMLSchema" xmlns:xsi="http://www.w3.org/2001/XMLSchema-instance">1.336756443722571</mytracks:speed>
                    <mytracks:gradient xmlns:mytracks="http://mytracks.stichling.info/myTracksGPX/1/0" xmlns:xsd="http://www.w3.org/2001/XMLSchema" xmlns:xsi="http://www.w3.org/2001/XMLSchema-instance">0.4930674754154059</mytracks:gradient>
                    <mytracks:length xmlns:mytracks="http://mytracks.stichling.info/myTracksGPX/1/0" xmlns:xsd="http://www.w3.org/2001/XMLSchema" xmlns:xsi="http://www.w3.org/2001/XMLSchema-instance">0.0327065535457613</mytracks:length>
                </extensions>
            </trkpt>
            <trkpt lat="45.9561151" lon="10.8946308">
                <ele>277.9</ele>
                <time>2024-09-07T07:27:03.305Z</time>
                <name>042 einstieg</name>
                <extensions>
                    <mytracks:speed xmlns:mytracks="http://mytracks.stichling.info/myTracksGPX/1/0" xmlns:xsd="http://www.w3.org/2001/XMLSchema" xmlns:xsi="http://www.w3.org/2001/XMLSchema-instance">2.294366143705179</mytracks:speed>
                    <mytracks:gradient xmlns:mytracks="http://mytracks.stichling.info/myTracksGPX/1/0" xmlns:xsd="http://www.w3.org/2001/XMLSchema" xmlns:xsi="http://www.w3.org/2001/XMLSchema-instance">0.3063475549798851</mytracks:gradient>
                    <mytracks:length xmlns:mytracks="http://mytracks.stichling.info/myTracksGPX/1/0" xmlns:xsd="http://www.w3.org/2001/XMLSchema" xmlns:xsi="http://www.w3.org/2001/XMLSchema-instance">0.004646983438376624</mytracks:length>
                </extensions>
            </trkpt>
            <trkpt lat="45.955848" lon="10.8944788">
                <ele>288.5</ele>
                <time>2024-09-07T07:32:10.000Z</time>
                <name>043Position 43</name>
                <extensions>
                    <mytracks:speed xmlns:mytracks="http://mytracks.stichling.info/myTracksGPX/1/0" xmlns:xsd="http://www.w3.org/2001/XMLSchema" xmlns:xsi="http://www.w3.org/2001/XMLSchema-instance">0.3748941332169941</mytracks:speed>
                    <mytracks:gradient xmlns:mytracks="http://mytracks.stichling.info/myTracksGPX/1/0" xmlns:xsd="http://www.w3.org/2001/XMLSchema" xmlns:xsi="http://www.w3.org/2001/XMLSchema-instance">0.3328288211483393</mytracks:gradient>
                    <mytracks:length xmlns:mytracks="http://mytracks.stichling.info/myTracksGPX/1/0" xmlns:xsd="http://www.w3.org/2001/XMLSchema" xmlns:xsi="http://www.w3.org/2001/XMLSchema-instance">0.02708851925070957</mytracks:length>
                </extensions>
            </trkpt>
            <trkpt lat="45.9560999" lon="10.8941035">
                <ele>412.4</ele>
                <time>2024-09-07T10:42:22.000Z</time>
                <name>044Position 44</name>
                <extensions>
                    <mytracks:speed xmlns:mytracks="http://mytracks.stichling.info/myTracksGPX/1/0" xmlns:xsd="http://www.w3.org/2001/XMLSchema" xmlns:xsi="http://www.w3.org/2001/XMLSchema-instance">0.01416968211242337</mytracks:speed>
                    <mytracks:gradient xmlns:mytracks="http://mytracks.stichling.info/myTracksGPX/1/0" xmlns:xsd="http://www.w3.org/2001/XMLSchema" xmlns:xsi="http://www.w3.org/2001/XMLSchema-instance">2.757923303433099</mytracks:gradient>
                    <mytracks:length xmlns:mytracks="http://mytracks.stichling.info/myTracksGPX/1/0" xmlns:xsd="http://www.w3.org/2001/XMLSchema" xmlns:xsi="http://www.w3.org/2001/XMLSchema-instance">0.03506069934715257</mytracks:length>
                </extensions>
            </trkpt>
            <trkpt lat="45.9561244" lon="10.8936941">
                <ele>480.4</ele>
                <time>2024-09-07T11:48:51.000Z</time>
                <name>045Position 45</name>
                <extensions>
                    <mytracks:speed xmlns:mytracks="http://mytracks.stichling.info/myTracksGPX/1/0" xmlns:xsd="http://www.w3.org/2001/XMLSchema" xmlns:xsi="http://www.w3.org/2001/XMLSchema-instance">0.02923244473484004</mytracks:speed>
                    <mytracks:gradient xmlns:mytracks="http://mytracks.stichling.info/myTracksGPX/1/0" xmlns:xsd="http://www.w3.org/2001/XMLSchema" xmlns:xsi="http://www.w3.org/2001/XMLSchema-instance">2.088772158519695</mytracks:gradient>
                    <mytracks:length xmlns:mytracks="http://mytracks.stichling.info/myTracksGPX/1/0" xmlns:xsd="http://www.w3.org/2001/XMLSchema" xmlns:xsi="http://www.w3.org/2001/XMLSchema-instance">0.02579149367540922</mytracks:length>
                </extensions>
            </trkpt>
            <trkpt lat="45.9562415" lon="10.8933834">
                <ele>489.9</ele>
                <time>2024-09-07T12:00:43.000Z</time>
                <name>046Position 46</name>
                <extensions>
                    <mytracks:speed xmlns:mytracks="http://mytracks.stichling.info/myTracksGPX/1/0" xmlns:xsd="http://www.w3.org/2001/XMLSchema" xmlns:xsi="http://www.w3.org/2001/XMLSchema-instance">0.1358112403217279</mytracks:speed>
                    <mytracks:gradient xmlns:mytracks="http://mytracks.stichling.info/myTracksGPX/1/0" xmlns:xsd="http://www.w3.org/2001/XMLSchema" xmlns:xsi="http://www.w3.org/2001/XMLSchema-instance">0.3487765856540881</mytracks:gradient>
                    <mytracks:length xmlns:mytracks="http://mytracks.stichling.info/myTracksGPX/1/0" xmlns:xsd="http://www.w3.org/2001/XMLSchema" xmlns:xsi="http://www.w3.org/2001/XMLSchema-instance">0.01792719315491488</mytracks:length>
                </extensions>
            </trkpt>
            <trkpt lat="45.9560686" lon="10.8932796">
                <ele>484.5</ele>
                <time>2024-09-07T12:01:07.500Z</time>
                <name>047Position 47</name>
                <extensions>
                    <mytracks:speed xmlns:mytracks="http://mytracks.stichling.info/myTracksGPX/1/0" xmlns:xsd="http://www.w3.org/2001/XMLSchema" xmlns:xsi="http://www.w3.org/2001/XMLSchema-instance">3.156296261325686</mytracks:speed>
                    <mytracks:length xmlns:mytracks="http://mytracks.stichling.info/myTracksGPX/1/0" xmlns:xsd="http://www.w3.org/2001/XMLSchema" xmlns:xsi="http://www.w3.org/2001/XMLSchema-instance">0.001315462076070468</mytracks:length>
                </extensions>
            </trkpt>
            <trkpt lat="45.9559239" lon="10.8931128">
                <ele>479.6</ele>
                <time>2024-09-07T12:02:21.999Z</time>
                <name>048Position 48</name>
                <extensions>
                    <mytracks:speed xmlns:mytracks="http://mytracks.stichling.info/myTracksGPX/1/0" xmlns:xsd="http://www.w3.org/2001/XMLSchema" xmlns:xsi="http://www.w3.org/2001/XMLSchema-instance">3.779543825308806</mytracks:speed>
                    <mytracks:length xmlns:mytracks="http://mytracks.stichling.info/myTracksGPX/1/0" xmlns:xsd="http://www.w3.org/2001/XMLSchema" xmlns:xsi="http://www.w3.org/2001/XMLSchema-instance">0.001031261302671383</mytracks:length>
                </extensions>
            </trkpt>
            <trkpt lat="45.9557363" lon="10.8930789">
                <ele>474.7</ele>
                <time>2024-09-07T12:02:44.000Z</time>
                <name>049Position 49</name>
                <extensions>
                    <mytracks:speed xmlns:mytracks="http://mytracks.stichling.info/myTracksGPX/1/0" xmlns:xsd="http://www.w3.org/2001/XMLSchema" xmlns:xsi="http://www.w3.org/2001/XMLSchema-instance">4.415403305392262</mytracks:speed>
                    <mytracks:length xmlns:mytracks="http://mytracks.stichling.info/myTracksGPX/1/0" xmlns:xsd="http://www.w3.org/2001/XMLSchema" xmlns:xsi="http://www.w3.org/2001/XMLSchema-instance">0.001226834423865861</mytracks:length>
                </extensions>
            </trkpt>
            <trkpt lat="45.9555495" lon="10.8930304">
                <ele>470.3</ele>
                <time>2024-09-07T12:03:02.999Z</time>
                <name>050Position 50</name>
                <extensions>
                    <mytracks:speed xmlns:mytracks="http://mytracks.stichling.info/myTracksGPX/1/0" xmlns:xsd="http://www.w3.org/2001/XMLSchema" xmlns:xsi="http://www.w3.org/2001/XMLSchema-instance">5.092126068473088</mytracks:speed>
                    <mytracks:length xmlns:mytracks="http://mytracks.stichling.info/myTracksGPX/1/0" xmlns:xsd="http://www.w3.org/2001/XMLSchema" xmlns:xsi="http://www.w3.org/2001/XMLSchema-instance">0.001414504081852167</mytracks:length>
                </extensions>
            </trkpt>
            <trkpt lat="45.9553696" lon="10.892984">
                <ele>470.0</ele>
                <time>2024-09-07T12:03:21.000Z</time>
                <name>051Position 51</name>
                <extensions>
                    <mytracks:speed xmlns:mytracks="http://mytracks.stichling.info/myTracksGPX/1/0" xmlns:xsd="http://www.w3.org/2001/XMLSchema" xmlns:xsi="http://www.w3.org/2001/XMLSchema-instance">3.113175264634722</mytracks:speed>
                    <mytracks:gradient xmlns:mytracks="http://mytracks.stichling.info/myTracksGPX/1/0" xmlns:xsd="http://www.w3.org/2001/XMLSchema" xmlns:xsi="http://www.w3.org/2001/XMLSchema-instance">0.2757541040348834</mytracks:gradient>
                    <mytracks:length xmlns:mytracks="http://mytracks.stichling.info/myTracksGPX/1/0" xmlns:xsd="http://www.w3.org/2001/XMLSchema" xmlns:xsi="http://www.w3.org/2001/XMLSchema-instance">0.0008649017264355477</mytracks:length>
                </extensions>
            </trkpt>
            <trkpt lat="45.9552218" lon="10.8928366">
                <ele>468.6</ele>
                <time>2024-09-07T12:03:48.000Z</time>
                <name>052Position 52</name>
                <extensions>
                    <mytracks:speed xmlns:mytracks="http://mytracks.stichling.info/myTracksGPX/1/0" xmlns:xsd="http://www.w3.org/2001/XMLSchema" xmlns:xsi="http://www.w3.org/2001/XMLSchema-instance">2.499541857184982</mytracks:speed>
                    <mytracks:length xmlns:mytracks="http://mytracks.stichling.info/myTracksGPX/1/0" xmlns:xsd="http://www.w3.org/2001/XMLSchema" xmlns:xsi="http://www.w3.org/2001/XMLSchema-instance">0.0007167457817064221</mytracks:length>
                </extensions>
            </trkpt>
            <trkpt lat="45.9553237" lon="10.8930532">
                <ele>457.5</ele>
                <time>2024-09-07T12:04:52.000Z</time>
                <name>053Position 53</name>
                <extensions>
                    <mytracks:speed xmlns:mytracks="http://mytracks.stichling.info/myTracksGPX/1/0" xmlns:xsd="http://www.w3.org/2001/XMLSchema" xmlns:xsi="http://www.w3.org/2001/XMLSchema-instance">2.416629626380769</mytracks:speed>
                    <mytracks:length xmlns:mytracks="http://mytracks.stichling.info/myTracksGPX/1/0" xmlns:xsd="http://www.w3.org/2001/XMLSchema" xmlns:xsi="http://www.w3.org/2001/XMLSchema-instance">0.000671293929657265</mytracks:length>
                </extensions>
            </trkpt>
            <trkpt lat="45.9550263" lon="10.8932873">
                <ele>429.2</ele>
                <time>2024-09-07T12:06:54.000Z</time>
                <name>054Position 54</name>
                <extensions>
                    <mytracks:speed xmlns:mytracks="http://mytracks.stichling.info/myTracksGPX/1/0" xmlns:xsd="http://www.w3.org/2001/XMLSchema" xmlns:xsi="http://www.w3.org/2001/XMLSchema-instance">2.782821747979286</mytracks:speed>
                    <mytracks:length xmlns:mytracks="http://mytracks.stichling.info/myTracksGPX/1/0" xmlns:xsd="http://www.w3.org/2001/XMLSchema" xmlns:xsi="http://www.w3.org/2001/XMLSchema-instance">0.02620454990731344</mytracks:length>
                </extensions>
            </trkpt>
            <trkpt lat="45.9548406" lon="10.8932826">
                <ele>415.3</ele>
                <time>2024-09-07T12:08:15.966Z</time>
                <name>055Position 55</name>
                <extensions>
                    <mytracks:speed xmlns:mytracks="http://mytracks.stichling.info/myTracksGPX/1/0" xmlns:xsd="http://www.w3.org/2001/XMLSchema" xmlns:xsi="http://www.w3.org/2001/XMLSchema-instance">5.420299857533661</mytracks:speed>
                    <mytracks:length xmlns:mytracks="http://mytracks.stichling.info/myTracksGPX/1/0" xmlns:xsd="http://www.w3.org/2001/XMLSchema" xmlns:xsi="http://www.w3.org/2001/XMLSchema-instance">0.00282262933221957</mytracks:length>
                </extensions>
            </trkpt>
            <trkpt lat="45.9546656" lon="10.8931668">
                <ele>408.4</ele>
                <time>2024-09-07T12:09:06.999Z</time>
                <name>056Position 56</name>
                <extensions>
                    <mytracks:speed xmlns:mytracks="http://mytracks.stichling.info/myTracksGPX/1/0" xmlns:xsd="http://www.w3.org/2001/XMLSchema" xmlns:xsi="http://www.w3.org/2001/XMLSchema-instance">1.463489417079537</mytracks:speed>
                    <mytracks:length xmlns:mytracks="http://mytracks.stichling.info/myTracksGPX/1/0" xmlns:xsd="http://www.w3.org/2001/XMLSchema" xmlns:xsi="http://www.w3.org/2001/XMLSchema-instance">0.00966150328647248</mytracks:length>
                </extensions>
            </trkpt>
            <trkpt lat="45.9547307" lon="10.8934096">
                <ele>371.7</ele>
                <time>2024-09-07T12:11:08.000Z</time>
                <name>057Position 57</name>
                <extensions>
                    <mytracks:speed xmlns:mytracks="http://mytracks.stichling.info/myTracksGPX/1/0" xmlns:xsd="http://www.w3.org/2001/XMLSchema" xmlns:xsi="http://www.w3.org/2001/XMLSchema-instance">1.527471391154689</mytracks:speed>
                    <mytracks:length xmlns:mytracks="http://mytracks.stichling.info/myTracksGPX/1/0" xmlns:xsd="http://www.w3.org/2001/XMLSchema" xmlns:xsi="http://www.w3.org/2001/XMLSchema-instance">0.0004245635594323624</mytracks:length>
                </extensions>
            </trkpt>
            <trkpt lat="45.9548288" lon="10.893631">
                <ele>364.3</ele>
                <time>2024-09-07T12:11:41.500Z</time>
                <name>058Position 58</name>
                <extensions>
                    <mytracks:speed xmlns:mytracks="http://mytracks.stichling.info/myTracksGPX/1/0" xmlns:xsd="http://www.w3.org/2001/XMLSchema" xmlns:xsi="http://www.w3.org/2001/XMLSchema-instance">1.528394196187111</mytracks:speed>
                    <mytracks:length xmlns:mytracks="http://mytracks.stichling.info/myTracksGPX/1/0" xmlns:xsd="http://www.w3.org/2001/XMLSchema" xmlns:xsi="http://www.w3.org/2001/XMLSchema-instance">0.0004245635594323624</mytracks:length>
                </extensions>
            </trkpt>
            <trkpt lat="45.9548998" lon="10.8938747">
                <ele>342.5</ele>
                <time>2024-09-07T12:13:14.000Z</time>
                <name>059Position 59</name>
                <extensions>
                    <mytracks:speed xmlns:mytracks="http://mytracks.stichling.info/myTracksGPX/1/0" xmlns:xsd="http://www.w3.org/2001/XMLSchema" xmlns:xsi="http://www.w3.org/2001/XMLSchema-instance">3.612581189288107</mytracks:speed>
                    <mytracks:length xmlns:mytracks="http://mytracks.stichling.info/myTracksGPX/1/0" xmlns:xsd="http://www.w3.org/2001/XMLSchema" xmlns:xsi="http://www.w3.org/2001/XMLSchema-instance">0.0009155228584749426</mytracks:length>
                </extensions>
            </trkpt>
            <trkpt lat="45.9550538" lon="10.8940083">
                <ele>327.7</ele>
                <time>2024-09-07T12:14:07.007Z</time>
                <name>060Position 60</name>
                <extensions>
                    <mytracks:speed xmlns:mytracks="http://mytracks.stichling.info/myTracksGPX/1/0" xmlns:xsd="http://www.w3.org/2001/XMLSchema" xmlns:xsi="http://www.w3.org/2001/XMLSchema-instance">5.084732492630087</mytracks:speed>
                    <mytracks:length xmlns:mytracks="http://mytracks.stichling.info/myTracksGPX/1/0" xmlns:xsd="http://www.w3.org/2001/XMLSchema" xmlns:xsi="http://www.w3.org/2001/XMLSchema-instance">0.001498053733740409</mytracks:length>
                </extensions>
            </trkpt>
            <trkpt lat="45.9552279" lon="10.8941143">
                <ele>298.7</ele>
                <time>2024-09-07T12:17:04.998Z</time>
                <name>061Position 61</name>
                <extensions>
                    <mytracks:speed xmlns:mytracks="http://mytracks.stichling.info/myTracksGPX/1/0" xmlns:xsd="http://www.w3.org/2001/XMLSchema" xmlns:xsi="http://www.w3.org/2001/XMLSchema-instance">5.384568627332574</mytracks:speed>
                    <mytracks:gradient xmlns:mytracks="http://mytracks.stichling.info/myTracksGPX/1/0" xmlns:xsd="http://www.w3.org/2001/XMLSchema" xmlns:xsi="http://www.w3.org/2001/XMLSchema-instance">0.07966376266502848</mytracks:gradient>
                    <mytracks:length xmlns:mytracks="http://mytracks.stichling.info/myTracksGPX/1/0" xmlns:xsd="http://www.w3.org/2001/XMLSchema" xmlns:xsi="http://www.w3.org/2001/XMLSchema-instance">0.001498053733740409</mytracks:length>
                </extensions>
            </trkpt>
            <trkpt lat="45.955359" lon="10.8942995">
                <ele>293.4</ele>
                <time>2024-09-07T12:17:27.999Z</time>
                <name>062Position 62</name>
                <extensions>
                    <mytracks:speed xmlns:mytracks="http://mytracks.stichling.info/myTracksGPX/1/0" xmlns:xsd="http://www.w3.org/2001/XMLSchema" xmlns:xsi="http://www.w3.org/2001/XMLSchema-instance">3.094751307546546</mytracks:speed>
                    <mytracks:length xmlns:mytracks="http://mytracks.stichling.info/myTracksGPX/1/0" xmlns:xsd="http://www.w3.org/2001/XMLSchema" xmlns:xsi="http://www.w3.org/2001/XMLSchema-instance">0.0008596756862859952</mytracks:length>
                </extensions>
            </trkpt>
            <trkpt lat="45.9555379" lon="10.8943427">
                <ele>287.2</ele>
                <time>2024-09-07T12:17:53.000Z</time>
                <name>063Position 63</name>
                <extensions>
                    <mytracks:speed xmlns:mytracks="http://mytracks.stichling.info/myTracksGPX/1/0" xmlns:xsd="http://www.w3.org/2001/XMLSchema" xmlns:xsi="http://www.w3.org/2001/XMLSchema-instance">4.129660357065221</mytracks:speed>
                    <mytracks:length xmlns:mytracks="http://mytracks.stichling.info/myTracksGPX/1/0" xmlns:xsd="http://www.w3.org/2001/XMLSchema" xmlns:xsi="http://www.w3.org/2001/XMLSchema-instance">0.001325699289424003</mytracks:length>
                </extensions>
            </trkpt>
            <trkpt lat="45.9557181" lon="10.8943755">
                <ele>287.6</ele>
                <time>2024-09-07T12:18:12.000Z</time>
                <name>064Position 64</name>
                <extensions>
                    <mytracks:speed xmlns:mytracks="http://mytracks.stichling.info/myTracksGPX/1/0" xmlns:xsd="http://www.w3.org/2001/XMLSchema" xmlns:xsi="http://www.w3.org/2001/XMLSchema-instance">3.911623668274592</mytracks:speed>
                    <mytracks:length xmlns:mytracks="http://mytracks.stichling.info/myTracksGPX/1/0" xmlns:xsd="http://www.w3.org/2001/XMLSchema" xmlns:xsi="http://www.w3.org/2001/XMLSchema-instance">0.001086584149887204</mytracks:length>
                </extensions>
            </trkpt>
            <trkpt lat="45.9558334" lon="10.8944912">
                <ele>288.3</ele>
                <time>2024-09-07T12:19:12.000Z</time>
                <name>065Position 65</name>
                <extensions>
                    <mytracks:speed xmlns:mytracks="http://mytracks.stichling.info/myTracksGPX/1/0" xmlns:xsd="http://www.w3.org/2001/XMLSchema" xmlns:xsi="http://www.w3.org/2001/XMLSchema-instance">0.591907671355609</mytracks:speed>
                    <mytracks:length xmlns:mytracks="http://mytracks.stichling.info/myTracksGPX/1/0" xmlns:xsd="http://www.w3.org/2001/XMLSchema" xmlns:xsi="http://www.w3.org/2001/XMLSchema-instance">0</mytracks:length>
                </extensions>
            </trkpt>
            <trkpt lat="45.9561151" lon="10.8946308">
                <ele>277.9</ele>
                <time>2024-09-07T07:27:03.305Z</time>
                <name>066 einstieg</name>
                <extensions>
                    <mytracks:speed xmlns:mytracks="http://mytracks.stichling.info/myTracksGPX/1/0" xmlns:xsd="http://www.w3.org/2001/XMLSchema" xmlns:xsi="http://www.w3.org/2001/XMLSchema-instance">2.294366143705179</mytracks:speed>
                    <mytracks:gradient xmlns:mytracks="http://mytracks.stichling.info/myTracksGPX/1/0" xmlns:xsd="http://www.w3.org/2001/XMLSchema" xmlns:xsi="http://www.w3.org/2001/XMLSchema-instance">0.3063475549798851</mytracks:gradient>
                    <mytracks:length xmlns:mytracks="http://mytracks.stichling.info/myTracksGPX/1/0" xmlns:xsd="http://www.w3.org/2001/XMLSchema" xmlns:xsi="http://www.w3.org/2001/XMLSchema-instance">0.004646983438376624</mytracks:length>
                </extensions>
            </trkpt>
            <trkpt lat="45.9560941" lon="10.8948935">
                <ele>257.9</ele>
                <time>2024-09-07T07:25:18.000Z</time>
                <name>067Position 67</name>
                <extensions>
                    <mytracks:speed xmlns:mytracks="http://mytracks.stichling.info/myTracksGPX/1/0" xmlns:xsd="http://www.w3.org/2001/XMLSchema" xmlns:xsi="http://www.w3.org/2001/XMLSchema-instance">1.336756443722571</mytracks:speed>
                    <mytracks:gradient xmlns:mytracks="http://mytracks.stichling.info/myTracksGPX/1/0" xmlns:xsd="http://www.w3.org/2001/XMLSchema" xmlns:xsi="http://www.w3.org/2001/XMLSchema-instance">0.4930674754154059</mytracks:gradient>
                    <mytracks:length xmlns:mytracks="http://mytracks.stichling.info/myTracksGPX/1/0" xmlns:xsd="http://www.w3.org/2001/XMLSchema" xmlns:xsi="http://www.w3.org/2001/XMLSchema-instance">0.0327065535457613</mytracks:length>
                </extensions>
            </trkpt>
            <trkpt lat="45.9557326" lon="10.894879">
                <ele>238.2</ele>
                <time>2024-09-07T07:23:30.999Z</time>
                <name>068Position 68</name>
                <extensions>
                    <mytracks:speed xmlns:mytracks="http://mytracks.stichling.info/myTracksGPX/1/0" xmlns:xsd="http://www.w3.org/2001/XMLSchema" xmlns:xsi="http://www.w3.org/2001/XMLSchema-instance">0.732569850529406</mytracks:speed>
                    <mytracks:gradient xmlns:mytracks="http://mytracks.stichling.info/myTracksGPX/1/0" xmlns:xsd="http://www.w3.org/2001/XMLSchema" xmlns:xsi="http://www.w3.org/2001/XMLSchema-instance">0.9357064808355934</mytracks:gradient>
                    <mytracks:length xmlns:mytracks="http://mytracks.stichling.info/myTracksGPX/1/0" xmlns:xsd="http://www.w3.org/2001/XMLSchema" xmlns:xsi="http://www.w3.org/2001/XMLSchema-instance">0.01433208609520845</mytracks:length>
                </extensions>
            </trkpt>
            <trkpt lat="45.9555766" lon="10.8950943">
                <ele>217.3</ele>
                <time>2024-09-07T07:21:34.999Z</time>
                <name>069Position 69</name>
                <extensions>
                    <mytracks:speed xmlns:mytracks="http://mytracks.stichling.info/myTracksGPX/1/0" xmlns:xsd="http://www.w3.org/2001/XMLSchema" xmlns:xsi="http://www.w3.org/2001/XMLSchema-instance">1.981376952101967</mytracks:speed>
                    <mytracks:gradient xmlns:mytracks="http://mytracks.stichling.info/myTracksGPX/1/0" xmlns:xsd="http://www.w3.org/2001/XMLSchema" xmlns:xsi="http://www.w3.org/2001/XMLSchema-instance">0.1524387801519678</mytracks:gradient>
                    <mytracks:length xmlns:mytracks="http://mytracks.stichling.info/myTracksGPX/1/0" xmlns:xsd="http://www.w3.org/2001/XMLSchema" xmlns:xsi="http://www.w3.org/2001/XMLSchema-instance">0.02712027475817397</mytracks:length>
                </extensions>
            </trkpt>
            <trkpt lat="45.9552027" lon="10.8948392">
                <ele>207.0</ele>
                <time>2024-09-07T07:20:08.000Z</time>
                <name>070Position 70</name>
                <extensions>
                    <mytracks:speed xmlns:mytracks="http://mytracks.stichling.info/myTracksGPX/1/0" xmlns:xsd="http://www.w3.org/2001/XMLSchema" xmlns:xsi="http://www.w3.org/2001/XMLSchema-instance">1.769536457083103</mytracks:speed>
                    <mytracks:gradient xmlns:mytracks="http://mytracks.stichling.info/myTracksGPX/1/0" xmlns:xsd="http://www.w3.org/2001/XMLSchema" xmlns:xsi="http://www.w3.org/2001/XMLSchema-instance">0.3542632486108168</mytracks:gradient>
                    <mytracks:length xmlns:mytracks="http://mytracks.stichling.info/myTracksGPX/1/0" xmlns:xsd="http://www.w3.org/2001/XMLSchema" xmlns:xsi="http://www.w3.org/2001/XMLSchema-instance">0.1141521856041659</mytracks:length>
                </extensions>
            </trkpt>
            <trkpt lat="45.9541802" lon="10.8949713">
                <ele>166.5</ele>
                <time>2024-09-07T07:16:15.765Z</time>
                <name>071Position 71</name>
                <extensions>
                    <mytracks:speed xmlns:mytracks="http://mytracks.stichling.info/myTracksGPX/1/0" xmlns:xsd="http://www.w3.org/2001/XMLSchema" xmlns:xsi="http://www.w3.org/2001/XMLSchema-instance">1.786109900138811</mytracks:speed>
                    <mytracks:gradient xmlns:mytracks="http://mytracks.stichling.info/myTracksGPX/1/0" xmlns:xsd="http://www.w3.org/2001/XMLSchema" xmlns:xsi="http://www.w3.org/2001/XMLSchema-instance">0.354225343009681</mytracks:gradient>
                    <mytracks:length xmlns:mytracks="http://mytracks.stichling.info/myTracksGPX/1/0" xmlns:xsd="http://www.w3.org/2001/XMLSchema" xmlns:xsi="http://www.w3.org/2001/XMLSchema-instance">0.02741773481523787</mytracks:length>
                </extensions>
            </trkpt>
            <trkpt lat="45.9539656" lon="10.8950683">
                <ele>154.6</ele>
                <time>2024-09-07T07:15:02.988Z</time>
                <name>072Position 72</name>
                <extensions>
                    <mytracks:speed xmlns:mytracks="http://mytracks.stichling.info/myTracksGPX/1/0" xmlns:xsd="http://www.w3.org/2001/XMLSchema" xmlns:xsi="http://www.w3.org/2001/XMLSchema-instance">3.553524713975662</mytracks:speed>
                    <mytracks:gradient xmlns:mytracks="http://mytracks.stichling.info/myTracksGPX/1/0" xmlns:xsd="http://www.w3.org/2001/XMLSchema" xmlns:xsi="http://www.w3.org/2001/XMLSchema-instance">0.2548090333741536</mytracks:gradient>
                    <mytracks:length xmlns:mytracks="http://mytracks.stichling.info/myTracksGPX/1/0" xmlns:xsd="http://www.w3.org/2001/XMLSchema" xmlns:xsi="http://www.w3.org/2001/XMLSchema-instance">0.001237804845677201</mytracks:length>
                </extensions>
            </trkpt>
            <trkpt lat="45.9539645" lon="10.8953365">
                <ele>145.1</ele>
                <time>2024-09-07T07:14:14.000Z</time>
                <name>073Position 73</name>
                <extensions>
                    <mytracks:speed xmlns:mytracks="http://mytracks.stichling.info/myTracksGPX/1/0" xmlns:xsd="http://www.w3.org/2001/XMLSchema" xmlns:xsi="http://www.w3.org/2001/XMLSchema-instance">2.795863918639568</mytracks:speed>
                    <mytracks:gradient xmlns:mytracks="http://mytracks.stichling.info/myTracksGPX/1/0" xmlns:xsd="http://www.w3.org/2001/XMLSchema" xmlns:xsi="http://www.w3.org/2001/XMLSchema-instance">0.3380234955600052</mytracks:gradient>
                    <mytracks:length xmlns:mytracks="http://mytracks.stichling.info/myTracksGPX/1/0" xmlns:xsd="http://www.w3.org/2001/XMLSchema" xmlns:xsi="http://www.w3.org/2001/XMLSchema-instance">0.0007770789043545636</mytracks:length>
                </extensions>
            </trkpt>
            <trkpt lat="45.9539872" lon="10.8955977">
                <ele>140.4</ele>
                <time>2024-09-07T07:13:55.996Z</time>
                <name>074Position 74</name>
                <extensions>
                    <mytracks:speed xmlns:mytracks="http://mytracks.stichling.info/myTracksGPX/1/0" xmlns:xsd="http://www.w3.org/2001/XMLSchema" xmlns:xsi="http://www.w3.org/2001/XMLSchema-instance">5.838684808408969</mytracks:speed>
                    <mytracks:gradient xmlns:mytracks="http://mytracks.stichling.info/myTracksGPX/1/0" xmlns:xsd="http://www.w3.org/2001/XMLSchema" xmlns:xsi="http://www.w3.org/2001/XMLSchema-instance">0.1431947325127266</mytracks:gradient>
                    <mytracks:length xmlns:mytracks="http://mytracks.stichling.info/myTracksGPX/1/0" xmlns:xsd="http://www.w3.org/2001/XMLSchema" xmlns:xsi="http://www.w3.org/2001/XMLSchema-instance">0.00183104571694989</mytracks:length>
                </extensions>
            </trkpt>
            <trkpt lat="45.9538324" lon="10.8957532">
                <ele>136.2</ele>
                <time>2024-09-07T07:13:23.986Z</time>
                <name>075Position 75</name>
                <extensions>
                    <mytracks:speed xmlns:mytracks="http://mytracks.stichling.info/myTracksGPX/1/0" xmlns:xsd="http://www.w3.org/2001/XMLSchema" xmlns:xsi="http://www.w3.org/2001/XMLSchema-instance">3.442463083744652</mytracks:speed>
                    <mytracks:gradient xmlns:mytracks="http://mytracks.stichling.info/myTracksGPX/1/0" xmlns:xsd="http://www.w3.org/2001/XMLSchema" xmlns:xsi="http://www.w3.org/2001/XMLSchema-instance">0.2553639839109288</mytracks:gradient>
                    <mytracks:length xmlns:mytracks="http://mytracks.stichling.info/myTracksGPX/1/0" xmlns:xsd="http://www.w3.org/2001/XMLSchema" xmlns:xsi="http://www.w3.org/2001/XMLSchema-instance">0.001052883387838818</mytracks:length>
                </extensions>
            </trkpt>
            <trkpt lat="45.953805" lon="10.8960126">
                <ele>134.5</ele>
                <time>2024-09-07T07:13:05.993Z</time>
                <name>076Position 76</name>
                <extensions>
                    <mytracks:speed xmlns:mytracks="http://mytracks.stichling.info/myTracksGPX/1/0" xmlns:xsd="http://www.w3.org/2001/XMLSchema" xmlns:xsi="http://www.w3.org/2001/XMLSchema-instance">7.923425598328446</mytracks:speed>
                    <mytracks:length xmlns:mytracks="http://mytracks.stichling.info/myTracksGPX/1/0" xmlns:xsd="http://www.w3.org/2001/XMLSchema" xmlns:xsi="http://www.w3.org/2001/XMLSchema-instance">0.002204053338996776</mytracks:length>
                </extensions>
            </trkpt>
            <trkpt lat="45.9538669" lon="10.8962559">
                <ele>132.3</ele>
                <time>2024-09-07T07:12:47.998Z</time>
                <name>077Position 77</name>
                <extensions>
                    <mytracks:speed xmlns:mytracks="http://mytracks.stichling.info/myTracksGPX/1/0" xmlns:xsd="http://www.w3.org/2001/XMLSchema" xmlns:xsi="http://www.w3.org/2001/XMLSchema-instance">6.399277515871526</mytracks:speed>
                    <mytracks:gradient xmlns:mytracks="http://mytracks.stichling.info/myTracksGPX/1/0" xmlns:xsd="http://www.w3.org/2001/XMLSchema" xmlns:xsi="http://www.w3.org/2001/XMLSchema-instance">0.07027912589126545</mytracks:gradient>
                    <mytracks:length xmlns:mytracks="http://mytracks.stichling.info/myTracksGPX/1/0" xmlns:xsd="http://www.w3.org/2001/XMLSchema" xmlns:xsi="http://www.w3.org/2001/XMLSchema-instance">0.001778612237325146</mytracks:length>
                </extensions>
            </trkpt>
            <trkpt lat="45.9539959" lon="10.8964615">
                <ele>128.4</ele>
                <time>2024-09-07T07:12:30.999Z</time>
                <name>078Position 78</name>
                <extensions>
                    <mytracks:speed xmlns:mytracks="http://mytracks.stichling.info/myTracksGPX/1/0" xmlns:xsd="http://www.w3.org/2001/XMLSchema" xmlns:xsi="http://www.w3.org/2001/XMLSchema-instance">5.673490058539741</mytracks:speed>
                    <mytracks:gradient xmlns:mytracks="http://mytracks.stichling.info/myTracksGPX/1/0" xmlns:xsd="http://www.w3.org/2001/XMLSchema" xmlns:xsi="http://www.w3.org/2001/XMLSchema-instance">0.1086514134738501</mytracks:gradient>
                    <mytracks:length xmlns:mytracks="http://mytracks.stichling.info/myTracksGPX/1/0" xmlns:xsd="http://www.w3.org/2001/XMLSchema" xmlns:xsi="http://www.w3.org/2001/XMLSchema-instance">0.001666107717516284</mytracks:length>
                </extensions>
            </trkpt>
            <trkpt lat="45.9539188" lon="10.8967152">
                <ele>126.5</ele>
                <time>2024-09-07T07:12:16.999Z</time>
                <name>079Position 79</name>
                <extensions>
                    <mytracks:speed xmlns:mytracks="http://mytracks.stichling.info/myTracksGPX/1/0" xmlns:xsd="http://www.w3.org/2001/XMLSchema" xmlns:xsi="http://www.w3.org/2001/XMLSchema-instance">3.517733232784623</mytracks:speed>
                    <mytracks:gradient xmlns:mytracks="http://mytracks.stichling.info/myTracksGPX/1/0" xmlns:xsd="http://www.w3.org/2001/XMLSchema" xmlns:xsi="http://www.w3.org/2001/XMLSchema-instance">0.1704139504328872</mytracks:gradient>
                    <mytracks:length xmlns:mytracks="http://mytracks.stichling.info/myTracksGPX/1/0" xmlns:xsd="http://www.w3.org/2001/XMLSchema" xmlns:xsi="http://www.w3.org/2001/XMLSchema-instance">0.0009774187151823676</mytracks:length>
                </extensions>
            </trkpt>
            <trkpt lat="45.9538639" lon="10.8969721">
                <ele>123.3</ele>
                <time>2024-09-07T07:11:58.006Z</time>
                <name>080Position 80</name>
                <extensions>
                    <mytracks:speed xmlns:mytracks="http://mytracks.stichling.info/myTracksGPX/1/0" xmlns:xsd="http://www.w3.org/2001/XMLSchema" xmlns:xsi="http://www.w3.org/2001/XMLSchema-instance">4.8596714687183</mytracks:speed>
                    <mytracks:gradient xmlns:mytracks="http://mytracks.stichling.info/myTracksGPX/1/0" xmlns:xsd="http://www.w3.org/2001/XMLSchema" xmlns:xsi="http://www.w3.org/2001/XMLSchema-instance">0.0858063119771556</mytracks:gradient>
                    <mytracks:length xmlns:mytracks="http://mytracks.stichling.info/myTracksGPX/1/0" xmlns:xsd="http://www.w3.org/2001/XMLSchema" xmlns:xsi="http://www.w3.org/2001/XMLSchema-instance">0.001352619788550522</mytracks:length>
                </extensions>
            </trkpt>
            <trkpt lat="45.9538078" lon="10.8972307">
                <ele>123.0</ele>
                <time>2024-09-07T07:11:44.962Z</time>
                <name>081Position 81</name>
                <extensions>
                    <mytracks:speed xmlns:mytracks="http://mytracks.stichling.info/myTracksGPX/1/0" xmlns:xsd="http://www.w3.org/2001/XMLSchema" xmlns:xsi="http://www.w3.org/2001/XMLSchema-instance">5.810904703850817</mytracks:speed>
                    <mytracks:length xmlns:mytracks="http://mytracks.stichling.info/myTracksGPX/1/0" xmlns:xsd="http://www.w3.org/2001/XMLSchema" xmlns:xsi="http://www.w3.org/2001/XMLSchema-instance">0.001747944209968967</mytracks:length>
                </extensions>
            </trkpt>
            <trkpt lat="45.9536591" lon="10.8973857">
                <ele>123.3</ele>
                <time>2024-09-07T07:11:31.000Z</time>
                <name>082Position 82</name>
                <extensions>
                    <mytracks:speed xmlns:mytracks="http://mytracks.stichling.info/myTracksGPX/1/0" xmlns:xsd="http://www.w3.org/2001/XMLSchema" xmlns:xsi="http://www.w3.org/2001/XMLSchema-instance">6.02764461454657</mytracks:speed>
                    <mytracks:gradient xmlns:mytracks="http://mytracks.stichling.info/myTracksGPX/1/0" xmlns:xsd="http://www.w3.org/2001/XMLSchema" xmlns:xsi="http://www.w3.org/2001/XMLSchema-instance">0.008091041514019287</mytracks:gradient>
                    <mytracks:length xmlns:mytracks="http://mytracks.stichling.info/myTracksGPX/1/0" xmlns:xsd="http://www.w3.org/2001/XMLSchema" xmlns:xsi="http://www.w3.org/2001/XMLSchema-instance">0.001813736320957729</mytracks:length>
                </extensions>
            </trkpt>
            <trkpt lat="45.9534894" lon="10.897494">
                <ele>122.1</ele>
                <time>2024-09-07T07:11:17.999Z</time>
                <name>083Position 83</name>
                <extensions>
                    <mytracks:speed xmlns:mytracks="http://mytracks.stichling.info/myTracksGPX/1/0" xmlns:xsd="http://www.w3.org/2001/XMLSchema" xmlns:xsi="http://www.w3.org/2001/XMLSchema-instance">5.540210970172548</mytracks:speed>
                    <mytracks:gradient xmlns:mytracks="http://mytracks.stichling.info/myTracksGPX/1/0" xmlns:xsd="http://www.w3.org/2001/XMLSchema" xmlns:xsi="http://www.w3.org/2001/XMLSchema-instance">0.01687617061048923</mytracks:gradient>
                    <mytracks:length xmlns:mytracks="http://mytracks.stichling.info/myTracksGPX/1/0" xmlns:xsd="http://www.w3.org/2001/XMLSchema" xmlns:xsi="http://www.w3.org/2001/XMLSchema-instance">0.001740192756209597</mytracks:length>
                </extensions>
            </trkpt>
            <trkpt lat="45.953309" lon="10.8975995">
                <ele>120.5</ele>
                <time>2024-09-07T07:11:04.000Z</time>
                <name>084Position 84</name>
                <extensions>
                    <mytracks:speed xmlns:mytracks="http://mytracks.stichling.info/myTracksGPX/1/0" xmlns:xsd="http://www.w3.org/2001/XMLSchema" xmlns:xsi="http://www.w3.org/2001/XMLSchema-instance">5.171840067558014</mytracks:speed>
                    <mytracks:gradient xmlns:mytracks="http://mytracks.stichling.info/myTracksGPX/1/0" xmlns:xsd="http://www.w3.org/2001/XMLSchema" xmlns:xsi="http://www.w3.org/2001/XMLSchema-instance">0.05469820181868015</mytracks:gradient>
                    <mytracks:length xmlns:mytracks="http://mytracks.stichling.info/myTracksGPX/1/0" xmlns:xsd="http://www.w3.org/2001/XMLSchema" xmlns:xsi="http://www.w3.org/2001/XMLSchema-instance">0.001636085299600387</mytracks:length>
                </extensions>
            </trkpt>
            <trkpt lat="45.9531308" lon="10.897681">
                <ele>118.9</ele>
                <time>2024-09-07T07:10:51.001Z</time>
                <name>085Position 85</name>
                <extensions>
                    <mytracks:speed xmlns:mytracks="http://mytracks.stichling.info/myTracksGPX/1/0" xmlns:xsd="http://www.w3.org/2001/XMLSchema" xmlns:xsi="http://www.w3.org/2001/XMLSchema-instance">6.152012637380543</mytracks:speed>
                    <mytracks:gradient xmlns:mytracks="http://mytracks.stichling.info/myTracksGPX/1/0" xmlns:xsd="http://www.w3.org/2001/XMLSchema" xmlns:xsi="http://www.w3.org/2001/XMLSchema-instance">0.1052820700226028</mytracks:gradient>
                    <mytracks:length xmlns:mytracks="http://mytracks.stichling.info/myTracksGPX/1/0" xmlns:xsd="http://www.w3.org/2001/XMLSchema" xmlns:xsi="http://www.w3.org/2001/XMLSchema-instance">0.001711470423339392</mytracks:length>
                </extensions>
            </trkpt>
            <trkpt lat="45.9529529" lon="10.8976141">
                <ele>119.8</ele>
                <time>2024-09-07T07:10:36.997Z</time>
                <name>086Position 86</name>
                <extensions>
                    <mytracks:speed xmlns:mytracks="http://mytracks.stichling.info/myTracksGPX/1/0" xmlns:xsd="http://www.w3.org/2001/XMLSchema" xmlns:xsi="http://www.w3.org/2001/XMLSchema-instance">5.713531066121409</mytracks:speed>
                    <mytracks:gradient xmlns:mytracks="http://mytracks.stichling.info/myTracksGPX/1/0" xmlns:xsd="http://www.w3.org/2001/XMLSchema" xmlns:xsi="http://www.w3.org/2001/XMLSchema-instance">0.01673024164556687</mytracks:gradient>
                    <mytracks:length xmlns:mytracks="http://mytracks.stichling.info/myTracksGPX/1/0" xmlns:xsd="http://www.w3.org/2001/XMLSchema" xmlns:xsi="http://www.w3.org/2001/XMLSchema-instance">0.001747944209968967</mytracks:length>
                </extensions>
            </trkpt>
            <trkpt lat="45.9527619" lon="10.8976315">
                <ele>119.9</ele>
                <time>2024-09-07T07:10:22.999Z</time>
                <name>087Position 87</name>
                <extensions>
                    <mytracks:speed xmlns:mytracks="http://mytracks.stichling.info/myTracksGPX/1/0" xmlns:xsd="http://www.w3.org/2001/XMLSchema" xmlns:xsi="http://www.w3.org/2001/XMLSchema-instance">5.155485402848504</mytracks:speed>
                    <mytracks:length xmlns:mytracks="http://mytracks.stichling.info/myTracksGPX/1/0" xmlns:xsd="http://www.w3.org/2001/XMLSchema" xmlns:xsi="http://www.w3.org/2001/XMLSchema-instance">0.001342587859314532</mytracks:length>
                </extensions>
            </trkpt>
            <trkpt lat="45.9525812" lon="10.8976488">
                <ele>119.4</ele>
                <time>2024-09-07T07:10:09.998Z</time>
                <name>088Position 88</name>
                <extensions>
                    <mytracks:speed xmlns:mytracks="http://mytracks.stichling.info/myTracksGPX/1/0" xmlns:xsd="http://www.w3.org/2001/XMLSchema" xmlns:xsi="http://www.w3.org/2001/XMLSchema-instance">7.804749151284252</mytracks:speed>
                    <mytracks:gradient xmlns:mytracks="http://mytracks.stichling.info/myTracksGPX/1/0" xmlns:xsd="http://www.w3.org/2001/XMLSchema" xmlns:xsi="http://www.w3.org/2001/XMLSchema-instance">0.1542853105900804</mytracks:gradient>
                    <mytracks:length xmlns:mytracks="http://mytracks.stichling.info/myTracksGPX/1/0" xmlns:xsd="http://www.w3.org/2001/XMLSchema" xmlns:xsi="http://www.w3.org/2001/XMLSchema-instance">0.002169017067140007</mytracks:length>
                </extensions>
            </trkpt>
            <trkpt lat="45.9523961" lon="10.8975614">
                <ele>118.0</ele>
                <time>2024-09-07T07:09:56.001Z</time>
                <name>089Position 89</name>
                <extensions>
                    <mytracks:speed xmlns:mytracks="http://mytracks.stichling.info/myTracksGPX/1/0" xmlns:xsd="http://www.w3.org/2001/XMLSchema" xmlns:xsi="http://www.w3.org/2001/XMLSchema-instance">7.125676935749846</mytracks:speed>
                    <mytracks:length xmlns:mytracks="http://mytracks.stichling.info/myTracksGPX/1/0" xmlns:xsd="http://www.w3.org/2001/XMLSchema" xmlns:xsi="http://www.w3.org/2001/XMLSchema-instance">0.001989115391613426</mytracks:length>
                </extensions>
            </trkpt>
            <trkpt lat="45.9522318" lon="10.8974536">
                <ele>118.2</ele>
                <time>2024-09-07T07:09:44.000Z</time>
                <name>090Position 90</name>
                <extensions>
                    <mytracks:speed xmlns:mytracks="http://mytracks.stichling.info/myTracksGPX/1/0" xmlns:xsd="http://www.w3.org/2001/XMLSchema" xmlns:xsi="http://www.w3.org/2001/XMLSchema-instance">5.520188831698971</mytracks:speed>
                    <mytracks:length xmlns:mytracks="http://mytracks.stichling.info/myTracksGPX/1/0" xmlns:xsd="http://www.w3.org/2001/XMLSchema" xmlns:xsi="http://www.w3.org/2001/XMLSchema-instance">0.001542516013262744</mytracks:length>
                </extensions>
            </trkpt>
            <trkpt lat="45.9520656" lon="10.8973336">
                <ele>118.1</ele>
                <time>2024-09-07T07:09:30.002Z</time>
                <name>091Position 91</name>
                <extensions>
                    <mytracks:speed xmlns:mytracks="http://mytracks.stichling.info/myTracksGPX/1/0" xmlns:xsd="http://www.w3.org/2001/XMLSchema" xmlns:xsi="http://www.w3.org/2001/XMLSchema-instance">5.885707591116915</mytracks:speed>
                    <mytracks:gradient xmlns:mytracks="http://mytracks.stichling.info/myTracksGPX/1/0" xmlns:xsd="http://www.w3.org/2001/XMLSchema" xmlns:xsi="http://www.w3.org/2001/XMLSchema-instance">0.084357882121366</mytracks:gradient>
                    <mytracks:length xmlns:mytracks="http://mytracks.stichling.info/myTracksGPX/1/0" xmlns:xsd="http://www.w3.org/2001/XMLSchema" xmlns:xsi="http://www.w3.org/2001/XMLSchema-instance">0.00183104571694989</mytracks:length>
                </extensions>
            </trkpt>
            <trkpt lat="45.951886" lon="10.8972729">
                <ele>116.3</ele>
                <time>2024-09-07T07:09:15.500Z</time>
                <name>092Position 92</name>
                <extensions>
                    <mytracks:speed xmlns:mytracks="http://mytracks.stichling.info/myTracksGPX/1/0" xmlns:xsd="http://www.w3.org/2001/XMLSchema" xmlns:xsi="http://www.w3.org/2001/XMLSchema-instance">5.812449392210703</mytracks:speed>
                    <mytracks:gradient xmlns:mytracks="http://mytracks.stichling.info/myTracksGPX/1/0" xmlns:xsd="http://www.w3.org/2001/XMLSchema" xmlns:xsi="http://www.w3.org/2001/XMLSchema-instance">0.05575692123899506</mytracks:gradient>
                    <mytracks:length xmlns:mytracks="http://mytracks.stichling.info/myTracksGPX/1/0" xmlns:xsd="http://www.w3.org/2001/XMLSchema" xmlns:xsi="http://www.w3.org/2001/XMLSchema-instance">0.001446011378093334</mytracks:length>
                </extensions>
            </trkpt>
            <trkpt lat="45.951696" lon="10.897283">
                <ele>116.5</ele>
                <time>2024-09-07T07:09:04.500Z</time>
                <name>093Position 93</name>
                <extensions>
                    <mytracks:speed xmlns:mytracks="http://mytracks.stichling.info/myTracksGPX/1/0" xmlns:xsd="http://www.w3.org/2001/XMLSchema" xmlns:xsi="http://www.w3.org/2001/XMLSchema-instance">5.243320238456363</mytracks:speed>
                    <mytracks:gradient xmlns:mytracks="http://mytracks.stichling.info/myTracksGPX/1/0" xmlns:xsd="http://www.w3.org/2001/XMLSchema" xmlns:xsi="http://www.w3.org/2001/XMLSchema-instance">0.07974115137741657</mytracks:gradient>
                    <mytracks:length xmlns:mytracks="http://mytracks.stichling.info/myTracksGPX/1/0" xmlns:xsd="http://www.w3.org/2001/XMLSchema" xmlns:xsi="http://www.w3.org/2001/XMLSchema-instance">0.001473792150465739</mytracks:length>
                </extensions>
            </trkpt>
            <trkpt lat="45.9515219" lon="10.8972017">
                <ele>115.8</ele>
                <time>2024-09-07T07:08:49.999Z</time>
                <name>094Position 94</name>
                <extensions>
                    <mytracks:speed xmlns:mytracks="http://mytracks.stichling.info/myTracksGPX/1/0" xmlns:xsd="http://www.w3.org/2001/XMLSchema" xmlns:xsi="http://www.w3.org/2001/XMLSchema-instance">7.71671546347117</mytracks:speed>
                    <mytracks:length xmlns:mytracks="http://mytracks.stichling.info/myTracksGPX/1/0" xmlns:xsd="http://www.w3.org/2001/XMLSchema" xmlns:xsi="http://www.w3.org/2001/XMLSchema-instance">0.002396058592675157</mytracks:length>
                </extensions>
            </trkpt>
            <trkpt lat="45.9513364" lon="10.8971729">
                <ele>116.5</ele>
                <time>2024-09-07T07:08:36.996Z</time>
                <name>095Position 95</name>
                <extensions>
                    <mytracks:speed xmlns:mytracks="http://mytracks.stichling.info/myTracksGPX/1/0" xmlns:xsd="http://www.w3.org/2001/XMLSchema" xmlns:xsi="http://www.w3.org/2001/XMLSchema-instance">5.697403142589231</mytracks:speed>
                    <mytracks:length xmlns:mytracks="http://mytracks.stichling.info/myTracksGPX/1/0" xmlns:xsd="http://www.w3.org/2001/XMLSchema" xmlns:xsi="http://www.w3.org/2001/XMLSchema-instance">0.0013492840996538</mytracks:length>
                </extensions>
            </trkpt>
            <trkpt lat="45.9511482" lon="10.8971877">
                <ele>115.5</ele>
                <time>2024-09-07T07:08:22.000Z</time>
                <name>096Position 96</name>
                <extensions>
                    <mytracks:speed xmlns:mytracks="http://mytracks.stichling.info/myTracksGPX/1/0" xmlns:xsd="http://www.w3.org/2001/XMLSchema" xmlns:xsi="http://www.w3.org/2001/XMLSchema-instance">4.721054738027516</mytracks:speed>
                    <mytracks:gradient xmlns:mytracks="http://mytracks.stichling.info/myTracksGPX/1/0" xmlns:xsd="http://www.w3.org/2001/XMLSchema" xmlns:xsi="http://www.w3.org/2001/XMLSchema-instance">0.09402826823199263</mytracks:gradient>
                    <mytracks:length xmlns:mytracks="http://mytracks.stichling.info/myTracksGPX/1/0" xmlns:xsd="http://www.w3.org/2001/XMLSchema" xmlns:xsi="http://www.w3.org/2001/XMLSchema-instance">0.001312031921402727</mytracks:length>
                </extensions>
            </trkpt>
            <trkpt lat="45.9509784" lon="10.8972735">
                <ele>116.2</ele>
                <time>2024-09-07T07:08:09.001Z</time>
                <name>097Position 97</name>
                <extensions>
                    <mytracks:speed xmlns:mytracks="http://mytracks.stichling.info/myTracksGPX/1/0" xmlns:xsd="http://www.w3.org/2001/XMLSchema" xmlns:xsi="http://www.w3.org/2001/XMLSchema-instance">8.162813778739098</mytracks:speed>
                    <mytracks:length xmlns:mytracks="http://mytracks.stichling.info/myTracksGPX/1/0" xmlns:xsd="http://www.w3.org/2001/XMLSchema" xmlns:xsi="http://www.w3.org/2001/XMLSchema-instance">0.002268536503285641</mytracks:length>
                </extensions>
            </trkpt>
            <trkpt lat="45.9508033" lon="10.8973497">
                <ele>115.5</ele>
                <time>2024-09-07T07:07:55.000Z</time>
                <name>098Position 98</name>
                <extensions>
                    <mytracks:speed xmlns:mytracks="http://mytracks.stichling.info/myTracksGPX/1/0" xmlns:xsd="http://www.w3.org/2001/XMLSchema" xmlns:xsi="http://www.w3.org/2001/XMLSchema-instance">7.123989378222472</mytracks:speed>
                    <mytracks:gradient xmlns:mytracks="http://mytracks.stichling.info/myTracksGPX/1/0" xmlns:xsd="http://www.w3.org/2001/XMLSchema" xmlns:xsi="http://www.w3.org/2001/XMLSchema-instance">0.08610548290469321</mytracks:gradient>
                    <mytracks:length xmlns:mytracks="http://mytracks.stichling.info/myTracksGPX/1/0" xmlns:xsd="http://www.w3.org/2001/XMLSchema" xmlns:xsi="http://www.w3.org/2001/XMLSchema-instance">0.00199364125728608</mytracks:length>
                </extensions>
            </trkpt>
            <trkpt lat="45.9506196" lon="10.897431">
                <ele>115.0</ele>
                <time>2024-09-07T07:07:41.000Z</time>
                <name>099Position 99</name>
                <extensions>
                    <mytracks:speed xmlns:mytracks="http://mytracks.stichling.info/myTracksGPX/1/0" xmlns:xsd="http://www.w3.org/2001/XMLSchema" xmlns:xsi="http://www.w3.org/2001/XMLSchema-instance">6.462615208527636</mytracks:speed>
                    <mytracks:length xmlns:mytracks="http://mytracks.stichling.info/myTracksGPX/1/0" xmlns:xsd="http://www.w3.org/2001/XMLSchema" xmlns:xsi="http://www.w3.org/2001/XMLSchema-instance">0.001703553015777859</mytracks:length>
                </extensions>
            </trkpt>
            <trkpt lat="45.9504556" lon="10.8975595">
                <ele>115.1</ele>
                <time>2024-09-07T07:07:30.000Z</time>
                <name>100Position 100</name>
                <extensions>
                    <mytracks:speed xmlns:mytracks="http://mytracks.stichling.info/myTracksGPX/1/0" xmlns:xsd="http://www.w3.org/2001/XMLSchema" xmlns:xsi="http://www.w3.org/2001/XMLSchema-instance">6.398672399762019</mytracks:speed>
                    <mytracks:gradient xmlns:mytracks="http://mytracks.stichling.info/myTracksGPX/1/0" xmlns:xsd="http://www.w3.org/2001/XMLSchema" xmlns:xsi="http://www.w3.org/2001/XMLSchema-instance">0.0144518291893569</mytracks:gradient>
                    <mytracks:length xmlns:mytracks="http://mytracks.stichling.info/myTracksGPX/1/0" xmlns:xsd="http://www.w3.org/2001/XMLSchema" xmlns:xsi="http://www.w3.org/2001/XMLSchema-instance">0.001633328624854348</mytracks:length>
                </extensions>
            </trkpt>
            <trkpt lat="45.9502897" lon="10.8976915">
                <ele>112.6</ele>
                <time>2024-09-07T07:07:16.011Z</time>
                <name>101Position 101</name>
                <extensions>
                    <mytracks:speed xmlns:mytracks="http://mytracks.stichling.info/myTracksGPX/1/0" xmlns:xsd="http://www.w3.org/2001/XMLSchema" xmlns:xsi="http://www.w3.org/2001/XMLSchema-instance">2.702892761543948</mytracks:speed>
                    <mytracks:gradient xmlns:mytracks="http://mytracks.stichling.info/myTracksGPX/1/0" xmlns:xsd="http://www.w3.org/2001/XMLSchema" xmlns:xsi="http://www.w3.org/2001/XMLSchema-instance">0.2996785354739309</mytracks:gradient>
                    <mytracks:length xmlns:mytracks="http://mytracks.stichling.info/myTracksGPX/1/0" xmlns:xsd="http://www.w3.org/2001/XMLSchema" xmlns:xsi="http://www.w3.org/2001/XMLSchema-instance">0.001446011378093334</mytracks:length>
                </extensions>
            </trkpt>
            <trkpt lat="45.9501011" lon="10.8977149">
                <ele>113.2</ele>
                <time>2024-09-07T07:06:58.005Z</time>
                <name>102Position 102</name>
                <extensions>
                    <mytracks:speed xmlns:mytracks="http://mytracks.stichling.info/myTracksGPX/1/0" xmlns:xsd="http://www.w3.org/2001/XMLSchema" xmlns:xsi="http://www.w3.org/2001/XMLSchema-instance">5.980837418374747</mytracks:speed>
                    <mytracks:length xmlns:mytracks="http://mytracks.stichling.info/myTracksGPX/1/0" xmlns:xsd="http://www.w3.org/2001/XMLSchema" xmlns:xsi="http://www.w3.org/2001/XMLSchema-instance">0.001660689466687717</mytracks:length>
                </extensions>
            </trkpt>
            <trkpt lat="45.9500379" lon="10.8982089">
                <ele>115.0</ele>
                <time>2024-09-07T07:06:57.506Z</time>
                <name>103Position 103</name>
            </trkpt>
            <trkpt lat="45.94946" lon="10.8990676">
                <ele>113.4</ele>
                <time>2024-09-07T07:06:57.006Z</time>
                <name>104Position 104</name>
                <extensions>
                    <mytracks:speed xmlns:mytracks="http://mytracks.stichling.info/myTracksGPX/1/0" xmlns:xsd="http://www.w3.org/2001/XMLSchema" xmlns:xsi="http://www.w3.org/2001/XMLSchema-instance">6.253326500191645</mytracks:speed>
                    <mytracks:length xmlns:mytracks="http://mytracks.stichling.info/myTracksGPX/1/0" xmlns:xsd="http://www.w3.org/2001/XMLSchema" xmlns:xsi="http://www.w3.org/2001/XMLSchema-instance">0.007468578655979292</mytracks:length>
                </extensions>
            </trkpt>
            <trkpt lat="45.9490013" lon="10.8993613">
                <ele>115.0</ele>
                <time>2024-09-07T07:06:55.931Z</time>
                <name>105Position 105</name>
            </trkpt>
            <trkpt lat="45.9485425" lon="10.8996549">
                <ele>115.0</ele>
                <time>2024-09-07T07:06:54.856Z</time>
                <name>106Position 106</name>
            </trkpt>
            <trkpt lat="45.9479384" lon="10.9005212">
                <ele>114.3</ele>
                <time>2024-09-07T07:06:52.706Z</time>
                <name>107Position 107</name>
                <extensions>
                    <mytracks:gradient xmlns:mytracks="http://mytracks.stichling.info/myTracksGPX/1/0" xmlns:xsd="http://www.w3.org/2001/XMLSchema" xmlns:xsi="http://www.w3.org/2001/XMLSchema-instance">0</mytracks:gradient>
                    <mytracks:length xmlns:mytracks="http://mytracks.stichling.info/myTracksGPX/1/0" xmlns:xsd="http://www.w3.org/2001/XMLSchema" xmlns:xsi="http://www.w3.org/2001/XMLSchema-instance">0</mytracks:length>
                </extensions>
            </trkpt>
        </trkseg>
    </trk>
</gpx>
