<?xml version="1.0" encoding="UTF-8" standalone="yes"?>
<gpx xmlns:gpxtpx1="http://www.garmin.com/xmlschemas/TrackPointExtension/v1" xmlns="http://www.topografix.com/GPX/1/1" xmlns:trp="http://www.garmin.com/xmlschemas/TripExtensions/v1" xmlns:gpxx="http://www.garmin.com/xmlschemas/GpxExtensions/v3" xmlns:gpxtpx="http://www.garmin.com/xmlschemas/TrackPointExtension/v2" version="1.1" creator="RouteConverter 2.27.2">
    <metadata>
        <name>2020-08-20 10:57</name>
        <link href="https://www.oruxmaps.com">
            <text>OruxMaps</text>
        </link>
        <time>2020-08-20T08:57:53Z</time>
        <bounds minlat="47.5681796" minlon="12.3186445" maxlat="47.5831297" maxlon="12.4100572"/>
    </metadata>
    <wpt lat="47.574602" lon="12.3202163">
        <ele>1309.1</ele>
        <time>2020-08-20T10:02:08.000Z</time>
        <name>0000074</name>
        <sym>Waypoint</sym>
        <type>Wegpunkt</type>
        <extensions>
            <om:oruxmapsextensions xmlns:om="http://www.oruxmaps.com/oruxmapsextensions/1/0" xmlns:gpxtpx="http://www.garmin.com/xmlschemas/TrackPointExtension/v1" xmlns:xsi="http://www.w3.org/2001/XMLSchema-instance">
                <om:ext subtype="0" type="ICON">1</om:ext>
</om:oruxmapsextensions>
        </extensions>
    </wpt>
    <trk>
        <name>2020-08-20 10:57</name>
        <desc>&lt;p&gt;Startzeit: 10:57 20.08.2020&lt;br/&gt;Zielzeit: 17:11 20.08.2020&lt;br/&gt;Strecke: 18,
5 km (06:13)&lt;br/&gt;Bewegungszeit: 02:04&lt;br/&gt;Ø-Geschwindigkeit: 2,
98 km/h&lt;br/&gt;Netto-Geschwindigkeit: 8,
9 km/h&lt;br/&gt;Max. Geschwindigkeit: 55,
84 km/h&lt;br/&gt;Minimale Höhe: 725 m&lt;br/&gt;Maximale Höhe: 1670 m&lt;br/&gt;Steig-Geschw.: 214,
5 m/h&lt;br/&gt;Sink-Geschw.: -565,
7 m/h&lt;br/&gt;Aufstieg: 969 m&lt;br/&gt;Abstieg: -960 m&lt;br/&gt;Steigzeit: 04:31&lt;br/&gt;Sinkzeit: 01:41&lt;br/&gt;&lt;/p&gt;&lt;hr align="center" width="480" style="height: 2px; width: 517px"/&gt;</desc>
        <type>Berg/ Bergsteigen</type>
        <extensions>
            <om:oruxmapsextensions xmlns:om="http://www.oruxmaps.com/oruxmapsextensions/1/0" xmlns:gpxtpx="http://www.garmin.com/xmlschemas/TrackPointExtension/v1" xmlns:xsi="http://www.w3.org/2001/XMLSchema-instance">
                <om:ext subtype="0" type="TYPE">7</om:ext>
                <om:ext type="DIFFICULTY">0</om:ext>
</om:oruxmapsextensions>
        </extensions>
        <trkseg>
            <trkpt lat="47.5795737" lon="12.3294598">
                <ele>984.2</ele>
                <time>2020-08-20T09:19:02.000Z</time>
                <name>Position 1</name>
            </trkpt>
            <trkpt lat="47.579409" lon="12.3293055">
                <ele>984.5</ele>
                <time>2020-08-20T09:22:11.000Z</time>
                <name>Position 2</name>
            </trkpt>
            <trkpt lat="47.5792911" lon="12.3290792">
                <ele>984.2</ele>
                <time>2020-08-20T09:22:25.000Z</time>
                <name>Position 3</name>
            </trkpt>
            <trkpt lat="47.5790962" lon="12.3290501">
                <ele>985.5</ele>
                <time>2020-08-20T09:22:39.000Z</time>
                <name>Position 4</name>
            </trkpt>
            <trkpt lat="47.5789209" lon="12.3291506">
                <ele>984.9</ele>
                <time>2020-08-20T09:23:03.000Z</time>
                <name>Position 5</name>
            </trkpt>
            <trkpt lat="47.5788261" lon="12.3289109">
                <ele>987.6</ele>
                <time>2020-08-20T09:23:21.000Z</time>
                <name>Position 6</name>
            </trkpt>
            <trkpt lat="47.5788759" lon="12.3286497">
                <ele>992.4</ele>
                <time>2020-08-20T09:23:43.000Z</time>
                <name>Position 7</name>
            </trkpt>
            <trkpt lat="47.5789313" lon="12.3283889">
                <ele>993.6</ele>
                <time>2020-08-20T09:24:01.000Z</time>
                <name>Position 8</name>
            </trkpt>
            <trkpt lat="47.5789991" lon="12.3281089">
                <ele>996.0</ele>
                <time>2020-08-20T09:24:21.000Z</time>
                <name>Position 9</name>
            </trkpt>
            <trkpt lat="47.5789712" lon="12.3278429">
                <ele>999.0</ele>
                <time>2020-08-20T09:24:35.000Z</time>
                <name>Position 10</name>
            </trkpt>
            <trkpt lat="47.5791118" lon="12.3276649">
                <ele>1003.7</ele>
                <time>2020-08-20T09:24:57.000Z</time>
                <name>Position 11</name>
            </trkpt>
            <trkpt lat="47.5792881" lon="12.3275219">
                <ele>1008.6</ele>
                <time>2020-08-20T09:25:21.000Z</time>
                <name>Position 12</name>
            </trkpt>
            <trkpt lat="47.579334" lon="12.3272422">
                <ele>1010.2</ele>
                <time>2020-08-20T09:25:37.000Z</time>
                <name>Position 13</name>
            </trkpt>
            <trkpt lat="47.5793767" lon="12.326973">
                <ele>1013.4</ele>
                <time>2020-08-20T09:25:55.000Z</time>
                <name>Position 14</name>
            </trkpt>
            <trkpt lat="47.5794431" lon="12.3267245">
                <ele>1012.9</ele>
                <time>2020-08-20T09:26:31.000Z</time>
                <name>Position 15</name>
            </trkpt>
            <trkpt lat="47.5795289" lon="12.3264706">
                <ele>1017.6</ele>
                <time>2020-08-20T09:26:55.000Z</time>
                <name>Position 16</name>
            </trkpt>
            <trkpt lat="47.5796209" lon="12.326234">
                <ele>1023.6</ele>
                <time>2020-08-20T09:27:21.000Z</time>
                <name>Position 17</name>
            </trkpt>
            <trkpt lat="47.5795849" lon="12.3259542">
                <ele>1026.1</ele>
                <time>2020-08-20T09:27:47.000Z</time>
                <name>Position 18</name>
            </trkpt>
            <trkpt lat="47.5796476" lon="12.325701">
                <ele>1029.6</ele>
                <time>2020-08-20T09:28:11.000Z</time>
                <name>Position 19</name>
            </trkpt>
            <trkpt lat="47.5795681" lon="12.3254478">
                <ele>1033.5</ele>
                <time>2020-08-20T09:28:45.000Z</time>
                <name>Position 20</name>
            </trkpt>
            <trkpt lat="47.5794286" lon="12.3252699">
                <ele>1038.3</ele>
                <time>2020-08-20T09:29:13.000Z</time>
                <name>Position 21</name>
            </trkpt>
            <trkpt lat="47.5795833" lon="12.3250893">
                <ele>1035.9</ele>
                <time>2020-08-20T09:29:41.000Z</time>
                <name>Position 22</name>
            </trkpt>
            <trkpt lat="47.5795879" lon="12.3248141">
                <ele>1041.5</ele>
                <time>2020-08-20T09:30:01.000Z</time>
                <name>Position 23</name>
            </trkpt>
            <trkpt lat="47.5795352" lon="12.3245381">
                <ele>1046.8</ele>
                <time>2020-08-20T09:30:25.000Z</time>
                <name>Position 24</name>
            </trkpt>
            <trkpt lat="47.5795137" lon="12.3242438">
                <ele>1051.4</ele>
                <time>2020-08-20T09:30:47.000Z</time>
                <name>Position 25</name>
            </trkpt>
            <trkpt lat="47.5794711" lon="12.3239584">
                <ele>1054.3</ele>
                <time>2020-08-20T09:31:05.000Z</time>
                <name>Position 26</name>
            </trkpt>
            <trkpt lat="47.5794549" lon="12.3236823">
                <ele>1056.9</ele>
                <time>2020-08-20T09:31:25.000Z</time>
                <name>Position 27</name>
            </trkpt>
            <trkpt lat="47.5794095" lon="12.3234051">
                <ele>1059.2</ele>
                <time>2020-08-20T09:31:45.000Z</time>
                <name>Position 28</name>
            </trkpt>
            <trkpt lat="47.5793" lon="12.3231923">
                <ele>1064.0</ele>
                <time>2020-08-20T09:32:05.000Z</time>
                <name>Position 29</name>
            </trkpt>
            <trkpt lat="47.5791925" lon="12.322949">
                <ele>1066.4</ele>
                <time>2020-08-20T09:32:27.000Z</time>
                <name>Position 30</name>
            </trkpt>
            <trkpt lat="47.5791943" lon="12.3226606">
                <ele>1071.1</ele>
                <time>2020-08-20T09:32:51.000Z</time>
                <name>Position 31</name>
            </trkpt>
            <trkpt lat="47.5790092" lon="12.3226979">
                <ele>1074.7</ele>
                <time>2020-08-20T09:33:15.000Z</time>
                <name>Position 32</name>
            </trkpt>
            <trkpt lat="47.5789172" lon="12.3229291">
                <ele>1078.0</ele>
                <time>2020-08-20T09:33:31.000Z</time>
                <name>Position 33</name>
            </trkpt>
            <trkpt lat="47.578795" lon="12.3231271">
                <ele>1080.6</ele>
                <time>2020-08-20T09:33:51.000Z</time>
                <name>Position 34</name>
            </trkpt>
            <trkpt lat="47.5786327" lon="12.323244">
                <ele>1085.1</ele>
                <time>2020-08-20T09:34:13.000Z</time>
                <name>Position 35</name>
            </trkpt>
            <trkpt lat="47.578508" lon="12.3234419">
                <ele>1088.5</ele>
                <time>2020-08-20T09:34:47.000Z</time>
                <name>Position 36</name>
            </trkpt>
            <trkpt lat="47.5783756" lon="12.3232348">
                <ele>1094.2</ele>
                <time>2020-08-20T09:36:11.000Z</time>
                <name>Position 37</name>
            </trkpt>
            <trkpt lat="47.5783139" lon="12.3229526">
                <ele>1096.5</ele>
                <time>2020-08-20T09:36:29.000Z</time>
                <name>Position 38</name>
            </trkpt>
            <trkpt lat="47.5782469" lon="12.322705">
                <ele>1102.6</ele>
                <time>2020-08-20T09:37:03.000Z</time>
                <name>Position 39</name>
            </trkpt>
            <trkpt lat="47.578085" lon="12.3228217">
                <ele>1105.6</ele>
                <time>2020-08-20T09:37:21.000Z</time>
                <name>Position 40</name>
            </trkpt>
            <trkpt lat="47.5779941" lon="12.3230554">
                <ele>1108.1</ele>
                <time>2020-08-20T09:37:39.000Z</time>
                <name>Position 41</name>
            </trkpt>
            <trkpt lat="47.5779843" lon="12.3233464">
                <ele>1112.3</ele>
                <time>2020-08-20T09:38:01.000Z</time>
                <name>Position 42</name>
            </trkpt>
            <trkpt lat="47.5778473" lon="12.323557">
                <ele>1116.4</ele>
                <time>2020-08-20T09:38:23.000Z</time>
                <name>Position 43</name>
            </trkpt>
            <trkpt lat="47.5777025" lon="12.3237243">
                <ele>1120.5</ele>
                <time>2020-08-20T09:38:45.000Z</time>
                <name>Position 44</name>
            </trkpt>
            <trkpt lat="47.5775277" lon="12.3238349">
                <ele>1123.4</ele>
                <time>2020-08-20T09:39:03.000Z</time>
                <name>Position 45</name>
            </trkpt>
            <trkpt lat="47.5773738" lon="12.3240178">
                <ele>1124.9</ele>
                <time>2020-08-20T09:39:19.000Z</time>
                <name>Position 46</name>
            </trkpt>
            <trkpt lat="47.5773439" lon="12.3242841">
                <ele>1128.1</ele>
                <time>2020-08-20T09:39:35.000Z</time>
                <name>Position 47</name>
            </trkpt>
            <trkpt lat="47.5772737" lon="12.3245486">
                <ele>1132.8</ele>
                <time>2020-08-20T09:39:59.000Z</time>
                <name>Position 48</name>
            </trkpt>
            <trkpt lat="47.5771195" lon="12.3247183">
                <ele>1137.9</ele>
                <time>2020-08-20T09:40:30.000Z</time>
                <name>Position 49</name>
            </trkpt>
            <trkpt lat="47.5771208" lon="12.3244313">
                <ele>1152.1</ele>
                <time>2020-08-20T09:41:42.000Z</time>
                <name>Position 50</name>
            </trkpt>
            <trkpt lat="47.5770433" lon="12.3241665">
                <ele>1158.7</ele>
                <time>2020-08-20T09:42:12.000Z</time>
                <name>Position 51</name>
            </trkpt>
            <trkpt lat="47.5768848" lon="12.3242946">
                <ele>1163.4</ele>
                <time>2020-08-20T09:42:32.000Z</time>
                <name>Position 52</name>
            </trkpt>
            <trkpt lat="47.5767014" lon="12.3244087">
                <ele>1168.0</ele>
                <time>2020-08-20T09:43:04.000Z</time>
                <name>Position 53</name>
            </trkpt>
            <trkpt lat="47.5765805" lon="12.3241871">
                <ele>1181.0</ele>
                <time>2020-08-20T09:44:10.000Z</time>
                <name>Position 54</name>
            </trkpt>
            <trkpt lat="47.5765836" lon="12.3239188">
                <ele>1190.5</ele>
                <time>2020-08-20T09:44:56.000Z</time>
                <name>Position 55</name>
            </trkpt>
            <trkpt lat="47.5764794" lon="12.3236867">
                <ele>1197.8</ele>
                <time>2020-08-20T09:45:38.000Z</time>
                <name>Position 56</name>
            </trkpt>
            <trkpt lat="47.5763667" lon="12.3234784">
                <ele>1200.3</ele>
                <time>2020-08-20T09:45:58.000Z</time>
                <name>Position 57</name>
            </trkpt>
            <trkpt lat="47.5762551" lon="12.3232537">
                <ele>1202.3</ele>
                <time>2020-08-20T09:46:12.000Z</time>
                <name>Position 58</name>
            </trkpt>
            <trkpt lat="47.5762072" lon="12.3229898">
                <ele>1208.0</ele>
                <time>2020-08-20T09:46:42.000Z</time>
                <name>Position 59</name>
            </trkpt>
            <trkpt lat="47.5762625" lon="12.3227334">
                <ele>1212.9</ele>
                <time>2020-08-20T09:47:10.000Z</time>
                <name>Position 60</name>
            </trkpt>
            <trkpt lat="47.5762117" lon="12.3224514">
                <ele>1222.6</ele>
                <time>2020-08-20T09:47:58.000Z</time>
                <name>Position 61</name>
            </trkpt>
            <trkpt lat="47.5763151" lon="12.32223">
                <ele>1227.9</ele>
                <time>2020-08-20T09:48:26.000Z</time>
                <name>Position 62</name>
            </trkpt>
            <trkpt lat="47.5763927" lon="12.3219508">
                <ele>1236.3</ele>
                <time>2020-08-20T09:49:02.000Z</time>
                <name>Position 63</name>
            </trkpt>
            <trkpt lat="47.5762663" lon="12.3217475">
                <ele>1237.3</ele>
                <time>2020-08-20T09:49:26.000Z</time>
                <name>Position 64</name>
            </trkpt>
            <trkpt lat="47.5761167" lon="12.3215673">
                <ele>1248.5</ele>
                <time>2020-08-20T09:50:04.000Z</time>
                <name>Position 65</name>
            </trkpt>
            <trkpt lat="47.5759498" lon="12.3214394">
                <ele>1252.0</ele>
                <time>2020-08-20T09:50:28.000Z</time>
                <name>Position 66</name>
            </trkpt>
            <trkpt lat="47.5757829" lon="12.3213067">
                <ele>1254.0</ele>
                <time>2020-08-20T09:50:46.000Z</time>
                <name>Position 67</name>
            </trkpt>
            <trkpt lat="47.5757605" lon="12.321038">
                <ele>1257.1</ele>
                <time>2020-08-20T09:51:08.000Z</time>
                <name>Position 68</name>
            </trkpt>
            <trkpt lat="47.5757806" lon="12.3207709">
                <ele>1265.4</ele>
                <time>2020-08-20T09:51:44.000Z</time>
                <name>Position 69</name>
            </trkpt>
            <trkpt lat="47.5756462" lon="12.3205915">
                <ele>1272.1</ele>
                <time>2020-08-20T09:52:24.000Z</time>
                <name>Position 70</name>
            </trkpt>
            <trkpt lat="47.5755125" lon="12.3203862">
                <ele>1277.8</ele>
                <time>2020-08-20T09:53:04.000Z</time>
                <name>Position 71</name>
            </trkpt>
            <trkpt lat="47.5754416" lon="12.3201357">
                <ele>1282.9</ele>
                <time>2020-08-20T09:54:34.000Z</time>
                <name>Position 72</name>
            </trkpt>
            <trkpt lat="47.5752559" lon="12.3200916">
                <ele>1290.8</ele>
                <time>2020-08-20T09:55:06.000Z</time>
                <name>Position 73</name>
            </trkpt>
            <trkpt lat="47.5750648" lon="12.3200274">
                <ele>1294.8</ele>
                <time>2020-08-20T09:55:44.000Z</time>
                <name>Position 74</name>
            </trkpt>
            <trkpt lat="47.5748852" lon="12.3200617">
                <ele>1296.2</ele>
                <time>2020-08-20T09:56:29.000Z</time>
                <name>Position 75</name>
            </trkpt>
            <trkpt lat="47.5746995" lon="12.3200959">
                <ele>1305.1</ele>
                <time>2020-08-20T09:57:23.000Z</time>
                <name>Position 76</name>
            </trkpt>
            <trkpt lat="47.5745336" lon="12.3202019">
                <ele>1310.7</ele>
                <time>2020-08-20T10:05:48.000Z</time>
                <name>Position 77</name>
            </trkpt>
            <trkpt lat="47.5745076" lon="12.3199363">
                <ele>1330.7</ele>
                <time>2020-08-20T10:12:40.000Z</time>
                <name>Position 78</name>
            </trkpt>
            <trkpt lat="47.5743345" lon="12.3200734">
                <ele>1334.1</ele>
                <time>2020-08-20T10:23:31.000Z</time>
                <name>Position 79</name>
            </trkpt>
            <trkpt lat="47.5744902" lon="12.3199346">
                <ele>1332.0</ele>
                <time>2020-08-20T10:26:17.000Z</time>
                <name>Position 80</name>
            </trkpt>
            <trkpt lat="47.5743671" lon="12.3197363">
                <ele>1349.3</ele>
                <time>2020-08-20T10:33:19.000Z</time>
                <name>Position 81</name>
            </trkpt>
            <trkpt lat="47.5742126" lon="12.3195803">
                <ele>1383.6</ele>
                <time>2020-08-20T10:46:57.000Z</time>
                <name>Position 82</name>
            </trkpt>
            <trkpt lat="47.5740335" lon="12.3195509">
                <ele>1394.5</ele>
                <time>2020-08-20T11:11:34.000Z</time>
                <name>Position 83</name>
            </trkpt>
            <trkpt lat="47.573863" lon="12.3194628">
                <ele>1424.6</ele>
                <time>2020-08-20T11:30:35.000Z</time>
                <name>Position 84</name>
            </trkpt>
            <trkpt lat="47.5737811" lon="12.3197138">
                <ele>1426.6</ele>
                <time>2020-08-20T11:32:05.000Z</time>
                <name>Position 85</name>
            </trkpt>
            <trkpt lat="47.5736116" lon="12.3198211">
                <ele>1442.2</ele>
                <time>2020-08-20T11:33:35.000Z</time>
                <name>Position 86</name>
            </trkpt>
            <trkpt lat="47.5734385" lon="12.3197366">
                <ele>1467.2</ele>
                <time>2020-08-20T11:36:11.000Z</time>
                <name>Position 87</name>
            </trkpt>
            <trkpt lat="47.5732655" lon="12.3198227">
                <ele>1489.4</ele>
                <time>2020-08-20T11:38:05.000Z</time>
                <name>Position 88</name>
            </trkpt>
            <trkpt lat="47.5730838" lon="12.3197719">
                <ele>1498.4</ele>
                <time>2020-08-20T11:39:27.000Z</time>
                <name>Position 89</name>
            </trkpt>
            <trkpt lat="47.5728979" lon="12.3197727">
                <ele>1515.8</ele>
                <time>2020-08-20T12:04:14.000Z</time>
                <name>Position 90</name>
            </trkpt>
            <trkpt lat="47.5727281" lon="12.3196831">
                <ele>1527.4</ele>
                <time>2020-08-20T12:07:28.000Z</time>
                <name>Position 91</name>
            </trkpt>
            <trkpt lat="47.5725481" lon="12.3196304">
                <ele>1541.5</ele>
                <time>2020-08-20T12:09:56.000Z</time>
                <name>Position 92</name>
            </trkpt>
            <trkpt lat="47.5723858" lon="12.319512">
                <ele>1570.1</ele>
                <time>2020-08-20T12:36:01.000Z</time>
                <name>Position 93</name>
            </trkpt>
            <trkpt lat="47.5722225" lon="12.3193911">
                <ele>1608.5</ele>
                <time>2020-08-20T13:09:38.000Z</time>
                <name>Position 94</name>
            </trkpt>
            <trkpt lat="47.5720466" lon="12.3192994">
                <ele>1615.9</ele>
                <time>2020-08-20T13:10:32.000Z</time>
                <name>Position 95</name>
            </trkpt>
            <trkpt lat="47.5718674" lon="12.3193243">
                <ele>1639.4</ele>
                <time>2020-08-20T13:22:12.000Z</time>
                <name>Position 96</name>
            </trkpt>
            <trkpt lat="47.5717026" lon="12.3194536">
                <ele>1653.0</ele>
                <time>2020-08-20T13:26:04.000Z</time>
                <name>Position 97</name>
            </trkpt>
            <trkpt lat="47.5716114" lon="12.3192155">
                <ele>1660.7</ele>
                <time>2020-08-20T13:30:06.000Z</time>
                <name>Position 98</name>
            </trkpt>
            <trkpt lat="47.5714705" lon="12.3194177">
                <ele>1665.0</ele>
                <time>2020-08-20T13:42:45.000Z</time>
                <name>Position 99</name>
            </trkpt>
            <trkpt lat="47.5714136" lon="12.319671">
                <ele>1670.9</ele>
                <time>2020-08-20T13:43:39.000Z</time>
                <name>Position 100</name>
            </trkpt>
            <trkpt lat="47.5715442" lon="12.3198591">
                <ele>1658.7</ele>
                <time>2020-08-20T13:45:03.000Z</time>
                <name>Position 101</name>
            </trkpt>
            <trkpt lat="47.5717163" lon="12.3199584">
                <ele>1650.1</ele>
                <time>2020-08-20T13:45:49.000Z</time>
                <name>Position 102</name>
            </trkpt>
            <trkpt lat="47.5719011" lon="12.3200184">
                <ele>1642.8</ele>
                <time>2020-08-20T13:46:45.000Z</time>
                <name>Position 103</name>
            </trkpt>
            <trkpt lat="47.5719474" lon="12.3197515">
                <ele>1621.8</ele>
                <time>2020-08-20T13:48:43.000Z</time>
                <name>Position 104</name>
            </trkpt>
            <trkpt lat="47.5720234" lon="12.3194929">
                <ele>1619.0</ele>
                <time>2020-08-20T13:49:17.000Z</time>
                <name>Position 105</name>
            </trkpt>
            <trkpt lat="47.5721647" lon="12.3196602">
                <ele>1607.9</ele>
                <time>2020-08-20T13:50:35.000Z</time>
                <name>Position 106</name>
            </trkpt>
            <trkpt lat="47.5722374" lon="12.3199209">
                <ele>1600.7</ele>
                <time>2020-08-20T13:51:13.000Z</time>
                <name>Position 107</name>
            </trkpt>
            <trkpt lat="47.5723402" lon="12.3201441">
                <ele>1575.1</ele>
                <time>2020-08-20T13:54:13.000Z</time>
                <name>Position 108</name>
            </trkpt>
            <trkpt lat="47.572516" lon="12.3202253">
                <ele>1562.5</ele>
                <time>2020-08-20T13:54:57.000Z</time>
                <name>Position 109</name>
            </trkpt>
            <trkpt lat="47.5726649" lon="12.3203937">
                <ele>1556.0</ele>
                <time>2020-08-20T13:55:35.000Z</time>
                <name>Position 110</name>
            </trkpt>
            <trkpt lat="47.5728459" lon="12.3203062">
                <ele>1545.0</ele>
                <time>2020-08-20T13:56:33.000Z</time>
                <name>Position 111</name>
            </trkpt>
            <trkpt lat="47.5730206" lon="12.3203757">
                <ele>1537.2</ele>
                <time>2020-08-20T13:57:45.000Z</time>
                <name>Position 112</name>
            </trkpt>
            <trkpt lat="47.5731882" lon="12.3204771">
                <ele>1531.5</ele>
                <time>2020-08-20T13:58:09.000Z</time>
                <name>Position 113</name>
            </trkpt>
            <trkpt lat="47.5731249" lon="12.3202264">
                <ele>1519.6</ele>
                <time>2020-08-20T13:59:03.000Z</time>
                <name>Position 114</name>
            </trkpt>
            <trkpt lat="47.5730723" lon="12.319969">
                <ele>1509.5</ele>
                <time>2020-08-20T14:00:03.000Z</time>
                <name>Position 115</name>
            </trkpt>
            <trkpt lat="47.5732535" lon="12.3199812">
                <ele>1493.5</ele>
                <time>2020-08-20T14:01:31.000Z</time>
                <name>Position 116</name>
            </trkpt>
            <trkpt lat="47.5734375" lon="12.320025">
                <ele>1482.2</ele>
                <time>2020-08-20T14:02:19.000Z</time>
                <name>Position 117</name>
            </trkpt>
            <trkpt lat="47.5735154" lon="12.3197815">
                <ele>1465.0</ele>
                <time>2020-08-20T14:05:21.000Z</time>
                <name>Position 118</name>
            </trkpt>
            <trkpt lat="47.5736826" lon="12.319944">
                <ele>1449.0</ele>
                <time>2020-08-20T14:06:41.000Z</time>
                <name>Position 119</name>
            </trkpt>
            <trkpt lat="47.5738009" lon="12.319725">
                <ele>1434.6</ele>
                <time>2020-08-20T14:07:41.000Z</time>
                <name>Position 120</name>
            </trkpt>
            <trkpt lat="47.5738875" lon="12.3194651">
                <ele>1428.7</ele>
                <time>2020-08-20T14:08:37.000Z</time>
                <name>Position 121</name>
            </trkpt>
            <trkpt lat="47.5739928" lon="12.3192417">
                <ele>1427.8</ele>
                <time>2020-08-20T14:09:03.000Z</time>
                <name>Position 122</name>
            </trkpt>
            <trkpt lat="47.5741168" lon="12.3190118">
                <ele>1426.5</ele>
                <time>2020-08-20T14:09:27.000Z</time>
                <name>Position 123</name>
            </trkpt>
            <trkpt lat="47.5742685" lon="12.3188381">
                <ele>1424.6</ele>
                <time>2020-08-20T14:09:49.000Z</time>
                <name>Position 124</name>
            </trkpt>
            <trkpt lat="47.5744526" lon="12.3187733">
                <ele>1417.8</ele>
                <time>2020-08-20T14:10:41.000Z</time>
                <name>Position 125</name>
            </trkpt>
            <trkpt lat="47.5746338" lon="12.3187548">
                <ele>1409.3</ele>
                <time>2020-08-20T14:12:05.000Z</time>
                <name>Position 126</name>
            </trkpt>
            <trkpt lat="47.5748136" lon="12.3187312">
                <ele>1391.9</ele>
                <time>2020-08-20T14:15:44.000Z</time>
                <name>Position 127</name>
            </trkpt>
            <trkpt lat="47.5749853" lon="12.3186445">
                <ele>1370.6</ele>
                <time>2020-08-20T14:21:20.000Z</time>
                <name>Position 128</name>
            </trkpt>
            <trkpt lat="47.5751616" lon="12.3187631">
                <ele>1353.8</ele>
                <time>2020-08-20T14:22:40.000Z</time>
                <name>Position 129</name>
            </trkpt>
            <trkpt lat="47.5752247" lon="12.3190144">
                <ele>1341.9</ele>
                <time>2020-08-20T14:24:00.000Z</time>
                <name>Position 130</name>
            </trkpt>
            <trkpt lat="47.5751129" lon="12.3192313">
                <ele>1333.8</ele>
                <time>2020-08-20T14:24:40.000Z</time>
                <name>Position 131</name>
            </trkpt>
            <trkpt lat="47.5750482" lon="12.3194833">
                <ele>1325.8</ele>
                <time>2020-08-20T14:25:12.000Z</time>
                <name>Position 132</name>
            </trkpt>
            <trkpt lat="47.5751715" lon="12.3196962">
                <ele>1315.9</ele>
                <time>2020-08-20T14:25:40.000Z</time>
                <name>Position 133</name>
            </trkpt>
            <trkpt lat="47.5753239" lon="12.319878">
                <ele>1306.5</ele>
                <time>2020-08-20T14:26:14.000Z</time>
                <name>Position 134</name>
            </trkpt>
            <trkpt lat="47.5754179" lon="12.3201201">
                <ele>1295.3</ele>
                <time>2020-08-20T14:39:34.000Z</time>
                <name>Position 135</name>
            </trkpt>
            <trkpt lat="47.5755182" lon="12.3203668">
                <ele>1288.2</ele>
                <time>2020-08-20T14:40:00.000Z</time>
                <name>Position 136</name>
            </trkpt>
            <trkpt lat="47.5756519" lon="12.3205526">
                <ele>1282.7</ele>
                <time>2020-08-20T14:40:18.000Z</time>
                <name>Position 137</name>
            </trkpt>
            <trkpt lat="47.575787" lon="12.320788">
                <ele>1276.3</ele>
                <time>2020-08-20T14:40:38.000Z</time>
                <name>Position 138</name>
            </trkpt>
            <trkpt lat="47.5759215" lon="12.321011">
                <ele>1271.3</ele>
                <time>2020-08-20T14:41:00.000Z</time>
                <name>Position 139</name>
            </trkpt>
            <trkpt lat="47.5759163" lon="12.3212846">
                <ele>1267.5</ele>
                <time>2020-08-20T14:41:14.000Z</time>
                <name>Position 140</name>
            </trkpt>
            <trkpt lat="47.5760778" lon="12.3214879">
                <ele>1263.5</ele>
                <time>2020-08-20T14:41:30.000Z</time>
                <name>Position 141</name>
            </trkpt>
            <trkpt lat="47.5762325" lon="12.3216523">
                <ele>1257.4</ele>
                <time>2020-08-20T14:41:48.000Z</time>
                <name>Position 142</name>
            </trkpt>
            <trkpt lat="47.57638" lon="12.3218485">
                <ele>1252.6</ele>
                <time>2020-08-20T14:42:06.000Z</time>
                <name>Position 143</name>
            </trkpt>
            <trkpt lat="47.5763875" lon="12.3221403">
                <ele>1245.1</ele>
                <time>2020-08-20T14:42:26.000Z</time>
                <name>Position 144</name>
            </trkpt>
            <trkpt lat="47.5763223" lon="12.3223941">
                <ele>1240.1</ele>
                <time>2020-08-20T14:42:42.000Z</time>
                <name>Position 145</name>
            </trkpt>
            <trkpt lat="47.5762488" lon="12.3226395">
                <ele>1232.2</ele>
                <time>2020-08-20T14:43:02.000Z</time>
                <name>Position 146</name>
            </trkpt>
            <trkpt lat="47.5762571" lon="12.3229291">
                <ele>1224.1</ele>
                <time>2020-08-20T14:43:20.000Z</time>
                <name>Position 147</name>
            </trkpt>
            <trkpt lat="47.5762436" lon="12.3232086">
                <ele>1219.4</ele>
                <time>2020-08-20T14:43:32.000Z</time>
                <name>Position 148</name>
            </trkpt>
            <trkpt lat="47.5762945" lon="12.3234699">
                <ele>1214.0</ele>
                <time>2020-08-20T14:43:46.000Z</time>
                <name>Position 149</name>
            </trkpt>
            <trkpt lat="47.576427" lon="12.3236797">
                <ele>1210.9</ele>
                <time>2020-08-20T14:44:00.000Z</time>
                <name>Position 150</name>
            </trkpt>
            <trkpt lat="47.5764952" lon="12.3239354">
                <ele>1205.4</ele>
                <time>2020-08-20T14:44:18.000Z</time>
                <name>Position 151</name>
            </trkpt>
            <trkpt lat="47.57662" lon="12.3241372">
                <ele>1197.5</ele>
                <time>2020-08-20T14:44:44.000Z</time>
                <name>Position 152</name>
            </trkpt>
            <trkpt lat="47.5766358" lon="12.3244029">
                <ele>1191.2</ele>
                <time>2020-08-20T14:45:00.000Z</time>
                <name>Position 153</name>
            </trkpt>
            <trkpt lat="47.5768227" lon="12.3244613">
                <ele>1179.9</ele>
                <time>2020-08-20T14:45:30.000Z</time>
                <name>Position 154</name>
            </trkpt>
            <trkpt lat="47.5769839" lon="12.3243005">
                <ele>1173.2</ele>
                <time>2020-08-20T14:45:44.000Z</time>
                <name>Position 155</name>
            </trkpt>
            <trkpt lat="47.5770697" lon="12.3245705">
                <ele>1163.8</ele>
                <time>2020-08-20T14:46:10.000Z</time>
                <name>Position 156</name>
            </trkpt>
            <trkpt lat="47.5772219" lon="12.3247241">
                <ele>1149.9</ele>
                <time>2020-08-20T14:46:44.000Z</time>
                <name>Position 157</name>
            </trkpt>
            <trkpt lat="47.5773944" lon="12.3245766">
                <ele>1145.3</ele>
                <time>2020-08-20T14:46:58.000Z</time>
                <name>Position 158</name>
            </trkpt>
            <trkpt lat="47.5774543" lon="12.3242982">
                <ele>1141.1</ele>
                <time>2020-08-20T14:47:14.000Z</time>
                <name>Position 159</name>
            </trkpt>
            <trkpt lat="47.5774939" lon="12.3240118">
                <ele>1136.7</ele>
                <time>2020-08-20T14:47:30.000Z</time>
                <name>Position 160</name>
            </trkpt>
            <trkpt lat="47.5776453" lon="12.3238038">
                <ele>1134.1</ele>
                <time>2020-08-20T14:47:42.000Z</time>
                <name>Position 161</name>
            </trkpt>
            <trkpt lat="47.5777891" lon="12.3236349">
                <ele>1130.4</ele>
                <time>2020-08-20T14:47:54.000Z</time>
                <name>Position 162</name>
            </trkpt>
            <trkpt lat="47.5779803" lon="12.3235956">
                <ele>1123.5</ele>
                <time>2020-08-20T14:48:16.000Z</time>
                <name>Position 163</name>
            </trkpt>
            <trkpt lat="47.5781879" lon="12.3236194">
                <ele>1114.2</ele>
                <time>2020-08-20T14:48:38.000Z</time>
                <name>Position 164</name>
            </trkpt>
            <trkpt lat="47.5783791" lon="12.323674">
                <ele>1108.8</ele>
                <time>2020-08-20T14:48:56.000Z</time>
                <name>Position 165</name>
            </trkpt>
            <trkpt lat="47.5785119" lon="12.3234735">
                <ele>1101.8</ele>
                <time>2020-08-20T14:49:12.000Z</time>
                <name>Position 166</name>
            </trkpt>
            <trkpt lat="47.578701" lon="12.3234793">
                <ele>1093.4</ele>
                <time>2020-08-20T14:49:34.000Z</time>
                <name>Position 167</name>
            </trkpt>
            <trkpt lat="47.5788668" lon="12.3236462">
                <ele>1087.9</ele>
                <time>2020-08-20T14:49:50.000Z</time>
                <name>Position 168</name>
            </trkpt>
            <trkpt lat="47.5790473" lon="12.3238009">
                <ele>1081.4</ele>
                <time>2020-08-20T14:50:04.000Z</time>
                <name>Position 169</name>
            </trkpt>
            <trkpt lat="47.5792229" lon="12.3239632">
                <ele>1074.8</ele>
                <time>2020-08-20T14:50:20.000Z</time>
                <name>Position 170</name>
            </trkpt>
            <trkpt lat="47.5793744" lon="12.3241166">
                <ele>1070.4</ele>
                <time>2020-08-20T14:50:32.000Z</time>
                <name>Position 171</name>
            </trkpt>
            <trkpt lat="47.5794762" lon="12.3243531">
                <ele>1064.3</ele>
                <time>2020-08-20T14:50:50.000Z</time>
                <name>Position 172</name>
            </trkpt>
            <trkpt lat="47.5795277" lon="12.3246335">
                <ele>1060.0</ele>
                <time>2020-08-20T14:51:06.000Z</time>
                <name>Position 173</name>
            </trkpt>
            <trkpt lat="47.5795867" lon="12.3249145">
                <ele>1055.3</ele>
                <time>2020-08-20T14:51:22.000Z</time>
                <name>Position 174</name>
            </trkpt>
            <trkpt lat="47.5794807" lon="12.3251778">
                <ele>1051.1</ele>
                <time>2020-08-20T14:51:42.000Z</time>
                <name>Position 175</name>
            </trkpt>
            <trkpt lat="47.5795662" lon="12.3254173">
                <ele>1046.8</ele>
                <time>2020-08-20T14:51:58.000Z</time>
                <name>Position 176</name>
            </trkpt>
            <trkpt lat="47.5796652" lon="12.3256423">
                <ele>1042.8</ele>
                <time>2020-08-20T14:52:18.000Z</time>
                <name>Position 177</name>
            </trkpt>
            <trkpt lat="47.5795804" lon="12.3259251">
                <ele>1040.1</ele>
                <time>2020-08-20T14:52:34.000Z</time>
                <name>Position 178</name>
            </trkpt>
            <trkpt lat="47.579591" lon="12.3262334">
                <ele>1036.4</ele>
                <time>2020-08-20T14:52:48.000Z</time>
                <name>Position 179</name>
            </trkpt>
            <trkpt lat="47.5794909" lon="12.3264973">
                <ele>1033.0</ele>
                <time>2020-08-20T14:53:04.000Z</time>
                <name>Position 180</name>
            </trkpt>
            <trkpt lat="47.5794006" lon="12.3267603">
                <ele>1029.4</ele>
                <time>2020-08-20T14:53:20.000Z</time>
                <name>Position 181</name>
            </trkpt>
            <trkpt lat="47.5793316" lon="12.32702">
                <ele>1025.6</ele>
                <time>2020-08-20T14:53:36.000Z</time>
                <name>Position 182</name>
            </trkpt>
            <trkpt lat="47.5792925" lon="12.3272818">
                <ele>1023.0</ele>
                <time>2020-08-20T14:53:50.000Z</time>
                <name>Position 183</name>
            </trkpt>
            <trkpt lat="47.5791704" lon="12.3275045">
                <ele>1018.5</ele>
                <time>2020-08-20T14:54:04.000Z</time>
                <name>Position 184</name>
            </trkpt>
            <trkpt lat="47.5790395" lon="12.3277327">
                <ele>1016.5</ele>
                <time>2020-08-20T14:54:20.000Z</time>
                <name>Position 185</name>
            </trkpt>
            <trkpt lat="47.5789886" lon="12.3279993">
                <ele>1014.2</ele>
                <time>2020-08-20T14:54:34.000Z</time>
                <name>Position 186</name>
            </trkpt>
            <trkpt lat="47.5790014" lon="12.3282701">
                <ele>1010.7</ele>
                <time>2020-08-20T14:54:50.000Z</time>
                <name>Position 187</name>
            </trkpt>
            <trkpt lat="47.5789121" lon="12.3285241">
                <ele>1007.5</ele>
                <time>2020-08-20T14:55:04.000Z</time>
                <name>Position 188</name>
            </trkpt>
            <trkpt lat="47.5788338" lon="12.3287682">
                <ele>1004.3</ele>
                <time>2020-08-20T14:55:16.000Z</time>
                <name>Position 189</name>
            </trkpt>
            <trkpt lat="47.5788421" lon="12.3290637">
                <ele>1002.1</ele>
                <time>2020-08-20T14:55:30.000Z</time>
                <name>Position 190</name>
            </trkpt>
            <trkpt lat="47.5790402" lon="12.3291214">
                <ele>998.6</ele>
                <time>2020-08-20T14:55:47.000Z</time>
                <name>Position 191</name>
            </trkpt>
            <trkpt lat="47.5792073" lon="12.3292373">
                <ele>994.6</ele>
                <time>2020-08-20T14:56:11.000Z</time>
                <name>Position 192</name>
            </trkpt>
            <trkpt lat="47.5793622" lon="12.3293735">
                <ele>992.4</ele>
                <time>2020-08-20T14:56:35.000Z</time>
                <name>Position 193</name>
            </trkpt>
            <trkpt lat="47.5795126" lon="12.3296748">
                <ele>992.5</ele>
                <time>2020-08-20T14:57:05.000Z</time>
                <name>Position 194</name>
            </trkpt>
        </trkseg>
    </trk>
</gpx>
