<?xml version="1.0" encoding="UTF-8" standalone="yes"?>
<gpx xmlns:gpxtpx1="http://www.garmin.com/xmlschemas/TrackPointExtension/v1" xmlns="http://www.topografix.com/GPX/1/1" xmlns:trp="http://www.garmin.com/xmlschemas/TripExtensions/v1" xmlns:gpxx="http://www.garmin.com/xmlschemas/GpxExtensions/v3" xmlns:gpxtpx="http://www.garmin.com/xmlschemas/TrackPointExtension/v2" version="1.1" creator="Generated by Christian Pesch's RouteConverter. See http://www.routeconverter.com">
    <metadata>
        <name>2017-03-29 12:15</name>
        <link href="http://www.oruxmaps.com">
            <text>OruxMaps</text>
        </link>
        <time>2017-03-29T10:15:08Z</time>
        <bounds minlat="50.6172996" minlon="7.8625599" maxlat="51.2478255" maxlon="8.6684120"/>
    </metadata>
    <wpt lat="51.2427604" lon="8.4816292">
        <ele>593.6</ele>
        <time>2017-03-29T13:23:39.000Z</time>
        <name>Position 1</name>
        <sym>Waypoint</sym>
        <type>Wegpunkt</type>
        <extensions>
            <om:oruxmapsextensions xmlns:om="http://www.oruxmaps.com/oruxmapsextensions/1/0" xmlns:gpxtpx="http://www.garmin.com/xmlschemas/TrackPointExtension/v1" xmlns:gpxtrx="http://www.garmin.com/xmlschemas/GpxExtensions/v3" xmlns:gpxx="http://www.garmin.com/xmlschemas/WaypointExtension/v1" xmlns:nmea="http://trekbuddy.net/2009/01/gpx/nmea" xmlns:rcxx="http://www.routeconverter.de/xmlschemas/RouteCatalogExtensions/1.0" xmlns:xsi="http://www.w3.org/2001/XMLSchema-instance">
                <om:ext subtype="0" type="ICON">1</om:ext>
</om:oruxmapsextensions>
        </extensions>
    </wpt>
    <trk>
        <name>2017-03-29 12:15</name>
        <desc>&lt;p&gt;Startzeit: 03/29/2017 12:15&lt;/p&gt;&lt;p&gt;Zielzeit: 03/29/2017 16:28&lt;/p&gt;&lt;p&gt;Strecke: 156 km (04:13)&lt;/p&gt;&lt;p&gt;Bewegungszeit: 02:55&lt;/p&gt;&lt;p&gt;Ø-Geschwindigkeit: 37 km/h&lt;/p&gt;&lt;p&gt;Netto-Geschwindigkeit: 53,
49 km/h&lt;/p&gt;&lt;p&gt;Max. Geschwindigkeit: 120,
93km/h&lt;/p&gt;&lt;p&gt;Minimale Höhe: 236 m&lt;/p&gt;&lt;p&gt;Maximale Höhe: 677 m&lt;/p&gt;&lt;p&gt;Steig-Geschw.: 1272,
9 m/h&lt;/p&gt;&lt;p&gt;Sink-Geschw.: -1345,
6 m/h&lt;/p&gt;&lt;p&gt;Aufstieg: 2479 m&lt;/p&gt;&lt;p&gt;Abstieg: -2250 m&lt;/p&gt;&lt;p&gt;Steigzeit: 01:56&lt;/p&gt;&lt;p&gt;Sinkzeit: 01:40&lt;/p&gt;&lt;hr align="center" width="480" style="height: 2px; width: 517px"/&gt;</desc>
        <type>Unbestimmt</type>
        <extensions>
            <om:oruxmapsextensions xmlns:om="http://www.oruxmaps.com/oruxmapsextensions/1/0" xmlns:gpxtpx="http://www.garmin.com/xmlschemas/TrackPointExtension/v1" xmlns:gpxtrx="http://www.garmin.com/xmlschemas/GpxExtensions/v3" xmlns:gpxx="http://www.garmin.com/xmlschemas/WaypointExtension/v1" xmlns:nmea="http://trekbuddy.net/2009/01/gpx/nmea" xmlns:rcxx="http://www.routeconverter.de/xmlschemas/RouteCatalogExtensions/1.0" xmlns:xsi="http://www.w3.org/2001/XMLSchema-instance">
                <om:ext subtype="0" type="TYPE">0</om:ext>
                <om:ext type="DIFFICULTY">0</om:ext>
</om:oruxmapsextensions>
        </extensions>
        <trkseg>
            <trkpt lat="51.2315256" lon="8.4816292">
                <ele>530.8</ele>
                <time>2017-03-29T13:04:25.000Z</time>
                <name>Position 1</name>
            </trkpt>
            <trkpt lat="51.2315944" lon="8.4812946">
                <ele>529.6</ele>
                <time>2017-03-29T13:04:29.000Z</time>
                <name>Position 2</name>
            </trkpt>
            <trkpt lat="51.2318204" lon="8.4812701">
                <ele>531.6</ele>
                <time>2017-03-29T13:04:33.000Z</time>
                <name>Position 3</name>
            </trkpt>
            <trkpt lat="51.2320519" lon="8.4811876">
                <ele>529.8</ele>
                <time>2017-03-29T13:04:38.000Z</time>
                <name>Position 4</name>
            </trkpt>
            <trkpt lat="51.2321552" lon="8.4808584">
                <ele>529.5</ele>
                <time>2017-03-29T13:04:42.000Z</time>
                <name>Position 5</name>
            </trkpt>
            <trkpt lat="51.2321414" lon="8.4805224">
                <ele>530.6</ele>
                <time>2017-03-29T13:04:45.000Z</time>
                <name>Position 6</name>
            </trkpt>
            <trkpt lat="51.2322356" lon="8.4802801">
                <ele>530.7</ele>
                <time>2017-03-29T13:07:20.000Z</time>
                <name>Position 7</name>
            </trkpt>
            <trkpt lat="51.2323173" lon="8.4799664">
                <ele>531.6</ele>
                <time>2017-03-29T13:07:24.000Z</time>
                <name>Position 8</name>
            </trkpt>
            <trkpt lat="51.232891" lon="8.4801168">
                <ele>525.6</ele>
                <time>2017-03-29T13:07:57.000Z</time>
                <name>Position 9</name>
            </trkpt>
            <trkpt lat="51.2332681" lon="8.480198">
                <ele>540.6</ele>
                <time>2017-03-29T13:10:37.000Z</time>
                <name>Position 10</name>
            </trkpt>
            <trkpt lat="51.2334618" lon="8.4802233">
                <ele>547.5</ele>
                <time>2017-03-29T13:10:52.000Z</time>
                <name>Position 11</name>
            </trkpt>
            <trkpt lat="51.2337123" lon="8.4801966">
                <ele>546.0</ele>
                <time>2017-03-29T13:10:56.000Z</time>
                <name>Position 12</name>
            </trkpt>
            <trkpt lat="51.2339079" lon="8.4802323">
                <ele>547.2</ele>
                <time>2017-03-29T13:10:58.000Z</time>
                <name>Position 13</name>
            </trkpt>
            <trkpt lat="51.2341258" lon="8.4802078">
                <ele>502.8</ele>
                <time>2017-03-29T13:11:00.000Z</time>
                <name>Position 14</name>
            </trkpt>
            <trkpt lat="51.2343117" lon="8.4800732">
                <ele>510.3</ele>
                <time>2017-03-29T13:11:02.000Z</time>
                <name>Position 15</name>
            </trkpt>
            <trkpt lat="51.2345038" lon="8.4799344">
                <ele>521.0</ele>
                <time>2017-03-29T13:11:04.000Z</time>
                <name>Position 16</name>
            </trkpt>
            <trkpt lat="51.2346865" lon="8.4797164">
                <ele>529.8</ele>
                <time>2017-03-29T13:11:06.000Z</time>
                <name>Position 17</name>
            </trkpt>
            <trkpt lat="51.2348834" lon="8.4795663">
                <ele>533.3</ele>
                <time>2017-03-29T13:11:08.000Z</time>
                <name>Position 18</name>
            </trkpt>
            <trkpt lat="51.23513" lon="8.4793351">
                <ele>537.9</ele>
                <time>2017-03-29T13:11:10.000Z</time>
                <name>Position 19</name>
            </trkpt>
            <trkpt lat="51.2353956" lon="8.4791857">
                <ele>539.4</ele>
                <time>2017-03-29T13:11:12.000Z</time>
                <name>Position 20</name>
            </trkpt>
            <trkpt lat="51.2356" lon="8.479299">
                <ele>544.7</ele>
                <time>2017-03-29T13:11:14.000Z</time>
                <name>Position 21</name>
            </trkpt>
            <trkpt lat="51.2358583" lon="8.4792486">
                <ele>545.8</ele>
                <time>2017-03-29T13:11:16.000Z</time>
                <name>Position 22</name>
            </trkpt>
            <trkpt lat="51.2360937" lon="8.4792166">
                <ele>547.6</ele>
                <time>2017-03-29T13:11:19.000Z</time>
                <name>Position 23</name>
            </trkpt>
            <trkpt lat="51.2362485" lon="8.4790562">
                <ele>518.3</ele>
                <time>2017-03-29T13:11:21.000Z</time>
                <name>Position 24</name>
            </trkpt>
            <trkpt lat="51.2364366" lon="8.4787827">
                <ele>516.2</ele>
                <time>2017-03-29T13:11:23.000Z</time>
                <name>Position 25</name>
            </trkpt>
            <trkpt lat="51.2366324" lon="8.4785152">
                <ele>523.6</ele>
                <time>2017-03-29T13:11:25.000Z</time>
                <name>Position 26</name>
            </trkpt>
            <trkpt lat="51.2368414" lon="8.4782681">
                <ele>531.6</ele>
                <time>2017-03-29T13:11:27.000Z</time>
                <name>Position 27</name>
            </trkpt>
            <trkpt lat="51.2370229" lon="8.4780574">
                <ele>540.3</ele>
                <time>2017-03-29T13:11:29.000Z</time>
                <name>Position 28</name>
            </trkpt>
            <trkpt lat="51.2371765" lon="8.4778952">
                <ele>546.1</ele>
                <time>2017-03-29T13:11:31.000Z</time>
                <name>Position 29</name>
            </trkpt>
            <trkpt lat="51.237335" lon="8.4776805">
                <ele>551.9</ele>
                <time>2017-03-29T13:11:33.000Z</time>
                <name>Position 30</name>
            </trkpt>
            <trkpt lat="51.2376751" lon="8.4776666">
                <ele>561.7</ele>
                <time>2017-03-29T13:12:52.000Z</time>
                <name>Position 31</name>
            </trkpt>
            <trkpt lat="51.237877" lon="8.4777966">
                <ele>564.3</ele>
                <time>2017-03-29T13:12:55.000Z</time>
                <name>Position 32</name>
            </trkpt>
            <trkpt lat="51.2380806" lon="8.4779633">
                <ele>563.8</ele>
                <time>2017-03-29T13:12:59.000Z</time>
                <name>Position 33</name>
            </trkpt>
            <trkpt lat="51.2382836" lon="8.4781239">
                <ele>561.6</ele>
                <time>2017-03-29T13:13:02.000Z</time>
                <name>Position 34</name>
            </trkpt>
            <trkpt lat="51.2384771" lon="8.4782709">
                <ele>561.4</ele>
                <time>2017-03-29T13:13:05.000Z</time>
                <name>Position 35</name>
            </trkpt>
            <trkpt lat="51.2386459" lon="8.4784133">
                <ele>561.6</ele>
                <time>2017-03-29T13:13:08.000Z</time>
                <name>Position 36</name>
            </trkpt>
            <trkpt lat="51.2388375" lon="8.4785289">
                <ele>562.6</ele>
                <time>2017-03-29T13:13:11.000Z</time>
                <name>Position 37</name>
            </trkpt>
            <trkpt lat="51.2390036" lon="8.4784002">
                <ele>563.6</ele>
                <time>2017-03-29T13:13:15.000Z</time>
                <name>Position 38</name>
            </trkpt>
            <trkpt lat="51.2390854" lon="8.4780645">
                <ele>564.8</ele>
                <time>2017-03-29T13:13:20.000Z</time>
                <name>Position 39</name>
            </trkpt>
            <trkpt lat="51.2392988" lon="8.4779562">
                <ele>564.8</ele>
                <time>2017-03-29T13:13:24.000Z</time>
                <name>Position 40</name>
            </trkpt>
            <trkpt lat="51.2394872" lon="8.4780718">
                <ele>568.4</ele>
                <time>2017-03-29T13:13:27.000Z</time>
                <name>Position 41</name>
            </trkpt>
            <trkpt lat="51.2396661" lon="8.4781965">
                <ele>568.8</ele>
                <time>2017-03-29T13:13:30.000Z</time>
                <name>Position 42</name>
            </trkpt>
            <trkpt lat="51.23986" lon="8.4783108">
                <ele>571.8</ele>
                <time>2017-03-29T13:13:34.000Z</time>
                <name>Position 43</name>
            </trkpt>
            <trkpt lat="51.2400561" lon="8.4783995">
                <ele>576.0</ele>
                <time>2017-03-29T13:13:37.000Z</time>
                <name>Position 44</name>
            </trkpt>
            <trkpt lat="51.2401792" lon="8.4786237">
                <ele>584.7</ele>
                <time>2017-03-29T13:15:31.000Z</time>
                <name>Position 45</name>
            </trkpt>
            <trkpt lat="51.2402711" lon="8.4788874">
                <ele>583.8</ele>
                <time>2017-03-29T13:15:45.000Z</time>
                <name>Position 46</name>
            </trkpt>
            <trkpt lat="51.2404664" lon="8.4789094">
                <ele>583.8</ele>
                <time>2017-03-29T13:15:57.000Z</time>
                <name>Position 47</name>
            </trkpt>
            <trkpt lat="51.2406556" lon="8.4789039">
                <ele>582.8</ele>
                <time>2017-03-29T13:16:07.000Z</time>
                <name>Position 48</name>
            </trkpt>
            <trkpt lat="51.2408444" lon="8.4789381">
                <ele>583.0</ele>
                <time>2017-03-29T13:16:20.000Z</time>
                <name>Position 49</name>
            </trkpt>
            <trkpt lat="51.241039" lon="8.4788835">
                <ele>585.6</ele>
                <time>2017-03-29T13:16:34.000Z</time>
                <name>Position 50</name>
            </trkpt>
            <trkpt lat="51.2412281" lon="8.4788269">
                <ele>582.4</ele>
                <time>2017-03-29T13:16:46.000Z</time>
                <name>Position 51</name>
            </trkpt>
            <trkpt lat="51.2413975" lon="8.4789608">
                <ele>581.0</ele>
                <time>2017-03-29T13:17:00.000Z</time>
                <name>Position 52</name>
            </trkpt>
            <trkpt lat="51.2415931" lon="8.4789722">
                <ele>578.4</ele>
                <time>2017-03-29T13:17:14.000Z</time>
                <name>Position 53</name>
            </trkpt>
            <trkpt lat="51.2417781" lon="8.4789746">
                <ele>578.1</ele>
                <time>2017-03-29T13:17:26.000Z</time>
                <name>Position 54</name>
            </trkpt>
            <trkpt lat="51.2419684" lon="8.47895">
                <ele>574.7</ele>
                <time>2017-03-29T13:17:37.000Z</time>
                <name>Position 55</name>
            </trkpt>
            <trkpt lat="51.2421585" lon="8.4789191">
                <ele>584.1</ele>
                <time>2017-03-29T13:17:47.000Z</time>
                <name>Position 56</name>
            </trkpt>
            <trkpt lat="51.2423264" lon="8.4790507">
                <ele>583.9</ele>
                <time>2017-03-29T13:17:58.000Z</time>
                <name>Position 57</name>
            </trkpt>
            <trkpt lat="51.2425175" lon="8.4790443">
                <ele>584.7</ele>
                <time>2017-03-29T13:18:10.000Z</time>
                <name>Position 58</name>
            </trkpt>
            <trkpt lat="51.2427137" lon="8.4790146">
                <ele>581.4</ele>
                <time>2017-03-29T13:18:27.000Z</time>
                <name>Position 59</name>
            </trkpt>
            <trkpt lat="51.2428961" lon="8.4789454">
                <ele>581.6</ele>
                <time>2017-03-29T13:18:43.000Z</time>
                <name>Position 60</name>
            </trkpt>
            <trkpt lat="51.2430769" lon="8.4788612">
                <ele>580.7</ele>
                <time>2017-03-29T13:18:54.000Z</time>
                <name>Position 61</name>
            </trkpt>
            <trkpt lat="51.2432118" lon="8.4786646">
                <ele>583.6</ele>
                <time>2017-03-29T13:19:05.000Z</time>
                <name>Position 62</name>
            </trkpt>
            <trkpt lat="51.2432756" lon="8.478381">
                <ele>583.7</ele>
                <time>2017-03-29T13:19:16.000Z</time>
                <name>Position 63</name>
            </trkpt>
            <trkpt lat="51.2432556" lon="8.4780867">
                <ele>577.9</ele>
                <time>2017-03-29T13:19:44.000Z</time>
                <name>Position 64</name>
            </trkpt>
            <trkpt lat="51.2431009" lon="8.4779126">
                <ele>579.4</ele>
                <time>2017-03-29T13:20:00.000Z</time>
                <name>Position 65</name>
            </trkpt>
            <trkpt lat="51.2429392" lon="8.4777792">
                <ele>577.8</ele>
                <time>2017-03-29T13:20:26.000Z</time>
                <name>Position 66</name>
            </trkpt>
            <trkpt lat="51.2428706" lon="8.4780503">
                <ele>591.6</ele>
                <time>2017-03-29T13:21:38.000Z</time>
                <name>Position 67</name>
            </trkpt>
            <trkpt lat="51.2426973" lon="8.4779709">
                <ele>597.8</ele>
                <time>2017-03-29T13:29:52.000Z</time>
                <name>Position 68</name>
            </trkpt>
            <trkpt lat="51.2425183" lon="8.4780051">
                <ele>588.4</ele>
                <time>2017-03-29T13:33:23.000Z</time>
                <name>Position 69</name>
            </trkpt>
            <trkpt lat="51.2423384" lon="8.4779213">
                <ele>585.3</ele>
                <time>2017-03-29T13:35:36.000Z</time>
                <name>Position 70</name>
            </trkpt>
            <trkpt lat="51.2422079" lon="8.477714">
                <ele>586.9</ele>
                <time>2017-03-29T13:35:52.000Z</time>
                <name>Position 71</name>
            </trkpt>
            <trkpt lat="51.2421402" lon="8.4774354">
                <ele>583.7</ele>
                <time>2017-03-29T13:36:25.000Z</time>
                <name>Position 72</name>
            </trkpt>
            <trkpt lat="51.2420148" lon="8.4772287">
                <ele>585.4</ele>
                <time>2017-03-29T13:36:45.000Z</time>
                <name>Position 73</name>
            </trkpt>
            <trkpt lat="51.2420684" lon="8.4769523">
                <ele>585.7</ele>
                <time>2017-03-29T13:38:31.000Z</time>
                <name>Position 74</name>
            </trkpt>
            <trkpt lat="51.2420414" lon="8.4772656">
                <ele>582.6</ele>
                <time>2017-03-29T14:00:40.000Z</time>
                <name>Position 75</name>
            </trkpt>
            <trkpt lat="51.2421464" lon="8.4775204">
                <ele>590.4</ele>
                <time>2017-03-29T14:00:57.000Z</time>
                <name>Position 76</name>
            </trkpt>
            <trkpt lat="51.2422316" lon="8.4777824">
                <ele>585.9</ele>
                <time>2017-03-29T14:01:13.000Z</time>
                <name>Position 77</name>
            </trkpt>
            <trkpt lat="51.2423569" lon="8.4779937">
                <ele>585.8</ele>
                <time>2017-03-29T14:02:54.000Z</time>
                <name>Position 78</name>
            </trkpt>
            <trkpt lat="51.2425383" lon="8.4779995">
                <ele>591.8</ele>
                <time>2017-03-29T14:04:22.000Z</time>
                <name>Position 79</name>
            </trkpt>
            <trkpt lat="51.2427223" lon="8.4779628">
                <ele>592.6</ele>
                <time>2017-03-29T14:05:25.000Z</time>
                <name>Position 80</name>
            </trkpt>
            <trkpt lat="51.2428881" lon="8.4778288">
                <ele>586.4</ele>
                <time>2017-03-29T14:05:56.000Z</time>
                <name>Position 81</name>
            </trkpt>
            <trkpt lat="51.2430711" lon="8.4778138">
                <ele>583.7</ele>
                <time>2017-03-29T14:06:20.000Z</time>
                <name>Position 82</name>
            </trkpt>
            <trkpt lat="51.2432424" lon="8.4779281">
                <ele>584.4</ele>
                <time>2017-03-29T14:06:33.000Z</time>
                <name>Position 83</name>
            </trkpt>
            <trkpt lat="51.2434124" lon="8.4780404">
                <ele>586.1</ele>
                <time>2017-03-29T14:06:49.000Z</time>
                <name>Position 84</name>
            </trkpt>
            <trkpt lat="51.243241" lon="8.4786017">
                <ele>573.1</ele>
                <time>2017-03-29T14:17:29.000Z</time>
                <name>Position 85</name>
            </trkpt>
            <trkpt lat="51.2427843" lon="8.4789236">
                <ele>572.0</ele>
                <time>2017-03-29T14:17:29.705Z</time>
                <name>86 Stollenweg, 59955 Nordrhein-Westfalen, Deutschland</name>
            </trkpt>
            <trkpt lat="51.2422067" lon="8.4790309">
                <ele>571.0</ele>
                <time>2017-03-29T14:17:30.248Z</time>
                <name>87 Stollenweg, 59955 Nordrhein-Westfalen, Deutschland</name>
            </trkpt>
            <trkpt lat="51.2417365" lon="8.478988">
                <ele>571.0</ele>
                <time>2017-03-29T14:17:31.386Z</time>
                <name>88 Hochsauerlandstraße 88, 59955 Nordrhein-Westfalen, Deutschland</name>
            </trkpt>
            <trkpt lat="51.240367" lon="8.4788663">
                <ele>569.9</ele>
                <time>2017-03-29T14:17:34.000Z</time>
                <name>Position 89</name>
            </trkpt>
            <trkpt lat="51.23956" lon="8.4781158">
                <ele>568.6</ele>
                <time>2017-03-29T14:17:39.000Z</time>
                <name>Position 90</name>
            </trkpt>
            <trkpt lat="51.23938" lon="8.4779505">
                <ele>566.6</ele>
                <time>2017-03-29T14:17:43.000Z</time>
                <name>Position 91</name>
            </trkpt>
            <trkpt lat="51.2391909" lon="8.478017">
                <ele>564.7</ele>
                <time>2017-03-29T14:17:50.000Z</time>
                <name>Position 92</name>
            </trkpt>
            <trkpt lat="51.2390656" lon="8.4782299">
                <ele>566.6</ele>
                <time>2017-03-29T14:17:55.000Z</time>
                <name>Position 93</name>
            </trkpt>
            <trkpt lat="51.2389335" lon="8.4784546">
                <ele>566.5</ele>
                <time>2017-03-29T14:18:02.000Z</time>
                <name>Position 94</name>
            </trkpt>
            <trkpt lat="51.2387598" lon="8.4783333">
                <ele>567.8</ele>
                <time>2017-03-29T14:18:05.000Z</time>
                <name>Position 95</name>
            </trkpt>
            <trkpt lat="51.23852" lon="8.4782395">
                <ele>569.5</ele>
                <time>2017-03-29T14:18:09.000Z</time>
                <name>Position 96</name>
            </trkpt>
            <trkpt lat="51.2383422" lon="8.4781164">
                <ele>565.3</ele>
                <time>2017-03-29T14:18:12.000Z</time>
                <name>Position 97</name>
            </trkpt>
            <trkpt lat="51.2381537" lon="8.4779666">
                <ele>560.3</ele>
                <time>2017-03-29T14:18:16.000Z</time>
                <name>Position 98</name>
            </trkpt>
            <trkpt lat="51.2379358" lon="8.4778389">
                <ele>554.2</ele>
                <time>2017-03-29T14:18:20.000Z</time>
                <name>Position 99</name>
            </trkpt>
            <trkpt lat="51.2377536" lon="8.4777482">
                <ele>552.5</ele>
                <time>2017-03-29T14:18:23.000Z</time>
                <name>Position 100</name>
            </trkpt>
            <trkpt lat="51.23757" lon="8.4776224">
                <ele>556.8</ele>
                <time>2017-03-29T14:18:26.000Z</time>
                <name>Position 101</name>
            </trkpt>
            <trkpt lat="51.2373542" lon="8.4776661">
                <ele>562.3</ele>
                <time>2017-03-29T14:18:30.000Z</time>
                <name>Position 102</name>
            </trkpt>
            <trkpt lat="51.2371567" lon="8.4778737">
                <ele>562.7</ele>
                <time>2017-03-29T14:18:33.000Z</time>
                <name>Position 103</name>
            </trkpt>
            <trkpt lat="51.2369235" lon="8.4780945">
                <ele>563.6</ele>
                <time>2017-03-29T14:18:36.000Z</time>
                <name>Position 104</name>
            </trkpt>
            <trkpt lat="51.2367343" lon="8.4782857">
                <ele>563.6</ele>
                <time>2017-03-29T14:18:38.000Z</time>
                <name>Position 105</name>
            </trkpt>
            <trkpt lat="51.2364506" lon="8.4785736">
                <ele>565.4</ele>
                <time>2017-03-29T14:18:41.000Z</time>
                <name>Position 106</name>
            </trkpt>
            <trkpt lat="51.2362607" lon="8.478795">
                <ele>561.9</ele>
                <time>2017-03-29T14:18:44.000Z</time>
                <name>Position 107</name>
            </trkpt>
            <trkpt lat="51.2360847" lon="8.4790026">
                <ele>559.0</ele>
                <time>2017-03-29T14:18:47.000Z</time>
                <name>Position 108</name>
            </trkpt>
            <trkpt lat="51.2359273" lon="8.4791859">
                <ele>554.8</ele>
                <time>2017-03-29T14:18:50.000Z</time>
                <name>Position 109</name>
            </trkpt>
            <trkpt lat="51.2357362" lon="8.4792338">
                <ele>555.4</ele>
                <time>2017-03-29T14:18:52.000Z</time>
                <name>Position 110</name>
            </trkpt>
            <trkpt lat="51.2355285" lon="8.4792309">
                <ele>555.8</ele>
                <time>2017-03-29T14:18:55.000Z</time>
                <name>Position 111</name>
            </trkpt>
            <trkpt lat="51.2353311" lon="8.4792668">
                <ele>556.6</ele>
                <time>2017-03-29T14:18:57.000Z</time>
                <name>Position 112</name>
            </trkpt>
            <trkpt lat="51.2351269" lon="8.4793044">
                <ele>557.6</ele>
                <time>2017-03-29T14:18:59.000Z</time>
                <name>Position 113</name>
            </trkpt>
            <trkpt lat="51.234927" lon="8.4793695">
                <ele>555.5</ele>
                <time>2017-03-29T14:19:01.000Z</time>
                <name>Position 114</name>
            </trkpt>
            <trkpt lat="51.2347229" lon="8.479518">
                <ele>555.8</ele>
                <time>2017-03-29T14:19:03.000Z</time>
                <name>Position 115</name>
            </trkpt>
            <trkpt lat="51.2346043" lon="8.4797773">
                <ele>553.9</ele>
                <time>2017-03-29T14:19:05.000Z</time>
                <name>Position 116</name>
            </trkpt>
            <trkpt lat="51.2344195" lon="8.4799647">
                <ele>552.4</ele>
                <time>2017-03-29T14:19:08.000Z</time>
                <name>Position 117</name>
            </trkpt>
            <trkpt lat="51.2342139" lon="8.4801618">
                <ele>550.7</ele>
                <time>2017-03-29T14:19:11.000Z</time>
                <name>Position 118</name>
            </trkpt>
            <trkpt lat="51.2339766" lon="8.480271">
                <ele>548.7</ele>
                <time>2017-03-29T14:19:14.000Z</time>
                <name>Position 119</name>
            </trkpt>
            <trkpt lat="51.2337913" lon="8.4802082">
                <ele>549.6</ele>
                <time>2017-03-29T14:19:16.000Z</time>
                <name>Position 120</name>
            </trkpt>
            <trkpt lat="51.2335284" lon="8.4801041">
                <ele>544.9</ele>
                <time>2017-03-29T14:19:19.000Z</time>
                <name>Position 121</name>
            </trkpt>
            <trkpt lat="51.2332409" lon="8.4801814">
                <ele>540.7</ele>
                <time>2017-03-29T14:19:20.000Z</time>
                <name>Position 122</name>
            </trkpt>
            <trkpt lat="51.2330091" lon="8.4801555">
                <ele>538.1</ele>
                <time>2017-03-29T14:19:22.000Z</time>
                <name>Position 123</name>
            </trkpt>
            <trkpt lat="51.2327574" lon="8.480058">
                <ele>536.5</ele>
                <time>2017-03-29T14:19:25.000Z</time>
                <name>Position 124</name>
            </trkpt>
            <trkpt lat="51.2325183" lon="8.4800475">
                <ele>535.7</ele>
                <time>2017-03-29T14:19:27.000Z</time>
                <name>Position 125</name>
            </trkpt>
            <trkpt lat="51.2322821" lon="8.4799956">
                <ele>535.8</ele>
                <time>2017-03-29T14:19:30.000Z</time>
                <name>Position 126</name>
            </trkpt>
            <trkpt lat="51.2321598" lon="8.4802281">
                <ele>535.6</ele>
                <time>2017-03-29T14:19:35.000Z</time>
                <name>Position 127</name>
            </trkpt>
            <trkpt lat="51.2321185" lon="8.4805193">
                <ele>536.6</ele>
                <time>2017-03-29T14:19:39.000Z</time>
                <name>Position 128</name>
            </trkpt>
            <trkpt lat="51.232093" lon="8.4809262">
                <ele>534.7</ele>
                <time>2017-03-29T14:19:42.000Z</time>
                <name>Position 129</name>
            </trkpt>
            <trkpt lat="51.2319883" lon="8.4812404">
                <ele>535.6</ele>
                <time>2017-03-29T14:19:45.000Z</time>
                <name>Position 130</name>
            </trkpt>
            <trkpt lat="51.2317698" lon="8.481304">
                <ele>534.8</ele>
                <time>2017-03-29T14:19:48.000Z</time>
                <name>Position 131</name>
            </trkpt>
            <trkpt lat="51.2315902" lon="8.4813214">
                <ele>532.7</ele>
                <time>2017-03-29T14:19:50.000Z</time>
                <name>Position 132</name>
            </trkpt>
            <trkpt lat="51.2314702" lon="8.4815415">
                <ele>532.6</ele>
                <time>2017-03-29T14:19:52.000Z</time>
                <name>Position 133</name>
            </trkpt>
        </trkseg>
    </trk>
</gpx>
