<?xml version="1.0" encoding="UTF-8" standalone="yes"?>
<gpx xmlns:gpxtpx1="http://www.garmin.com/xmlschemas/TrackPointExtension/v1" xmlns="http://www.topografix.com/GPX/1/1" xmlns:trp="http://www.garmin.com/xmlschemas/TripExtensions/v1" xmlns:gpxx="http://www.garmin.com/xmlschemas/GpxExtensions/v3" xmlns:gpxtpx="http://www.garmin.com/xmlschemas/TrackPointExtension/v2" version="1.1" creator="RouteConverter 2.29">
    <metadata>
        <name>Map - April 11, 2022 12:34 PM</name>
        <desc></desc>
        <link href="http://www.alltrails.com">
            <text>AllTrails, LLC</text>
        </link>
        <time>2022-04-15T09:32:46.054Z</time>
        <bounds minlat="47.80573" minlon="16.00429" maxlat="47.81121" maxlon="16.01606"/>
    </metadata>
    <trk>
        <name>Map - April 11, 2022 12:34 PM</name>
        <src>AllTrails</src>
        <trkseg>
            <trkpt lat="47.80586" lon="16.00448">
                <ele>718.2</ele>
                <name>Position 1</name>
            </trkpt>
            <trkpt lat="47.80593" lon="16.00453">
                <ele>718.7</ele>
                <name>Position 2</name>
            </trkpt>
            <trkpt lat="47.80594" lon="16.00447">
                <ele>718.8</ele>
                <name>Position 3</name>
            </trkpt>
            <trkpt lat="47.80598" lon="16.00456">
                <ele>719.1</ele>
                <name>Position 4</name>
            </trkpt>
            <trkpt lat="47.80601" lon="16.00464">
                <ele>719.3</ele>
                <name>Position 5</name>
            </trkpt>
            <trkpt lat="47.80622" lon="16.00532">
                <ele>714.8</ele>
                <name>Position 6</name>
            </trkpt>
            <trkpt lat="47.80628" lon="16.00554">
                <ele>715.3</ele>
                <name>Position 7</name>
            </trkpt>
            <trkpt lat="47.80629" lon="16.00568">
                <ele>717.1</ele>
                <name>Position 8</name>
            </trkpt>
            <trkpt lat="47.80625" lon="16.00589">
                <ele>718.4</ele>
                <name>Position 9</name>
            </trkpt>
            <trkpt lat="47.80614" lon="16.00648">
                <ele>715.0</ele>
                <name>Position 10</name>
            </trkpt>
            <trkpt lat="47.80606" lon="16.00672">
                <ele>713.1</ele>
                <name>Position 11</name>
            </trkpt>
            <trkpt lat="47.80592" lon="16.00698">
                <ele>711.4</ele>
                <name>Position 12</name>
            </trkpt>
            <trkpt lat="47.80584" lon="16.00717">
                <ele>711.0</ele>
                <name>Position 13</name>
            </trkpt>
            <trkpt lat="47.80575" lon="16.00747">
                <ele>712.3</ele>
                <name>Position 14</name>
            </trkpt>
            <trkpt lat="47.80573" lon="16.00766">
                <ele>714.3</ele>
                <name>Position 15</name>
            </trkpt>
            <trkpt lat="47.80576" lon="16.00779">
                <ele>716.5</ele>
                <name>Position 16</name>
            </trkpt>
            <trkpt lat="47.80592" lon="16.0081">
                <ele>719.0</ele>
                <name>Position 17</name>
            </trkpt>
            <trkpt lat="47.80617" lon="16.00855">
                <ele>716.3</ele>
                <name>Position 18</name>
            </trkpt>
            <trkpt lat="47.8062" lon="16.00857">
                <ele>716.4</ele>
                <name>Position 19</name>
            </trkpt>
            <trkpt lat="47.8062" lon="16.00857">
                <ele>716.4</ele>
                <name>Position 20</name>
            </trkpt>
            <trkpt lat="47.80617" lon="16.00855">
                <ele>716.3</ele>
                <name>Position 21</name>
            </trkpt>
            <trkpt lat="47.80632" lon="16.00864">
                <ele>717.1</ele>
                <name>Position 22</name>
            </trkpt>
            <trkpt lat="47.80642" lon="16.00873">
                <ele>718.4</ele>
                <name>Position 23</name>
            </trkpt>
            <trkpt lat="47.80656" lon="16.00869">
                <ele>724.2</ele>
                <name>Position 24</name>
            </trkpt>
            <trkpt lat="47.80694" lon="16.00871">
                <ele>740.7</ele>
                <name>Position 25</name>
            </trkpt>
            <trkpt lat="47.8071" lon="16.00869">
                <ele>745.7</ele>
                <name>Position 26</name>
            </trkpt>
            <trkpt lat="47.80719" lon="16.00864">
                <ele>749.4</ele>
                <name>Position 27</name>
            </trkpt>
            <trkpt lat="47.80733" lon="16.00862">
                <ele>752.0</ele>
                <name>Position 28</name>
            </trkpt>
            <trkpt lat="47.80741" lon="16.00864">
                <ele>752.5</ele>
                <name>Position 29</name>
            </trkpt>
            <trkpt lat="47.80748" lon="16.00862">
                <ele>753.7</ele>
                <name>Position 30</name>
            </trkpt>
            <trkpt lat="47.80748" lon="16.00862">
                <ele>753.7</ele>
                <name>Position 31</name>
            </trkpt>
            <trkpt lat="47.80764" lon="16.00868">
                <ele>757.3</ele>
                <name>Position 32</name>
            </trkpt>
            <trkpt lat="47.80764" lon="16.00868">
                <ele>757.3</ele>
                <name>Position 33</name>
            </trkpt>
            <trkpt lat="47.80804" lon="16.00891">
                <ele>768.6</ele>
                <name>Position 34</name>
            </trkpt>
            <trkpt lat="47.80804" lon="16.00891">
                <ele>768.6</ele>
                <name>Position 35</name>
            </trkpt>
            <trkpt lat="47.80844" lon="16.0101">
                <ele>778.7</ele>
                <name>Position 36</name>
            </trkpt>
            <trkpt lat="47.80844" lon="16.0101">
                <ele>778.7</ele>
                <name>Position 37</name>
            </trkpt>
            <trkpt lat="47.80843" lon="16.0101">
                <ele>778.3</ele>
                <name>Position 38</name>
            </trkpt>
            <trkpt lat="47.80842" lon="16.01034">
                <ele>774.3</ele>
                <name>Position 39</name>
            </trkpt>
            <trkpt lat="47.80841" lon="16.01043">
                <ele>773.4</ele>
                <name>Position 40</name>
            </trkpt>
            <trkpt lat="47.80848" lon="16.01048">
                <ele>779.3</ele>
                <name>Position 41</name>
            </trkpt>
            <trkpt lat="47.80852" lon="16.01051">
                <ele>783.0</ele>
                <name>Position 42</name>
            </trkpt>
            <trkpt lat="47.80854" lon="16.01059">
                <ele>785.4</ele>
                <name>Position 43</name>
            </trkpt>
            <trkpt lat="47.80854" lon="16.01062">
                <ele>785.5</ele>
                <name>Position 44</name>
            </trkpt>
            <trkpt lat="47.80859" lon="16.01069">
                <ele>790.5</ele>
                <name>Position 45</name>
            </trkpt>
            <trkpt lat="47.80862" lon="16.0108">
                <ele>793.4</ele>
                <name>Position 46</name>
            </trkpt>
            <trkpt lat="47.80866" lon="16.01084">
                <ele>795.5</ele>
                <name>Position 47</name>
            </trkpt>
            <trkpt lat="47.80871" lon="16.01082">
                <ele>798.3</ele>
                <name>Position 48</name>
            </trkpt>
            <trkpt lat="47.80874" lon="16.01089">
                <ele>799.3</ele>
                <name>Position 49</name>
            </trkpt>
            <trkpt lat="47.80879" lon="16.01093">
                <ele>802.1</ele>
                <name>Position 50</name>
            </trkpt>
            <trkpt lat="47.80882" lon="16.01091">
                <ele>804.2</ele>
                <name>Position 51</name>
            </trkpt>
            <trkpt lat="47.80884" lon="16.01092">
                <ele>805.4</ele>
                <name>Position 52</name>
            </trkpt>
            <trkpt lat="47.80886" lon="16.01094">
                <ele>806.8</ele>
                <name>Position 53</name>
            </trkpt>
            <trkpt lat="47.80889" lon="16.01094">
                <ele>808.9</ele>
                <name>Position 54</name>
            </trkpt>
            <trkpt lat="47.80891" lon="16.01093">
                <ele>810.6</ele>
                <name>Position 55</name>
            </trkpt>
            <trkpt lat="47.80898" lon="16.01104">
                <ele>817.4</ele>
                <name>Position 56</name>
            </trkpt>
            <trkpt lat="47.80905" lon="16.01114">
                <ele>823.9</ele>
                <name>Position 57</name>
            </trkpt>
            <trkpt lat="47.80905" lon="16.01114">
                <ele>823.9</ele>
                <name>Position 58</name>
            </trkpt>
            <trkpt lat="47.80905" lon="16.01114">
                <ele>823.9</ele>
                <name>Position 59</name>
            </trkpt>
            <trkpt lat="47.80909" lon="16.01119">
                <ele>827.4</ele>
                <name>Position 60</name>
            </trkpt>
            <trkpt lat="47.80911" lon="16.01129">
                <ele>829.1</ele>
                <name>Position 61</name>
            </trkpt>
            <trkpt lat="47.80911" lon="16.01138">
                <ele>829.1</ele>
                <name>Position 62</name>
            </trkpt>
            <trkpt lat="47.80913" lon="16.01155">
                <ele>827.3</ele>
                <name>Position 63</name>
            </trkpt>
            <trkpt lat="47.8091" lon="16.01166">
                <ele>823.1</ele>
                <name>Position 64</name>
            </trkpt>
            <trkpt lat="47.80911" lon="16.01181">
                <ele>823.0</ele>
                <name>Position 65</name>
            </trkpt>
            <trkpt lat="47.80911" lon="16.01198">
                <ele>822.6</ele>
                <name>Position 66</name>
            </trkpt>
            <trkpt lat="47.80912" lon="16.01209">
                <ele>823.4</ele>
                <name>Position 67</name>
            </trkpt>
            <trkpt lat="47.80911" lon="16.01216">
                <ele>822.8</ele>
                <name>Position 68</name>
            </trkpt>
            <trkpt lat="47.809154" lon="16.0122039">
                <ele>822.2</ele>
                <name>Position 69</name>
            </trkpt>
            <trkpt lat="47.8092549" lon="16.012252">
                <ele>819.8</ele>
                <name>Position 70</name>
            </trkpt>
            <trkpt lat="47.8094262" lon="16.0123279">
                <ele>819.0</ele>
                <name>Position 71</name>
            </trkpt>
            <trkpt lat="47.8095875" lon="16.0123468">
                <ele>815.0</ele>
                <name>Position 72</name>
            </trkpt>
            <trkpt lat="47.8096856" lon="16.01239">
                <ele>813.1</ele>
                <name>Position 73</name>
            </trkpt>
            <trkpt lat="47.8098497" lon="16.0123932">
                <ele>808.7</ele>
                <name>Position 74</name>
            </trkpt>
            <trkpt lat="47.8100018" lon="16.0123492">
                <ele>809.7</ele>
                <name>Position 75</name>
            </trkpt>
            <trkpt lat="47.8101643" lon="16.0124292">
                <ele>805.5</ele>
                <name>Position 76</name>
            </trkpt>
            <trkpt lat="47.8102763" lon="16.012451">
                <ele>802.8</ele>
                <name>Position 77</name>
            </trkpt>
            <trkpt lat="47.8103772" lon="16.0125422">
                <ele>802.8</ele>
                <name>Position 78</name>
            </trkpt>
            <trkpt lat="47.81048" lon="16.01267">
                <ele>987.8</ele>
                <name>Position 79</name>
            </trkpt>
            <trkpt lat="47.81057" lon="16.01265">
                <ele>999.3</ele>
                <name>Position 80</name>
            </trkpt>
            <trkpt lat="47.81065" lon="16.01274">
                <ele>1004.2</ele>
                <name>Position 81</name>
            </trkpt>
            <trkpt lat="47.8108" lon="16.01273">
                <ele>1012.5</ele>
                <name>Position 82</name>
            </trkpt>
            <trkpt lat="47.81089" lon="16.01294">
                <ele>1019.1</ele>
                <name>Position 83</name>
            </trkpt>
            <trkpt lat="47.81096" lon="16.01298">
                <ele>1021.2</ele>
                <name>Position 84</name>
            </trkpt>
            <trkpt lat="47.81105" lon="16.01298">
                <ele>1023.0</ele>
                <name>Position 85</name>
            </trkpt>
            <trkpt lat="47.81106" lon="16.013">
                <ele>1023.4</ele>
                <name>Position 86</name>
            </trkpt>
            <trkpt lat="47.81115" lon="16.01307">
                <ele>1025.6</ele>
                <name>Position 87</name>
            </trkpt>
            <trkpt lat="47.8112" lon="16.01314">
                <ele>1026.7</ele>
                <name>Position 88</name>
            </trkpt>
            <trkpt lat="47.81121" lon="16.01315">
                <ele>1026.9</ele>
                <name>Position 89</name>
            </trkpt>
            <trkpt lat="47.81121" lon="16.01315">
                <ele>1026.9</ele>
                <name>Position 90</name>
            </trkpt>
            <trkpt lat="47.81117" lon="16.01393">
                <ele>1029.8</ele>
                <name>Position 91</name>
            </trkpt>
            <trkpt lat="47.81117" lon="16.01393">
                <ele>1029.8</ele>
                <name>Position 92</name>
            </trkpt>
            <trkpt lat="47.81114" lon="16.01396">
                <ele>1028.4</ele>
                <name>Position 93</name>
            </trkpt>
            <trkpt lat="47.81111" lon="16.01393">
                <ele>1027.5</ele>
                <name>Position 94</name>
            </trkpt>
            <trkpt lat="47.811" lon="16.01387">
                <ele>1019.1</ele>
                <name>Position 95</name>
            </trkpt>
            <trkpt lat="47.81094" lon="16.01403">
                <ele>1009.5</ele>
                <name>Position 96</name>
            </trkpt>
            <trkpt lat="47.81086" lon="16.01407">
                <ele>1000.0</ele>
                <name>Position 97</name>
            </trkpt>
            <trkpt lat="47.81085" lon="16.01416">
                <ele>995.2</ele>
                <name>Position 98</name>
            </trkpt>
            <trkpt lat="47.81081" lon="16.0143">
                <ele>981.5</ele>
                <name>Position 99</name>
            </trkpt>
            <trkpt lat="47.8107" lon="16.0146">
                <ele>956.7</ele>
                <name>Position 100</name>
            </trkpt>
            <trkpt lat="47.81062" lon="16.01438">
                <ele>951.7</ele>
                <name>Position 101</name>
            </trkpt>
            <trkpt lat="47.8106" lon="16.01441">
                <ele>948.3</ele>
                <name>Position 102</name>
            </trkpt>
            <trkpt lat="47.81059" lon="16.01446">
                <ele>945.8</ele>
                <name>Position 103</name>
            </trkpt>
            <trkpt lat="47.81057" lon="16.01454">
                <ele>941.1</ele>
                <name>Position 104</name>
            </trkpt>
            <trkpt lat="47.81054" lon="16.01457">
                <ele>936.5</ele>
                <name>Position 105</name>
            </trkpt>
            <trkpt lat="47.81051" lon="16.01455">
                <ele>933.3</ele>
                <name>Position 106</name>
            </trkpt>
            <trkpt lat="47.81051" lon="16.01455">
                <ele>933.3</ele>
                <name>Position 107</name>
            </trkpt>
            <trkpt lat="47.81051" lon="16.01455">
                <ele>933.3</ele>
                <name>Position 108</name>
            </trkpt>
            <trkpt lat="47.81049" lon="16.01453">
                <ele>931.1</ele>
                <name>Position 109</name>
            </trkpt>
            <trkpt lat="47.81048" lon="16.01433">
                <ele>934.2</ele>
                <name>Position 110</name>
            </trkpt>
            <trkpt lat="47.81041" lon="16.01438">
                <ele>923.3</ele>
                <name>Position 111</name>
            </trkpt>
            <trkpt lat="47.81036" lon="16.01446">
                <ele>913.9</ele>
                <name>Position 112</name>
            </trkpt>
            <trkpt lat="47.81034" lon="16.01438">
                <ele>913.7</ele>
                <name>Position 113</name>
            </trkpt>
            <trkpt lat="47.81029" lon="16.0145">
                <ele>904.8</ele>
                <name>Position 114</name>
            </trkpt>
            <trkpt lat="47.81016" lon="16.01461">
                <ele>895.4</ele>
                <name>Position 115</name>
            </trkpt>
            <trkpt lat="47.8101" lon="16.01464">
                <ele>889.9</ele>
                <name>Position 116</name>
            </trkpt>
            <trkpt lat="47.81005" lon="16.01463">
                <ele>885.5</ele>
                <name>Position 117</name>
            </trkpt>
            <trkpt lat="47.81005" lon="16.0146">
                <ele>886.2</ele>
                <name>Position 118</name>
            </trkpt>
            <trkpt lat="47.81001" lon="16.01458">
                <ele>883.4</ele>
                <name>Position 119</name>
            </trkpt>
            <trkpt lat="47.80997" lon="16.01456">
                <ele>879.2</ele>
                <name>Position 120</name>
            </trkpt>
            <trkpt lat="47.80989" lon="16.01448">
                <ele>870.6</ele>
                <name>Position 121</name>
            </trkpt>
            <trkpt lat="47.80985" lon="16.01447">
                <ele>865.3</ele>
                <name>Position 122</name>
            </trkpt>
            <trkpt lat="47.80982" lon="16.01449">
                <ele>860.6</ele>
                <name>Position 123</name>
            </trkpt>
            <trkpt lat="47.80975" lon="16.01455">
                <ele>849.5</ele>
                <name>Position 124</name>
            </trkpt>
            <trkpt lat="47.80972" lon="16.01466">
                <ele>843.1</ele>
                <name>Position 125</name>
            </trkpt>
            <trkpt lat="47.80968" lon="16.01462">
                <ele>839.2</ele>
                <name>Position 126</name>
            </trkpt>
            <trkpt lat="47.80967" lon="16.01469">
                <ele>836.6</ele>
                <name>Position 127</name>
            </trkpt>
            <trkpt lat="47.80967" lon="16.01475">
                <ele>835.6</ele>
                <name>Position 128</name>
            </trkpt>
            <trkpt lat="47.80968" lon="16.01483">
                <ele>835.6</ele>
                <name>Position 129</name>
            </trkpt>
            <trkpt lat="47.80968" lon="16.0149">
                <ele>834.6</ele>
                <name>Position 130</name>
            </trkpt>
            <trkpt lat="47.80966" lon="16.01489">
                <ele>832.4</ele>
                <name>Position 131</name>
            </trkpt>
            <trkpt lat="47.80965" lon="16.01489">
                <ele>831.3</ele>
                <name>Position 132</name>
            </trkpt>
            <trkpt lat="47.80963" lon="16.01492">
                <ele>828.5</ele>
                <name>Position 133</name>
            </trkpt>
            <trkpt lat="47.80959" lon="16.01488">
                <ele>824.5</ele>
                <name>Position 134</name>
            </trkpt>
            <trkpt lat="47.80958" lon="16.01484">
                <ele>823.9</ele>
                <name>Position 135</name>
            </trkpt>
            <trkpt lat="47.80954" lon="16.01482">
                <ele>819.6</ele>
                <name>Position 136</name>
            </trkpt>
            <trkpt lat="47.80953" lon="16.01497">
                <ele>816.3</ele>
                <name>Position 137</name>
            </trkpt>
            <trkpt lat="47.80951" lon="16.01498">
                <ele>813.8</ele>
                <name>Position 138</name>
            </trkpt>
            <trkpt lat="47.80953" lon="16.01507">
                <ele>815.5</ele>
                <name>Position 139</name>
            </trkpt>
            <trkpt lat="47.80953" lon="16.01512">
                <ele>815.3</ele>
                <name>Position 140</name>
            </trkpt>
            <trkpt lat="47.8095" lon="16.01513">
                <ele>811.8</ele>
                <name>Position 141</name>
            </trkpt>
            <trkpt lat="47.80957" lon="16.01526">
                <ele>819.1</ele>
                <name>Position 142</name>
            </trkpt>
            <trkpt lat="47.8096" lon="16.01538">
                <ele>823.1</ele>
                <name>Position 143</name>
            </trkpt>
            <trkpt lat="47.80958" lon="16.01546">
                <ele>821.4</ele>
                <name>Position 144</name>
            </trkpt>
            <trkpt lat="47.80956" lon="16.0155">
                <ele>819.5</ele>
                <name>Position 145</name>
            </trkpt>
            <trkpt lat="47.80953" lon="16.01552">
                <ele>816.3</ele>
                <name>Position 146</name>
            </trkpt>
            <trkpt lat="47.80949" lon="16.01548">
                <ele>811.5</ele>
                <name>Position 147</name>
            </trkpt>
            <trkpt lat="47.80948" lon="16.01555">
                <ele>810.9</ele>
                <name>Position 148</name>
            </trkpt>
            <trkpt lat="47.80946" lon="16.01551">
                <ele>808.4</ele>
                <name>Position 149</name>
            </trkpt>
            <trkpt lat="47.80939" lon="16.01569">
                <ele>803.8</ele>
                <name>Position 150</name>
            </trkpt>
            <trkpt lat="47.80939" lon="16.01569">
                <ele>803.8</ele>
                <name>Position 151</name>
            </trkpt>
            <trkpt lat="47.80939" lon="16.01569">
                <ele>803.8</ele>
                <name>Position 152</name>
            </trkpt>
            <trkpt lat="47.80937" lon="16.01571">
                <ele>802.7</ele>
                <name>Position 153</name>
            </trkpt>
            <trkpt lat="47.80931" lon="16.01559">
                <ele>800.1</ele>
                <name>Position 154</name>
            </trkpt>
            <trkpt lat="47.80928" lon="16.01547">
                <ele>798.5</ele>
                <name>Position 155</name>
            </trkpt>
            <trkpt lat="47.80927" lon="16.01537">
                <ele>797.7</ele>
                <name>Position 156</name>
            </trkpt>
            <trkpt lat="47.80923" lon="16.01539">
                <ele>795.9</ele>
                <name>Position 157</name>
            </trkpt>
            <trkpt lat="47.8092" lon="16.01543">
                <ele>794.6</ele>
                <name>Position 158</name>
            </trkpt>
            <trkpt lat="47.80909" lon="16.01563">
                <ele>788.2</ele>
                <name>Position 159</name>
            </trkpt>
            <trkpt lat="47.80898" lon="16.01606">
                <ele>782.3</ele>
                <name>Position 160</name>
            </trkpt>
            <trkpt lat="47.80866" lon="16.01562">
                <ele>760.8</ele>
                <name>Position 161</name>
            </trkpt>
            <trkpt lat="47.80863" lon="16.01561">
                <ele>758.9</ele>
                <name>Position 162</name>
            </trkpt>
            <trkpt lat="47.80859" lon="16.01562">
                <ele>756.6</ele>
                <name>Position 163</name>
            </trkpt>
            <trkpt lat="47.80856" lon="16.01564">
                <ele>755.2</ele>
                <name>Position 164</name>
            </trkpt>
            <trkpt lat="47.80854" lon="16.01563">
                <ele>754.4</ele>
                <name>Position 165</name>
            </trkpt>
            <trkpt lat="47.80851" lon="16.01563">
                <ele>753.1</ele>
                <name>Position 166</name>
            </trkpt>
            <trkpt lat="47.80846" lon="16.01555">
                <ele>751.0</ele>
                <name>Position 167</name>
            </trkpt>
            <trkpt lat="47.80845" lon="16.01552">
                <ele>751.2</ele>
                <name>Position 168</name>
            </trkpt>
            <trkpt lat="47.80845" lon="16.0155">
                <ele>751.5</ele>
                <name>Position 169</name>
            </trkpt>
            <trkpt lat="47.80844" lon="16.01547">
                <ele>751.7</ele>
                <name>Position 170</name>
            </trkpt>
            <trkpt lat="47.80842" lon="16.01546">
                <ele>750.9</ele>
                <name>Position 171</name>
            </trkpt>
            <trkpt lat="47.80838" lon="16.01544">
                <ele>749.3</ele>
                <name>Position 172</name>
            </trkpt>
            <trkpt lat="47.80836" lon="16.01542">
                <ele>748.7</ele>
                <name>Position 173</name>
            </trkpt>
            <trkpt lat="47.80832" lon="16.01539">
                <ele>747.5</ele>
                <name>Position 174</name>
            </trkpt>
            <trkpt lat="47.8083" lon="16.01537">
                <ele>747.0</ele>
                <name>Position 175</name>
            </trkpt>
            <trkpt lat="47.80828" lon="16.01536">
                <ele>746.3</ele>
                <name>Position 176</name>
            </trkpt>
            <trkpt lat="47.80826" lon="16.01535">
                <ele>745.6</ele>
                <name>Position 177</name>
            </trkpt>
            <trkpt lat="47.80823" lon="16.01533">
                <ele>744.6</ele>
                <name>Position 178</name>
            </trkpt>
            <trkpt lat="47.80823" lon="16.01533">
                <ele>744.6</ele>
                <name>Position 179</name>
            </trkpt>
            <trkpt lat="47.80823" lon="16.01533">
                <ele>744.6</ele>
                <name>Position 180</name>
            </trkpt>
            <trkpt lat="47.80823" lon="16.01533">
                <ele>744.6</ele>
                <name>Position 181</name>
            </trkpt>
            <trkpt lat="47.80823" lon="16.01533">
                <ele>744.6</ele>
                <name>Position 182</name>
            </trkpt>
            <trkpt lat="47.80821" lon="16.01533">
                <ele>743.7</ele>
                <name>Position 183</name>
            </trkpt>
            <trkpt lat="47.80819" lon="16.01533">
                <ele>742.8</ele>
                <name>Position 184</name>
            </trkpt>
            <trkpt lat="47.80814" lon="16.01533">
                <ele>740.7</ele>
                <name>Position 185</name>
            </trkpt>
            <trkpt lat="47.80806" lon="16.01524">
                <ele>737.6</ele>
                <name>Position 186</name>
            </trkpt>
            <trkpt lat="47.80802" lon="16.01522">
                <ele>737.0</ele>
                <name>Position 187</name>
            </trkpt>
            <trkpt lat="47.80798" lon="16.01521">
                <ele>736.4</ele>
                <name>Position 188</name>
            </trkpt>
            <trkpt lat="47.80794" lon="16.01516">
                <ele>736.2</ele>
                <name>Position 189</name>
            </trkpt>
            <trkpt lat="47.80789" lon="16.01514">
                <ele>735.5</ele>
                <name>Position 190</name>
            </trkpt>
            <trkpt lat="47.80786" lon="16.01512">
                <ele>735.2</ele>
                <name>Position 191</name>
            </trkpt>
            <trkpt lat="47.80782" lon="16.0151">
                <ele>734.7</ele>
                <name>Position 192</name>
            </trkpt>
            <trkpt lat="47.80767" lon="16.01495">
                <ele>733.1</ele>
                <name>Position 193</name>
            </trkpt>
            <trkpt lat="47.80742" lon="16.01443">
                <ele>726.8</ele>
                <name>Position 194</name>
            </trkpt>
            <trkpt lat="47.80732" lon="16.01382">
                <ele>723.1</ele>
                <name>Position 195</name>
            </trkpt>
            <trkpt lat="47.8072" lon="16.01337">
                <ele>727.2</ele>
                <name>Position 196</name>
            </trkpt>
            <trkpt lat="47.80713" lon="16.01314">
                <ele>730.5</ele>
                <name>Position 197</name>
            </trkpt>
            <trkpt lat="47.80696" lon="16.01268">
                <ele>730.2</ele>
                <name>Position 198</name>
            </trkpt>
            <trkpt lat="47.8069" lon="16.01246">
                <ele>730.7</ele>
                <name>Position 199</name>
            </trkpt>
            <trkpt lat="47.8069" lon="16.01246">
                <ele>730.7</ele>
                <name>Position 200</name>
            </trkpt>
            <trkpt lat="47.8069" lon="16.01246">
                <ele>730.7</ele>
                <name>Position 201</name>
            </trkpt>
            <trkpt lat="47.80685" lon="16.01227">
                <ele>728.4</ele>
                <name>Position 202</name>
            </trkpt>
            <trkpt lat="47.8068" lon="16.012">
                <ele>723.4</ele>
                <name>Position 203</name>
            </trkpt>
            <trkpt lat="47.80679" lon="16.01188">
                <ele>721.2</ele>
                <name>Position 204</name>
            </trkpt>
            <trkpt lat="47.8068" lon="16.01177">
                <ele>719.6</ele>
                <name>Position 205</name>
            </trkpt>
            <trkpt lat="47.80682" lon="16.01158">
                <ele>719.5</ele>
                <name>Position 206</name>
            </trkpt>
            <trkpt lat="47.80682" lon="16.01145">
                <ele>721.4</ele>
                <name>Position 207</name>
            </trkpt>
            <trkpt lat="47.80678" lon="16.01108">
                <ele>723.5</ele>
                <name>Position 208</name>
            </trkpt>
            <trkpt lat="47.80677" lon="16.01085">
                <ele>723.9</ele>
                <name>Position 209</name>
            </trkpt>
            <trkpt lat="47.80673" lon="16.01043">
                <ele>721.1</ele>
                <name>Position 210</name>
            </trkpt>
            <trkpt lat="47.80669" lon="16.01016">
                <ele>720.0</ele>
                <name>Position 211</name>
            </trkpt>
            <trkpt lat="47.80653" lon="16.00959">
                <ele>719.5</ele>
                <name>Position 212</name>
            </trkpt>
            <trkpt lat="47.80617" lon="16.00855">
                <ele>716.3</ele>
                <name>Position 213</name>
            </trkpt>
            <trkpt lat="47.80592" lon="16.0081">
                <ele>719.0</ele>
                <name>Position 214</name>
            </trkpt>
            <trkpt lat="47.80576" lon="16.00779">
                <ele>716.5</ele>
                <name>Position 215</name>
            </trkpt>
            <trkpt lat="47.80573" lon="16.00766">
                <ele>714.3</ele>
                <name>Position 216</name>
            </trkpt>
            <trkpt lat="47.80575" lon="16.00747">
                <ele>712.3</ele>
                <name>Position 217</name>
            </trkpt>
            <trkpt lat="47.80584" lon="16.00717">
                <ele>711.0</ele>
                <name>Position 218</name>
            </trkpt>
            <trkpt lat="47.80592" lon="16.00698">
                <ele>711.4</ele>
                <name>Position 219</name>
            </trkpt>
            <trkpt lat="47.80606" lon="16.00672">
                <ele>713.1</ele>
                <name>Position 220</name>
            </trkpt>
            <trkpt lat="47.80614" lon="16.00648">
                <ele>715.0</ele>
                <name>Position 221</name>
            </trkpt>
            <trkpt lat="47.80625" lon="16.00589">
                <ele>718.4</ele>
                <name>Position 222</name>
            </trkpt>
            <trkpt lat="47.80629" lon="16.00568">
                <ele>717.1</ele>
                <name>Position 223</name>
            </trkpt>
            <trkpt lat="47.80628" lon="16.00554">
                <ele>715.3</ele>
                <name>Position 224</name>
            </trkpt>
            <trkpt lat="47.80622" lon="16.00532">
                <ele>714.8</ele>
                <name>Position 225</name>
            </trkpt>
            <trkpt lat="47.80601" lon="16.00464">
                <ele>719.3</ele>
                <name>Position 226</name>
            </trkpt>
            <trkpt lat="47.80598" lon="16.00456">
                <ele>719.1</ele>
                <name>Position 227</name>
            </trkpt>
            <trkpt lat="47.80594" lon="16.00447">
                <ele>718.8</ele>
                <name>Position 228</name>
            </trkpt>
            <trkpt lat="47.80586" lon="16.00429">
                <ele>718.3</ele>
                <name>Position 229</name>
            </trkpt>
        </trkseg>
    </trk>
</gpx>
