<?xml version="1.0" encoding="UTF-8" standalone="yes"?>
<gpx xmlns:gpxtpx1="http://www.garmin.com/xmlschemas/TrackPointExtension/v1" xmlns="http://www.topografix.com/GPX/1/1" xmlns:trp="http://www.garmin.com/xmlschemas/TripExtensions/v1" xmlns:gpxx="http://www.garmin.com/xmlschemas/GpxExtensions/v3" xmlns:gpxtpx="http://www.garmin.com/xmlschemas/TrackPointExtension/v2" version="1.1" creator="Generated by Christian Pesch's RouteConverter. See http://www.routeconverter.com">
    <metadata>
        <name>schwarzhorntsteig-leukerbad</name>
        <link href="alpenkarte.eu">
            <text>Route von alpenkarte.eu</text>
        </link>
        <bounds minlat="46.384219999999999117790139280259609222412109375" minlon="7.56232099999999984873966241138987243175506591796875" maxlat="46.401622000000003254172042943537235260009765625" maxlon="7.61624199999999973442754708230495452880859375"/>
    </metadata>
    <trk>
        <name>schwarzhorntsteig-leukerbad</name>
        <trkseg>
            <trkpt lat="46.398145" lon="7.61608">
                <ele>2325.3</ele>
                <name>Position 1</name>
            </trkpt>
            <trkpt lat="46.398091" lon="7.616069">
                <ele>2322.0</ele>
                <name>Position 2</name>
            </trkpt>
            <trkpt lat="46.398054" lon="7.615955">
                <ele>2321.8</ele>
                <name>Position 3</name>
            </trkpt>
            <trkpt lat="46.39798" lon="7.615839">
                <ele>2320.4</ele>
                <name>Position 4</name>
            </trkpt>
            <trkpt lat="46.397927" lon="7.61565">
                <ele>2318.9</ele>
                <name>Position 5</name>
            </trkpt>
            <trkpt lat="46.397819" lon="7.615371">
                <ele>2317.1</ele>
                <name>Position 6</name>
            </trkpt>
            <trkpt lat="46.397787" lon="7.615049">
                <ele>2319.5</ele>
                <name>Position 7</name>
            </trkpt>
            <trkpt lat="46.397683" lon="7.614961">
                <ele>2318.4</ele>
                <name>Position 8</name>
            </trkpt>
            <trkpt lat="46.397663" lon="7.614876">
                <ele>2318.1</ele>
                <name>Position 9</name>
            </trkpt>
            <trkpt lat="46.397671" lon="7.614641">
                <ele>2318.3</ele>
                <name>Position 10</name>
            </trkpt>
            <trkpt lat="46.397653" lon="7.61458">
                <ele>2318.2</ele>
                <name>Position 11</name>
            </trkpt>
            <trkpt lat="46.397657" lon="7.614531">
                <ele>2318.2</ele>
                <name>Position 12</name>
            </trkpt>
            <trkpt lat="46.397778" lon="7.614393">
                <ele>2319.3</ele>
                <name>Position 13</name>
            </trkpt>
            <trkpt lat="46.397778" lon="7.614331">
                <ele>2319.3</ele>
                <name>Position 14</name>
            </trkpt>
            <trkpt lat="46.39773" lon="7.614221">
                <ele>2318.9</ele>
                <name>Position 15</name>
            </trkpt>
            <trkpt lat="46.397672" lon="7.614169">
                <ele>2318.5</ele>
                <name>Position 16</name>
            </trkpt>
            <trkpt lat="46.397642" lon="7.614055">
                <ele>2316.9</ele>
                <name>Position 17</name>
            </trkpt>
            <trkpt lat="46.397644" lon="7.613949">
                <ele>2315.6</ele>
                <name>Position 18</name>
            </trkpt>
            <trkpt lat="46.397708" lon="7.613932">
                <ele>2315.8</ele>
                <name>Position 19</name>
            </trkpt>
            <trkpt lat="46.397614" lon="7.613678">
                <ele>2311.9</ele>
                <name>Position 20</name>
            </trkpt>
            <trkpt lat="46.3976" lon="7.613407">
                <ele>2308.3</ele>
                <name>Position 21</name>
            </trkpt>
            <trkpt lat="46.397482" lon="7.613148">
                <ele>2304.6</ele>
                <name>Position 22</name>
            </trkpt>
            <trkpt lat="46.397406" lon="7.613056">
                <ele>2301.5</ele>
                <name>Position 23</name>
            </trkpt>
            <trkpt lat="46.397328" lon="7.612915">
                <ele>2298.6</ele>
                <name>Position 24</name>
            </trkpt>
            <trkpt lat="46.397168" lon="7.612498">
                <ele>2294.5</ele>
                <name>Position 25</name>
            </trkpt>
            <trkpt lat="46.397015" lon="7.612286">
                <ele>2291.3</ele>
                <name>Position 26</name>
            </trkpt>
            <trkpt lat="46.396881" lon="7.61218">
                <ele>2288.6</ele>
                <name>Position 27</name>
            </trkpt>
            <trkpt lat="46.396827" lon="7.612162">
                <ele>2287.6</ele>
                <name>Position 28</name>
            </trkpt>
            <trkpt lat="46.396742" lon="7.612174">
                <ele>2286.1</ele>
                <name>Position 29</name>
            </trkpt>
            <trkpt lat="46.396566" lon="7.612121">
                <ele>2280.4</ele>
                <name>Position 30</name>
            </trkpt>
            <trkpt lat="46.396537" lon="7.612091">
                <ele>2279.4</ele>
                <name>Position 31</name>
            </trkpt>
            <trkpt lat="46.396542" lon="7.611974">
                <ele>2280.2</ele>
                <name>Position 32</name>
            </trkpt>
            <trkpt lat="46.39665" lon="7.61173">
                <ele>2283.4</ele>
                <name>Position 33</name>
            </trkpt>
            <trkpt lat="46.396694" lon="7.611591">
                <ele>2283.1</ele>
                <name>Position 34</name>
            </trkpt>
            <trkpt lat="46.396694" lon="7.611552">
                <ele>2282.6</ele>
                <name>Position 35</name>
            </trkpt>
            <trkpt lat="46.396674" lon="7.611527">
                <ele>2281.9</ele>
                <name>Position 36</name>
            </trkpt>
            <trkpt lat="46.396544" lon="7.611543">
                <ele>2281.0</ele>
                <name>Position 37</name>
            </trkpt>
            <trkpt lat="46.396537" lon="7.611497">
                <ele>2280.6</ele>
                <name>Position 38</name>
            </trkpt>
            <trkpt lat="46.396555" lon="7.611435">
                <ele>2280.3</ele>
                <name>Position 39</name>
            </trkpt>
            <trkpt lat="46.396548" lon="7.61139">
                <ele>2279.9</ele>
                <name>Position 40</name>
            </trkpt>
            <trkpt lat="46.396525" lon="7.611366">
                <ele>2279.7</ele>
                <name>Position 41</name>
            </trkpt>
            <trkpt lat="46.396378" lon="7.611393">
                <ele>2279.6</ele>
                <name>Position 42</name>
            </trkpt>
            <trkpt lat="46.396301" lon="7.611448">
                <ele>2279.3</ele>
                <name>Position 43</name>
            </trkpt>
            <trkpt lat="46.396256" lon="7.61136">
                <ele>2279.5</ele>
                <name>Position 44</name>
            </trkpt>
            <trkpt lat="46.396259" lon="7.611152">
                <ele>2280.4</ele>
                <name>Position 45</name>
            </trkpt>
            <trkpt lat="46.396359" lon="7.610951">
                <ele>2279.7</ele>
                <name>Position 46</name>
            </trkpt>
            <trkpt lat="46.396291" lon="7.610811">
                <ele>2281.2</ele>
                <name>Position 47</name>
            </trkpt>
            <trkpt lat="46.396384" lon="7.61044">
                <ele>2280.5</ele>
                <name>Position 48</name>
            </trkpt>
            <trkpt lat="46.39649" lon="7.609859">
                <ele>2279.5</ele>
                <name>Position 49</name>
            </trkpt>
            <trkpt lat="46.396471" lon="7.609151">
                <ele>2279.5</ele>
                <name>Position 50</name>
            </trkpt>
            <trkpt lat="46.396428" lon="7.609064">
                <ele>2280.0</ele>
                <name>Position 51</name>
            </trkpt>
            <trkpt lat="46.396463" lon="7.608823">
                <ele>2279.1</ele>
                <name>Position 52</name>
            </trkpt>
            <trkpt lat="46.396419" lon="7.608493">
                <ele>2279.1</ele>
                <name>Position 53</name>
            </trkpt>
            <trkpt lat="46.396439" lon="7.607374">
                <ele>2275.4</ele>
                <name>Position 54</name>
            </trkpt>
            <trkpt lat="46.396387" lon="7.606752">
                <ele>2277.1</ele>
                <name>Position 55</name>
            </trkpt>
            <trkpt lat="46.396328" lon="7.606526">
                <ele>2279.2</ele>
                <name>Position 56</name>
            </trkpt>
            <trkpt lat="46.396439" lon="7.606279">
                <ele>2279.0</ele>
                <name>Position 57</name>
            </trkpt>
            <trkpt lat="46.396439" lon="7.606054">
                <ele>2280.6</ele>
                <name>Position 58</name>
            </trkpt>
            <trkpt lat="46.396289" lon="7.605532">
                <ele>2288.1</ele>
                <name>Position 59</name>
            </trkpt>
            <trkpt lat="46.396301" lon="7.605389">
                <ele>2289.1</ele>
                <name>Position 60</name>
            </trkpt>
            <trkpt lat="46.396372" lon="7.605185">
                <ele>2288.9</ele>
                <name>Position 61</name>
            </trkpt>
            <trkpt lat="46.396416" lon="7.604805">
                <ele>2290.1</ele>
                <name>Position 62</name>
            </trkpt>
            <trkpt lat="46.396498" lon="7.604423">
                <ele>2289.2</ele>
                <name>Position 63</name>
            </trkpt>
            <trkpt lat="46.396587" lon="7.604262">
                <ele>2286.4</ele>
                <name>Position 64</name>
            </trkpt>
            <trkpt lat="46.396644" lon="7.604078">
                <ele>2284.9</ele>
                <name>Position 65</name>
            </trkpt>
            <trkpt lat="46.396662" lon="7.603839">
                <ele>2285.3</ele>
                <name>Position 66</name>
            </trkpt>
            <trkpt lat="46.396642" lon="7.603495">
                <ele>2287.8</ele>
                <name>Position 67</name>
            </trkpt>
            <trkpt lat="46.396717" lon="7.603163">
                <ele>2288.0</ele>
                <name>Position 68</name>
            </trkpt>
            <trkpt lat="46.396799" lon="7.602913">
                <ele>2288.5</ele>
                <name>Position 69</name>
            </trkpt>
            <trkpt lat="46.396824" lon="7.602729">
                <ele>2288.9</ele>
                <name>Position 70</name>
            </trkpt>
            <trkpt lat="46.396877" lon="7.602553">
                <ele>2289.1</ele>
                <name>Position 71</name>
            </trkpt>
            <trkpt lat="46.396864" lon="7.60224">
                <ele>2289.6</ele>
                <name>Position 72</name>
            </trkpt>
            <trkpt lat="46.396886" lon="7.602065">
                <ele>2289.6</ele>
                <name>Position 73</name>
            </trkpt>
            <trkpt lat="46.396802" lon="7.601559">
                <ele>2290.2</ele>
                <name>Position 74</name>
            </trkpt>
            <trkpt lat="46.396642" lon="7.601119">
                <ele>2290.6</ele>
                <name>Position 75</name>
            </trkpt>
            <trkpt lat="46.396633" lon="7.600863">
                <ele>2290.0</ele>
                <name>Position 76</name>
            </trkpt>
            <trkpt lat="46.396657" lon="7.600728">
                <ele>2288.8</ele>
                <name>Position 77</name>
            </trkpt>
            <trkpt lat="46.396614" lon="7.600639">
                <ele>2290.3</ele>
                <name>Position 78</name>
            </trkpt>
            <trkpt lat="46.396535" lon="7.600379">
                <ele>2292.7</ele>
                <name>Position 79</name>
            </trkpt>
            <trkpt lat="46.396523" lon="7.600237">
                <ele>2292.8</ele>
                <name>Position 80</name>
            </trkpt>
            <trkpt lat="46.396402" lon="7.600057">
                <ele>2296.3</ele>
                <name>Position 81</name>
            </trkpt>
            <trkpt lat="46.396431" lon="7.599155">
                <ele>2293.1</ele>
                <name>Position 82</name>
            </trkpt>
            <trkpt lat="46.39635" lon="7.598715">
                <ele>2293.9</ele>
                <name>Position 83</name>
            </trkpt>
            <trkpt lat="46.396402" lon="7.598179">
                <ele>2291.7</ele>
                <name>Position 84</name>
            </trkpt>
            <trkpt lat="46.396473" lon="7.597833">
                <ele>2289.9</ele>
                <name>Position 85</name>
            </trkpt>
            <trkpt lat="46.396095" lon="7.595322">
                <ele>2289.0</ele>
                <name>Position 86</name>
            </trkpt>
            <trkpt lat="46.395666" lon="7.592844">
                <ele>2291.0</ele>
                <name>Position 87</name>
            </trkpt>
            <trkpt lat="46.395511" lon="7.589604">
                <ele>2295.1</ele>
                <name>Position 88</name>
            </trkpt>
            <trkpt lat="46.39538" lon="7.589148">
                <ele>2295.8</ele>
                <name>Position 89</name>
            </trkpt>
            <trkpt lat="46.395155" lon="7.588615">
                <ele>2296.2</ele>
                <name>Position 90</name>
            </trkpt>
            <trkpt lat="46.395185" lon="7.587437">
                <ele>2296.7</ele>
                <name>Position 91</name>
            </trkpt>
            <trkpt lat="46.395294" lon="7.586017">
                <ele>2299.4</ele>
                <name>Position 92</name>
            </trkpt>
            <trkpt lat="46.395425" lon="7.584981">
                <ele>2302.5</ele>
                <name>Position 93</name>
            </trkpt>
            <trkpt lat="46.39554" lon="7.583894">
                <ele>2302.6</ele>
                <name>Position 94</name>
            </trkpt>
            <trkpt lat="46.395871" lon="7.58303">
                <ele>2300.8</ele>
                <name>Position 95</name>
            </trkpt>
            <trkpt lat="46.396474" lon="7.579747">
                <ele>2303.0</ele>
                <name>Position 96</name>
            </trkpt>
            <trkpt lat="46.396557" lon="7.579765">
                <ele>2302.6</ele>
                <name>Position 97</name>
            </trkpt>
            <trkpt lat="46.396818" lon="7.579576">
                <ele>2302.8</ele>
                <name>Position 98</name>
            </trkpt>
            <trkpt lat="46.396943" lon="7.579431">
                <ele>2303.4</ele>
                <name>Position 99</name>
            </trkpt>
            <trkpt lat="46.39734" lon="7.578853">
                <ele>2305.9</ele>
                <name>Position 100</name>
            </trkpt>
            <trkpt lat="46.397607" lon="7.578507">
                <ele>2307.3</ele>
                <name>Position 101</name>
            </trkpt>
            <trkpt lat="46.397727" lon="7.578239">
                <ele>2308.6</ele>
                <name>Position 102</name>
            </trkpt>
            <trkpt lat="46.397845" lon="7.577641">
                <ele>2312.9</ele>
                <name>Position 103</name>
            </trkpt>
            <trkpt lat="46.398019" lon="7.577317">
                <ele>2317.1</ele>
                <name>Position 104</name>
            </trkpt>
            <trkpt lat="46.398119" lon="7.576885">
                <ele>2322.7</ele>
                <name>Position 105</name>
            </trkpt>
            <trkpt lat="46.398189" lon="7.576909">
                <ele>2323.7</ele>
                <name>Position 106</name>
            </trkpt>
            <trkpt lat="46.398419" lon="7.577418">
                <ele>2321.4</ele>
                <name>Position 107</name>
            </trkpt>
            <trkpt lat="46.398395" lon="7.577151">
                <ele>2324.9</ele>
                <name>Position 108</name>
            </trkpt>
            <trkpt lat="46.39839" lon="7.57672">
                <ele>2331.3</ele>
                <name>Position 109</name>
            </trkpt>
            <trkpt lat="46.39884" lon="7.577175">
                <ele>2337.4</ele>
                <name>Position 110</name>
            </trkpt>
            <trkpt lat="46.399101" lon="7.57732">
                <ele>2339.3</ele>
                <name>Position 111</name>
            </trkpt>
            <trkpt lat="46.398924" lon="7.576719">
                <ele>2354.7</ele>
                <name>Position 112</name>
            </trkpt>
            <trkpt lat="46.399061" lon="7.576794">
                <ele>2357.9</ele>
                <name>Position 113</name>
            </trkpt>
            <trkpt lat="46.399229" lon="7.576579">
                <ele>2371.8</ele>
                <name>Position 114</name>
            </trkpt>
            <trkpt lat="46.399255" lon="7.576426">
                <ele>2376.6</ele>
                <name>Position 115</name>
            </trkpt>
            <trkpt lat="46.399114" lon="7.576376">
                <ele>2371.0</ele>
                <name>Position 116</name>
            </trkpt>
            <trkpt lat="46.39907" lon="7.576108">
                <ele>2374.3</ele>
                <name>Position 117</name>
            </trkpt>
            <trkpt lat="46.399165" lon="7.575972">
                <ele>2381.6</ele>
                <name>Position 118</name>
            </trkpt>
            <trkpt lat="46.399272" lon="7.576153">
                <ele>2384.2</ele>
                <name>Position 119</name>
            </trkpt>
            <trkpt lat="46.399373" lon="7.575936">
                <ele>2396.4</ele>
                <name>Position 120</name>
            </trkpt>
            <trkpt lat="46.399566" lon="7.576046">
                <ele>2405.4</ele>
                <name>Position 121</name>
            </trkpt>
            <trkpt lat="46.39981" lon="7.576265">
                <ele>2410.4</ele>
                <name>Position 122</name>
            </trkpt>
            <trkpt lat="46.400154" lon="7.576494">
                <ele>2415.6</ele>
                <name>Position 123</name>
            </trkpt>
            <trkpt lat="46.400017" lon="7.576228">
                <ele>2423.3</ele>
                <name>Position 124</name>
            </trkpt>
            <trkpt lat="46.400139" lon="7.576276">
                <ele>2425.3</ele>
                <name>Position 125</name>
            </trkpt>
            <trkpt lat="46.400317" lon="7.576265">
                <ele>2432.5</ele>
                <name>Position 126</name>
            </trkpt>
            <trkpt lat="46.400449" lon="7.57618">
                <ele>2440.2</ele>
                <name>Position 127</name>
            </trkpt>
            <trkpt lat="46.400609" lon="7.575909">
                <ele>2452.1</ele>
                <name>Position 128</name>
            </trkpt>
            <trkpt lat="46.40106" lon="7.575635">
                <ele>2476.8</ele>
                <name>Position 129</name>
            </trkpt>
            <trkpt lat="46.401231" lon="7.575512">
                <ele>2486.9</ele>
                <name>Position 130</name>
            </trkpt>
            <trkpt lat="46.401345" lon="7.57527">
                <ele>2493.8</ele>
                <name>Position 131</name>
            </trkpt>
            <trkpt lat="46.401414" lon="7.575305">
                <ele>2495.0</ele>
                <name>Position 132</name>
            </trkpt>
            <trkpt lat="46.401386" lon="7.575221">
                <ele>2495.0</ele>
                <name>Position 133</name>
            </trkpt>
            <trkpt lat="46.401441" lon="7.575265">
                <ele>2495.8</ele>
                <name>Position 134</name>
            </trkpt>
            <trkpt lat="46.401431" lon="7.575149">
                <ele>2496.2</ele>
                <name>Position 135</name>
            </trkpt>
            <trkpt lat="46.40149" lon="7.575175">
                <ele>2496.9</ele>
                <name>Position 136</name>
            </trkpt>
            <trkpt lat="46.401467" lon="7.575129">
                <ele>2496.7</ele>
                <name>Position 137</name>
            </trkpt>
            <trkpt lat="46.401511" lon="7.575135">
                <ele>2497.2</ele>
                <name>Position 138</name>
            </trkpt>
            <trkpt lat="46.401506" lon="7.575086">
                <ele>2497.1</ele>
                <name>Position 139</name>
            </trkpt>
            <trkpt lat="46.401564" lon="7.575087">
                <ele>2497.6</ele>
                <name>Position 140</name>
            </trkpt>
            <trkpt lat="46.401539" lon="7.575025">
                <ele>2497.2</ele>
                <name>Position 141</name>
            </trkpt>
            <trkpt lat="46.401622" lon="7.574892">
                <ele>2499.4</ele>
                <name>Position 142</name>
            </trkpt>
            <trkpt lat="46.401047" lon="7.574763">
                <ele>2498.7</ele>
                <name>Position 143</name>
            </trkpt>
            <trkpt lat="46.400586" lon="7.574549">
                <ele>2498.0</ele>
                <name>Position 144</name>
            </trkpt>
            <trkpt lat="46.400294" lon="7.574636">
                <ele>2495.4</ele>
                <name>Position 145</name>
            </trkpt>
            <trkpt lat="46.400241" lon="7.574577">
                <ele>2495.9</ele>
                <name>Position 146</name>
            </trkpt>
            <trkpt lat="46.400241" lon="7.574577">
                <ele>2495.9</ele>
                <name>Position 147</name>
            </trkpt>
            <trkpt lat="46.400191" lon="7.574522">
                <ele>2496.3</ele>
                <name>Position 148</name>
            </trkpt>
            <trkpt lat="46.400211" lon="7.574279">
                <ele>2499.6</ele>
                <name>Position 149</name>
            </trkpt>
            <trkpt lat="46.400105" lon="7.574167">
                <ele>2500.7</ele>
                <name>Position 150</name>
            </trkpt>
            <trkpt lat="46.400028" lon="7.573901">
                <ele>2500.6</ele>
                <name>Position 151</name>
            </trkpt>
            <trkpt lat="46.400069" lon="7.573464">
                <ele>2500.7</ele>
                <name>Position 152</name>
            </trkpt>
            <trkpt lat="46.400282" lon="7.573155">
                <ele>2502.0</ele>
                <name>Position 153</name>
            </trkpt>
            <trkpt lat="46.400253" lon="7.57276">
                <ele>2503.5</ele>
                <name>Position 154</name>
            </trkpt>
            <trkpt lat="46.400324" lon="7.572382">
                <ele>2506.9</ele>
                <name>Position 155</name>
            </trkpt>
            <trkpt lat="46.4003" lon="7.571962">
                <ele>2511.9</ele>
                <name>Position 156</name>
            </trkpt>
            <trkpt lat="46.40004" lon="7.57167">
                <ele>2509.4</ele>
                <name>Position 157</name>
            </trkpt>
            <trkpt lat="46.399832" lon="7.570923">
                <ele>2511.7</ele>
                <name>Position 158</name>
            </trkpt>
            <trkpt lat="46.399477" lon="7.570417">
                <ele>2506.1</ele>
                <name>Position 159</name>
            </trkpt>
            <trkpt lat="46.399418" lon="7.570022">
                <ele>2507.4</ele>
                <name>Position 160</name>
            </trkpt>
            <trkpt lat="46.399081" lon="7.56894">
                <ele>2513.4</ele>
                <name>Position 161</name>
            </trkpt>
            <trkpt lat="46.398222" lon="7.567061">
                <ele>2504.6</ele>
                <name>Position 162</name>
            </trkpt>
            <trkpt lat="46.398069" lon="7.566159">
                <ele>2509.7</ele>
                <name>Position 163</name>
            </trkpt>
            <trkpt lat="46.397666" lon="7.565232">
                <ele>2483.3</ele>
                <name>Position 164</name>
            </trkpt>
            <trkpt lat="46.397613" lon="7.564829">
                <ele>2479.4</ele>
                <name>Position 165</name>
            </trkpt>
            <trkpt lat="46.397891" lon="7.563576">
                <ele>2494.1</ele>
                <name>Position 166</name>
            </trkpt>
            <trkpt lat="46.397915" lon="7.563224">
                <ele>2493.9</ele>
                <name>Position 167</name>
            </trkpt>
            <trkpt lat="46.397943" lon="7.563018">
                <ele>2495.0</ele>
                <name>Position 168</name>
            </trkpt>
            <trkpt lat="46.397684" lon="7.562557">
                <ele>2488.8</ele>
                <name>Position 169</name>
            </trkpt>
            <trkpt lat="46.397477" lon="7.562321">
                <ele>2488.8</ele>
                <name>Position 170</name>
            </trkpt>
            <trkpt lat="46.397011" lon="7.562761">
                <ele>2485.1</ele>
                <name>Position 171</name>
            </trkpt>
            <trkpt lat="46.396515" lon="7.563458">
                <ele>2472.4</ele>
                <name>Position 172</name>
            </trkpt>
            <trkpt lat="46.395612" lon="7.564907">
                <ele>2455.7</ele>
                <name>Position 173</name>
            </trkpt>
            <trkpt lat="46.395346" lon="7.566237">
                <ele>2449.0</ele>
                <name>Position 174</name>
            </trkpt>
            <trkpt lat="46.394628" lon="7.567406">
                <ele>2448.9</ele>
                <name>Position 175</name>
            </trkpt>
            <trkpt lat="46.394599" lon="7.567836">
                <ele>2450.1</ele>
                <name>Position 176</name>
            </trkpt>
            <trkpt lat="46.393045" lon="7.569305">
                <ele>2481.0</ele>
                <name>Position 177</name>
            </trkpt>
            <trkpt lat="46.392919" lon="7.569509">
                <ele>2487.5</ele>
                <name>Position 178</name>
            </trkpt>
            <trkpt lat="46.3928" lon="7.570679">
                <ele>2509.1</ele>
                <name>Position 179</name>
            </trkpt>
            <trkpt lat="46.392623" lon="7.570593">
                <ele>2514.8</ele>
                <name>Position 180</name>
            </trkpt>
            <trkpt lat="46.392645" lon="7.570904">
                <ele>2519.9</ele>
                <name>Position 181</name>
            </trkpt>
            <trkpt lat="46.392534" lon="7.571065">
                <ele>2528.3</ele>
                <name>Position 182</name>
            </trkpt>
            <trkpt lat="46.391986" lon="7.5707">
                <ele>2545.6</ele>
                <name>Position 183</name>
            </trkpt>
            <trkpt lat="46.391787" lon="7.570958">
                <ele>2559.3</ele>
                <name>Position 184</name>
            </trkpt>
            <trkpt lat="46.391195" lon="7.570228">
                <ele>2576.6</ele>
                <name>Position 185</name>
            </trkpt>
            <trkpt lat="46.390973" lon="7.570228">
                <ele>2588.0</ele>
                <name>Position 186</name>
            </trkpt>
            <trkpt lat="46.390632" lon="7.569606">
                <ele>2604.6</ele>
                <name>Position 187</name>
            </trkpt>
            <trkpt lat="46.390351" lon="7.568876">
                <ele>2624.9</ele>
                <name>Position 188</name>
            </trkpt>
            <trkpt lat="46.390462" lon="7.567717">
                <ele>2638.5</ele>
                <name>Position 189</name>
            </trkpt>
            <trkpt lat="46.389907" lon="7.567621">
                <ele>2687.1</ele>
                <name>Position 190</name>
            </trkpt>
            <trkpt lat="46.389256" lon="7.568565">
                <ele>2736.2</ele>
                <name>Position 191</name>
            </trkpt>
            <trkpt lat="46.388368" lon="7.571011">
                <ele>2808.1</ele>
                <name>Position 192</name>
            </trkpt>
            <trkpt lat="46.387628" lon="7.573715">
                <ele>2839.2</ele>
                <name>Position 193</name>
            </trkpt>
            <trkpt lat="46.386621" lon="7.576032">
                <ele>2899.6</ele>
                <name>Position 194</name>
            </trkpt>
            <trkpt lat="46.385733" lon="7.576633">
                <ele>3017.0</ele>
                <name>Position 195</name>
            </trkpt>
            <trkpt lat="46.384934" lon="7.576333">
                <ele>3053.7</ele>
                <name>Position 196</name>
            </trkpt>
            <trkpt lat="46.384934" lon="7.577363">
                <ele>3067.4</ele>
                <name>Position 197</name>
            </trkpt>
            <trkpt lat="46.384814" lon="7.578231">
                <ele>3054.8</ele>
                <name>Position 198</name>
            </trkpt>
            <trkpt lat="46.38437" lon="7.579165">
                <ele>3066.7</ele>
                <name>Position 199</name>
            </trkpt>
            <trkpt lat="46.38422" lon="7.579962">
                <ele>3076.8</ele>
                <name>Position 200</name>
            </trkpt>
            <trkpt lat="46.38422" lon="7.579962">
                <ele>3076.8</ele>
                <name>Position 201</name>
            </trkpt>
            <trkpt lat="46.38437" lon="7.579165">
                <ele>3066.7</ele>
                <name>Position 202</name>
            </trkpt>
            <trkpt lat="46.384814" lon="7.578231">
                <ele>3054.8</ele>
                <name>Position 203</name>
            </trkpt>
            <trkpt lat="46.384934" lon="7.577363">
                <ele>3067.4</ele>
                <name>Position 204</name>
            </trkpt>
            <trkpt lat="46.384934" lon="7.576333">
                <ele>3053.7</ele>
                <name>Position 205</name>
            </trkpt>
            <trkpt lat="46.385733" lon="7.576633">
                <ele>3017.0</ele>
                <name>Position 206</name>
            </trkpt>
            <trkpt lat="46.386621" lon="7.576032">
                <ele>2899.6</ele>
                <name>Position 207</name>
            </trkpt>
            <trkpt lat="46.387628" lon="7.573715">
                <ele>2839.2</ele>
                <name>Position 208</name>
            </trkpt>
            <trkpt lat="46.388368" lon="7.571011">
                <ele>2808.1</ele>
                <name>Position 209</name>
            </trkpt>
            <trkpt lat="46.389256" lon="7.568565">
                <ele>2736.2</ele>
                <name>Position 210</name>
            </trkpt>
            <trkpt lat="46.389907" lon="7.567621">
                <ele>2687.1</ele>
                <name>Position 211</name>
            </trkpt>
            <trkpt lat="46.390462" lon="7.567717">
                <ele>2638.5</ele>
                <name>Position 212</name>
            </trkpt>
            <trkpt lat="46.390351" lon="7.568876">
                <ele>2624.9</ele>
                <name>Position 213</name>
            </trkpt>
            <trkpt lat="46.390632" lon="7.569606">
                <ele>2604.6</ele>
                <name>Position 214</name>
            </trkpt>
            <trkpt lat="46.390973" lon="7.570228">
                <ele>2588.0</ele>
                <name>Position 215</name>
            </trkpt>
            <trkpt lat="46.391195" lon="7.570228">
                <ele>2576.6</ele>
                <name>Position 216</name>
            </trkpt>
            <trkpt lat="46.391787" lon="7.570958">
                <ele>2559.3</ele>
                <name>Position 217</name>
            </trkpt>
            <trkpt lat="46.391986" lon="7.5707">
                <ele>2545.6</ele>
                <name>Position 218</name>
            </trkpt>
            <trkpt lat="46.392534" lon="7.571065">
                <ele>2528.3</ele>
                <name>Position 219</name>
            </trkpt>
            <trkpt lat="46.392645" lon="7.570904">
                <ele>2519.9</ele>
                <name>Position 220</name>
            </trkpt>
            <trkpt lat="46.392623" lon="7.570593">
                <ele>2514.8</ele>
                <name>Position 221</name>
            </trkpt>
            <trkpt lat="46.3928" lon="7.570679">
                <ele>2509.1</ele>
                <name>Position 222</name>
            </trkpt>
            <trkpt lat="46.392919" lon="7.569509">
                <ele>2487.5</ele>
                <name>Position 223</name>
            </trkpt>
            <trkpt lat="46.393045" lon="7.569305">
                <ele>2481.0</ele>
                <name>Position 224</name>
            </trkpt>
            <trkpt lat="46.394599" lon="7.567836">
                <ele>2450.1</ele>
                <name>Position 225</name>
            </trkpt>
            <trkpt lat="46.394628" lon="7.567406">
                <ele>2448.9</ele>
                <name>Position 226</name>
            </trkpt>
            <trkpt lat="46.395346" lon="7.566237">
                <ele>2449.0</ele>
                <name>Position 227</name>
            </trkpt>
            <trkpt lat="46.395612" lon="7.564907">
                <ele>2455.7</ele>
                <name>Position 228</name>
            </trkpt>
            <trkpt lat="46.396515" lon="7.563458">
                <ele>2472.4</ele>
                <name>Position 229</name>
            </trkpt>
            <trkpt lat="46.397011" lon="7.562761">
                <ele>2485.1</ele>
                <name>Position 230</name>
            </trkpt>
            <trkpt lat="46.397477" lon="7.562321">
                <ele>2488.8</ele>
                <name>Position 231</name>
            </trkpt>
            <trkpt lat="46.397684" lon="7.562557">
                <ele>2488.8</ele>
                <name>Position 232</name>
            </trkpt>
            <trkpt lat="46.397943" lon="7.563018">
                <ele>2495.0</ele>
                <name>Position 233</name>
            </trkpt>
            <trkpt lat="46.397915" lon="7.563224">
                <ele>2493.9</ele>
                <name>Position 234</name>
            </trkpt>
            <trkpt lat="46.397891" lon="7.563576">
                <ele>2494.1</ele>
                <name>Position 235</name>
            </trkpt>
            <trkpt lat="46.397613" lon="7.564829">
                <ele>2479.4</ele>
                <name>Position 236</name>
            </trkpt>
            <trkpt lat="46.397666" lon="7.565232">
                <ele>2483.3</ele>
                <name>Position 237</name>
            </trkpt>
            <trkpt lat="46.398069" lon="7.566159">
                <ele>2509.7</ele>
                <name>Position 238</name>
            </trkpt>
            <trkpt lat="46.398222" lon="7.567061">
                <ele>2504.6</ele>
                <name>Position 239</name>
            </trkpt>
            <trkpt lat="46.399081" lon="7.56894">
                <ele>2513.4</ele>
                <name>Position 240</name>
            </trkpt>
            <trkpt lat="46.399418" lon="7.570022">
                <ele>2507.4</ele>
                <name>Position 241</name>
            </trkpt>
            <trkpt lat="46.399477" lon="7.570417">
                <ele>2506.1</ele>
                <name>Position 242</name>
            </trkpt>
            <trkpt lat="46.399832" lon="7.570923">
                <ele>2511.7</ele>
                <name>Position 243</name>
            </trkpt>
            <trkpt lat="46.40004" lon="7.57167">
                <ele>2509.4</ele>
                <name>Position 244</name>
            </trkpt>
            <trkpt lat="46.4003" lon="7.571962">
                <ele>2511.9</ele>
                <name>Position 245</name>
            </trkpt>
            <trkpt lat="46.400324" lon="7.572382">
                <ele>2506.9</ele>
                <name>Position 246</name>
            </trkpt>
            <trkpt lat="46.400253" lon="7.57276">
                <ele>2503.5</ele>
                <name>Position 247</name>
            </trkpt>
            <trkpt lat="46.400282" lon="7.573155">
                <ele>2502.0</ele>
                <name>Position 248</name>
            </trkpt>
            <trkpt lat="46.400069" lon="7.573464">
                <ele>2500.7</ele>
                <name>Position 249</name>
            </trkpt>
            <trkpt lat="46.400028" lon="7.573901">
                <ele>2500.6</ele>
                <name>Position 250</name>
            </trkpt>
            <trkpt lat="46.400105" lon="7.574167">
                <ele>2500.7</ele>
                <name>Position 251</name>
            </trkpt>
            <trkpt lat="46.400211" lon="7.574279">
                <ele>2499.6</ele>
                <name>Position 252</name>
            </trkpt>
            <trkpt lat="46.400191" lon="7.574522">
                <ele>2496.3</ele>
                <name>Position 253</name>
            </trkpt>
            <trkpt lat="46.400294" lon="7.574636">
                <ele>2495.4</ele>
                <name>Position 254</name>
            </trkpt>
            <trkpt lat="46.400586" lon="7.574549">
                <ele>2498.0</ele>
                <name>Position 255</name>
            </trkpt>
            <trkpt lat="46.401047" lon="7.574763">
                <ele>2498.7</ele>
                <name>Position 256</name>
            </trkpt>
            <trkpt lat="46.401622" lon="7.574892">
                <ele>2499.4</ele>
                <name>Position 257</name>
            </trkpt>
            <trkpt lat="46.401539" lon="7.575025">
                <ele>2497.2</ele>
                <name>Position 258</name>
            </trkpt>
            <trkpt lat="46.401564" lon="7.575087">
                <ele>2497.6</ele>
                <name>Position 259</name>
            </trkpt>
            <trkpt lat="46.401506" lon="7.575086">
                <ele>2497.1</ele>
                <name>Position 260</name>
            </trkpt>
            <trkpt lat="46.401511" lon="7.575135">
                <ele>2497.2</ele>
                <name>Position 261</name>
            </trkpt>
            <trkpt lat="46.401467" lon="7.575129">
                <ele>2496.7</ele>
                <name>Position 262</name>
            </trkpt>
            <trkpt lat="46.40149" lon="7.575175">
                <ele>2496.9</ele>
                <name>Position 263</name>
            </trkpt>
            <trkpt lat="46.401431" lon="7.575149">
                <ele>2496.2</ele>
                <name>Position 264</name>
            </trkpt>
            <trkpt lat="46.401441" lon="7.575265">
                <ele>2495.8</ele>
                <name>Position 265</name>
            </trkpt>
            <trkpt lat="46.401386" lon="7.575221">
                <ele>2495.0</ele>
                <name>Position 266</name>
            </trkpt>
            <trkpt lat="46.401414" lon="7.575305">
                <ele>2495.0</ele>
                <name>Position 267</name>
            </trkpt>
            <trkpt lat="46.401345" lon="7.57527">
                <ele>2493.8</ele>
                <name>Position 268</name>
            </trkpt>
            <trkpt lat="46.401231" lon="7.575512">
                <ele>2486.9</ele>
                <name>Position 269</name>
            </trkpt>
            <trkpt lat="46.40106" lon="7.575635">
                <ele>2476.8</ele>
                <name>Position 270</name>
            </trkpt>
            <trkpt lat="46.400609" lon="7.575909">
                <ele>2452.1</ele>
                <name>Position 271</name>
            </trkpt>
            <trkpt lat="46.400449" lon="7.57618">
                <ele>2440.2</ele>
                <name>Position 272</name>
            </trkpt>
            <trkpt lat="46.400317" lon="7.576265">
                <ele>2432.5</ele>
                <name>Position 273</name>
            </trkpt>
            <trkpt lat="46.400139" lon="7.576276">
                <ele>2425.3</ele>
                <name>Position 274</name>
            </trkpt>
            <trkpt lat="46.400017" lon="7.576228">
                <ele>2423.3</ele>
                <name>Position 275</name>
            </trkpt>
            <trkpt lat="46.400154" lon="7.576494">
                <ele>2415.6</ele>
                <name>Position 276</name>
            </trkpt>
            <trkpt lat="46.39981" lon="7.576265">
                <ele>2410.4</ele>
                <name>Position 277</name>
            </trkpt>
            <trkpt lat="46.399566" lon="7.576046">
                <ele>2405.4</ele>
                <name>Position 278</name>
            </trkpt>
            <trkpt lat="46.399373" lon="7.575936">
                <ele>2396.4</ele>
                <name>Position 279</name>
            </trkpt>
            <trkpt lat="46.399272" lon="7.576153">
                <ele>2384.2</ele>
                <name>Position 280</name>
            </trkpt>
            <trkpt lat="46.399165" lon="7.575972">
                <ele>2381.6</ele>
                <name>Position 281</name>
            </trkpt>
            <trkpt lat="46.39907" lon="7.576108">
                <ele>2374.3</ele>
                <name>Position 282</name>
            </trkpt>
            <trkpt lat="46.399114" lon="7.576376">
                <ele>2371.0</ele>
                <name>Position 283</name>
            </trkpt>
            <trkpt lat="46.399255" lon="7.576426">
                <ele>2376.6</ele>
                <name>Position 284</name>
            </trkpt>
            <trkpt lat="46.399229" lon="7.576579">
                <ele>2371.8</ele>
                <name>Position 285</name>
            </trkpt>
            <trkpt lat="46.399061" lon="7.576794">
                <ele>2357.9</ele>
                <name>Position 286</name>
            </trkpt>
            <trkpt lat="46.398924" lon="7.576719">
                <ele>2354.7</ele>
                <name>Position 287</name>
            </trkpt>
            <trkpt lat="46.399101" lon="7.57732">
                <ele>2339.3</ele>
                <name>Position 288</name>
            </trkpt>
            <trkpt lat="46.39884" lon="7.577175">
                <ele>2337.4</ele>
                <name>Position 289</name>
            </trkpt>
            <trkpt lat="46.39839" lon="7.57672">
                <ele>2331.3</ele>
                <name>Position 290</name>
            </trkpt>
            <trkpt lat="46.398395" lon="7.577151">
                <ele>2324.9</ele>
                <name>Position 291</name>
            </trkpt>
            <trkpt lat="46.398419" lon="7.577418">
                <ele>2321.4</ele>
                <name>Position 292</name>
            </trkpt>
            <trkpt lat="46.398189" lon="7.576909">
                <ele>2323.7</ele>
                <name>Position 293</name>
            </trkpt>
            <trkpt lat="46.398119" lon="7.576885">
                <ele>2322.7</ele>
                <name>Position 294</name>
            </trkpt>
            <trkpt lat="46.398019" lon="7.577317">
                <ele>2317.1</ele>
                <name>Position 295</name>
            </trkpt>
            <trkpt lat="46.397845" lon="7.577641">
                <ele>2312.9</ele>
                <name>Position 296</name>
            </trkpt>
            <trkpt lat="46.397727" lon="7.578239">
                <ele>2308.6</ele>
                <name>Position 297</name>
            </trkpt>
            <trkpt lat="46.397607" lon="7.578507">
                <ele>2307.3</ele>
                <name>Position 298</name>
            </trkpt>
            <trkpt lat="46.39734" lon="7.578853">
                <ele>2305.9</ele>
                <name>Position 299</name>
            </trkpt>
            <trkpt lat="46.396943" lon="7.579431">
                <ele>2303.4</ele>
                <name>Position 300</name>
            </trkpt>
            <trkpt lat="46.396818" lon="7.579576">
                <ele>2302.8</ele>
                <name>Position 301</name>
            </trkpt>
            <trkpt lat="46.396557" lon="7.579765">
                <ele>2302.6</ele>
                <name>Position 302</name>
            </trkpt>
            <trkpt lat="46.396474" lon="7.579747">
                <ele>2303.0</ele>
                <name>Position 303</name>
            </trkpt>
            <trkpt lat="46.395871" lon="7.58303">
                <ele>2300.8</ele>
                <name>Position 304</name>
            </trkpt>
            <trkpt lat="46.39554" lon="7.583894">
                <ele>2302.6</ele>
                <name>Position 305</name>
            </trkpt>
            <trkpt lat="46.395425" lon="7.584981">
                <ele>2302.5</ele>
                <name>Position 306</name>
            </trkpt>
            <trkpt lat="46.395294" lon="7.586017">
                <ele>2299.4</ele>
                <name>Position 307</name>
            </trkpt>
            <trkpt lat="46.395185" lon="7.587437">
                <ele>2296.7</ele>
                <name>Position 308</name>
            </trkpt>
            <trkpt lat="46.395155" lon="7.588615">
                <ele>2296.2</ele>
                <name>Position 309</name>
            </trkpt>
            <trkpt lat="46.39538" lon="7.589148">
                <ele>2295.8</ele>
                <name>Position 310</name>
            </trkpt>
            <trkpt lat="46.395511" lon="7.589604">
                <ele>2295.1</ele>
                <name>Position 311</name>
            </trkpt>
            <trkpt lat="46.395666" lon="7.592844">
                <ele>2291.0</ele>
                <name>Position 312</name>
            </trkpt>
            <trkpt lat="46.396095" lon="7.595322">
                <ele>2289.0</ele>
                <name>Position 313</name>
            </trkpt>
            <trkpt lat="46.396284" lon="7.596579">
                <ele>2290.4</ele>
                <name>Position 314</name>
            </trkpt>
            <trkpt lat="46.396284" lon="7.596579">
                <ele>2290.4</ele>
                <name>Position 315</name>
            </trkpt>
            <trkpt lat="46.396473" lon="7.597833">
                <ele>2289.9</ele>
                <name>Position 316</name>
            </trkpt>
            <trkpt lat="46.396402" lon="7.598179">
                <ele>2291.7</ele>
                <name>Position 317</name>
            </trkpt>
            <trkpt lat="46.39635" lon="7.598715">
                <ele>2293.9</ele>
                <name>Position 318</name>
            </trkpt>
            <trkpt lat="46.396431" lon="7.599155">
                <ele>2293.1</ele>
                <name>Position 319</name>
            </trkpt>
            <trkpt lat="46.396402" lon="7.600057">
                <ele>2296.3</ele>
                <name>Position 320</name>
            </trkpt>
            <trkpt lat="46.396523" lon="7.600237">
                <ele>2292.8</ele>
                <name>Position 321</name>
            </trkpt>
            <trkpt lat="46.396535" lon="7.600379">
                <ele>2292.7</ele>
                <name>Position 322</name>
            </trkpt>
            <trkpt lat="46.396614" lon="7.600639">
                <ele>2290.3</ele>
                <name>Position 323</name>
            </trkpt>
            <trkpt lat="46.396657" lon="7.600728">
                <ele>2288.8</ele>
                <name>Position 324</name>
            </trkpt>
            <trkpt lat="46.396633" lon="7.600863">
                <ele>2290.0</ele>
                <name>Position 325</name>
            </trkpt>
            <trkpt lat="46.396642" lon="7.601119">
                <ele>2290.6</ele>
                <name>Position 326</name>
            </trkpt>
            <trkpt lat="46.396802" lon="7.601559">
                <ele>2290.2</ele>
                <name>Position 327</name>
            </trkpt>
            <trkpt lat="46.396886" lon="7.602065">
                <ele>2289.6</ele>
                <name>Position 328</name>
            </trkpt>
            <trkpt lat="46.396864" lon="7.60224">
                <ele>2289.6</ele>
                <name>Position 329</name>
            </trkpt>
            <trkpt lat="46.396877" lon="7.602553">
                <ele>2289.1</ele>
                <name>Position 330</name>
            </trkpt>
            <trkpt lat="46.396824" lon="7.602729">
                <ele>2288.9</ele>
                <name>Position 331</name>
            </trkpt>
            <trkpt lat="46.396799" lon="7.602913">
                <ele>2288.5</ele>
                <name>Position 332</name>
            </trkpt>
            <trkpt lat="46.396717" lon="7.603163">
                <ele>2288.0</ele>
                <name>Position 333</name>
            </trkpt>
            <trkpt lat="46.396642" lon="7.603495">
                <ele>2287.8</ele>
                <name>Position 334</name>
            </trkpt>
            <trkpt lat="46.396662" lon="7.603839">
                <ele>2285.3</ele>
                <name>Position 335</name>
            </trkpt>
            <trkpt lat="46.396644" lon="7.604078">
                <ele>2284.9</ele>
                <name>Position 336</name>
            </trkpt>
            <trkpt lat="46.396587" lon="7.604262">
                <ele>2286.4</ele>
                <name>Position 337</name>
            </trkpt>
            <trkpt lat="46.396498" lon="7.604423">
                <ele>2289.2</ele>
                <name>Position 338</name>
            </trkpt>
            <trkpt lat="46.396416" lon="7.604805">
                <ele>2290.1</ele>
                <name>Position 339</name>
            </trkpt>
            <trkpt lat="46.396372" lon="7.605185">
                <ele>2288.9</ele>
                <name>Position 340</name>
            </trkpt>
            <trkpt lat="46.396301" lon="7.605389">
                <ele>2289.1</ele>
                <name>Position 341</name>
            </trkpt>
            <trkpt lat="46.396289" lon="7.605532">
                <ele>2288.1</ele>
                <name>Position 342</name>
            </trkpt>
            <trkpt lat="46.396439" lon="7.606054">
                <ele>2280.6</ele>
                <name>Position 343</name>
            </trkpt>
            <trkpt lat="46.396439" lon="7.606279">
                <ele>2279.0</ele>
                <name>Position 344</name>
            </trkpt>
            <trkpt lat="46.396328" lon="7.606526">
                <ele>2279.2</ele>
                <name>Position 345</name>
            </trkpt>
            <trkpt lat="46.396387" lon="7.606752">
                <ele>2277.1</ele>
                <name>Position 346</name>
            </trkpt>
            <trkpt lat="46.396439" lon="7.607374">
                <ele>2275.4</ele>
                <name>Position 347</name>
            </trkpt>
            <trkpt lat="46.396419" lon="7.608493">
                <ele>2279.1</ele>
                <name>Position 348</name>
            </trkpt>
            <trkpt lat="46.396463" lon="7.608823">
                <ele>2279.1</ele>
                <name>Position 349</name>
            </trkpt>
            <trkpt lat="46.396428" lon="7.609064">
                <ele>2280.0</ele>
                <name>Position 350</name>
            </trkpt>
            <trkpt lat="46.396471" lon="7.609151">
                <ele>2279.5</ele>
                <name>Position 351</name>
            </trkpt>
            <trkpt lat="46.39649" lon="7.609859">
                <ele>2279.5</ele>
                <name>Position 352</name>
            </trkpt>
            <trkpt lat="46.396384" lon="7.61044">
                <ele>2280.5</ele>
                <name>Position 353</name>
            </trkpt>
            <trkpt lat="46.396291" lon="7.610811">
                <ele>2281.2</ele>
                <name>Position 354</name>
            </trkpt>
            <trkpt lat="46.396359" lon="7.610951">
                <ele>2279.7</ele>
                <name>Position 355</name>
            </trkpt>
            <trkpt lat="46.396259" lon="7.611152">
                <ele>2280.4</ele>
                <name>Position 356</name>
            </trkpt>
            <trkpt lat="46.396256" lon="7.61136">
                <ele>2279.5</ele>
                <name>Position 357</name>
            </trkpt>
            <trkpt lat="46.396301" lon="7.611448">
                <ele>2279.3</ele>
                <name>Position 358</name>
            </trkpt>
            <trkpt lat="46.396378" lon="7.611393">
                <ele>2279.6</ele>
                <name>Position 359</name>
            </trkpt>
            <trkpt lat="46.396525" lon="7.611366">
                <ele>2279.7</ele>
                <name>Position 360</name>
            </trkpt>
            <trkpt lat="46.396548" lon="7.61139">
                <ele>2279.9</ele>
                <name>Position 361</name>
            </trkpt>
            <trkpt lat="46.396555" lon="7.611435">
                <ele>2280.3</ele>
                <name>Position 362</name>
            </trkpt>
            <trkpt lat="46.396537" lon="7.611497">
                <ele>2280.6</ele>
                <name>Position 363</name>
            </trkpt>
            <trkpt lat="46.396544" lon="7.611543">
                <ele>2281.0</ele>
                <name>Position 364</name>
            </trkpt>
            <trkpt lat="46.396674" lon="7.611527">
                <ele>2281.9</ele>
                <name>Position 365</name>
            </trkpt>
            <trkpt lat="46.396694" lon="7.611552">
                <ele>2282.6</ele>
                <name>Position 366</name>
            </trkpt>
            <trkpt lat="46.396694" lon="7.611591">
                <ele>2283.1</ele>
                <name>Position 367</name>
            </trkpt>
            <trkpt lat="46.39665" lon="7.61173">
                <ele>2283.4</ele>
                <name>Position 368</name>
            </trkpt>
            <trkpt lat="46.396542" lon="7.611974">
                <ele>2280.2</ele>
                <name>Position 369</name>
            </trkpt>
            <trkpt lat="46.396537" lon="7.612091">
                <ele>2279.4</ele>
                <name>Position 370</name>
            </trkpt>
            <trkpt lat="46.396566" lon="7.612121">
                <ele>2280.4</ele>
                <name>Position 371</name>
            </trkpt>
            <trkpt lat="46.396742" lon="7.612174">
                <ele>2286.1</ele>
                <name>Position 372</name>
            </trkpt>
            <trkpt lat="46.396827" lon="7.612162">
                <ele>2287.6</ele>
                <name>Position 373</name>
            </trkpt>
            <trkpt lat="46.396881" lon="7.61218">
                <ele>2288.6</ele>
                <name>Position 374</name>
            </trkpt>
            <trkpt lat="46.397015" lon="7.612286">
                <ele>2291.3</ele>
                <name>Position 375</name>
            </trkpt>
            <trkpt lat="46.397168" lon="7.612498">
                <ele>2294.5</ele>
                <name>Position 376</name>
            </trkpt>
            <trkpt lat="46.397328" lon="7.612915">
                <ele>2298.6</ele>
                <name>Position 377</name>
            </trkpt>
            <trkpt lat="46.397406" lon="7.613056">
                <ele>2301.5</ele>
                <name>Position 378</name>
            </trkpt>
            <trkpt lat="46.397482" lon="7.613148">
                <ele>2304.6</ele>
                <name>Position 379</name>
            </trkpt>
            <trkpt lat="46.3976" lon="7.613407">
                <ele>2308.3</ele>
                <name>Position 380</name>
            </trkpt>
            <trkpt lat="46.397614" lon="7.613678">
                <ele>2311.9</ele>
                <name>Position 381</name>
            </trkpt>
            <trkpt lat="46.397708" lon="7.613932">
                <ele>2315.8</ele>
                <name>Position 382</name>
            </trkpt>
            <trkpt lat="46.397644" lon="7.613949">
                <ele>2315.6</ele>
                <name>Position 383</name>
            </trkpt>
            <trkpt lat="46.397642" lon="7.614055">
                <ele>2316.9</ele>
                <name>Position 384</name>
            </trkpt>
            <trkpt lat="46.397672" lon="7.614169">
                <ele>2318.5</ele>
                <name>Position 385</name>
            </trkpt>
            <trkpt lat="46.39773" lon="7.614221">
                <ele>2318.9</ele>
                <name>Position 386</name>
            </trkpt>
            <trkpt lat="46.397778" lon="7.614331">
                <ele>2319.3</ele>
                <name>Position 387</name>
            </trkpt>
            <trkpt lat="46.397778" lon="7.614393">
                <ele>2319.3</ele>
                <name>Position 388</name>
            </trkpt>
            <trkpt lat="46.397657" lon="7.614531">
                <ele>2318.2</ele>
                <name>Position 389</name>
            </trkpt>
            <trkpt lat="46.397653" lon="7.61458">
                <ele>2318.2</ele>
                <name>Position 390</name>
            </trkpt>
            <trkpt lat="46.397671" lon="7.614641">
                <ele>2318.3</ele>
                <name>Position 391</name>
            </trkpt>
            <trkpt lat="46.397663" lon="7.614876">
                <ele>2318.1</ele>
                <name>Position 392</name>
            </trkpt>
            <trkpt lat="46.397683" lon="7.614961">
                <ele>2318.4</ele>
                <name>Position 393</name>
            </trkpt>
            <trkpt lat="46.397787" lon="7.615049">
                <ele>2319.5</ele>
                <name>Position 394</name>
            </trkpt>
            <trkpt lat="46.397819" lon="7.615371">
                <ele>2317.1</ele>
                <name>Position 395</name>
            </trkpt>
            <trkpt lat="46.397905" lon="7.615592">
                <ele>2318.4</ele>
                <name>Position 396</name>
            </trkpt>
            <trkpt lat="46.397843" lon="7.615685">
                <ele>2315.2</ele>
                <name>Position 397</name>
            </trkpt>
            <trkpt lat="46.398013" lon="7.616242">
                <ele>2313.3</ele>
                <name>Position 398</name>
            </trkpt>
        </trkseg>
    </trk>
</gpx>
