<?xml version="1.0" encoding="UTF-8" standalone="yes"?>
<gpx xmlns:gpxtpx1="http://www.garmin.com/xmlschemas/TrackPointExtension/v1" xmlns="http://www.topografix.com/GPX/1/1" xmlns:trp="http://www.garmin.com/xmlschemas/TripExtensions/v1" xmlns:gpxx="http://www.garmin.com/xmlschemas/GpxExtensions/v3" xmlns:gpxtpx="http://www.garmin.com/xmlschemas/TrackPointExtension/v2" version="1.1" creator="RouteConverter 2.27.2">
    <metadata>
        <name>2023-07-17 08:44</name>
        <link href="https://www.oruxmaps.com">
            <text>OruxMaps</text>
        </link>
        <time>2023-07-17T06:44:12Z</time>
        <bounds minlat="45.6990720" minlon="11.1370193" maxlat="45.7189725" maxlon="11.1545749"/>
    </metadata>
    <trk>
        <name>2023-07-17 08:44</name>
        <desc>&lt;p&gt;Startzeit: 08:44 17.07.2023&lt;br/&gt;Zielzeit: 15:36 17.07.2023&lt;br/&gt;Strecke: 8,
4 km (06:52)&lt;br/&gt;Bewegungszeit: 03:40&lt;br/&gt;Ø-Geschwindigkeit: 1,
22 km/h&lt;br/&gt;Netto-Geschwindigkeit: 2,
29 km/h&lt;br/&gt;Max. Geschwindigkeit: 7,
59 km/h&lt;br/&gt;Minimale Höhe: 1251 m&lt;br/&gt;Maximale Höhe: 2012 m&lt;br/&gt;Steig-Geschw.: 186,
7 m/h&lt;br/&gt;Sink-Geschw.: -501,
1 m/h&lt;br/&gt;Aufstieg: 933 m&lt;br/&gt;Abstieg: -940 m&lt;br/&gt;Steigzeit: 05:00&lt;br/&gt;Sinkzeit: 01:52&lt;br/&gt;&lt;/p&gt;&lt;hr align="center" width="480" style="height: 2px; width: 517px"/&gt;</desc>
        <type>Berg/ Bergsteigen</type>
        <extensions>
            <om:oruxmapsextensions xmlns:om="http://www.oruxmaps.com/oruxmapsextensions/1/0" xmlns:gpxtpx="http://www.garmin.com/xmlschemas/TrackPointExtension/v1" xmlns:xsi="http://www.w3.org/2001/XMLSchema-instance">
                <om:ext subtype="0" type="TYPE">7</om:ext>
                <om:ext type="DIFFICULTY">0</om:ext>
</om:oruxmapsextensions>
        </extensions>
        <trkseg>
            <trkpt lat="45.6992608" lon="11.1508575">
                <ele>1263.4</ele>
                <time>2023-07-17T06:44:16.000Z</time>
                <name>Position 1</name>
            </trkpt>
            <trkpt lat="45.6994563" lon="11.1506536">
                <ele>1254.9</ele>
                <time>2023-07-17T06:46:26.000Z</time>
                <name>Position 2</name>
            </trkpt>
            <trkpt lat="45.6996422" lon="11.1506461">
                <ele>1254.9</ele>
                <time>2023-07-17T06:46:50.000Z</time>
                <name>Position 3</name>
            </trkpt>
            <trkpt lat="45.6997784" lon="11.1504637">
                <ele>1257.9</ele>
                <time>2023-07-17T06:47:08.000Z</time>
                <name>Position 4</name>
            </trkpt>
            <trkpt lat="45.6998731" lon="11.1502296">
                <ele>1260.0</ele>
                <time>2023-07-17T06:47:30.000Z</time>
                <name>Position 5</name>
            </trkpt>
            <trkpt lat="45.700058" lon="11.1501386">
                <ele>1261.1</ele>
                <time>2023-07-17T06:47:56.000Z</time>
                <name>Position 6</name>
            </trkpt>
            <trkpt lat="45.700247" lon="11.1500479">
                <ele>1262.2</ele>
                <time>2023-07-17T06:48:20.000Z</time>
                <name>Position 7</name>
            </trkpt>
            <trkpt lat="45.7004238" lon="11.1499867">
                <ele>1264.5</ele>
                <time>2023-07-17T06:48:44.000Z</time>
                <name>Position 8</name>
            </trkpt>
            <trkpt lat="45.7005927" lon="11.149878">
                <ele>1266.5</ele>
                <time>2023-07-17T06:49:33.000Z</time>
                <name>Position 9</name>
            </trkpt>
            <trkpt lat="45.7007813" lon="11.1498508">
                <ele>1266.8</ele>
                <time>2023-07-17T06:49:57.000Z</time>
                <name>Position 10</name>
            </trkpt>
            <trkpt lat="45.7009623" lon="11.1498799">
                <ele>1268.8</ele>
                <time>2023-07-17T06:50:17.000Z</time>
                <name>Position 11</name>
            </trkpt>
            <trkpt lat="45.7011484" lon="11.1499144">
                <ele>1271.1</ele>
                <time>2023-07-17T06:50:39.000Z</time>
                <name>Position 12</name>
            </trkpt>
            <trkpt lat="45.7013347" lon="11.1499289">
                <ele>1271.9</ele>
                <time>2023-07-17T06:51:01.000Z</time>
                <name>Position 13</name>
            </trkpt>
            <trkpt lat="45.7015223" lon="11.1499379">
                <ele>1273.4</ele>
                <time>2023-07-17T06:51:23.000Z</time>
                <name>Position 14</name>
            </trkpt>
            <trkpt lat="45.7016945" lon="11.1500351">
                <ele>1274.8</ele>
                <time>2023-07-17T06:51:49.000Z</time>
                <name>Position 15</name>
            </trkpt>
            <trkpt lat="45.7018833" lon="11.1500635">
                <ele>1277.3</ele>
                <time>2023-07-17T06:52:13.000Z</time>
                <name>Position 16</name>
            </trkpt>
            <trkpt lat="45.7020773" lon="11.1500698">
                <ele>1282.3</ele>
                <time>2023-07-17T06:52:41.000Z</time>
                <name>Position 17</name>
            </trkpt>
            <trkpt lat="45.7022594" lon="11.150014">
                <ele>1281.6</ele>
                <time>2023-07-17T06:53:15.000Z</time>
                <name>Position 18</name>
            </trkpt>
            <trkpt lat="45.7024422" lon="11.1499624">
                <ele>1283.1</ele>
                <time>2023-07-17T06:53:35.000Z</time>
                <name>Position 19</name>
            </trkpt>
            <trkpt lat="45.7026262" lon="11.1499332">
                <ele>1284.1</ele>
                <time>2023-07-17T06:53:57.000Z</time>
                <name>Position 20</name>
            </trkpt>
            <trkpt lat="45.7028366" lon="11.1499896">
                <ele>1287.1</ele>
                <time>2023-07-17T06:54:19.000Z</time>
                <name>Position 21</name>
            </trkpt>
            <trkpt lat="45.7030206" lon="11.1499958">
                <ele>1287.6</ele>
                <time>2023-07-17T06:54:37.000Z</time>
                <name>Position 22</name>
            </trkpt>
            <trkpt lat="45.703194" lon="11.1500842">
                <ele>1288.7</ele>
                <time>2023-07-17T06:54:57.000Z</time>
                <name>Position 23</name>
            </trkpt>
            <trkpt lat="45.7033624" lon="11.1501841">
                <ele>1290.1</ele>
                <time>2023-07-17T06:55:15.000Z</time>
                <name>Position 24</name>
            </trkpt>
            <trkpt lat="45.703538" lon="11.1502903">
                <ele>1291.8</ele>
                <time>2023-07-17T06:55:43.000Z</time>
                <name>Position 25</name>
            </trkpt>
            <trkpt lat="45.7037346" lon="11.1504075">
                <ele>1292.7</ele>
                <time>2023-07-17T06:55:57.000Z</time>
                <name>Position 26</name>
            </trkpt>
            <trkpt lat="45.7039158" lon="11.1503623">
                <ele>1294.1</ele>
                <time>2023-07-17T06:56:11.000Z</time>
                <name>Position 27</name>
            </trkpt>
            <trkpt lat="45.7040963" lon="11.1504597">
                <ele>1295.9</ele>
                <time>2023-07-17T06:56:31.000Z</time>
                <name>Position 28</name>
            </trkpt>
            <trkpt lat="45.7042779" lon="11.1504174">
                <ele>1293.9</ele>
                <time>2023-07-17T06:56:59.000Z</time>
                <name>Position 29</name>
            </trkpt>
            <trkpt lat="45.7044335" lon="11.1505675">
                <ele>1305.6</ele>
                <time>2023-07-17T06:57:29.000Z</time>
                <name>Position 30</name>
            </trkpt>
            <trkpt lat="45.7046214" lon="11.1506298">
                <ele>1306.7</ele>
                <time>2023-07-17T06:57:55.000Z</time>
                <name>Position 31</name>
            </trkpt>
            <trkpt lat="45.7048011" lon="11.150603">
                <ele>1308.3</ele>
                <time>2023-07-17T06:58:17.000Z</time>
                <name>Position 32</name>
            </trkpt>
            <trkpt lat="45.7049836" lon="11.1505086">
                <ele>1312.3</ele>
                <time>2023-07-17T06:58:38.000Z</time>
                <name>Position 33</name>
            </trkpt>
            <trkpt lat="45.7051604" lon="11.1504327">
                <ele>1311.5</ele>
                <time>2023-07-17T06:58:58.000Z</time>
                <name>Position 34</name>
            </trkpt>
            <trkpt lat="45.7053545" lon="11.1504144">
                <ele>1313.3</ele>
                <time>2023-07-17T06:59:24.000Z</time>
                <name>Position 35</name>
            </trkpt>
            <trkpt lat="45.7055342" lon="11.1504956">
                <ele>1311.1</ele>
                <time>2023-07-17T06:59:48.000Z</time>
                <name>Position 36</name>
            </trkpt>
            <trkpt lat="45.7057144" lon="11.1504966">
                <ele>1312.2</ele>
                <time>2023-07-17T07:00:04.000Z</time>
                <name>Position 37</name>
            </trkpt>
            <trkpt lat="45.7059057" lon="11.1504868">
                <ele>1313.7</ele>
                <time>2023-07-17T07:00:24.000Z</time>
                <name>Position 38</name>
            </trkpt>
            <trkpt lat="45.7060884" lon="11.150405">
                <ele>1313.4</ele>
                <time>2023-07-17T07:00:46.000Z</time>
                <name>Position 39</name>
            </trkpt>
            <trkpt lat="45.7062643" lon="11.1503205">
                <ele>1317.1</ele>
                <time>2023-07-17T07:01:08.000Z</time>
                <name>Position 40</name>
            </trkpt>
            <trkpt lat="45.7064261" lon="11.1501842">
                <ele>1311.1</ele>
                <time>2023-07-17T07:01:28.000Z</time>
                <name>Position 41</name>
            </trkpt>
            <trkpt lat="45.7065538" lon="11.1499974">
                <ele>1317.6</ele>
                <time>2023-07-17T07:01:58.000Z</time>
                <name>Position 42</name>
            </trkpt>
            <trkpt lat="45.7066967" lon="11.1498087">
                <ele>1319.8</ele>
                <time>2023-07-17T07:02:14.000Z</time>
                <name>Position 43</name>
            </trkpt>
            <trkpt lat="45.7067222" lon="11.1495336">
                <ele>1318.6</ele>
                <time>2023-07-17T07:02:38.000Z</time>
                <name>Position 44</name>
            </trkpt>
            <trkpt lat="45.7066578" lon="11.1492799">
                <ele>1315.1</ele>
                <time>2023-07-17T07:03:12.000Z</time>
                <name>Position 45</name>
            </trkpt>
            <trkpt lat="45.7067656" lon="11.1490618">
                <ele>1318.7</ele>
                <time>2023-07-17T07:03:34.000Z</time>
                <name>Position 46</name>
            </trkpt>
            <trkpt lat="45.7068708" lon="11.1488401">
                <ele>1325.6</ele>
                <time>2023-07-17T07:04:16.000Z</time>
                <name>Position 47</name>
            </trkpt>
            <trkpt lat="45.7070001" lon="11.1486551">
                <ele>1329.3</ele>
                <time>2023-07-17T07:04:38.000Z</time>
                <name>Position 48</name>
            </trkpt>
            <trkpt lat="45.7071594" lon="11.1485158">
                <ele>1329.8</ele>
                <time>2023-07-17T07:04:58.000Z</time>
                <name>Position 49</name>
            </trkpt>
            <trkpt lat="45.7073455" lon="11.148484">
                <ele>1329.3</ele>
                <time>2023-07-17T07:05:28.000Z</time>
                <name>Position 50</name>
            </trkpt>
            <trkpt lat="45.7075366" lon="11.1484427">
                <ele>1326.5</ele>
                <time>2023-07-17T07:05:46.000Z</time>
                <name>Position 51</name>
            </trkpt>
            <trkpt lat="45.7077283" lon="11.1485124">
                <ele>1325.8</ele>
                <time>2023-07-17T07:06:08.000Z</time>
                <name>Position 52</name>
            </trkpt>
            <trkpt lat="45.7079242" lon="11.1485366">
                <ele>1322.1</ele>
                <time>2023-07-17T07:06:30.000Z</time>
                <name>Position 53</name>
            </trkpt>
            <trkpt lat="45.7081001" lon="11.148452">
                <ele>1320.9</ele>
                <time>2023-07-17T07:06:46.000Z</time>
                <name>Position 54</name>
            </trkpt>
            <trkpt lat="45.7082817" lon="11.1485018">
                <ele>1321.2</ele>
                <time>2023-07-17T07:07:26.000Z</time>
                <name>Position 55</name>
            </trkpt>
            <trkpt lat="45.7084498" lon="11.1486182">
                <ele>1321.8</ele>
                <time>2023-07-17T07:07:44.000Z</time>
                <name>Position 56</name>
            </trkpt>
            <trkpt lat="45.7086193" lon="11.1487308">
                <ele>1324.8</ele>
                <time>2023-07-17T07:08:12.000Z</time>
                <name>Position 57</name>
            </trkpt>
            <trkpt lat="45.7087132" lon="11.1489844">
                <ele>1324.0</ele>
                <time>2023-07-17T07:08:41.000Z</time>
                <name>Position 58</name>
            </trkpt>
            <trkpt lat="45.708836" lon="11.1491852">
                <ele>1321.8</ele>
                <time>2023-07-17T07:09:01.000Z</time>
                <name>Position 59</name>
            </trkpt>
            <trkpt lat="45.7089113" lon="11.1494224">
                <ele>1326.1</ele>
                <time>2023-07-17T07:09:31.000Z</time>
                <name>Position 60</name>
            </trkpt>
            <trkpt lat="45.7090691" lon="11.1495596">
                <ele>1333.7</ele>
                <time>2023-07-17T07:10:47.000Z</time>
                <name>Position 61</name>
            </trkpt>
            <trkpt lat="45.7090127" lon="11.1498311">
                <ele>1338.4</ele>
                <time>2023-07-17T07:11:23.000Z</time>
                <name>Position 62</name>
            </trkpt>
            <trkpt lat="45.7090406" lon="11.1500921">
                <ele>1339.2</ele>
                <time>2023-07-17T07:11:49.000Z</time>
                <name>Position 63</name>
            </trkpt>
            <trkpt lat="45.7091191" lon="11.1503273">
                <ele>1342.7</ele>
                <time>2023-07-17T07:12:27.000Z</time>
                <name>Position 64</name>
            </trkpt>
            <trkpt lat="45.7092998" lon="11.1503128">
                <ele>1350.4</ele>
                <time>2023-07-17T07:13:29.000Z</time>
                <name>Position 65</name>
            </trkpt>
            <trkpt lat="45.7094502" lon="11.1504683">
                <ele>1357.7</ele>
                <time>2023-07-17T07:14:41.000Z</time>
                <name>Position 66</name>
            </trkpt>
            <trkpt lat="45.7096558" lon="11.1506043">
                <ele>1358.6</ele>
                <time>2023-07-17T07:14:49.000Z</time>
                <name>Position 67</name>
            </trkpt>
            <trkpt lat="45.7098432" lon="11.150657">
                <ele>1359.8</ele>
                <time>2023-07-17T07:15:03.000Z</time>
                <name>Position 68</name>
            </trkpt>
            <trkpt lat="45.7100169" lon="11.1507725">
                <ele>1359.5</ele>
                <time>2023-07-17T07:15:31.000Z</time>
                <name>Position 69</name>
            </trkpt>
            <trkpt lat="45.7102077" lon="11.1507742">
                <ele>1356.7</ele>
                <time>2023-07-17T07:15:51.000Z</time>
                <name>Position 70</name>
            </trkpt>
            <trkpt lat="45.7103934" lon="11.1507437">
                <ele>1352.6</ele>
                <time>2023-07-17T07:16:21.000Z</time>
                <name>Position 71</name>
            </trkpt>
            <trkpt lat="45.7105661" lon="11.1508331">
                <ele>1349.9</ele>
                <time>2023-07-17T07:16:53.000Z</time>
                <name>Position 72</name>
            </trkpt>
            <trkpt lat="45.7107432" lon="11.1508952">
                <ele>1350.2</ele>
                <time>2023-07-17T07:17:13.000Z</time>
                <name>Position 73</name>
            </trkpt>
            <trkpt lat="45.7109006" lon="11.1510391">
                <ele>1354.9</ele>
                <time>2023-07-17T07:18:01.000Z</time>
                <name>Position 74</name>
            </trkpt>
            <trkpt lat="45.7109715" lon="11.1512768">
                <ele>1361.3</ele>
                <time>2023-07-17T07:18:54.000Z</time>
                <name>Position 75</name>
            </trkpt>
            <trkpt lat="45.7111622" lon="11.1512432">
                <ele>1367.5</ele>
                <time>2023-07-17T07:20:06.000Z</time>
                <name>Position 76</name>
            </trkpt>
            <trkpt lat="45.7111639" lon="11.1509743">
                <ele>1372.2</ele>
                <time>2023-07-17T07:23:52.000Z</time>
                <name>Position 77</name>
            </trkpt>
            <trkpt lat="45.7113089" lon="11.150812">
                <ele>1379.0</ele>
                <time>2023-07-17T07:25:04.000Z</time>
                <name>Position 78</name>
            </trkpt>
            <trkpt lat="45.7114728" lon="11.1506965">
                <ele>1394.9</ele>
                <time>2023-07-17T07:27:08.000Z</time>
                <name>Position 79</name>
            </trkpt>
            <trkpt lat="45.7116783" lon="11.1506878">
                <ele>1404.3</ele>
                <time>2023-07-17T07:28:55.000Z</time>
                <name>Position 80</name>
            </trkpt>
            <trkpt lat="45.7117299" lon="11.1509351">
                <ele>1426.4</ele>
                <time>2023-07-17T07:35:23.000Z</time>
                <name>Position 81</name>
            </trkpt>
            <trkpt lat="45.7119079" lon="11.1508533">
                <ele>1432.5</ele>
                <time>2023-07-17T07:40:30.000Z</time>
                <name>Position 82</name>
            </trkpt>
            <trkpt lat="45.7119881" lon="11.1510915">
                <ele>1448.5</ele>
                <time>2023-07-17T07:43:12.000Z</time>
                <name>Position 83</name>
            </trkpt>
            <trkpt lat="45.7120216" lon="11.1513521">
                <ele>1454.5</ele>
                <time>2023-07-17T07:43:52.000Z</time>
                <name>Position 84</name>
            </trkpt>
            <trkpt lat="45.7121569" lon="11.1515234">
                <ele>1460.1</ele>
                <time>2023-07-17T07:44:44.000Z</time>
                <name>Position 85</name>
            </trkpt>
            <trkpt lat="45.7123414" lon="11.1514412">
                <ele>1463.7</ele>
                <time>2023-07-17T07:45:28.000Z</time>
                <name>Position 86</name>
            </trkpt>
            <trkpt lat="45.7125317" lon="11.1514638">
                <ele>1470.3</ele>
                <time>2023-07-17T07:46:12.000Z</time>
                <name>Position 87</name>
            </trkpt>
            <trkpt lat="45.7127117" lon="11.1514983">
                <ele>1481.9</ele>
                <time>2023-07-17T07:47:47.000Z</time>
                <name>Position 88</name>
            </trkpt>
            <trkpt lat="45.7128519" lon="11.1516636">
                <ele>1492.8</ele>
                <time>2023-07-17T07:49:05.000Z</time>
                <name>Position 89</name>
            </trkpt>
            <trkpt lat="45.7129977" lon="11.151817">
                <ele>1500.9</ele>
                <time>2023-07-17T07:50:05.000Z</time>
                <name>Position 90</name>
            </trkpt>
            <trkpt lat="45.713178" lon="11.1517573">
                <ele>1508.1</ele>
                <time>2023-07-17T07:51:05.000Z</time>
                <name>Position 91</name>
            </trkpt>
            <trkpt lat="45.7133638" lon="11.1518208">
                <ele>1507.3</ele>
                <time>2023-07-17T07:51:57.000Z</time>
                <name>Position 92</name>
            </trkpt>
            <trkpt lat="45.713533" lon="11.1519541">
                <ele>1509.6</ele>
                <time>2023-07-17T07:55:41.000Z</time>
                <name>Position 93</name>
            </trkpt>
            <trkpt lat="45.7134851" lon="11.1522082">
                <ele>1519.5</ele>
                <time>2023-07-17T07:57:00.000Z</time>
                <name>Position 94</name>
            </trkpt>
            <trkpt lat="45.7135421" lon="11.1524578">
                <ele>1523.3</ele>
                <time>2023-07-17T07:57:30.000Z</time>
                <name>Position 95</name>
            </trkpt>
            <trkpt lat="45.7136745" lon="11.1526606">
                <ele>1527.3</ele>
                <time>2023-07-17T07:59:16.000Z</time>
                <name>Position 96</name>
            </trkpt>
            <trkpt lat="45.7138724" lon="11.1527281">
                <ele>1530.2</ele>
                <time>2023-07-17T07:59:42.000Z</time>
                <name>Position 97</name>
            </trkpt>
            <trkpt lat="45.7140061" lon="11.1529319">
                <ele>1531.3</ele>
                <time>2023-07-17T08:00:18.000Z</time>
                <name>Position 98</name>
            </trkpt>
            <trkpt lat="45.7141969" lon="11.1529685">
                <ele>1532.3</ele>
                <time>2023-07-17T08:00:58.000Z</time>
                <name>Position 99</name>
            </trkpt>
            <trkpt lat="45.7140592" lon="11.1529194">
                <ele>1516.1</ele>
                <time>2023-07-17T08:05:36.000Z</time>
                <name>Position 100</name>
            </trkpt>
            <trkpt lat="45.7140474" lon="11.1531766">
                <ele>1508.5</ele>
                <time>2023-07-17T08:07:07.000Z</time>
                <name>Position 101</name>
            </trkpt>
            <trkpt lat="45.7137935" lon="11.1529885">
                <ele>1498.8</ele>
                <time>2023-07-17T08:10:46.000Z</time>
                <name>Position 102</name>
            </trkpt>
            <trkpt lat="45.7136766" lon="11.1531957">
                <ele>1492.4</ele>
                <time>2023-07-17T08:13:49.000Z</time>
                <name>Position 103</name>
            </trkpt>
            <trkpt lat="45.7135216" lon="11.1533427">
                <ele>1496.4</ele>
                <time>2023-07-17T08:14:17.000Z</time>
                <name>Position 104</name>
            </trkpt>
            <trkpt lat="45.7134662" lon="11.1535923">
                <ele>1499.3</ele>
                <time>2023-07-17T08:14:45.000Z</time>
                <name>Position 105</name>
            </trkpt>
            <trkpt lat="45.7134959" lon="11.1538632">
                <ele>1504.4</ele>
                <time>2023-07-17T08:22:14.000Z</time>
                <name>Position 106</name>
            </trkpt>
            <trkpt lat="45.7135497" lon="11.1541103">
                <ele>1504.6</ele>
                <time>2023-07-17T08:22:58.000Z</time>
                <name>Position 107</name>
            </trkpt>
            <trkpt lat="45.7137064" lon="11.1539804">
                <ele>1518.2</ele>
                <time>2023-07-17T08:27:35.000Z</time>
                <name>Position 108</name>
            </trkpt>
            <trkpt lat="45.7138597" lon="11.1541165">
                <ele>1540.6</ele>
                <time>2023-07-17T08:37:14.000Z</time>
                <name>Position 109</name>
            </trkpt>
            <trkpt lat="45.7140361" lon="11.1541781">
                <ele>1565.5</ele>
                <time>2023-07-17T08:45:53.000Z</time>
                <name>Position 110</name>
            </trkpt>
            <trkpt lat="45.7142107" lon="11.1541056">
                <ele>1606.3</ele>
                <time>2023-07-17T08:59:16.000Z</time>
                <name>Position 111</name>
            </trkpt>
            <trkpt lat="45.7143863" lon="11.1540349">
                <ele>1594.5</ele>
                <time>2023-07-17T09:01:22.000Z</time>
                <name>Position 112</name>
            </trkpt>
            <trkpt lat="45.7145673" lon="11.1540163">
                <ele>1595.9</ele>
                <time>2023-07-17T09:02:52.000Z</time>
                <name>Position 113</name>
            </trkpt>
            <trkpt lat="45.7147443" lon="11.1540796">
                <ele>1598.0</ele>
                <time>2023-07-17T09:03:48.000Z</time>
                <name>Position 114</name>
            </trkpt>
            <trkpt lat="45.7149305" lon="11.1541065">
                <ele>1600.7</ele>
                <time>2023-07-17T09:05:17.000Z</time>
                <name>Position 115</name>
            </trkpt>
            <trkpt lat="45.7151005" lon="11.1542157">
                <ele>1602.6</ele>
                <time>2023-07-17T09:06:53.000Z</time>
                <name>Position 116</name>
            </trkpt>
            <trkpt lat="45.7152595" lon="11.1540768">
                <ele>1603.6</ele>
                <time>2023-07-17T09:08:17.000Z</time>
                <name>Position 117</name>
            </trkpt>
            <trkpt lat="45.7153516" lon="11.1543136">
                <ele>1606.5</ele>
                <time>2023-07-17T09:10:41.000Z</time>
                <name>Position 118</name>
            </trkpt>
            <trkpt lat="45.7155397" lon="11.1542583">
                <ele>1613.6</ele>
                <time>2023-07-17T09:16:56.000Z</time>
                <name>Position 119</name>
            </trkpt>
            <trkpt lat="45.7157181" lon="11.1541752">
                <ele>1626.9</ele>
                <time>2023-07-17T09:19:54.000Z</time>
                <name>Position 120</name>
            </trkpt>
            <trkpt lat="45.7158937" lon="11.1542488">
                <ele>1649.9</ele>
                <time>2023-07-17T09:30:16.000Z</time>
                <name>Position 121</name>
            </trkpt>
            <trkpt lat="45.7160785" lon="11.1542635">
                <ele>1667.5</ele>
                <time>2023-07-17T09:33:52.000Z</time>
                <name>Position 122</name>
            </trkpt>
            <trkpt lat="45.7162542" lon="11.1541998">
                <ele>1689.6</ele>
                <time>2023-07-17T09:40:09.000Z</time>
                <name>Position 123</name>
            </trkpt>
            <trkpt lat="45.7164277" lon="11.1541008">
                <ele>1697.9</ele>
                <time>2023-07-17T09:41:57.000Z</time>
                <name>Position 124</name>
            </trkpt>
            <trkpt lat="45.7166112" lon="11.1541525">
                <ele>1718.4</ele>
                <time>2023-07-17T09:47:44.000Z</time>
                <name>Position 125</name>
            </trkpt>
            <trkpt lat="45.716794" lon="11.1541421">
                <ele>1734.7</ele>
                <time>2023-07-17T09:50:34.000Z</time>
                <name>Position 126</name>
            </trkpt>
            <trkpt lat="45.7168815" lon="11.1543703">
                <ele>1742.7</ele>
                <time>2023-07-17T09:51:48.000Z</time>
                <name>Position 127</name>
            </trkpt>
            <trkpt lat="45.7170072" lon="11.1545682">
                <ele>1749.5</ele>
                <time>2023-07-17T09:52:46.000Z</time>
                <name>Position 128</name>
            </trkpt>
            <trkpt lat="45.7170298" lon="11.1543041">
                <ele>1754.9</ele>
                <time>2023-07-17T09:54:03.000Z</time>
                <name>Position 129</name>
            </trkpt>
            <trkpt lat="45.7171226" lon="11.1540761">
                <ele>1763.2</ele>
                <time>2023-07-17T09:55:17.000Z</time>
                <name>Position 130</name>
            </trkpt>
            <trkpt lat="45.7170909" lon="11.1540936">
                <ele>1778.4</ele>
                <time>2023-07-17T10:02:21.000Z</time>
                <name>Position 131</name>
            </trkpt>
            <trkpt lat="45.7172656" lon="11.1540181">
                <ele>1777.2</ele>
                <time>2023-07-17T10:02:37.000Z</time>
                <name>Position 132</name>
            </trkpt>
            <trkpt lat="45.7174482" lon="11.153988">
                <ele>1779.0</ele>
                <time>2023-07-17T10:02:57.000Z</time>
                <name>Position 133</name>
            </trkpt>
            <trkpt lat="45.7176112" lon="11.1540993">
                <ele>1782.3</ele>
                <time>2023-07-17T10:03:52.000Z</time>
                <name>Position 134</name>
            </trkpt>
            <trkpt lat="45.717709" lon="11.1543183">
                <ele>1783.8</ele>
                <time>2023-07-17T10:05:24.000Z</time>
                <name>Position 135</name>
            </trkpt>
            <trkpt lat="45.7178234" lon="11.154167">
                <ele>1786.9</ele>
                <time>2023-07-17T10:17:53.000Z</time>
                <name>Position 136</name>
            </trkpt>
            <trkpt lat="45.7179952" lon="11.1542473">
                <ele>1784.2</ele>
                <time>2023-07-17T10:18:17.000Z</time>
                <name>Position 137</name>
            </trkpt>
            <trkpt lat="45.7181748" lon="11.1543331">
                <ele>1786.1</ele>
                <time>2023-07-17T10:18:51.000Z</time>
                <name>Position 138</name>
            </trkpt>
            <trkpt lat="45.718358" lon="11.154359">
                <ele>1786.6</ele>
                <time>2023-07-17T10:19:27.000Z</time>
                <name>Position 139</name>
            </trkpt>
            <trkpt lat="45.718542" lon="11.154323">
                <ele>1802.7</ele>
                <time>2023-07-17T10:23:27.000Z</time>
                <name>Position 140</name>
            </trkpt>
            <trkpt lat="45.7186651" lon="11.1541218">
                <ele>1808.7</ele>
                <time>2023-07-17T10:24:39.000Z</time>
                <name>Position 141</name>
            </trkpt>
            <trkpt lat="45.7187891" lon="11.1539289">
                <ele>1828.9</ele>
                <time>2023-07-17T10:28:11.000Z</time>
                <name>Position 142</name>
            </trkpt>
            <trkpt lat="45.7189297" lon="11.1540969">
                <ele>1815.4</ele>
                <time>2023-07-17T10:35:15.000Z</time>
                <name>Position 143</name>
            </trkpt>
            <trkpt lat="45.7189725" lon="11.1538439">
                <ele>1806.2</ele>
                <time>2023-07-17T10:36:29.000Z</time>
                <name>Position 144</name>
            </trkpt>
            <trkpt lat="45.7188781" lon="11.1536155">
                <ele>1802.2</ele>
                <time>2023-07-17T10:36:51.000Z</time>
                <name>Position 145</name>
            </trkpt>
            <trkpt lat="45.7187582" lon="11.1534206">
                <ele>1799.1</ele>
                <time>2023-07-17T10:37:15.000Z</time>
                <name>Position 146</name>
            </trkpt>
            <trkpt lat="45.7186014" lon="11.1532719">
                <ele>1801.0</ele>
                <time>2023-07-17T10:42:07.000Z</time>
                <name>Position 147</name>
            </trkpt>
            <trkpt lat="45.7184256" lon="11.1532017">
                <ele>1817.7</ele>
                <time>2023-07-17T10:44:36.000Z</time>
                <name>Position 148</name>
            </trkpt>
            <trkpt lat="45.7183016" lon="11.1533922">
                <ele>1833.6</ele>
                <time>2023-07-17T10:46:18.000Z</time>
                <name>Position 149</name>
            </trkpt>
            <trkpt lat="45.7181336" lon="11.1532873">
                <ele>1857.1</ele>
                <time>2023-07-17T10:49:26.000Z</time>
                <name>Position 150</name>
            </trkpt>
            <trkpt lat="45.7179955" lon="11.153116">
                <ele>1862.7</ele>
                <time>2023-07-17T10:50:08.000Z</time>
                <name>Position 151</name>
            </trkpt>
            <trkpt lat="45.7179069" lon="11.1528721">
                <ele>1866.3</ele>
                <time>2023-07-17T10:50:32.000Z</time>
                <name>Position 152</name>
            </trkpt>
            <trkpt lat="45.7177255" lon="11.1529331">
                <ele>1871.1</ele>
                <time>2023-07-17T10:52:04.000Z</time>
                <name>Position 153</name>
            </trkpt>
            <trkpt lat="45.7178123" lon="11.1527004">
                <ele>1877.8</ele>
                <time>2023-07-17T10:53:11.000Z</time>
                <name>Position 154</name>
            </trkpt>
            <trkpt lat="45.7177054" lon="11.1524779">
                <ele>1888.0</ele>
                <time>2023-07-17T10:54:13.000Z</time>
                <name>Position 155</name>
            </trkpt>
            <trkpt lat="45.7176834" lon="11.1522204">
                <ele>1901.8</ele>
                <time>2023-07-17T10:56:05.000Z</time>
                <name>Position 156</name>
            </trkpt>
            <trkpt lat="45.7176613" lon="11.1519605">
                <ele>1909.2</ele>
                <time>2023-07-17T10:57:11.000Z</time>
                <name>Position 157</name>
            </trkpt>
            <trkpt lat="45.7178017" lon="11.1517911">
                <ele>1923.1</ele>
                <time>2023-07-17T10:58:33.000Z</time>
                <name>Position 158</name>
            </trkpt>
            <trkpt lat="45.7178999" lon="11.1515697">
                <ele>1930.9</ele>
                <time>2023-07-17T11:04:58.000Z</time>
                <name>Position 159</name>
            </trkpt>
            <trkpt lat="45.7178634" lon="11.1513073">
                <ele>1924.0</ele>
                <time>2023-07-17T11:05:26.000Z</time>
                <name>Position 160</name>
            </trkpt>
            <trkpt lat="45.7178277" lon="11.1510384">
                <ele>1913.5</ele>
                <time>2023-07-17T11:06:02.000Z</time>
                <name>Position 161</name>
            </trkpt>
            <trkpt lat="45.717761" lon="11.1507835">
                <ele>1904.7</ele>
                <time>2023-07-17T11:06:36.000Z</time>
                <name>Position 162</name>
            </trkpt>
            <trkpt lat="45.7177812" lon="11.150522">
                <ele>1898.2</ele>
                <time>2023-07-17T11:08:32.000Z</time>
                <name>Position 163</name>
            </trkpt>
            <trkpt lat="45.7177701" lon="11.1502521">
                <ele>1896.0</ele>
                <time>2023-07-17T11:09:16.000Z</time>
                <name>Position 164</name>
            </trkpt>
            <trkpt lat="45.7176045" lon="11.1501372">
                <ele>1879.3</ele>
                <time>2023-07-17T11:11:16.000Z</time>
                <name>Position 165</name>
            </trkpt>
            <trkpt lat="45.7175485" lon="11.1498686">
                <ele>1875.0</ele>
                <time>2023-07-17T11:11:44.000Z</time>
                <name>Position 166</name>
            </trkpt>
            <trkpt lat="45.7174961" lon="11.1495969">
                <ele>1872.1</ele>
                <time>2023-07-17T11:12:03.000Z</time>
                <name>Position 167</name>
            </trkpt>
            <trkpt lat="45.7173731" lon="11.1493952">
                <ele>1868.6</ele>
                <time>2023-07-17T11:12:19.000Z</time>
                <name>Position 168</name>
            </trkpt>
            <trkpt lat="45.7172165" lon="11.1492615">
                <ele>1869.9</ele>
                <time>2023-07-17T11:12:57.000Z</time>
                <name>Position 169</name>
            </trkpt>
            <trkpt lat="45.7170447" lon="11.1491751">
                <ele>1880.0</ele>
                <time>2023-07-17T11:14:27.000Z</time>
                <name>Position 170</name>
            </trkpt>
            <trkpt lat="45.7169512" lon="11.148926">
                <ele>1883.9</ele>
                <time>2023-07-17T11:14:53.000Z</time>
                <name>Position 171</name>
            </trkpt>
            <trkpt lat="45.7168753" lon="11.1486626">
                <ele>1893.9</ele>
                <time>2023-07-17T11:15:57.000Z</time>
                <name>Position 172</name>
            </trkpt>
            <trkpt lat="45.7167169" lon="11.1485142">
                <ele>1904.0</ele>
                <time>2023-07-17T11:16:59.000Z</time>
                <name>Position 173</name>
            </trkpt>
            <trkpt lat="45.7165511" lon="11.1486177">
                <ele>1916.0</ele>
                <time>2023-07-17T11:18:27.000Z</time>
                <name>Position 174</name>
            </trkpt>
            <trkpt lat="45.7165184" lon="11.1483607">
                <ele>1920.6</ele>
                <time>2023-07-17T11:19:31.000Z</time>
                <name>Position 175</name>
            </trkpt>
            <trkpt lat="45.7165168" lon="11.1480917">
                <ele>1927.9</ele>
                <time>2023-07-17T11:20:37.000Z</time>
                <name>Position 176</name>
            </trkpt>
            <trkpt lat="45.7164743" lon="11.1478278">
                <ele>1930.2</ele>
                <time>2023-07-17T11:21:03.000Z</time>
                <name>Position 177</name>
            </trkpt>
            <trkpt lat="45.716495" lon="11.1475607">
                <ele>1942.8</ele>
                <time>2023-07-17T11:22:22.000Z</time>
                <name>Position 178</name>
            </trkpt>
            <trkpt lat="45.7166735" lon="11.1475152">
                <ele>1957.3</ele>
                <time>2023-07-17T11:23:42.000Z</time>
                <name>Position 179</name>
            </trkpt>
            <trkpt lat="45.7165995" lon="11.1472563">
                <ele>1957.0</ele>
                <time>2023-07-17T11:24:48.000Z</time>
                <name>Position 180</name>
            </trkpt>
            <trkpt lat="45.7167122" lon="11.1470521">
                <ele>1961.4</ele>
                <time>2023-07-17T11:25:56.000Z</time>
                <name>Position 181</name>
            </trkpt>
            <trkpt lat="45.7169077" lon="11.1470043">
                <ele>1983.5</ele>
                <time>2023-07-17T11:29:26.000Z</time>
                <name>Position 182</name>
            </trkpt>
            <trkpt lat="45.7170899" lon="11.1469645">
                <ele>1980.3</ele>
                <time>2023-07-17T11:29:42.000Z</time>
                <name>Position 183</name>
            </trkpt>
            <trkpt lat="45.7171199" lon="11.1466954">
                <ele>1986.5</ele>
                <time>2023-07-17T11:30:06.000Z</time>
                <name>Position 184</name>
            </trkpt>
            <trkpt lat="45.717087" lon="11.1464171">
                <ele>1987.4</ele>
                <time>2023-07-17T11:30:32.000Z</time>
                <name>Position 185</name>
            </trkpt>
            <trkpt lat="45.7170206" lon="11.1461589">
                <ele>1987.8</ele>
                <time>2023-07-17T11:30:48.000Z</time>
                <name>Position 186</name>
            </trkpt>
            <trkpt lat="45.7168807" lon="11.1459863">
                <ele>1989.4</ele>
                <time>2023-07-17T11:31:00.000Z</time>
                <name>Position 187</name>
            </trkpt>
            <trkpt lat="45.7167041" lon="11.1459112">
                <ele>1992.3</ele>
                <time>2023-07-17T11:31:19.000Z</time>
                <name>Position 188</name>
            </trkpt>
            <trkpt lat="45.7165518" lon="11.146052">
                <ele>1998.7</ele>
                <time>2023-07-17T11:32:07.000Z</time>
                <name>Position 189</name>
            </trkpt>
            <trkpt lat="45.7166679" lon="11.145854">
                <ele>2001.1</ele>
                <time>2023-07-17T11:32:57.000Z</time>
                <name>Position 190</name>
            </trkpt>
            <trkpt lat="45.7168403" lon="11.1457681">
                <ele>2005.6</ele>
                <time>2023-07-17T11:33:43.000Z</time>
                <name>Position 191</name>
            </trkpt>
            <trkpt lat="45.717022" lon="11.145746">
                <ele>2008.3</ele>
                <time>2023-07-17T11:34:29.000Z</time>
                <name>Position 192</name>
            </trkpt>
            <trkpt lat="45.7172033" lon="11.1456765">
                <ele>2012.2</ele>
                <time>2023-07-17T11:35:29.000Z</time>
                <name>Position 193</name>
            </trkpt>
            <trkpt lat="45.7171807" lon="11.1459339">
                <ele>2012.1</ele>
                <time>2023-07-17T11:35:47.000Z</time>
                <name>Position 194</name>
            </trkpt>
            <trkpt lat="45.7171023" lon="11.1461672">
                <ele>2012.1</ele>
                <time>2023-07-17T11:39:45.000Z</time>
                <name>Position 195</name>
            </trkpt>
            <trkpt lat="45.7169256" lon="11.1460883">
                <ele>2007.5</ele>
                <time>2023-07-17T11:46:07.000Z</time>
                <name>Position 196</name>
            </trkpt>
            <trkpt lat="45.7167441" lon="11.1460921">
                <ele>2003.4</ele>
                <time>2023-07-17T11:46:39.000Z</time>
                <name>Position 197</name>
            </trkpt>
            <trkpt lat="45.7165558" lon="11.1460768">
                <ele>1999.7</ele>
                <time>2023-07-17T11:47:49.000Z</time>
                <name>Position 198</name>
            </trkpt>
            <trkpt lat="45.7163804" lon="11.146001">
                <ele>1994.0</ele>
                <time>2023-07-17T11:48:17.000Z</time>
                <name>Position 199</name>
            </trkpt>
            <trkpt lat="45.716192" lon="11.1459868">
                <ele>1986.8</ele>
                <time>2023-07-17T11:48:49.000Z</time>
                <name>Position 200</name>
            </trkpt>
            <trkpt lat="45.7160125" lon="11.1458977">
                <ele>1977.7</ele>
                <time>2023-07-17T11:49:35.000Z</time>
                <name>Position 201</name>
            </trkpt>
            <trkpt lat="45.7158949" lon="11.145696">
                <ele>1954.4</ele>
                <time>2023-07-17T11:51:46.000Z</time>
                <name>Position 202</name>
            </trkpt>
            <trkpt lat="45.7159587" lon="11.1454365">
                <ele>1942.2</ele>
                <time>2023-07-17T11:52:34.000Z</time>
                <name>Position 203</name>
            </trkpt>
            <trkpt lat="45.7158082" lon="11.1452856">
                <ele>1931.2</ele>
                <time>2023-07-17T11:53:18.000Z</time>
                <name>Position 204</name>
            </trkpt>
            <trkpt lat="45.7156265" lon="11.1452844">
                <ele>1923.1</ele>
                <time>2023-07-17T11:53:48.000Z</time>
                <name>Position 205</name>
            </trkpt>
            <trkpt lat="45.7154425" lon="11.1451878">
                <ele>1913.9</ele>
                <time>2023-07-17T11:54:32.000Z</time>
                <name>Position 206</name>
            </trkpt>
            <trkpt lat="45.715277" lon="11.1450693">
                <ele>1902.8</ele>
                <time>2023-07-17T11:55:28.000Z</time>
                <name>Position 207</name>
            </trkpt>
            <trkpt lat="45.7152602" lon="11.1447898">
                <ele>1885.0</ele>
                <time>2023-07-17T11:57:02.000Z</time>
                <name>Position 208</name>
            </trkpt>
            <trkpt lat="45.7150637" lon="11.1447096">
                <ele>1878.5</ele>
                <time>2023-07-17T11:57:40.000Z</time>
                <name>Position 209</name>
            </trkpt>
            <trkpt lat="45.714885" lon="11.1447676">
                <ele>1870.7</ele>
                <time>2023-07-17T11:58:26.000Z</time>
                <name>Position 210</name>
            </trkpt>
            <trkpt lat="45.7147028" lon="11.1448643">
                <ele>1867.5</ele>
                <time>2023-07-17T11:58:46.000Z</time>
                <name>Position 211</name>
            </trkpt>
            <trkpt lat="45.7145221" lon="11.1448917">
                <ele>1861.7</ele>
                <time>2023-07-17T11:59:12.000Z</time>
                <name>Position 212</name>
            </trkpt>
            <trkpt lat="45.7143363" lon="11.144878">
                <ele>1854.9</ele>
                <time>2023-07-17T11:59:48.000Z</time>
                <name>Position 213</name>
            </trkpt>
            <trkpt lat="45.7141793" lon="11.144735">
                <ele>1848.4</ele>
                <time>2023-07-17T12:00:25.000Z</time>
                <name>Position 214</name>
            </trkpt>
            <trkpt lat="45.7139896" lon="11.1446722">
                <ele>1845.2</ele>
                <time>2023-07-17T12:00:43.000Z</time>
                <name>Position 215</name>
            </trkpt>
            <trkpt lat="45.713807" lon="11.1445261">
                <ele>1842.8</ele>
                <time>2023-07-17T12:00:59.000Z</time>
                <name>Position 216</name>
            </trkpt>
            <trkpt lat="45.7136404" lon="11.1443697">
                <ele>1840.8</ele>
                <time>2023-07-17T12:01:15.000Z</time>
                <name>Position 217</name>
            </trkpt>
            <trkpt lat="45.7134939" lon="11.1441953">
                <ele>1839.6</ele>
                <time>2023-07-17T12:01:33.000Z</time>
                <name>Position 218</name>
            </trkpt>
            <trkpt lat="45.7133553" lon="11.1439963">
                <ele>1836.9</ele>
                <time>2023-07-17T12:01:53.000Z</time>
                <name>Position 219</name>
            </trkpt>
            <trkpt lat="45.7132547" lon="11.1437781">
                <ele>1833.2</ele>
                <time>2023-07-17T12:02:25.000Z</time>
                <name>Position 220</name>
            </trkpt>
            <trkpt lat="45.7130805" lon="11.1436508">
                <ele>1831.3</ele>
                <time>2023-07-17T12:02:45.000Z</time>
                <name>Position 221</name>
            </trkpt>
            <trkpt lat="45.7128948" lon="11.1436639">
                <ele>1826.1</ele>
                <time>2023-07-17T12:03:13.000Z</time>
                <name>Position 222</name>
            </trkpt>
            <trkpt lat="45.7128419" lon="11.1434094">
                <ele>1802.0</ele>
                <time>2023-07-17T12:04:53.000Z</time>
                <name>Position 223</name>
            </trkpt>
            <trkpt lat="45.7126624" lon="11.1433755">
                <ele>1789.9</ele>
                <time>2023-07-17T12:05:51.000Z</time>
                <name>Position 224</name>
            </trkpt>
            <trkpt lat="45.7126076" lon="11.1431133">
                <ele>1782.3</ele>
                <time>2023-07-17T12:06:19.000Z</time>
                <name>Position 225</name>
            </trkpt>
            <trkpt lat="45.7124307" lon="11.1429866">
                <ele>1776.7</ele>
                <time>2023-07-17T12:06:51.000Z</time>
                <name>Position 226</name>
            </trkpt>
            <trkpt lat="45.7123468" lon="11.1427576">
                <ele>1775.1</ele>
                <time>2023-07-17T12:07:09.000Z</time>
                <name>Position 227</name>
            </trkpt>
            <trkpt lat="45.7122043" lon="11.142567">
                <ele>1772.6</ele>
                <time>2023-07-17T12:07:33.000Z</time>
                <name>Position 228</name>
            </trkpt>
            <trkpt lat="45.712014" lon="11.1425581">
                <ele>1766.7</ele>
                <time>2023-07-17T12:08:01.000Z</time>
                <name>Position 229</name>
            </trkpt>
            <trkpt lat="45.7118637" lon="11.1423946">
                <ele>1761.1</ele>
                <time>2023-07-17T12:08:29.000Z</time>
                <name>Position 230</name>
            </trkpt>
            <trkpt lat="45.7117566" lon="11.1421742">
                <ele>1754.2</ele>
                <time>2023-07-17T12:09:01.000Z</time>
                <name>Position 231</name>
            </trkpt>
            <trkpt lat="45.7116774" lon="11.141937">
                <ele>1752.3</ele>
                <time>2023-07-17T12:09:25.000Z</time>
                <name>Position 232</name>
            </trkpt>
            <trkpt lat="45.7115674" lon="11.1417029">
                <ele>1752.1</ele>
                <time>2023-07-17T12:09:45.000Z</time>
                <name>Position 233</name>
            </trkpt>
            <trkpt lat="45.7113866" lon="11.1416445">
                <ele>1753.6</ele>
                <time>2023-07-17T12:10:02.000Z</time>
                <name>Position 234</name>
            </trkpt>
            <trkpt lat="45.7112148" lon="11.1415107">
                <ele>1753.8</ele>
                <time>2023-07-17T12:10:20.000Z</time>
                <name>Position 235</name>
            </trkpt>
            <trkpt lat="45.711111" lon="11.141294">
                <ele>1752.4</ele>
                <time>2023-07-17T12:10:42.000Z</time>
                <name>Position 236</name>
            </trkpt>
            <trkpt lat="45.7109932" lon="11.1410937">
                <ele>1753.6</ele>
                <time>2023-07-17T12:12:16.000Z</time>
                <name>Position 237</name>
            </trkpt>
            <trkpt lat="45.7108411" lon="11.1409418">
                <ele>1757.1</ele>
                <time>2023-07-17T12:17:05.000Z</time>
                <name>Position 238</name>
            </trkpt>
            <trkpt lat="45.7106628" lon="11.1408591">
                <ele>1755.1</ele>
                <time>2023-07-17T12:17:27.000Z</time>
                <name>Position 239</name>
            </trkpt>
            <trkpt lat="45.7104677" lon="11.1407543">
                <ele>1754.6</ele>
                <time>2023-07-17T12:17:45.000Z</time>
                <name>Position 240</name>
            </trkpt>
            <trkpt lat="45.7103131" lon="11.1406225">
                <ele>1754.6</ele>
                <time>2023-07-17T12:18:05.000Z</time>
                <name>Position 241</name>
            </trkpt>
            <trkpt lat="45.710135" lon="11.1404996">
                <ele>1757.1</ele>
                <time>2023-07-17T12:18:27.000Z</time>
                <name>Position 242</name>
            </trkpt>
            <trkpt lat="45.7099787" lon="11.1403717">
                <ele>1759.1</ele>
                <time>2023-07-17T12:18:47.000Z</time>
                <name>Position 243</name>
            </trkpt>
            <trkpt lat="45.7097924" lon="11.1403495">
                <ele>1763.1</ele>
                <time>2023-07-17T12:19:15.000Z</time>
                <name>Position 244</name>
            </trkpt>
            <trkpt lat="45.709592" lon="11.1403118">
                <ele>1766.4</ele>
                <time>2023-07-17T12:19:35.000Z</time>
                <name>Position 245</name>
            </trkpt>
            <trkpt lat="45.7093984" lon="11.1403229">
                <ele>1769.0</ele>
                <time>2023-07-17T12:19:56.000Z</time>
                <name>Position 246</name>
            </trkpt>
            <trkpt lat="45.709213" lon="11.1402914">
                <ele>1770.3</ele>
                <time>2023-07-17T12:20:18.000Z</time>
                <name>Position 247</name>
            </trkpt>
            <trkpt lat="45.709055" lon="11.1401516">
                <ele>1772.6</ele>
                <time>2023-07-17T12:20:34.000Z</time>
                <name>Position 248</name>
            </trkpt>
            <trkpt lat="45.7088856" lon="11.1400531">
                <ele>1774.0</ele>
                <time>2023-07-17T12:20:48.000Z</time>
                <name>Position 249</name>
            </trkpt>
            <trkpt lat="45.7087312" lon="11.1398743">
                <ele>1773.4</ele>
                <time>2023-07-17T12:21:06.000Z</time>
                <name>Position 250</name>
            </trkpt>
            <trkpt lat="45.7085833" lon="11.1396907">
                <ele>1780.4</ele>
                <time>2023-07-17T12:21:30.000Z</time>
                <name>Position 251</name>
            </trkpt>
            <trkpt lat="45.7083927" lon="11.1395749">
                <ele>1780.3</ele>
                <time>2023-07-17T12:21:50.000Z</time>
                <name>Position 252</name>
            </trkpt>
            <trkpt lat="45.7082183" lon="11.1394543">
                <ele>1783.5</ele>
                <time>2023-07-17T12:22:12.000Z</time>
                <name>Position 253</name>
            </trkpt>
            <trkpt lat="45.7080521" lon="11.1393348">
                <ele>1785.9</ele>
                <time>2023-07-17T12:22:29.000Z</time>
                <name>Position 254</name>
            </trkpt>
            <trkpt lat="45.7079302" lon="11.1391447">
                <ele>1788.0</ele>
                <time>2023-07-17T12:22:47.000Z</time>
                <name>Position 255</name>
            </trkpt>
            <trkpt lat="45.7077547" lon="11.1392172">
                <ele>1792.0</ele>
                <time>2023-07-17T12:23:23.000Z</time>
                <name>Position 256</name>
            </trkpt>
            <trkpt lat="45.707564" lon="11.1392119">
                <ele>1794.4</ele>
                <time>2023-07-17T12:23:43.000Z</time>
                <name>Position 257</name>
            </trkpt>
            <trkpt lat="45.7073692" lon="11.139179">
                <ele>1795.7</ele>
                <time>2023-07-17T12:23:57.000Z</time>
                <name>Position 258</name>
            </trkpt>
            <trkpt lat="45.7071856" lon="11.1391113">
                <ele>1797.1</ele>
                <time>2023-07-17T12:24:09.000Z</time>
                <name>Position 259</name>
            </trkpt>
            <trkpt lat="45.7070012" lon="11.1390391">
                <ele>1798.1</ele>
                <time>2023-07-17T12:24:23.000Z</time>
                <name>Position 260</name>
            </trkpt>
            <trkpt lat="45.7068238" lon="11.1389734">
                <ele>1800.0</ele>
                <time>2023-07-17T12:24:39.000Z</time>
                <name>Position 261</name>
            </trkpt>
            <trkpt lat="45.7066565" lon="11.1388453">
                <ele>1801.6</ele>
                <time>2023-07-17T12:24:55.000Z</time>
                <name>Position 262</name>
            </trkpt>
            <trkpt lat="45.7064614" lon="11.1387895">
                <ele>1803.8</ele>
                <time>2023-07-17T12:25:13.000Z</time>
                <name>Position 263</name>
            </trkpt>
            <trkpt lat="45.7063089" lon="11.1386408">
                <ele>1805.3</ele>
                <time>2023-07-17T12:25:31.000Z</time>
                <name>Position 264</name>
            </trkpt>
            <trkpt lat="45.7062304" lon="11.1383962">
                <ele>1807.4</ele>
                <time>2023-07-17T12:26:13.000Z</time>
                <name>Position 265</name>
            </trkpt>
            <trkpt lat="45.7061868" lon="11.13814">
                <ele>1812.6</ele>
                <time>2023-07-17T12:26:57.000Z</time>
                <name>Position 266</name>
            </trkpt>
            <trkpt lat="45.7060154" lon="11.1380234">
                <ele>1815.1</ele>
                <time>2023-07-17T12:27:21.000Z</time>
                <name>Position 267</name>
            </trkpt>
            <trkpt lat="45.7058288" lon="11.1379484">
                <ele>1818.3</ele>
                <time>2023-07-17T12:27:39.000Z</time>
                <name>Position 268</name>
            </trkpt>
            <trkpt lat="45.7057566" lon="11.1376994">
                <ele>1820.5</ele>
                <time>2023-07-17T12:27:55.000Z</time>
                <name>Position 269</name>
            </trkpt>
            <trkpt lat="45.7056775" lon="11.1374483">
                <ele>1821.3</ele>
                <time>2023-07-17T12:28:15.000Z</time>
                <name>Position 270</name>
            </trkpt>
            <trkpt lat="45.7055059" lon="11.1373297">
                <ele>1822.8</ele>
                <time>2023-07-17T12:28:31.000Z</time>
                <name>Position 271</name>
            </trkpt>
            <trkpt lat="45.7053597" lon="11.1371564">
                <ele>1823.1</ele>
                <time>2023-07-17T12:28:48.000Z</time>
                <name>Position 272</name>
            </trkpt>
            <trkpt lat="45.7051911" lon="11.1370193">
                <ele>1825.2</ele>
                <time>2023-07-17T12:29:06.000Z</time>
                <name>Position 273</name>
            </trkpt>
            <trkpt lat="45.7050118" lon="11.1370696">
                <ele>1828.2</ele>
                <time>2023-07-17T12:29:37.000Z</time>
                <name>Position 274</name>
            </trkpt>
            <trkpt lat="45.7049045" lon="11.1372831">
                <ele>1829.5</ele>
                <time>2023-07-17T12:29:57.000Z</time>
                <name>Position 275</name>
            </trkpt>
            <trkpt lat="45.7047368" lon="11.1374278">
                <ele>1830.5</ele>
                <time>2023-07-17T12:30:13.000Z</time>
                <name>Position 276</name>
            </trkpt>
            <trkpt lat="45.7046256" lon="11.1376578">
                <ele>1831.6</ele>
                <time>2023-07-17T12:30:31.000Z</time>
                <name>Position 277</name>
            </trkpt>
            <trkpt lat="45.7044327" lon="11.1376711">
                <ele>1831.7</ele>
                <time>2023-07-17T12:30:45.000Z</time>
                <name>Position 278</name>
            </trkpt>
            <trkpt lat="45.7042686" lon="11.1374796">
                <ele>1832.0</ele>
                <time>2023-07-17T12:30:57.000Z</time>
                <name>Position 279</name>
            </trkpt>
            <trkpt lat="45.7040793" lon="11.1375133">
                <ele>1833.0</ele>
                <time>2023-07-17T12:31:19.000Z</time>
                <name>Position 280</name>
            </trkpt>
            <trkpt lat="45.7039271" lon="11.1376746">
                <ele>1825.2</ele>
                <time>2023-07-17T12:31:55.000Z</time>
                <name>Position 281</name>
            </trkpt>
            <trkpt lat="45.7038449" lon="11.1379041">
                <ele>1823.4</ele>
                <time>2023-07-17T12:32:19.000Z</time>
                <name>Position 282</name>
            </trkpt>
            <trkpt lat="45.7037287" lon="11.13813">
                <ele>1818.8</ele>
                <time>2023-07-17T12:32:37.000Z</time>
                <name>Position 283</name>
            </trkpt>
            <trkpt lat="45.7037749" lon="11.1383929">
                <ele>1816.3</ele>
                <time>2023-07-17T12:32:55.000Z</time>
                <name>Position 284</name>
            </trkpt>
            <trkpt lat="45.7038022" lon="11.13866">
                <ele>1815.6</ele>
                <time>2023-07-17T12:33:11.000Z</time>
                <name>Position 285</name>
            </trkpt>
            <trkpt lat="45.7039585" lon="11.138805">
                <ele>1818.7</ele>
                <time>2023-07-17T12:33:31.000Z</time>
                <name>Position 286</name>
            </trkpt>
            <trkpt lat="45.7041509" lon="11.1388786">
                <ele>1821.4</ele>
                <time>2023-07-17T12:33:51.000Z</time>
                <name>Position 287</name>
            </trkpt>
            <trkpt lat="45.7043847" lon="11.1388344">
                <ele>1828.2</ele>
                <time>2023-07-17T12:34:17.000Z</time>
                <name>Position 288</name>
            </trkpt>
            <trkpt lat="45.7045134" lon="11.1390165">
                <ele>1832.9</ele>
                <time>2023-07-17T12:34:43.000Z</time>
                <name>Position 289</name>
            </trkpt>
            <trkpt lat="45.7046835" lon="11.1391206">
                <ele>1835.0</ele>
                <time>2023-07-17T12:35:01.000Z</time>
                <name>Position 290</name>
            </trkpt>
            <trkpt lat="45.7048155" lon="11.1393062">
                <ele>1837.9</ele>
                <time>2023-07-17T12:35:21.000Z</time>
                <name>Position 291</name>
            </trkpt>
            <trkpt lat="45.7049664" lon="11.1395044">
                <ele>1841.4</ele>
                <time>2023-07-17T12:35:49.000Z</time>
                <name>Position 292</name>
            </trkpt>
            <trkpt lat="45.7048053" lon="11.1396487">
                <ele>1839.7</ele>
                <time>2023-07-17T12:36:17.000Z</time>
                <name>Position 293</name>
            </trkpt>
            <trkpt lat="45.7047474" lon="11.1398991">
                <ele>1838.1</ele>
                <time>2023-07-17T12:37:05.000Z</time>
                <name>Position 294</name>
            </trkpt>
            <trkpt lat="45.7046304" lon="11.1400996">
                <ele>1829.7</ele>
                <time>2023-07-17T12:37:43.000Z</time>
                <name>Position 295</name>
            </trkpt>
            <trkpt lat="45.7045633" lon="11.1403492">
                <ele>1810.8</ele>
                <time>2023-07-17T12:39:14.000Z</time>
                <name>Position 296</name>
            </trkpt>
            <trkpt lat="45.7044624" lon="11.1405645">
                <ele>1800.5</ele>
                <time>2023-07-17T12:40:10.000Z</time>
                <name>Position 297</name>
            </trkpt>
            <trkpt lat="45.7044032" lon="11.1408146">
                <ele>1788.5</ele>
                <time>2023-07-17T12:41:08.000Z</time>
                <name>Position 298</name>
            </trkpt>
            <trkpt lat="45.7042743" lon="11.1409988">
                <ele>1765.4</ele>
                <time>2023-07-17T12:43:04.000Z</time>
                <name>Position 299</name>
            </trkpt>
            <trkpt lat="45.7042755" lon="11.1412697">
                <ele>1758.1</ele>
                <time>2023-07-17T12:43:54.000Z</time>
                <name>Position 300</name>
            </trkpt>
            <trkpt lat="45.7042966" lon="11.1415401">
                <ele>1736.4</ele>
                <time>2023-07-17T12:46:00.000Z</time>
                <name>Position 301</name>
            </trkpt>
            <trkpt lat="45.7043166" lon="11.1418099">
                <ele>1723.7</ele>
                <time>2023-07-17T12:46:56.000Z</time>
                <name>Position 302</name>
            </trkpt>
            <trkpt lat="45.7043524" lon="11.1420723">
                <ele>1711.6</ele>
                <time>2023-07-17T12:47:52.000Z</time>
                <name>Position 303</name>
            </trkpt>
            <trkpt lat="45.70438" lon="11.1423386">
                <ele>1701.7</ele>
                <time>2023-07-17T12:48:38.000Z</time>
                <name>Position 304</name>
            </trkpt>
            <trkpt lat="45.7043812" lon="11.1425992">
                <ele>1687.0</ele>
                <time>2023-07-17T12:49:41.000Z</time>
                <name>Position 305</name>
            </trkpt>
            <trkpt lat="45.7042271" lon="11.1427518">
                <ele>1674.7</ele>
                <time>2023-07-17T12:50:53.000Z</time>
                <name>Position 306</name>
            </trkpt>
            <trkpt lat="45.7043453" lon="11.1429539">
                <ele>1669.0</ele>
                <time>2023-07-17T12:51:15.000Z</time>
                <name>Position 307</name>
            </trkpt>
            <trkpt lat="45.7044403" lon="11.1431737">
                <ele>1661.4</ele>
                <time>2023-07-17T12:51:59.000Z</time>
                <name>Position 308</name>
            </trkpt>
            <trkpt lat="45.70445" lon="11.1434309">
                <ele>1647.3</ele>
                <time>2023-07-17T12:52:49.000Z</time>
                <name>Position 309</name>
            </trkpt>
            <trkpt lat="45.7044111" lon="11.1436865">
                <ele>1637.9</ele>
                <time>2023-07-17T12:54:58.000Z</time>
                <name>Position 310</name>
            </trkpt>
            <trkpt lat="45.704489" lon="11.1439216">
                <ele>1625.0</ele>
                <time>2023-07-17T12:55:58.000Z</time>
                <name>Position 311</name>
            </trkpt>
            <trkpt lat="45.7045291" lon="11.1441788">
                <ele>1609.6</ele>
                <time>2023-07-17T12:57:16.000Z</time>
                <name>Position 312</name>
            </trkpt>
            <trkpt lat="45.704598" lon="11.1444276">
                <ele>1599.5</ele>
                <time>2023-07-17T12:58:04.000Z</time>
                <name>Position 313</name>
            </trkpt>
            <trkpt lat="45.7046452" lon="11.1446989">
                <ele>1578.1</ele>
                <time>2023-07-17T12:59:41.000Z</time>
                <name>Position 314</name>
            </trkpt>
            <trkpt lat="45.7046126" lon="11.1449556">
                <ele>1568.9</ele>
                <time>2023-07-17T13:00:15.000Z</time>
                <name>Position 315</name>
            </trkpt>
            <trkpt lat="45.7046789" lon="11.1452188">
                <ele>1558.4</ele>
                <time>2023-07-17T13:01:03.000Z</time>
                <name>Position 316</name>
            </trkpt>
            <trkpt lat="45.7047235" lon="11.1454684">
                <ele>1550.7</ele>
                <time>2023-07-17T13:01:43.000Z</time>
                <name>Position 317</name>
            </trkpt>
            <trkpt lat="45.7047841" lon="11.1457206">
                <ele>1533.6</ele>
                <time>2023-07-17T13:03:17.000Z</time>
                <name>Position 318</name>
            </trkpt>
            <trkpt lat="45.7046697" lon="11.1459227">
                <ele>1521.1</ele>
                <time>2023-07-17T13:04:07.000Z</time>
                <name>Position 319</name>
            </trkpt>
            <trkpt lat="45.7047343" lon="11.1461797">
                <ele>1515.3</ele>
                <time>2023-07-17T13:04:39.000Z</time>
                <name>Position 320</name>
            </trkpt>
            <trkpt lat="45.704787" lon="11.1464268">
                <ele>1503.8</ele>
                <time>2023-07-17T13:05:27.000Z</time>
                <name>Position 321</name>
            </trkpt>
            <trkpt lat="45.7047026" lon="11.146683">
                <ele>1490.0</ele>
                <time>2023-07-17T13:06:53.000Z</time>
                <name>Position 322</name>
            </trkpt>
            <trkpt lat="45.70476" lon="11.1469338">
                <ele>1471.8</ele>
                <time>2023-07-17T13:08:07.000Z</time>
                <name>Position 323</name>
            </trkpt>
            <trkpt lat="45.7047254" lon="11.1471919">
                <ele>1459.6</ele>
                <time>2023-07-17T13:09:08.000Z</time>
                <name>Position 324</name>
            </trkpt>
            <trkpt lat="45.7046827" lon="11.1474541">
                <ele>1447.1</ele>
                <time>2023-07-17T13:10:08.000Z</time>
                <name>Position 325</name>
            </trkpt>
            <trkpt lat="45.7046215" lon="11.1477037">
                <ele>1435.5</ele>
                <time>2023-07-17T13:10:50.000Z</time>
                <name>Position 326</name>
            </trkpt>
            <trkpt lat="45.7044225" lon="11.1476939">
                <ele>1424.6</ele>
                <time>2023-07-17T13:11:40.000Z</time>
                <name>Position 327</name>
            </trkpt>
            <trkpt lat="45.7042542" lon="11.1475526">
                <ele>1419.6</ele>
                <time>2023-07-17T13:12:02.000Z</time>
                <name>Position 328</name>
            </trkpt>
            <trkpt lat="45.7040859" lon="11.1474593">
                <ele>1416.9</ele>
                <time>2023-07-17T13:12:22.000Z</time>
                <name>Position 329</name>
            </trkpt>
            <trkpt lat="45.7038935" lon="11.147451">
                <ele>1413.8</ele>
                <time>2023-07-17T13:12:40.000Z</time>
                <name>Position 330</name>
            </trkpt>
            <trkpt lat="45.7037118" lon="11.147472">
                <ele>1410.8</ele>
                <time>2023-07-17T13:13:00.000Z</time>
                <name>Position 331</name>
            </trkpt>
            <trkpt lat="45.7035337" lon="11.1474348">
                <ele>1407.9</ele>
                <time>2023-07-17T13:13:24.000Z</time>
                <name>Position 332</name>
            </trkpt>
            <trkpt lat="45.7033476" lon="11.1473264">
                <ele>1405.3</ele>
                <time>2023-07-17T13:13:44.000Z</time>
                <name>Position 333</name>
            </trkpt>
            <trkpt lat="45.7031643" lon="11.1472533">
                <ele>1402.1</ele>
                <time>2023-07-17T13:14:22.000Z</time>
                <name>Position 334</name>
            </trkpt>
            <trkpt lat="45.702976" lon="11.1472047">
                <ele>1399.5</ele>
                <time>2023-07-17T13:14:42.000Z</time>
                <name>Position 335</name>
            </trkpt>
            <trkpt lat="45.7027923" lon="11.1471735">
                <ele>1395.5</ele>
                <time>2023-07-17T13:15:04.000Z</time>
                <name>Position 336</name>
            </trkpt>
            <trkpt lat="45.7026094" lon="11.1472629">
                <ele>1392.5</ele>
                <time>2023-07-17T13:15:24.000Z</time>
                <name>Position 337</name>
            </trkpt>
            <trkpt lat="45.7027831" lon="11.1473725">
                <ele>1388.7</ele>
                <time>2023-07-17T13:15:44.000Z</time>
                <name>Position 338</name>
            </trkpt>
            <trkpt lat="45.7028771" lon="11.1475968">
                <ele>1383.7</ele>
                <time>2023-07-17T13:16:18.000Z</time>
                <name>Position 339</name>
            </trkpt>
            <trkpt lat="45.7030242" lon="11.1477601">
                <ele>1380.0</ele>
                <time>2023-07-17T13:16:40.000Z</time>
                <name>Position 340</name>
            </trkpt>
            <trkpt lat="45.7031667" lon="11.1479502">
                <ele>1377.3</ele>
                <time>2023-07-17T13:17:00.000Z</time>
                <name>Position 341</name>
            </trkpt>
            <trkpt lat="45.7033296" lon="11.1480982">
                <ele>1373.3</ele>
                <time>2023-07-17T13:17:18.000Z</time>
                <name>Position 342</name>
            </trkpt>
            <trkpt lat="45.7034899" lon="11.1482715">
                <ele>1371.1</ele>
                <time>2023-07-17T13:17:38.000Z</time>
                <name>Position 343</name>
            </trkpt>
            <trkpt lat="45.7036606" lon="11.1483588">
                <ele>1369.0</ele>
                <time>2023-07-17T13:17:55.000Z</time>
                <name>Position 344</name>
            </trkpt>
            <trkpt lat="45.7038251" lon="11.1484824">
                <ele>1366.6</ele>
                <time>2023-07-17T13:18:11.000Z</time>
                <name>Position 345</name>
            </trkpt>
            <trkpt lat="45.7039807" lon="11.1486326">
                <ele>1364.0</ele>
                <time>2023-07-17T13:18:31.000Z</time>
                <name>Position 346</name>
            </trkpt>
            <trkpt lat="45.704131" lon="11.1488003">
                <ele>1362.9</ele>
                <time>2023-07-17T13:18:47.000Z</time>
                <name>Position 347</name>
            </trkpt>
            <trkpt lat="45.7042089" lon="11.1490363">
                <ele>1360.4</ele>
                <time>2023-07-17T13:19:07.000Z</time>
                <name>Position 348</name>
            </trkpt>
            <trkpt lat="45.7042956" lon="11.1492639">
                <ele>1358.0</ele>
                <time>2023-07-17T13:19:23.000Z</time>
                <name>Position 349</name>
            </trkpt>
            <trkpt lat="45.7041719" lon="11.1490689">
                <ele>1351.7</ele>
                <time>2023-07-17T13:20:03.000Z</time>
                <name>Position 350</name>
            </trkpt>
            <trkpt lat="45.7040132" lon="11.148935">
                <ele>1350.1</ele>
                <time>2023-07-17T13:20:21.000Z</time>
                <name>Position 351</name>
            </trkpt>
            <trkpt lat="45.703841" lon="11.1488565">
                <ele>1346.9</ele>
                <time>2023-07-17T13:20:37.000Z</time>
                <name>Position 352</name>
            </trkpt>
            <trkpt lat="45.7036512" lon="11.1488929">
                <ele>1344.5</ele>
                <time>2023-07-17T13:20:55.000Z</time>
                <name>Position 353</name>
            </trkpt>
            <trkpt lat="45.7034665" lon="11.1488918">
                <ele>1341.0</ele>
                <time>2023-07-17T13:21:13.000Z</time>
                <name>Position 354</name>
            </trkpt>
            <trkpt lat="45.7032845" lon="11.1488734">
                <ele>1338.0</ele>
                <time>2023-07-17T13:21:33.000Z</time>
                <name>Position 355</name>
            </trkpt>
            <trkpt lat="45.7030903" lon="11.1488291">
                <ele>1334.6</ele>
                <time>2023-07-17T13:21:51.000Z</time>
                <name>Position 356</name>
            </trkpt>
            <trkpt lat="45.7029014" lon="11.1488245">
                <ele>1331.6</ele>
                <time>2023-07-17T13:22:07.000Z</time>
                <name>Position 357</name>
            </trkpt>
            <trkpt lat="45.7027132" lon="11.1487792">
                <ele>1329.1</ele>
                <time>2023-07-17T13:22:25.000Z</time>
                <name>Position 358</name>
            </trkpt>
            <trkpt lat="45.7027557" lon="11.1490499">
                <ele>1323.0</ele>
                <time>2023-07-17T13:23:13.000Z</time>
                <name>Position 359</name>
            </trkpt>
            <trkpt lat="45.702921" lon="11.1492059">
                <ele>1320.0</ele>
                <time>2023-07-17T13:23:31.000Z</time>
                <name>Position 360</name>
            </trkpt>
            <trkpt lat="45.703071" lon="11.1493583">
                <ele>1317.2</ele>
                <time>2023-07-17T13:23:47.000Z</time>
                <name>Position 361</name>
            </trkpt>
            <trkpt lat="45.7032189" lon="11.1495087">
                <ele>1313.1</ele>
                <time>2023-07-17T13:24:05.000Z</time>
                <name>Position 362</name>
            </trkpt>
            <trkpt lat="45.7033652" lon="11.1496801">
                <ele>1310.2</ele>
                <time>2023-07-17T13:24:21.000Z</time>
                <name>Position 363</name>
            </trkpt>
            <trkpt lat="45.7035058" lon="11.1498557">
                <ele>1307.9</ele>
                <time>2023-07-17T13:24:41.000Z</time>
                <name>Position 364</name>
            </trkpt>
            <trkpt lat="45.7035871" lon="11.1500954">
                <ele>1300.4</ele>
                <time>2023-07-17T13:25:19.000Z</time>
                <name>Position 365</name>
            </trkpt>
            <trkpt lat="45.7037703" lon="11.1502853">
                <ele>1297.0</ele>
                <time>2023-07-17T13:25:39.000Z</time>
                <name>Position 366</name>
            </trkpt>
            <trkpt lat="45.7039458" lon="11.1503776">
                <ele>1294.4</ele>
                <time>2023-07-17T13:25:55.000Z</time>
                <name>Position 367</name>
            </trkpt>
            <trkpt lat="45.7037745" lon="11.1502924">
                <ele>1289.6</ele>
                <time>2023-07-17T13:28:22.000Z</time>
                <name>Position 368</name>
            </trkpt>
            <trkpt lat="45.7035786" lon="11.1501825">
                <ele>1288.8</ele>
                <time>2023-07-17T13:28:40.000Z</time>
                <name>Position 369</name>
            </trkpt>
            <trkpt lat="45.7033972" lon="11.150137">
                <ele>1288.6</ele>
                <time>2023-07-17T13:28:56.000Z</time>
                <name>Position 370</name>
            </trkpt>
            <trkpt lat="45.7032008" lon="11.150068">
                <ele>1286.2</ele>
                <time>2023-07-17T13:29:14.000Z</time>
                <name>Position 371</name>
            </trkpt>
            <trkpt lat="45.7030226" lon="11.1499687">
                <ele>1286.0</ele>
                <time>2023-07-17T13:29:32.000Z</time>
                <name>Position 372</name>
            </trkpt>
            <trkpt lat="45.7028272" lon="11.1499504">
                <ele>1283.8</ele>
                <time>2023-07-17T13:29:50.000Z</time>
                <name>Position 373</name>
            </trkpt>
            <trkpt lat="45.7026288" lon="11.1499027">
                <ele>1281.6</ele>
                <time>2023-07-17T13:30:08.000Z</time>
                <name>Position 374</name>
            </trkpt>
            <trkpt lat="45.7024271" lon="11.1499455">
                <ele>1280.6</ele>
                <time>2023-07-17T13:30:32.000Z</time>
                <name>Position 375</name>
            </trkpt>
            <trkpt lat="45.7022344" lon="11.1499772">
                <ele>1278.3</ele>
                <time>2023-07-17T13:30:48.000Z</time>
                <name>Position 376</name>
            </trkpt>
            <trkpt lat="45.7020406" lon="11.1500276">
                <ele>1276.0</ele>
                <time>2023-07-17T13:31:04.000Z</time>
                <name>Position 377</name>
            </trkpt>
            <trkpt lat="45.701846" lon="11.1500504">
                <ele>1274.4</ele>
                <time>2023-07-17T13:31:24.000Z</time>
                <name>Position 378</name>
            </trkpt>
            <trkpt lat="45.7016589" lon="11.149988">
                <ele>1271.7</ele>
                <time>2023-07-17T13:31:42.000Z</time>
                <name>Position 379</name>
            </trkpt>
            <trkpt lat="45.7014848" lon="11.1499033">
                <ele>1269.8</ele>
                <time>2023-07-17T13:31:58.000Z</time>
                <name>Position 380</name>
            </trkpt>
            <trkpt lat="45.701291" lon="11.1498846">
                <ele>1268.3</ele>
                <time>2023-07-17T13:32:14.000Z</time>
                <name>Position 381</name>
            </trkpt>
            <trkpt lat="45.7011109" lon="11.1498794">
                <ele>1267.0</ele>
                <time>2023-07-17T13:32:30.000Z</time>
                <name>Position 382</name>
            </trkpt>
            <trkpt lat="45.7009235" lon="11.149832">
                <ele>1265.1</ele>
                <time>2023-07-17T13:32:48.000Z</time>
                <name>Position 383</name>
            </trkpt>
            <trkpt lat="45.7007422" lon="11.1498289">
                <ele>1264.3</ele>
                <time>2023-07-17T13:33:04.000Z</time>
                <name>Position 384</name>
            </trkpt>
            <trkpt lat="45.7005601" lon="11.1498619">
                <ele>1262.9</ele>
                <time>2023-07-17T13:33:20.000Z</time>
                <name>Position 385</name>
            </trkpt>
            <trkpt lat="45.7003906" lon="11.1499622">
                <ele>1260.8</ele>
                <time>2023-07-17T13:33:34.000Z</time>
                <name>Position 386</name>
            </trkpt>
            <trkpt lat="45.7002111" lon="11.1500093">
                <ele>1258.8</ele>
                <time>2023-07-17T13:33:52.000Z</time>
                <name>Position 387</name>
            </trkpt>
            <trkpt lat="45.6998634" lon="11.1501806">
                <ele>1256.3</ele>
                <time>2023-07-17T13:34:26.000Z</time>
                <name>Position 388</name>
            </trkpt>
            <trkpt lat="45.6997471" lon="11.1504014">
                <ele>1254.1</ele>
                <time>2023-07-17T13:34:44.000Z</time>
                <name>Position 389</name>
            </trkpt>
            <trkpt lat="45.6996054" lon="11.1505736">
                <ele>1252.8</ele>
                <time>2023-07-17T13:35:02.000Z</time>
                <name>Position 390</name>
            </trkpt>
            <trkpt lat="45.6994183" lon="11.1506082">
                <ele>1252.2</ele>
                <time>2023-07-17T13:35:22.000Z</time>
                <name>Position 391</name>
            </trkpt>
            <trkpt lat="45.6992414" lon="11.1506665">
                <ele>1251.7</ele>
                <time>2023-07-17T13:35:38.000Z</time>
                <name>Position 392</name>
            </trkpt>
            <trkpt lat="45.699072" lon="11.150784">
                <ele>1252.6</ele>
                <time>2023-07-17T13:36:54.000Z</time>
                <name>Position 393</name>
            </trkpt>
        </trkseg>
    </trk>
</gpx>
