<?xml version="1.0" encoding="UTF-8" standalone="no" ?>
<gpx xmlns="http://www.topografix.com/GPX/1/1" creator="MapSource 6.16.2" version="1.1" xmlns:xsi="http://www.w3.org/2001/XMLSchema-instance" xsi:schemaLocation="http://www.topografix.com/GPX/1/1 http://www.topografix.com/GPX/1/1/gpx.xsd">

  <metadata>
    <link href="http://www.garmin.com">
      <text>Garmin International</text>
    </link>
    <time>2011-09-26T17:10:57Z</time>
    <bounds maxlat="46.778236934915185" maxlon="8.29173618927598" minlat="46.773243667557836" minlon="8.268379177898169"/>
  </metadata>

  <wpt lat="46.776973782107234" lon="8.289397973567247">
    <ele>2097.466064453125</ele>
    <name>Fruttli</name>
    <cmt>23-SEP-11 10:57:59</cmt>
    <desc>23-SEP-11 10:57:59</desc>
    <sym>Flag, Blue</sym>
    <extensions>
      <gpxx:WaypointExtension xmlns:gpxx="http://www.garmin.com/xmlschemas/GpxExtensions/v3">
        <gpxx:DisplayMode>SymbolAndName</gpxx:DisplayMode>
      </gpxx:WaypointExtension>
    </extensions>
  </wpt>

  <trk>
    <name>20110923_-_Melchsee-Frutt</name>
    <extensions>
      <gpxx:TrackExtension xmlns:gpxx="http://www.garmin.com/xmlschemas/GpxExtensions/v3">
        <gpxx:DisplayColor>Transparent</gpxx:DisplayColor>
      </gpxx:TrackExtension>
    </extensions>
    <trkseg>
      <trkpt lat="46.774564320221543" lon="8.268610183149576">
        <ele>1918.928955078125</ele>
        <time>2011-09-23T08:22:53Z</time>
      </trkpt>
      <trkpt lat="46.774547891691327" lon="8.268637927249074">
        <ele>1918.928955078125</ele>
        <time>2011-09-23T08:22:55Z</time>
      </trkpt>
      <trkpt lat="46.774534899741411" lon="8.268751753494144">
        <ele>1918.4482421875</ele>
        <time>2011-09-23T08:23:05Z</time>
      </trkpt>
      <trkpt lat="46.774548394605517" lon="8.268848229199648">
        <ele>1917.967529296875</ele>
        <time>2011-09-23T08:23:15Z</time>
      </trkpt>
      <trkpt lat="46.77452752366662" lon="8.268927438184619">
        <ele>1917.967529296875</ele>
        <time>2011-09-23T08:23:19Z</time>
      </trkpt>
      <trkpt lat="46.774495840072632" lon="8.268949147313833">
        <ele>1918.4482421875</ele>
        <time>2011-09-23T08:23:25Z</time>
      </trkpt>
      <trkpt lat="46.774411266669631" lon="8.269038833677769">
        <ele>1918.4482421875</ele>
        <time>2011-09-23T08:23:32Z</time>
      </trkpt>
      <trkpt lat="46.774252597242594" lon="8.269154587760568">
        <ele>1918.4482421875</ele>
        <time>2011-09-23T08:23:43Z</time>
      </trkpt>
      <trkpt lat="46.774236084893346" lon="8.269133130088449">
        <ele>1917.48681640625</ele>
        <time>2011-09-23T08:23:45Z</time>
      </trkpt>
      <trkpt lat="46.774216387420893" lon="8.269073031842709">
        <ele>1916.044921875</ele>
        <time>2011-09-23T08:23:47Z</time>
      </trkpt>
      <trkpt lat="46.77420306019485" lon="8.268859460949898">
        <ele>1912.68017578125</ele>
        <time>2011-09-23T08:23:56Z</time>
      </trkpt>
      <trkpt lat="46.774225942790508" lon="8.268825933337212">
        <ele>1912.199462890625</ele>
        <time>2011-09-23T08:24:01Z</time>
      </trkpt>
      <trkpt lat="46.774221416562796" lon="8.26879408210516">
        <ele>1912.199462890625</ele>
        <time>2011-09-23T08:24:09Z</time>
      </trkpt>
      <trkpt lat="46.774220326915383" lon="8.268785197287798">
        <ele>1911.23828125</ele>
        <time>2011-09-23T08:24:12Z</time>
      </trkpt>
      <trkpt lat="46.774205742403865" lon="8.268680758774281">
        <ele>1911.23828125</ele>
        <time>2011-09-23T08:24:16Z</time>
      </trkpt>
      <trkpt lat="46.774203395470977" lon="8.268618145957589">
        <ele>1910.757568359375</ele>
        <time>2011-09-23T08:24:18Z</time>
      </trkpt>
      <trkpt lat="46.774101220071316" lon="8.268495853990316">
        <ele>1909.796142578125</ele>
        <time>2011-09-23T08:24:24Z</time>
      </trkpt>
      <trkpt lat="46.774018155410886" lon="8.268426368013024">
        <ele>1908.354248046875</ele>
        <time>2011-09-23T08:24:30Z</time>
      </trkpt>
      <trkpt lat="46.774010695517063" lon="8.26840952038765">
        <ele>1907.873779296875</ele>
        <time>2011-09-23T08:24:31Z</time>
      </trkpt>
      <trkpt lat="46.773995775729418" lon="8.268380854278803">
        <ele>1907.39306640625</ele>
        <time>2011-09-23T08:24:59Z</time>
      </trkpt>
      <trkpt lat="46.773989573121071" lon="8.268379177898169">
        <ele>1906.431640625</ele>
        <time>2011-09-23T08:25:01Z</time>
      </trkpt>
      <trkpt lat="46.773914471268654" lon="8.268462996929884">
        <ele>1906.912353515625</ele>
        <time>2011-09-23T08:25:07Z</time>
      </trkpt>
      <trkpt lat="46.773826461285353" lon="8.268566345795989">
        <ele>1908.8349609375</ele>
        <time>2011-09-23T08:25:13Z</time>
      </trkpt>
      <trkpt lat="46.773699978366494" lon="8.268710346892476">
        <ele>1909.796142578125</ele>
        <time>2011-09-23T08:25:22Z</time>
      </trkpt>
      <trkpt lat="46.773571651428938" lon="8.268854096531868">
        <ele>1910.27685546875</ele>
        <time>2011-09-23T08:25:32Z</time>
      </trkpt>
      <trkpt lat="46.773438043892384" lon="8.269024668261409">
        <ele>1912.68017578125</ele>
        <time>2011-09-23T08:25:45Z</time>
      </trkpt>
      <trkpt lat="46.773315668106079" lon="8.269200688228011">
        <ele>1913.641357421875</ele>
        <time>2011-09-23T08:25:57Z</time>
      </trkpt>
      <trkpt lat="46.773243667557836" lon="8.269380982965231">
        <ele>1913.641357421875</ele>
        <time>2011-09-23T08:26:07Z</time>
      </trkpt>
      <trkpt lat="46.773273171856999" lon="8.269565384835005">
        <ele>1912.68017578125</ele>
        <time>2011-09-23T08:26:15Z</time>
      </trkpt>
      <trkpt lat="46.773279374465346" lon="8.269607294350863">
        <ele>1913.160888671875</ele>
        <time>2011-09-23T08:26:17Z</time>
      </trkpt>
      <trkpt lat="46.773289851844311" lon="8.269691532477737">
        <ele>1912.68017578125</ele>
        <time>2011-09-23T08:26:21Z</time>
      </trkpt>
      <trkpt lat="46.773349279537797" lon="8.269841484725475">
        <ele>1913.160888671875</ele>
        <time>2011-09-23T08:26:28Z</time>
      </trkpt>
      <trkpt lat="46.773339053615928" lon="8.26985439285636">
        <ele>1913.160888671875</ele>
        <time>2011-09-23T08:26:34Z</time>
      </trkpt>
      <trkpt lat="46.773328324779868" lon="8.269872916862369">
        <ele>1913.641357421875</ele>
        <time>2011-09-23T08:26:40Z</time>
      </trkpt>
      <trkpt lat="46.773335030302405" lon="8.269875682890415">
        <ele>1913.160888671875</ele>
        <time>2011-09-23T08:26:48Z</time>
      </trkpt>
      <trkpt lat="46.77336797118187" lon="8.269921699538827">
        <ele>1912.68017578125</ele>
        <time>2011-09-23T08:26:52Z</time>
      </trkpt>
      <trkpt lat="46.77341147325933" lon="8.27013636007905">
        <ele>1912.68017578125</ele>
        <time>2011-09-23T08:27:03Z</time>
      </trkpt>
      <trkpt lat="46.773440558463335" lon="8.270268626511097">
        <ele>1913.160888671875</ele>
        <time>2011-09-23T08:27:11Z</time>
      </trkpt>
      <trkpt lat="46.773448018357158" lon="8.27028002589941">
        <ele>1912.199462890625</ele>
        <time>2011-09-23T08:27:20Z</time>
      </trkpt>
      <trkpt lat="46.77347986958921" lon="8.270412962883711">
        <ele>1913.160888671875</ele>
        <time>2011-09-23T08:27:27Z</time>
      </trkpt>
      <trkpt lat="46.773482551798224" lon="8.270432744175196">
        <ele>1912.199462890625</ele>
        <time>2011-09-23T08:27:28Z</time>
      </trkpt>
      <trkpt lat="46.773530831560493" lon="8.270706497132778">
        <ele>1912.199462890625</ele>
        <time>2011-09-23T08:27:41Z</time>
      </trkpt>
      <trkpt lat="46.773582296445966" lon="8.270987123250961">
        <ele>1911.718994140625</ele>
        <time>2011-09-23T08:27:54Z</time>
      </trkpt>
      <trkpt lat="46.773620350286365" lon="8.271203879266977">
        <ele>1911.718994140625</ele>
        <time>2011-09-23T08:28:05Z</time>
      </trkpt>
      <trkpt lat="46.773680029436946" lon="8.271498838439584">
        <ele>1911.718994140625</ele>
        <time>2011-09-23T08:28:20Z</time>
      </trkpt>
      <trkpt lat="46.773725962266326" lon="8.271702770143747">
        <ele>1911.23828125</ele>
        <time>2011-09-23T08:28:31Z</time>
      </trkpt>
      <trkpt lat="46.773789245635271" lon="8.271976187825203">
        <ele>1911.23828125</ele>
        <time>2011-09-23T08:28:45Z</time>
      </trkpt>
      <trkpt lat="46.773863257840276" lon="8.272284977138042">
        <ele>1909.796142578125</ele>
        <time>2011-09-23T08:29:01Z</time>
      </trkpt>
      <trkpt lat="46.773940287530422" lon="8.272534422576428">
        <ele>1906.912353515625</ele>
        <time>2011-09-23T08:29:14Z</time>
      </trkpt>
      <trkpt lat="46.774000134319067" lon="8.272799625992775">
        <ele>1904.98974609375</ele>
        <time>2011-09-23T08:29:27Z</time>
      </trkpt>
      <trkpt lat="46.774022681638598" lon="8.272896436974406">
        <ele>1904.028564453125</ele>
        <time>2011-09-23T08:29:35Z</time>
      </trkpt>
      <trkpt lat="46.774044474586844" lon="8.272984866052866">
        <ele>1903.5478515625</ele>
        <time>2011-09-23T08:29:40Z</time>
      </trkpt>
      <trkpt lat="46.774063417688012" lon="8.273048317059875">
        <ele>1902.58642578125</ele>
        <time>2011-09-23T08:29:43Z</time>
      </trkpt>
      <trkpt lat="46.774068446829915" lon="8.273095590993762">
        <ele>1902.105712890625</ele>
        <time>2011-09-23T08:29:51Z</time>
      </trkpt>
      <trkpt lat="46.774072973057628" lon="8.273093998432159">
        <ele>1902.105712890625</ele>
        <time>2011-09-23T08:29:57Z</time>
      </trkpt>
      <trkpt lat="46.774110356345773" lon="8.273134650662541">
        <ele>1902.105712890625</ele>
        <time>2011-09-23T08:30:03Z</time>
      </trkpt>
      <trkpt lat="46.774138854816556" lon="8.273290889337659">
        <ele>1901.625244140625</ele>
        <time>2011-09-23T08:30:12Z</time>
      </trkpt>
      <trkpt lat="46.774176741018891" lon="8.273526336997747">
        <ele>1901.14453125</ele>
        <time>2011-09-23T08:30:24Z</time>
      </trkpt>
      <trkpt lat="46.774206161499023" lon="8.273721467703581">
        <ele>1901.14453125</ele>
        <time>2011-09-23T08:30:34Z</time>
      </trkpt>
      <trkpt lat="46.774247316643596" lon="8.273966554552317">
        <ele>1900.183349609375</ele>
        <time>2011-09-23T08:30:45Z</time>
      </trkpt>
      <trkpt lat="46.774277575314045" lon="8.27424231916666">
        <ele>1900.183349609375</ele>
        <time>2011-09-23T08:30:58Z</time>
      </trkpt>
      <trkpt lat="46.774336248636246" lon="8.274273918941617">
        <ele>1900.663818359375</ele>
        <time>2011-09-23T08:31:06Z</time>
      </trkpt>
      <trkpt lat="46.774326860904694" lon="8.274277187883854">
        <ele>1900.183349609375</ele>
        <time>2011-09-23T08:31:11Z</time>
      </trkpt>
      <trkpt lat="46.774280089884996" lon="8.274381626397371">
        <ele>1900.183349609375</ele>
        <time>2011-09-23T08:31:17Z</time>
      </trkpt>
      <trkpt lat="46.774262236431241" lon="8.274637525901198">
        <ele>1901.14453125</ele>
        <time>2011-09-23T08:31:32Z</time>
      </trkpt>
      <trkpt lat="46.774266427382827" lon="8.274678848683834">
        <ele>1902.58642578125</ele>
        <time>2011-09-23T08:31:49Z</time>
      </trkpt>
      <trkpt lat="46.774291656911373" lon="8.274704832583666">
        <ele>1902.58642578125</ele>
        <time>2011-09-23T08:31:54Z</time>
      </trkpt>
      <trkpt lat="46.774314455688" lon="8.274734672158957">
        <ele>1903.067138671875</ele>
        <time>2011-09-23T08:31:58Z</time>
      </trkpt>
      <trkpt lat="46.77441168576479" lon="8.27487163245678">
        <ele>1904.509033203125</ele>
        <time>2011-09-23T08:32:10Z</time>
      </trkpt>
      <trkpt lat="46.774494498968124" lon="8.275042120367289">
        <ele>1905.950927734375</ele>
        <time>2011-09-23T08:32:22Z</time>
      </trkpt>
      <trkpt lat="46.774558620527387" lon="8.275155862793326">
        <ele>1907.39306640625</ele>
        <time>2011-09-23T08:32:32Z</time>
      </trkpt>
      <trkpt lat="46.774579575285316" lon="8.275288296863437">
        <ele>1909.315673828125</ele>
        <time>2011-09-23T08:32:41Z</time>
      </trkpt>
      <trkpt lat="46.774582341313362" lon="8.275517541915178">
        <ele>1910.27685546875</ele>
        <time>2011-09-23T08:32:54Z</time>
      </trkpt>
      <trkpt lat="46.774590471759439" lon="8.275691885501146">
        <ele>1910.757568359375</ele>
        <time>2011-09-23T08:33:04Z</time>
      </trkpt>
      <trkpt lat="46.774593237787485" lon="8.275793641805649">
        <ele>1911.23828125</ele>
        <time>2011-09-23T08:33:11Z</time>
      </trkpt>
      <trkpt lat="46.774594075977802" lon="8.27581275254488">
        <ele>1911.23828125</ele>
        <time>2011-09-23T08:33:21Z</time>
      </trkpt>
      <trkpt lat="46.774617293849587" lon="8.275947868824005">
        <ele>1911.23828125</ele>
        <time>2011-09-23T08:33:29Z</time>
      </trkpt>
      <trkpt lat="46.774642020463943" lon="8.276012493297458">
        <ele>1912.199462890625</ele>
        <time>2011-09-23T08:33:33Z</time>
      </trkpt>
      <trkpt lat="46.774670938029885" lon="8.276188261806965">
        <ele>1914.602783203125</ele>
        <time>2011-09-23T08:33:43Z</time>
      </trkpt>
      <trkpt lat="46.774663645774126" lon="8.276377189904451">
        <ele>1915.564208984375</ele>
        <time>2011-09-23T08:33:54Z</time>
      </trkpt>
      <trkpt lat="46.774644451215863" lon="8.276568716391921">
        <ele>1916.525634765625</ele>
        <time>2011-09-23T08:34:05Z</time>
      </trkpt>
      <trkpt lat="46.774651575833559" lon="8.276737360283732">
        <ele>1917.967529296875</ele>
        <time>2011-09-23T08:34:15Z</time>
      </trkpt>
      <trkpt lat="46.77463062107563" lon="8.276933999732137">
        <ele>1918.928955078125</ele>
        <time>2011-09-23T08:34:26Z</time>
      </trkpt>
      <trkpt lat="46.774663059040904" lon="8.277129465714097">
        <ele>1919.89013671875</ele>
        <time>2011-09-23T08:34:37Z</time>
      </trkpt>
      <trkpt lat="46.77466825582087" lon="8.277333062142134">
        <ele>1920.370849609375</ele>
        <time>2011-09-23T08:34:48Z</time>
      </trkpt>
      <trkpt lat="46.774709662422538" lon="8.277441440150142">
        <ele>1921.33203125</ele>
        <time>2011-09-23T08:34:57Z</time>
      </trkpt>
      <trkpt lat="46.774694072082639" lon="8.277614023536444">
        <ele>1921.812744140625</ele>
        <time>2011-09-23T08:35:08Z</time>
      </trkpt>
      <trkpt lat="46.774675799533725" lon="8.277729274705052">
        <ele>1921.812744140625</ele>
        <time>2011-09-23T08:35:15Z</time>
      </trkpt>
      <trkpt lat="46.774664232507348" lon="8.27792314812541">
        <ele>1922.774169921875</ele>
        <time>2011-09-23T08:35:27Z</time>
      </trkpt>
      <trkpt lat="46.774628274142742" lon="8.278045440092683">
        <ele>1922.29345703125</ele>
        <time>2011-09-23T08:35:35Z</time>
      </trkpt>
      <trkpt lat="46.774569181725383" lon="8.278212994337082">
        <ele>1923.7353515625</ele>
        <time>2011-09-23T08:35:46Z</time>
      </trkpt>
      <trkpt lat="46.774524338543415" lon="8.278403263539076">
        <ele>1923.7353515625</ele>
        <time>2011-09-23T08:35:58Z</time>
      </trkpt>
      <trkpt lat="46.774517884477973" lon="8.278596131131053">
        <ele>1926.138671875</ele>
        <time>2011-09-23T08:36:10Z</time>
      </trkpt>
      <trkpt lat="46.774505395442247" lon="8.278657821938396">
        <ele>1926.138671875</ele>
        <time>2011-09-23T08:36:18Z</time>
      </trkpt>
      <trkpt lat="46.774503132328391" lon="8.278703084215522">
        <ele>1926.619384765625</ele>
        <time>2011-09-23T08:36:35Z</time>
      </trkpt>
      <trkpt lat="46.774494079872966" lon="8.278873823583126">
        <ele>1927.10009765625</ele>
        <time>2011-09-23T08:36:45Z</time>
      </trkpt>
      <trkpt lat="46.774446554481983" lon="8.279085550457239">
        <ele>1928.5419921875</ele>
        <time>2011-09-23T08:36:58Z</time>
      </trkpt>
      <trkpt lat="46.774400370195508" lon="8.279224187135696">
        <ele>1929.503173828125</ele>
        <time>2011-09-23T08:37:07Z</time>
      </trkpt>
      <trkpt lat="46.774373296648264" lon="8.279328290373087">
        <ele>1929.98388671875</ele>
        <time>2011-09-23T08:37:16Z</time>
      </trkpt>
      <trkpt lat="46.774368435144424" lon="8.279324350878596">
        <ele>1929.98388671875</ele>
        <time>2011-09-23T08:37:22Z</time>
      </trkpt>
      <trkpt lat="46.774333817884326" lon="8.279430884867907">
        <ele>1930.464599609375</ele>
        <time>2011-09-23T08:37:29Z</time>
      </trkpt>
      <trkpt lat="46.774278581142426" lon="8.279606234282255">
        <ele>1932.387451171875</ele>
        <time>2011-09-23T08:37:39Z</time>
      </trkpt>
      <trkpt lat="46.774245640262961" lon="8.279808573424816">
        <ele>1932.387451171875</ele>
        <time>2011-09-23T08:37:50Z</time>
      </trkpt>
      <trkpt lat="46.774227032437921" lon="8.27992457896471">
        <ele>1932.387451171875</ele>
        <time>2011-09-23T08:37:58Z</time>
      </trkpt>
      <trkpt lat="46.774195516481996" lon="8.280106466263533">
        <ele>1933.3486328125</ele>
        <time>2011-09-23T08:38:09Z</time>
      </trkpt>
      <trkpt lat="46.77414782345295" lon="8.280229847878218">
        <ele>1933.3486328125</ele>
        <time>2011-09-23T08:38:17Z</time>
      </trkpt>
      <trkpt lat="46.774137429893017" lon="8.280261866748333">
        <ele>1933.829345703125</ele>
        <time>2011-09-23T08:38:23Z</time>
      </trkpt>
      <trkpt lat="46.774146566167474" lon="8.280259184539318">
        <ele>1934.31005859375</ele>
        <time>2011-09-23T08:38:34Z</time>
      </trkpt>
      <trkpt lat="46.774236168712378" lon="8.280278379097581">
        <ele>1934.790771484375</ele>
        <time>2011-09-23T08:38:42Z</time>
      </trkpt>
      <trkpt lat="46.774296686053276" lon="8.28030033968389">
        <ele>1935.271240234375</ele>
        <time>2011-09-23T08:38:47Z</time>
      </trkpt>
      <trkpt lat="46.7743178922683" lon="8.280293717980385">
        <ele>1935.271240234375</ele>
        <time>2011-09-23T08:38:49Z</time>
      </trkpt>
      <trkpt lat="46.774406069889665" lon="8.280318528413773">
        <ele>1935.751953125</ele>
        <time>2011-09-23T08:38:57Z</time>
      </trkpt>
      <trkpt lat="46.774488296359777" lon="8.280331268906593">
        <ele>1935.751953125</ele>
        <time>2011-09-23T08:39:05Z</time>
      </trkpt>
      <trkpt lat="46.77450698800385" lon="8.280341578647494">
        <ele>1935.751953125</ele>
        <time>2011-09-23T08:39:07Z</time>
      </trkpt>
      <trkpt lat="46.7745959199965" lon="8.280330430716276">
        <ele>1935.271240234375</ele>
        <time>2011-09-23T08:39:16Z</time>
      </trkpt>
      <trkpt lat="46.774692395702004" lon="8.280328083783388">
        <ele>1936.713134765625</ele>
        <time>2011-09-23T08:39:25Z</time>
      </trkpt>
      <trkpt lat="46.774729276075959" lon="8.280291957780719">
        <ele>1939.59716796875</ele>
        <time>2011-09-23T08:39:33Z</time>
      </trkpt>
      <trkpt lat="46.774763138964772" lon="8.280284916982055">
        <ele>1941.0390625</ele>
        <time>2011-09-23T08:39:41Z</time>
      </trkpt>
      <trkpt lat="46.774788955226541" lon="8.280257089063525">
        <ele>1942.481201171875</ele>
        <time>2011-09-23T08:39:48Z</time>
      </trkpt>
      <trkpt lat="46.774817956611514" lon="8.2802514731884">
        <ele>1944.403564453125</ele>
        <time>2011-09-23T08:39:55Z</time>
      </trkpt>
      <trkpt lat="46.774842264130712" lon="8.280291371047497">
        <ele>1945.364990234375</ele>
        <time>2011-09-23T08:40:03Z</time>
      </trkpt>
      <trkpt lat="46.774870930239558" lon="8.280310146510601">
        <ele>1946.806884765625</ele>
        <time>2011-09-23T08:40:12Z</time>
      </trkpt>
      <trkpt lat="46.774903954938054" lon="8.280326742678881">
        <ele>1949.691162109375</ele>
        <time>2011-09-23T08:40:20Z</time>
      </trkpt>
      <trkpt lat="46.774910241365433" lon="8.280348284170032">
        <ele>1950.171875</ele>
        <time>2011-09-23T08:40:25Z</time>
      </trkpt>
      <trkpt lat="46.774944271892309" lon="8.280354989692569">
        <ele>1953.536376953125</ele>
        <time>2011-09-23T08:40:32Z</time>
      </trkpt>
      <trkpt lat="46.774979894980788" lon="8.280339147895575">
        <ele>1953.0556640625</ele>
        <time>2011-09-23T08:40:39Z</time>
      </trkpt>
      <trkpt lat="46.77501417696476" lon="8.280341578647494">
        <ele>1955.458984375</ele>
        <time>2011-09-23T08:40:47Z</time>
      </trkpt>
      <trkpt lat="46.775040160864592" lon="8.280341662466526">
        <ele>1955.939453125</ele>
        <time>2011-09-23T08:40:55Z</time>
      </trkpt>
      <trkpt lat="46.775050889700651" lon="8.280358845368028">
        <ele>1957.381591796875</ele>
        <time>2011-09-23T08:41:03Z</time>
      </trkpt>
      <trkpt lat="46.775062875822186" lon="8.280360773205757">
        <ele>1956.420166015625</ele>
        <time>2011-09-23T08:41:09Z</time>
      </trkpt>
      <trkpt lat="46.775078885257244" lon="8.280356330797076">
        <ele>1958.3427734375</ele>
        <time>2011-09-23T08:41:11Z</time>
      </trkpt>
      <trkpt lat="46.775112496688962" lon="8.280360354110599">
        <ele>1960.265380859375</ele>
        <time>2011-09-23T08:41:20Z</time>
      </trkpt>
      <trkpt lat="46.77513143979013" lon="8.280360018834472">
        <ele>1962.18798828125</ele>
        <time>2011-09-23T08:41:27Z</time>
      </trkpt>
      <trkpt lat="46.775145940482616" lon="8.280350295826793">
        <ele>1963.1494140625</ele>
        <time>2011-09-23T08:41:38Z</time>
      </trkpt>
      <trkpt lat="46.775151221081614" lon="8.280351553112268">
        <ele>1962.668701171875</ele>
        <time>2011-09-23T08:41:40Z</time>
      </trkpt>
      <trkpt lat="46.77516957744956" lon="8.28035457059741">
        <ele>1964.591552734375</ele>
        <time>2011-09-23T08:41:46Z</time>
      </trkpt>
      <trkpt lat="46.775185167789459" lon="8.2803706638515">
        <ele>1966.994873046875</ele>
        <time>2011-09-23T08:41:57Z</time>
      </trkpt>
      <trkpt lat="46.775199249386787" lon="8.280391450971365">
        <ele>1966.994873046875</ele>
        <time>2011-09-23T08:42:04Z</time>
      </trkpt>
      <trkpt lat="46.775227496400476" lon="8.28041223809123">
        <ele>1969.878662109375</ele>
        <time>2011-09-23T08:42:12Z</time>
      </trkpt>
      <trkpt lat="46.775263538584113" lon="8.280396647751331">
        <ele>1971.320556640625</ele>
        <time>2011-09-23T08:42:18Z</time>
      </trkpt>
      <trkpt lat="46.775279548019171" lon="8.280395055189729">
        <ele>1972.7626953125</ele>
        <time>2011-09-23T08:42:24Z</time>
      </trkpt>
      <trkpt lat="46.775296395644546" lon="8.280388349667192">
        <ele>1973.243408203125</ele>
        <time>2011-09-23T08:42:31Z</time>
      </trkpt>
      <trkpt lat="46.775312572717667" lon="8.280391870066524">
        <ele>1975.646484375</ele>
        <time>2011-09-23T08:42:44Z</time>
      </trkpt>
      <trkpt lat="46.775335874408484" lon="8.280389523133636">
        <ele>1977.569091796875</ele>
        <time>2011-09-23T08:42:49Z</time>
      </trkpt>
      <trkpt lat="46.775368647649884" lon="8.280382566154003">
        <ele>1979.972412109375</ele>
        <time>2011-09-23T08:42:59Z</time>
      </trkpt>
      <trkpt lat="46.775378957390785" lon="8.280402179807425">
        <ele>1981.41455078125</ele>
        <time>2011-09-23T08:43:08Z</time>
      </trkpt>
      <trkpt lat="46.775405528023839" lon="8.280415842309594">
        <ele>1982.3759765625</ele>
        <time>2011-09-23T08:43:15Z</time>
      </trkpt>
      <trkpt lat="46.775419944897294" lon="8.280427325516939">
        <ele>1982.8564453125</ele>
        <time>2011-09-23T08:43:24Z</time>
      </trkpt>
      <trkpt lat="46.775432769209146" lon="8.280443586409092">
        <ele>1983.81787109375</ele>
        <time>2011-09-23T08:43:31Z</time>
      </trkpt>
      <trkpt lat="46.775451879948378" lon="8.280430259183049">
        <ele>1986.22119140625</ele>
        <time>2011-09-23T08:43:35Z</time>
      </trkpt>
      <trkpt lat="46.775466464459896" lon="8.280401928350329">
        <ele>1988.143798828125</ele>
        <time>2011-09-23T08:43:39Z</time>
      </trkpt>
      <trkpt lat="46.775473756715655" lon="8.280465295538306">
        <ele>1990.06640625</ele>
        <time>2011-09-23T08:43:47Z</time>
      </trkpt>
      <trkpt lat="46.775467889383435" lon="8.280484238639474">
        <ele>1989.585693359375</ele>
        <time>2011-09-23T08:43:49Z</time>
      </trkpt>
      <trkpt lat="46.775447269901633" lon="8.280600579455495">
        <ele>1992.4697265625</ele>
        <time>2011-09-23T08:43:59Z</time>
      </trkpt>
      <trkpt lat="46.77545347250998" lon="8.280671490356326">
        <ele>1993.430908203125</ele>
        <time>2011-09-23T08:44:06Z</time>
      </trkpt>
      <trkpt lat="46.775454897433519" lon="8.280810881406069">
        <ele>1995.353515625</ele>
        <time>2011-09-23T08:44:16Z</time>
      </trkpt>
      <trkpt lat="46.775466799736023" lon="8.280924875289202">
        <ele>1998.237548828125</ele>
        <time>2011-09-23T08:44:25Z</time>
      </trkpt>
      <trkpt lat="46.77547543309629" lon="8.280977932736278">
        <ele>1999.198974609375</ele>
        <time>2011-09-23T08:44:31Z</time>
      </trkpt>
      <trkpt lat="46.775503680109978" lon="8.281028056517243">
        <ele>2001.12158203125</ele>
        <time>2011-09-23T08:44:40Z</time>
      </trkpt>
      <trkpt lat="46.775520192459226" lon="8.281058231368661">
        <ele>2002.082763671875</ele>
        <time>2011-09-23T08:44:46Z</time>
      </trkpt>
      <trkpt lat="46.775551792234182" lon="8.281113468110561">
        <ele>2004.005615234375</ele>
        <time>2011-09-23T08:44:55Z</time>
      </trkpt>
      <trkpt lat="46.775587918236852" lon="8.281164597719908">
        <ele>2006.40869140625</ele>
        <time>2011-09-23T08:45:04Z</time>
      </trkpt>
      <trkpt lat="46.775593366473913" lon="8.281189575791359">
        <ele>2007.850830078125</ele>
        <time>2011-09-23T08:45:07Z</time>
      </trkpt>
      <trkpt lat="46.775610046461225" lon="8.281253864988685">
        <ele>2009.292724609375</ele>
        <time>2011-09-23T08:45:16Z</time>
      </trkpt>
      <trkpt lat="46.775619518011808" lon="8.281333157792687">
        <ele>2010.734619140625</ele>
        <time>2011-09-23T08:45:23Z</time>
      </trkpt>
      <trkpt lat="46.775627648457885" lon="8.28133525326848">
        <ele>2011.21533203125</ele>
        <time>2011-09-23T08:45:24Z</time>
      </trkpt>
      <trkpt lat="46.77563963457942" lon="8.281356543302536">
        <ele>2011.696044921875</ele>
        <time>2011-09-23T08:45:28Z</time>
      </trkpt>
      <trkpt lat="46.775626139715314" lon="8.281488725915551">
        <ele>2011.696044921875</ele>
        <time>2011-09-23T08:45:37Z</time>
      </trkpt>
      <trkpt lat="46.775632761418819" lon="8.281623339280486">
        <ele>2013.13818359375</ele>
        <time>2011-09-23T08:45:46Z</time>
      </trkpt>
      <trkpt lat="46.775635695084929" lon="8.281797766685486">
        <ele>2012.657470703125</ele>
        <time>2011-09-23T08:45:56Z</time>
      </trkpt>
      <trkpt lat="46.775652877986431" lon="8.281914778053761">
        <ele>2014.099365234375</ele>
        <time>2011-09-23T08:46:05Z</time>
      </trkpt>
      <trkpt lat="46.775658912956715" lon="8.282027933746576">
        <ele>2015.060791015625</ele>
        <time>2011-09-23T08:46:14Z</time>
      </trkpt>
      <trkpt lat="46.775640640407801" lon="8.282086439430714">
        <ele>2015.060791015625</ele>
        <time>2011-09-23T08:46:19Z</time>
      </trkpt>
      <trkpt lat="46.775652039796114" lon="8.282137736678124">
        <ele>2016.502685546875</ele>
        <time>2011-09-23T08:46:24Z</time>
      </trkpt>
      <trkpt lat="46.775692775845528" lon="8.282224237918854">
        <ele>2017.4638671875</ele>
        <time>2011-09-23T08:46:34Z</time>
      </trkpt>
      <trkpt lat="46.775625050067902" lon="8.28235600143671">
        <ele>2019.8671875</ele>
        <time>2011-09-23T08:46:43Z</time>
      </trkpt>
      <trkpt lat="46.775603173300624" lon="8.282446945086122">
        <ele>2020.347900390625</ele>
        <time>2011-09-23T08:46:51Z</time>
      </trkpt>
      <trkpt lat="46.775678275153041" lon="8.282591616734862">
        <ele>2019.8671875</ele>
        <time>2011-09-23T08:47:00Z</time>
      </trkpt>
      <trkpt lat="46.775689590722322" lon="8.282678034156561">
        <ele>2020.82861328125</ele>
        <time>2011-09-23T08:47:06Z</time>
      </trkpt>
      <trkpt lat="46.77569193765521" lon="8.282797057181597">
        <ele>2019.38671875</ele>
        <time>2011-09-23T08:47:13Z</time>
      </trkpt>
      <trkpt lat="46.775698726996779" lon="8.282829076051712">
        <ele>2020.347900390625</ele>
        <time>2011-09-23T08:47:15Z</time>
      </trkpt>
      <trkpt lat="46.775707779452205" lon="8.282855981960893">
        <ele>2019.8671875</ele>
        <time>2011-09-23T08:47:17Z</time>
      </trkpt>
      <trkpt lat="46.775710629299283" lon="8.283017752692103">
        <ele>2019.38671875</ele>
        <time>2011-09-23T08:47:27Z</time>
      </trkpt>
      <trkpt lat="46.775720855221152" lon="8.283169716596603">
        <ele>2021.30908203125</ele>
        <time>2011-09-23T08:47:37Z</time>
      </trkpt>
      <trkpt lat="46.775738121941686" lon="8.283275244757533">
        <ele>2022.2705078125</ele>
        <time>2011-09-23T08:47:46Z</time>
      </trkpt>
      <trkpt lat="46.775763938203454" lon="8.283438188955188">
        <ele>2024.193115234375</ele>
        <time>2011-09-23T08:47:57Z</time>
      </trkpt>
      <trkpt lat="46.775798052549362" lon="8.283525444567204">
        <ele>2025.635009765625</ele>
        <time>2011-09-23T08:48:05Z</time>
      </trkpt>
      <trkpt lat="46.775799477472901" lon="8.283689646050334">
        <ele>2026.11572265625</ele>
        <time>2011-09-23T08:48:15Z</time>
      </trkpt>
      <trkpt lat="46.775824623182416" lon="8.283765586093068">
        <ele>2028.03857421875</ele>
        <time>2011-09-23T08:48:23Z</time>
      </trkpt>
      <trkpt lat="46.775849182158709" lon="8.283758042380214">
        <ele>2027.5576171875</ele>
        <time>2011-09-23T08:48:30Z</time>
      </trkpt>
      <trkpt lat="46.775856725871563" lon="8.283830462023616">
        <ele>2028.519287109375</ele>
        <time>2011-09-23T08:48:51Z</time>
      </trkpt>
      <trkpt lat="46.77585756406188" lon="8.283853596076369">
        <ele>2028.519287109375</ele>
        <time>2011-09-23T08:48:59Z</time>
      </trkpt>
      <trkpt lat="46.775869634002447" lon="8.283955939114094">
        <ele>2029.48046875</ele>
        <time>2011-09-23T08:49:06Z</time>
      </trkpt>
      <trkpt lat="46.775865945965052" lon="8.284055097028613">
        <ele>2030.44189453125</ele>
        <time>2011-09-23T08:49:12Z</time>
      </trkpt>
      <trkpt lat="46.775884721428156" lon="8.284111926332116">
        <ele>2031.8837890625</ele>
        <time>2011-09-23T08:49:17Z</time>
      </trkpt>
      <trkpt lat="46.775907184928656" lon="8.284164229407907">
        <ele>2033.806396484375</ele>
        <time>2011-09-23T08:49:24Z</time>
      </trkpt>
      <trkpt lat="46.775925792753696" lon="8.284220555797219">
        <ele>2034.767822265625</ele>
        <time>2011-09-23T08:49:31Z</time>
      </trkpt>
      <trkpt lat="46.775932749733329" lon="8.284239079803228">
        <ele>2036.209716796875</ele>
        <time>2011-09-23T08:49:33Z</time>
      </trkpt>
      <trkpt lat="46.775953117758036" lon="8.284298675134778">
        <ele>2036.690185546875</ele>
        <time>2011-09-23T08:49:39Z</time>
      </trkpt>
      <trkpt lat="46.775959990918636" lon="8.284329771995544">
        <ele>2037.1708984375</ele>
        <time>2011-09-23T08:49:41Z</time>
      </trkpt>
      <trkpt lat="46.775984968990088" lon="8.284478299319744">
        <ele>2038.13232421875</ele>
        <time>2011-09-23T08:49:51Z</time>
      </trkpt>
      <trkpt lat="46.776020927354693" lon="8.284594640135765">
        <ele>2041.01611328125</ele>
        <time>2011-09-23T08:50:03Z</time>
      </trkpt>
      <trkpt lat="46.776034254580736" lon="8.284681225195527">
        <ele>2041.01611328125</ele>
        <time>2011-09-23T08:50:12Z</time>
      </trkpt>
      <trkpt lat="46.776050850749016" lon="8.284820364788175">
        <ele>2041.01611328125</ele>
        <time>2011-09-23T08:50:22Z</time>
      </trkpt>
      <trkpt lat="46.776058562099934" lon="8.28490954823792">
        <ele>2041.496826171875</ele>
        <time>2011-09-23T08:50:31Z</time>
      </trkpt>
      <trkpt lat="46.776072140783072" lon="8.284925892949104">
        <ele>2041.01611328125</ele>
        <time>2011-09-23T08:50:39Z</time>
      </trkpt>
      <trkpt lat="46.776074152439833" lon="8.28497014939785">
        <ele>2041.01611328125</ele>
        <time>2011-09-23T08:50:51Z</time>
      </trkpt>
      <trkpt lat="46.776096951216459" lon="8.285092525184155">
        <ele>2040.054931640625</ele>
        <time>2011-09-23T08:51:00Z</time>
      </trkpt>
      <trkpt lat="46.776129137724638" lon="8.285209788009524">
        <ele>2039.57421875</ele>
        <time>2011-09-23T08:51:09Z</time>
      </trkpt>
      <trkpt lat="46.776154618710279" lon="8.285346999764442">
        <ele>2041.496826171875</ele>
        <time>2011-09-23T08:51:20Z</time>
      </trkpt>
      <trkpt lat="46.776170376688242" lon="8.285456718876958">
        <ele>2041.9775390625</ele>
        <time>2011-09-23T08:51:28Z</time>
      </trkpt>
      <trkpt lat="46.776212370023131" lon="8.2855667732656">
        <ele>2041.9775390625</ele>
        <time>2011-09-23T08:51:38Z</time>
      </trkpt>
      <trkpt lat="46.776197869330645" lon="8.285653777420521">
        <ele>2042.938720703125</ele>
        <time>2011-09-23T08:51:43Z</time>
      </trkpt>
      <trkpt lat="46.776217818260193" lon="8.285739272832871">
        <ele>2043.900146484375</ele>
        <time>2011-09-23T08:51:53Z</time>
      </trkpt>
      <trkpt lat="46.776209939271212" lon="8.285808339715004">
        <ele>2043.900146484375</ele>
        <time>2011-09-23T08:52:00Z</time>
      </trkpt>
      <trkpt lat="46.776212537661195" lon="8.285864582285285">
        <ele>2043.41943359375</ele>
        <time>2011-09-23T08:52:10Z</time>
      </trkpt>
      <trkpt lat="46.776231899857521" lon="8.285996094346046">
        <ele>2042.458251953125</ele>
        <time>2011-09-23T08:52:18Z</time>
      </trkpt>
      <trkpt lat="46.776277245953679" lon="8.286026939749718">
        <ele>2045.822998046875</ele>
        <time>2011-09-23T08:52:26Z</time>
      </trkpt>
      <trkpt lat="46.776291662827134" lon="8.286086618900299">
        <ele>2047.264892578125</ele>
        <time>2011-09-23T08:52:33Z</time>
      </trkpt>
      <trkpt lat="46.776309348642826" lon="8.28613699413836">
        <ele>2048.706787109375</ele>
        <time>2011-09-23T08:52:39Z</time>
      </trkpt>
      <trkpt lat="46.776323681697249" lon="8.286208491772413">
        <ele>2050.14892578125</ele>
        <time>2011-09-23T08:52:45Z</time>
      </trkpt>
      <trkpt lat="46.776347067207098" lon="8.286277474835515">
        <ele>2053.994140625</ele>
        <time>2011-09-23T08:52:54Z</time>
      </trkpt>
      <trkpt lat="46.776353269815445" lon="8.286278145387769">
        <ele>2053.994140625</ele>
        <time>2011-09-23T08:52:55Z</time>
      </trkpt>
      <trkpt lat="46.776395095512271" lon="8.286313265562058">
        <ele>2053.994140625</ele>
        <time>2011-09-23T08:53:03Z</time>
      </trkpt>
      <trkpt lat="46.776424599811435" lon="8.286428516730666">
        <ele>2054.474609375</ele>
        <time>2011-09-23T08:53:13Z</time>
      </trkpt>
      <trkpt lat="46.776469023898244" lon="8.286549467593432">
        <ele>2056.8779296875</ele>
        <time>2011-09-23T08:53:24Z</time>
      </trkpt>
      <trkpt lat="46.776479333639145" lon="8.286564890295267">
        <ele>2057.83935546875</ele>
        <time>2011-09-23T08:53:26Z</time>
      </trkpt>
      <trkpt lat="46.776509257033467" lon="8.286688858643174">
        <ele>2059.28125</ele>
        <time>2011-09-23T08:53:36Z</time>
      </trkpt>
      <trkpt lat="46.776546556502581" lon="8.286803020164371">
        <ele>2060.24267578125</ele>
        <time>2011-09-23T08:53:46Z</time>
      </trkpt>
      <trkpt lat="46.776581760495901" lon="8.286858256906271">
        <ele>2061.2041015625</ele>
        <time>2011-09-23T08:53:53Z</time>
      </trkpt>
      <trkpt lat="46.776627358049154" lon="8.286966970190406">
        <ele>2062.64599609375</ele>
        <time>2011-09-23T08:54:03Z</time>
      </trkpt>
      <trkpt lat="46.776635320857167" lon="8.287010136991739">
        <ele>2064.568603515625</ele>
        <time>2011-09-23T08:54:08Z</time>
      </trkpt>
      <trkpt lat="46.776641942560673" lon="8.287049029022455">
        <ele>2066.010498046875</ele>
        <time>2011-09-23T08:54:13Z</time>
      </trkpt>
      <trkpt lat="46.776654347777367" lon="8.287144247442484">
        <ele>2067.452392578125</ele>
        <time>2011-09-23T08:54:22Z</time>
      </trkpt>
      <trkpt lat="46.776663986966014" lon="8.287202082574368">
        <ele>2068.89453125</ele>
        <time>2011-09-23T08:54:28Z</time>
      </trkpt>
      <trkpt lat="46.776668932288885" lon="8.287299228832126">
        <ele>2070.33642578125</ele>
        <time>2011-09-23T08:54:36Z</time>
      </trkpt>
      <trkpt lat="46.776694245636463" lon="8.287419676780701">
        <ele>2071.297607421875</ele>
        <time>2011-09-23T08:54:46Z</time>
      </trkpt>
      <trkpt lat="46.776711260899901" lon="8.287517745047808">
        <ele>2071.297607421875</ele>
        <time>2011-09-23T08:54:53Z</time>
      </trkpt>
      <trkpt lat="46.776732299476862" lon="8.287619082257152">
        <ele>2071.297607421875</ele>
        <time>2011-09-23T08:55:01Z</time>
      </trkpt>
      <trkpt lat="46.776726767420769" lon="8.28770013526082">
        <ele>2072.259033203125</ele>
        <time>2011-09-23T08:55:08Z</time>
      </trkpt>
      <trkpt lat="46.776722073554993" lon="8.287764927372336">
        <ele>2073.220458984375</ele>
        <time>2011-09-23T08:55:13Z</time>
      </trkpt>
      <trkpt lat="46.776728192344308" lon="8.287833826616406">
        <ele>2075.142822265625</ele>
        <time>2011-09-23T08:55:21Z</time>
      </trkpt>
      <trkpt lat="46.776736071333289" lon="8.287878418341279">
        <ele>2076.1044921875</ele>
        <time>2011-09-23T08:55:27Z</time>
      </trkpt>
      <trkpt lat="46.77674981765449" lon="8.287954777479172">
        <ele>2079.468994140625</ele>
        <time>2011-09-23T08:55:36Z</time>
      </trkpt>
      <trkpt lat="46.776755768805742" lon="8.28798545524478">
        <ele>2080.430419921875</ele>
        <time>2011-09-23T08:55:42Z</time>
      </trkpt>
      <trkpt lat="46.776756187900901" lon="8.288006577640772">
        <ele>2079.94970703125</ele>
        <time>2011-09-23T08:55:45Z</time>
      </trkpt>
      <trkpt lat="46.776773454621434" lon="8.28808905556798">
        <ele>2079.94970703125</ele>
        <time>2011-09-23T08:55:53Z</time>
      </trkpt>
      <trkpt lat="46.77678644657135" lon="8.288152171298862">
        <ele>2079.94970703125</ele>
        <time>2011-09-23T08:55:58Z</time>
      </trkpt>
      <trkpt lat="46.776814442127943" lon="8.288244539871812">
        <ele>2080.430419921875</ele>
        <time>2011-09-23T08:56:06Z</time>
      </trkpt>
      <trkpt lat="46.776847634464502" lon="8.28839004971087">
        <ele>2080.9111328125</ele>
        <time>2011-09-23T08:56:18Z</time>
      </trkpt>
      <trkpt lat="46.776815028861165" lon="8.288475796580315">
        <ele>2082.83349609375</ele>
        <time>2011-09-23T08:56:23Z</time>
      </trkpt>
      <trkpt lat="46.776747554540634" lon="8.288636645302177">
        <ele>2084.75634765625</ele>
        <time>2011-09-23T08:56:33Z</time>
      </trkpt>
      <trkpt lat="46.776744369417429" lon="8.288731863722205">
        <ele>2084.75634765625</ele>
        <time>2011-09-23T08:56:41Z</time>
      </trkpt>
      <trkpt lat="46.776699190959334" lon="8.288825154304504">
        <ele>2087.159423828125</ele>
        <time>2011-09-23T08:56:47Z</time>
      </trkpt>
      <trkpt lat="46.776688043028116" lon="8.288916433230043">
        <ele>2088.120849609375</ele>
        <time>2011-09-23T08:56:54Z</time>
      </trkpt>
      <trkpt lat="46.776747135445476" lon="8.288987763226032">
        <ele>2088.120849609375</ele>
        <time>2011-09-23T08:57:02Z</time>
      </trkpt>
      <trkpt lat="46.776812933385372" lon="8.289035456255078">
        <ele>2090.52392578125</ele>
        <time>2011-09-23T08:57:09Z</time>
      </trkpt>
      <trkpt lat="46.776880491524935" lon="8.289086921140552">
        <ele>2091.4853515625</ele>
        <time>2011-09-23T08:57:18Z</time>
      </trkpt>
      <trkpt lat="46.776818716898561" lon="8.289196137338877">
        <ele>2093.408203125</ele>
        <time>2011-09-23T08:57:25Z</time>
      </trkpt>
      <trkpt lat="46.776850735768676" lon="8.289239387959242">
        <ele>2093.408203125</ele>
        <time>2011-09-23T08:57:31Z</time>
      </trkpt>
      <trkpt lat="46.776882754638791" lon="8.289238717406988">
        <ele>2093.408203125</ele>
        <time>2011-09-23T08:57:37Z</time>
      </trkpt>
      <trkpt lat="46.7769496422261" lon="8.289254894480109">
        <ele>2093.408203125</ele>
        <time>2011-09-23T08:57:47Z</time>
      </trkpt>
      <trkpt lat="46.776966825127602" lon="8.289346257224679">
        <ele>2097.25341796875</ele>
        <time>2011-09-23T08:57:54Z</time>
      </trkpt>
      <trkpt lat="46.776968166232109" lon="8.289358662441373">
        <ele>2097.25341796875</ele>
        <time>2011-09-23T08:57:55Z</time>
      </trkpt>
      <trkpt lat="46.776965735480189" lon="8.289412558078766">
        <ele>2106.3857421875</ele>
        <time>2011-09-23T09:08:32Z</time>
      </trkpt>
      <trkpt lat="46.776988785713911" lon="8.289251876994968">
        <ele>2115.5185546875</ele>
        <time>2011-09-23T09:12:18Z</time>
      </trkpt>
      <trkpt lat="46.777000855654478" lon="8.289234777912498">
        <ele>2117.921630859375</ele>
        <time>2011-09-23T09:14:47Z</time>
      </trkpt>
      <trkpt lat="46.777011416852474" lon="8.289249278604984">
        <ele>2129.45751953125</ele>
        <time>2011-09-23T09:18:05Z</time>
      </trkpt>
      <trkpt lat="46.777024827897549" lon="8.289240561425686">
        <ele>2130.899658203125</ele>
        <time>2011-09-23T09:18:12Z</time>
      </trkpt>
      <trkpt lat="46.777038490399718" lon="8.289238717406988">
        <ele>2131.380126953125</ele>
        <time>2011-09-23T09:18:17Z</time>
      </trkpt>
      <trkpt lat="46.77705223672092" lon="8.289229581132531">
        <ele>2133.783447265625</ele>
        <time>2011-09-23T09:18:24Z</time>
      </trkpt>
      <trkpt lat="46.777066569775343" lon="8.289225976914167">
        <ele>2134.744873046875</ele>
        <time>2011-09-23T09:18:31Z</time>
      </trkpt>
      <trkpt lat="46.777068749070168" lon="8.289274256676436">
        <ele>2136.186767578125</ele>
        <time>2011-09-23T09:18:42Z</time>
      </trkpt>
      <trkpt lat="46.777070760726929" lon="8.289297893643379">
        <ele>2136.667236328125</ele>
        <time>2011-09-23T09:18:49Z</time>
      </trkpt>
      <trkpt lat="46.777078555896878" lon="8.289314741268754">
        <ele>2140.5126953125</ele>
        <time>2011-09-23T09:19:08Z</time>
      </trkpt>
      <trkpt lat="46.777078388258815" lon="8.289299318566918">
        <ele>2141.954833984375</ele>
        <time>2011-09-23T09:20:24Z</time>
      </trkpt>
      <trkpt lat="46.777080986648798" lon="8.289307616651058">
        <ele>2143.396728515625</ele>
        <time>2011-09-23T09:20:36Z</time>
      </trkpt>
      <trkpt lat="46.777088697999716" lon="8.289316752925515">
        <ele>2144.838623046875</ele>
        <time>2011-09-23T09:20:42Z</time>
      </trkpt>
      <trkpt lat="46.777102528139949" lon="8.289338797330856">
        <ele>2147.241943359375</ele>
        <time>2011-09-23T09:20:52Z</time>
      </trkpt>
      <trkpt lat="46.777119459584355" lon="8.289346843957901">
        <ele>2145.800048828125</ele>
        <time>2011-09-23T09:20:59Z</time>
      </trkpt>
      <trkpt lat="46.77716807462275" lon="8.289345419034362">
        <ele>2147.72265625</ele>
        <time>2011-09-23T09:21:07Z</time>
      </trkpt>
      <trkpt lat="46.777199087664485" lon="8.289335360750556">
        <ele>2149.16455078125</ele>
        <time>2011-09-23T09:21:13Z</time>
      </trkpt>
      <trkpt lat="46.777232363820076" lon="8.289315579459071">
        <ele>2149.16455078125</ele>
        <time>2011-09-23T09:21:50Z</time>
      </trkpt>
      <trkpt lat="46.777230855077505" lon="8.289337120950222">
        <ele>2149.16455078125</ele>
        <time>2011-09-23T09:22:30Z</time>
      </trkpt>
      <trkpt lat="46.777239153161645" lon="8.289339719340205">
        <ele>2149.645263671875</ele>
        <time>2011-09-23T09:22:36Z</time>
      </trkpt>
      <trkpt lat="46.777267148718238" lon="8.289403924718499">
        <ele>2150.1259765625</ele>
        <time>2011-09-23T09:22:43Z</time>
      </trkpt>
      <trkpt lat="46.777287516742945" lon="8.28944843262434">
        <ele>2151.56787109375</ele>
        <time>2011-09-23T09:22:46Z</time>
      </trkpt>
      <trkpt lat="46.777330683544278" lon="8.289529150351882">
        <ele>2152.529052734375</ele>
        <time>2011-09-23T09:22:55Z</time>
      </trkpt>
      <trkpt lat="46.777347028255463" lon="8.289586147293448">
        <ele>2153.009765625</ele>
        <time>2011-09-23T09:23:06Z</time>
      </trkpt>
      <trkpt lat="46.777356583625078" lon="8.289706595242024">
        <ele>2153.490478515625</ele>
        <time>2011-09-23T09:23:15Z</time>
      </trkpt>
      <trkpt lat="46.777369491755962" lon="8.289808938279748">
        <ele>2154.45166015625</ele>
        <time>2011-09-23T09:23:22Z</time>
      </trkpt>
      <trkpt lat="46.777380639687181" lon="8.289905749261379">
        <ele>2155.8935546875</ele>
        <time>2011-09-23T09:23:29Z</time>
      </trkpt>
      <trkpt lat="46.777380052953959" lon="8.290022844448686">
        <ele>2157.3359375</ele>
        <time>2011-09-23T09:23:38Z</time>
      </trkpt>
      <trkpt lat="46.777382483705878" lon="8.290036926046014">
        <ele>2157.3359375</ele>
        <time>2011-09-23T09:23:39Z</time>
      </trkpt>
      <trkpt lat="46.777386423200369" lon="8.290123762562871">
        <ele>2158.297119140625</ele>
        <time>2011-09-23T09:23:46Z</time>
      </trkpt>
      <trkpt lat="46.777397654950619" lon="8.290304392576218">
        <ele>2159.258544921875</ele>
        <time>2011-09-23T09:23:57Z</time>
      </trkpt>
      <trkpt lat="46.777387177571654" lon="8.290515448898077">
        <ele>2159.739013671875</ele>
        <time>2011-09-23T09:24:09Z</time>
      </trkpt>
      <trkpt lat="46.777372844517231" lon="8.290728181600571">
        <ele>2160.2197265625</ele>
        <time>2011-09-23T09:24:21Z</time>
      </trkpt>
      <trkpt lat="46.777392458170652" lon="8.290928844362497">
        <ele>2160.700439453125</ele>
        <time>2011-09-23T09:24:33Z</time>
      </trkpt>
      <trkpt lat="46.777391117066145" lon="8.291017273440957">
        <ele>2160.700439453125</ele>
        <time>2011-09-23T09:24:38Z</time>
      </trkpt>
      <trkpt lat="46.77733663469553" lon="8.291134620085359">
        <ele>2163.103759765625</ele>
        <time>2011-09-23T09:24:47Z</time>
      </trkpt>
      <trkpt lat="46.777334287762642" lon="8.291145348921418">
        <ele>2163.103759765625</ele>
        <time>2011-09-23T09:24:48Z</time>
      </trkpt>
      <trkpt lat="46.777339987456799" lon="8.291211482137442">
        <ele>2164.545654296875</ele>
        <time>2011-09-23T09:24:53Z</time>
      </trkpt>
      <trkpt lat="46.777352057397366" lon="8.291296055540443">
        <ele>2166.46826171875</ele>
        <time>2011-09-23T09:25:00Z</time>
      </trkpt>
      <trkpt lat="46.777337472885847" lon="8.291382053866983">
        <ele>2167.91015625</ele>
        <time>2011-09-23T09:25:07Z</time>
      </trkpt>
      <trkpt lat="46.777330180630088" lon="8.291432345286012">
        <ele>2168.390869140625</ele>
        <time>2011-09-23T09:25:11Z</time>
      </trkpt>
      <trkpt lat="46.777319116517901" lon="8.291527982801199">
        <ele>2169.832763671875</ele>
        <time>2011-09-23T09:25:19Z</time>
      </trkpt>
      <trkpt lat="46.777318026870489" lon="8.291622698307037">
        <ele>2171.274658203125</ele>
        <time>2011-09-23T09:25:29Z</time>
      </trkpt>
      <trkpt lat="46.77732297219336" lon="8.291671480983496">
        <ele>2172.717041015625</ele>
        <time>2011-09-23T09:25:46Z</time>
      </trkpt>
      <trkpt lat="46.777323726564646" lon="8.291697883978486">
        <ele>2172.236328125</ele>
        <time>2011-09-23T09:26:07Z</time>
      </trkpt>
      <trkpt lat="46.777326660230756" lon="8.291685143485665">
        <ele>2172.717041015625</ele>
        <time>2011-09-23T09:26:19Z</time>
      </trkpt>
      <trkpt lat="46.777314841747284" lon="8.291692854836583">
        <ele>2172.717041015625</ele>
        <time>2011-09-23T09:26:53Z</time>
      </trkpt>
      <trkpt lat="46.777306292206049" lon="8.291700817644596">
        <ele>2172.717041015625</ele>
        <time>2011-09-23T09:27:43Z</time>
      </trkpt>
      <trkpt lat="46.777308052405715" lon="8.29173618927598">
        <ele>2171.75537109375</ele>
        <time>2011-09-23T09:27:52Z</time>
      </trkpt>
      <trkpt lat="46.77730729803443" lon="8.291697464883328">
        <ele>2172.717041015625</ele>
        <time>2011-09-23T09:28:05Z</time>
      </trkpt>
      <trkpt lat="46.777307130396366" lon="8.29172789119184">
        <ele>2172.236328125</ele>
        <time>2011-09-23T09:28:13Z</time>
      </trkpt>
      <trkpt lat="46.777305537834764" lon="8.291710959747434">
        <ele>2172.717041015625</ele>
        <time>2011-09-23T09:28:19Z</time>
      </trkpt>
      <trkpt lat="46.777309896424413" lon="8.291689334437251">
        <ele>2172.236328125</ele>
        <time>2011-09-23T09:28:22Z</time>
      </trkpt>
      <trkpt lat="46.777342334389687" lon="8.291678940877318">
        <ele>2171.75537109375</ele>
        <time>2011-09-23T09:28:31Z</time>
      </trkpt>
      <trkpt lat="46.777350967749953" lon="8.291629236191511">
        <ele>2170.794189453125</ele>
        <time>2011-09-23T09:28:36Z</time>
      </trkpt>
      <trkpt lat="46.777362786233425" lon="8.291591266170144">
        <ele>2170.794189453125</ele>
        <time>2011-09-23T09:28:39Z</time>
      </trkpt>
      <trkpt lat="46.777369659394026" lon="8.291533431038261">
        <ele>2170.3134765625</ele>
        <time>2011-09-23T09:28:43Z</time>
      </trkpt>
      <trkpt lat="46.777403522282839" lon="8.291447684168816">
        <ele>2167.429443359375</ele>
        <time>2011-09-23T09:28:50Z</time>
      </trkpt>
      <trkpt lat="46.777431853115559" lon="8.291400242596865">
        <ele>2165.987548828125</ele>
        <time>2011-09-23T09:28:55Z</time>
      </trkpt>
      <trkpt lat="46.777397822588682" lon="8.29119429923594">
        <ele>2163.584228515625</ele>
        <time>2011-09-23T09:29:06Z</time>
      </trkpt>
      <trkpt lat="46.777389524504542" lon="8.291058344766498">
        <ele>2162.623046875</ele>
        <time>2011-09-23T09:29:13Z</time>
      </trkpt>
      <trkpt lat="46.77735909819603" lon="8.290902692824602">
        <ele>2161.661865234375</ele>
        <time>2011-09-23T09:29:21Z</time>
      </trkpt>
      <trkpt lat="46.77734736353159" lon="8.290712758898735">
        <ele>2161.18115234375</ele>
        <time>2011-09-23T09:29:31Z</time>
      </trkpt>
      <trkpt lat="46.777347950264812" lon="8.290563225746155">
        <ele>2160.700439453125</ele>
        <time>2011-09-23T09:29:41Z</time>
      </trkpt>
      <trkpt lat="46.777353733778" lon="8.290499858558178">
        <ele>2160.700439453125</ele>
        <time>2011-09-23T09:29:47Z</time>
      </trkpt>
      <trkpt lat="46.777357086539268" lon="8.290273547172546">
        <ele>2159.739013671875</ele>
        <time>2011-09-23T09:30:00Z</time>
      </trkpt>
      <trkpt lat="46.777352979406714" lon="8.290058467537165">
        <ele>2158.77783203125</ele>
        <time>2011-09-23T09:30:12Z</time>
      </trkpt>
      <trkpt lat="46.777333784848452" lon="8.289900049567223">
        <ele>2156.37451171875</ele>
        <time>2011-09-23T09:30:21Z</time>
      </trkpt>
      <trkpt lat="46.777331437915564" lon="8.289748756214976">
        <ele>2154.932373046875</ele>
        <time>2011-09-23T09:30:30Z</time>
      </trkpt>
      <trkpt lat="46.777316518127918" lon="8.289596289396286">
        <ele>2153.97119140625</ele>
        <time>2011-09-23T09:30:39Z</time>
      </trkpt>
      <trkpt lat="46.777305118739605" lon="8.289515823125839">
        <ele>2153.490478515625</ele>
        <time>2011-09-23T09:30:44Z</time>
      </trkpt>
      <trkpt lat="46.777274440973997" lon="8.28940593637526">
        <ele>2152.04833984375</ele>
        <time>2011-09-23T09:30:50Z</time>
      </trkpt>
      <trkpt lat="46.777237392961979" lon="8.289240729063749">
        <ele>2149.645263671875</ele>
        <time>2011-09-23T09:31:00Z</time>
      </trkpt>
      <trkpt lat="46.777214594185352" lon="8.289152132347226">
        <ele>2148.203125</ele>
        <time>2011-09-23T09:31:05Z</time>
      </trkpt>
      <trkpt lat="46.777196153998375" lon="8.288945853710175">
        <ele>2147.72265625</ele>
        <time>2011-09-23T09:31:16Z</time>
      </trkpt>
      <trkpt lat="46.777200261130929" lon="8.288772432133555">
        <ele>2147.241943359375</ele>
        <time>2011-09-23T09:31:26Z</time>
      </trkpt>
      <trkpt lat="46.777213588356972" lon="8.288627592846751">
        <ele>2144.35791015625</ele>
        <time>2011-09-23T09:31:34Z</time>
      </trkpt>
      <trkpt lat="46.777212582528591" lon="8.288607727736235">
        <ele>2144.35791015625</ele>
        <time>2011-09-23T09:31:35Z</time>
      </trkpt>
      <trkpt lat="46.777225825935602" lon="8.288452327251434">
        <ele>2142.435546875</ele>
        <time>2011-09-23T09:31:44Z</time>
      </trkpt>
      <trkpt lat="46.777227250859141" lon="8.288334393873811">
        <ele>2138.590087890625</ele>
        <time>2011-09-23T09:31:51Z</time>
      </trkpt>
      <trkpt lat="46.777232531458139" lon="8.288211096078157">
        <ele>2136.186767578125</ele>
        <time>2011-09-23T09:31:59Z</time>
      </trkpt>
      <trkpt lat="46.777203865349293" lon="8.288047648966312">
        <ele>2133.783447265625</ele>
        <time>2011-09-23T09:32:09Z</time>
      </trkpt>
      <trkpt lat="46.777190119028091" lon="8.287960728630424">
        <ele>2131.86083984375</ele>
        <time>2011-09-23T09:32:14Z</time>
      </trkpt>
      <trkpt lat="46.777173187583685" lon="8.287899540737271">
        <ele>2130.4189453125</ele>
        <time>2011-09-23T09:32:18Z</time>
      </trkpt>
      <trkpt lat="46.777168577536941" lon="8.287806082516909">
        <ele>2128.976806640625</ele>
        <time>2011-09-23T09:32:23Z</time>
      </trkpt>
      <trkpt lat="46.7771240696311" lon="8.287623273208737">
        <ele>2126.093017578125</ele>
        <time>2011-09-23T09:32:32Z</time>
      </trkpt>
      <trkpt lat="46.777099762111902" lon="8.287468459457159">
        <ele>2124.651123046875</ele>
        <time>2011-09-23T09:32:40Z</time>
      </trkpt>
      <trkpt lat="46.777092134580016" lon="8.287257235497236">
        <ele>2122.728271484375</ele>
        <time>2011-09-23T09:32:51Z</time>
      </trkpt>
      <trkpt lat="46.777106383815408" lon="8.287103092297912">
        <ele>2120.8056640625</ele>
        <time>2011-09-23T09:32:59Z</time>
      </trkpt>
      <trkpt lat="46.777118453755975" lon="8.287064619362354">
        <ele>2119.36376953125</ele>
        <time>2011-09-23T09:33:42Z</time>
      </trkpt>
      <trkpt lat="46.777137899771333" lon="8.286975855007768">
        <ele>2118.40234375</ele>
        <time>2011-09-23T09:33:53Z</time>
      </trkpt>
      <trkpt lat="46.777185760438442" lon="8.286825148388743">
        <ele>2117.44091796875</ele>
        <time>2011-09-23T09:34:02Z</time>
      </trkpt>
      <trkpt lat="46.777214678004384" lon="8.286721967160702">
        <ele>2115.9990234375</ele>
        <time>2011-09-23T09:34:08Z</time>
      </trkpt>
      <trkpt lat="46.777230771258473" lon="8.286628844216466">
        <ele>2114.076416015625</ele>
        <time>2011-09-23T09:34:14Z</time>
      </trkpt>
      <trkpt lat="46.777236387133598" lon="8.286595568060875">
        <ele>2114.076416015625</ele>
        <time>2011-09-23T09:34:22Z</time>
      </trkpt>
      <trkpt lat="46.777244685217738" lon="8.286552736535668">
        <ele>2112.634521484375</ele>
        <time>2011-09-23T09:34:38Z</time>
      </trkpt>
      <trkpt lat="46.777264634147286" lon="8.286460284143686">
        <ele>2110.7119140625</ele>
        <time>2011-09-23T09:34:42Z</time>
      </trkpt>
      <trkpt lat="46.777271674945951" lon="8.286414099857211">
        <ele>2110.231201171875</ele>
        <time>2011-09-23T09:34:44Z</time>
      </trkpt>
      <trkpt lat="46.77728584036231" lon="8.286220142617822">
        <ele>2106.866455078125</ele>
        <time>2011-09-23T09:34:53Z</time>
      </trkpt>
      <trkpt lat="46.777299419045448" lon="8.286103885620832">
        <ele>2103.501953125</ele>
        <time>2011-09-23T09:34:58Z</time>
      </trkpt>
      <trkpt lat="46.777305956929922" lon="8.286004057154059">
        <ele>2100.137451171875</ele>
        <time>2011-09-23T09:35:01Z</time>
      </trkpt>
      <trkpt lat="46.777310818433762" lon="8.285962231457233">
        <ele>2100.137451171875</ele>
        <time>2011-09-23T09:35:02Z</time>
      </trkpt>
      <trkpt lat="46.77733026444912" lon="8.285804484039545">
        <ele>2099.176025390625</ele>
        <time>2011-09-23T09:35:08Z</time>
      </trkpt>
      <trkpt lat="46.777346525341272" lon="8.28558286651969">
        <ele>2099.176025390625</ele>
        <time>2011-09-23T09:35:18Z</time>
      </trkpt>
      <trkpt lat="46.777377454563975" lon="8.285336187109351">
        <ele>2100.137451171875</ele>
        <time>2011-09-23T09:35:30Z</time>
      </trkpt>
      <trkpt lat="46.777418525889516" lon="8.285160921514034">
        <ele>2097.734130859375</ele>
        <time>2011-09-23T09:35:40Z</time>
      </trkpt>
      <trkpt lat="46.777455825358629" lon="8.28503075055778">
        <ele>2097.734130859375</ele>
        <time>2011-09-23T09:35:49Z</time>
      </trkpt>
      <trkpt lat="46.777510643005371" lon="8.284887252375484">
        <ele>2095.330810546875</ele>
        <time>2011-09-23T09:35:57Z</time>
      </trkpt>
      <trkpt lat="46.77753109484911" lon="8.284709639847279">
        <ele>2092.927490234375</ele>
        <time>2011-09-23T09:36:07Z</time>
      </trkpt>
      <trkpt lat="46.77750812843442" lon="8.284526998177171">
        <ele>2090.52392578125</ele>
        <time>2011-09-23T09:36:17Z</time>
      </trkpt>
      <trkpt lat="46.777459345757961" lon="8.284396156668663">
        <ele>2087.159423828125</ele>
        <time>2011-09-23T09:36:26Z</time>
      </trkpt>
      <trkpt lat="46.777421878650784" lon="8.284287359565496">
        <ele>2083.794921875</ele>
        <time>2011-09-23T09:36:32Z</time>
      </trkpt>
      <trkpt lat="46.777414670214057" lon="8.284267242997885">
        <ele>2083.794921875</ele>
        <time>2011-09-23T09:36:33Z</time>
      </trkpt>
      <trkpt lat="46.777395140379667" lon="8.28415509313345">
        <ele>2080.9111328125</ele>
        <time>2011-09-23T09:36:38Z</time>
      </trkpt>
      <trkpt lat="46.777386423200369" lon="8.284002039581537">
        <ele>2079.94970703125</ele>
        <time>2011-09-23T09:36:46Z</time>
      </trkpt>
      <trkpt lat="46.777390530332923" lon="8.283941522240639">
        <ele>2078.5078125</ele>
        <time>2011-09-23T09:36:49Z</time>
      </trkpt>
      <trkpt lat="46.777389775961637" lon="8.283864744007587">
        <ele>2077.06591796875</ele>
        <time>2011-09-23T09:36:53Z</time>
      </trkpt>
      <trkpt lat="46.777383154258132" lon="8.283696016296744">
        <ele>2074.181640625</ele>
        <time>2011-09-23T09:37:02Z</time>
      </trkpt>
      <trkpt lat="46.777372928336263" lon="8.283655866980553">
        <ele>2073.220458984375</ele>
        <time>2011-09-23T09:37:04Z</time>
      </trkpt>
      <trkpt lat="46.777315428480506" lon="8.283499795943499">
        <ele>2072.73974609375</ele>
        <time>2011-09-23T09:37:13Z</time>
      </trkpt>
      <trkpt lat="46.777281481772661" lon="8.283348921686411">
        <ele>2072.73974609375</ele>
        <time>2011-09-23T09:37:21Z</time>
      </trkpt>
      <trkpt lat="46.777208391577005" lon="8.283127890899777">
        <ele>2071.297607421875</ele>
        <time>2011-09-23T09:37:33Z</time>
      </trkpt>
      <trkpt lat="46.777114262804389" lon="8.282924378290772">
        <ele>2069.375244140625</ele>
        <time>2011-09-23T09:37:45Z</time>
      </trkpt>
      <trkpt lat="46.777047291398048" lon="8.282725056633353">
        <ele>2067.452392578125</ele>
        <time>2011-09-23T09:37:56Z</time>
      </trkpt>
      <trkpt lat="46.776982666924596" lon="8.282458763569593">
        <ele>2066.010498046875</ele>
        <time>2011-09-23T09:38:10Z</time>
      </trkpt>
      <trkpt lat="46.776921646669507" lon="8.282267823815346">
        <ele>2065.04931640625</ele>
        <time>2011-09-23T09:38:21Z</time>
      </trkpt>
      <trkpt lat="46.776879318058491" lon="8.282126253470779">
        <ele>2062.165283203125</ele>
        <time>2011-09-23T09:38:29Z</time>
      </trkpt>
      <trkpt lat="46.776798265054822" lon="8.281948640942574">
        <ele>2061.684814453125</ele>
        <time>2011-09-23T09:38:40Z</time>
      </trkpt>
      <trkpt lat="46.776765659451485" lon="8.281744038686156">
        <ele>2062.165283203125</ele>
        <time>2011-09-23T09:38:52Z</time>
      </trkpt>
      <trkpt lat="46.776765575632453" lon="8.281561648473144">
        <ele>2060.24267578125</ele>
        <time>2011-09-23T09:39:02Z</time>
      </trkpt>
      <trkpt lat="46.776714865118265" lon="8.281348831951618">
        <ele>2057.358642578125</ele>
        <time>2011-09-23T09:39:13Z</time>
      </trkpt>
      <trkpt lat="46.776704052463174" lon="8.281143140047789">
        <ele>2054.474609375</ele>
        <time>2011-09-23T09:39:24Z</time>
      </trkpt>
      <trkpt lat="46.776717882603407" lon="8.280933173373342">
        <ele>2051.5908203125</ele>
        <time>2011-09-23T09:39:35Z</time>
      </trkpt>
      <trkpt lat="46.776720732450485" lon="8.280694456771016">
        <ele>2052.0712890625</ele>
        <time>2011-09-23T09:39:47Z</time>
      </trkpt>
      <trkpt lat="46.776747889816761" lon="8.280502259731293">
        <ele>2050.62939453125</ele>
        <time>2011-09-23T09:39:57Z</time>
      </trkpt>
      <trkpt lat="46.776798432692885" lon="8.280358929187059">
        <ele>2048.22607421875</ele>
        <time>2011-09-23T09:40:06Z</time>
      </trkpt>
      <trkpt lat="46.776900440454483" lon="8.280205121263862">
        <ele>2045.34228515625</ele>
        <time>2011-09-23T09:40:16Z</time>
      </trkpt>
      <trkpt lat="46.776978643611073" lon="8.280029855668545">
        <ele>2045.34228515625</ele>
        <time>2011-09-23T09:40:26Z</time>
      </trkpt>
      <trkpt lat="46.777009656652808" lon="8.279809579253197">
        <ele>2042.458251953125</ele>
        <time>2011-09-23T09:40:37Z</time>
      </trkpt>
      <trkpt lat="46.777022564783692" lon="8.279575388878584">
        <ele>2039.57421875</ele>
        <time>2011-09-23T09:40:48Z</time>
      </trkpt>
      <trkpt lat="46.777007225900888" lon="8.279331978410482">
        <ele>2039.57421875</ele>
        <time>2011-09-23T09:41:00Z</time>
      </trkpt>
      <trkpt lat="46.777022648602724" lon="8.279089322313666">
        <ele>2039.093505859375</ele>
        <time>2011-09-23T09:41:12Z</time>
      </trkpt>
      <trkpt lat="46.777045447379351" lon="8.278912296518683">
        <ele>2039.57421875</ele>
        <time>2011-09-23T09:41:22Z</time>
      </trkpt>
      <trkpt lat="46.777120130136609" lon="8.278745161369443">
        <ele>2039.57421875</ele>
        <time>2011-09-23T09:41:33Z</time>
      </trkpt>
      <trkpt lat="46.777217192575336" lon="8.27863996848464">
        <ele>2039.57421875</ele>
        <time>2011-09-23T09:41:44Z</time>
      </trkpt>
      <trkpt lat="46.777334539219737" lon="8.278547851368785">
        <ele>2038.613037109375</ele>
        <time>2011-09-23T09:41:55Z</time>
      </trkpt>
      <trkpt lat="46.777443923056126" lon="8.278474761173129">
        <ele>2037.651611328125</ele>
        <time>2011-09-23T09:42:05Z</time>
      </trkpt>
      <trkpt lat="46.777513576671481" lon="8.278466295450926">
        <ele>2038.13232421875</ele>
        <time>2011-09-23T09:42:12Z</time>
      </trkpt>
      <trkpt lat="46.777593623846769" lon="8.278452549129725">
        <ele>2039.57421875</ele>
        <time>2011-09-23T09:42:21Z</time>
      </trkpt>
      <trkpt lat="46.777639975771308" lon="8.278430169448257">
        <ele>2039.57421875</ele>
        <time>2011-09-23T09:42:27Z</time>
      </trkpt>
      <trkpt lat="46.777687836438417" lon="8.278387421742082">
        <ele>2040.535400390625</ele>
        <time>2011-09-23T09:42:36Z</time>
      </trkpt>
      <trkpt lat="46.777694541960955" lon="8.278386918827891">
        <ele>2041.01611328125</ele>
        <time>2011-09-23T09:42:37Z</time>
      </trkpt>
      <trkpt lat="46.777754556387663" lon="8.278383566066623">
        <ele>2041.01611328125</ele>
        <time>2011-09-23T09:42:43Z</time>
      </trkpt>
      <trkpt lat="46.777781629934907" lon="8.278368227183819">
        <ele>2040.535400390625</ele>
        <time>2011-09-23T09:42:46Z</time>
      </trkpt>
      <trkpt lat="46.777864778414369" lon="8.278353475034237">
        <ele>2041.01611328125</ele>
        <time>2011-09-23T09:42:54Z</time>
      </trkpt>
      <trkpt lat="46.77789805456996" lon="8.278352385386825">
        <ele>2040.054931640625</ele>
        <time>2011-09-23T09:42:57Z</time>
      </trkpt>
      <trkpt lat="46.777926050126553" lon="8.278357246890664">
        <ele>2040.054931640625</ele>
        <time>2011-09-23T09:43:00Z</time>
      </trkpt>
      <trkpt lat="46.777961254119873" lon="8.278362862765789">
        <ele>2040.054931640625</ele>
        <time>2011-09-23T09:43:04Z</time>
      </trkpt>
      <trkpt lat="46.77799042314291" lon="8.278369819745421">
        <ele>2040.054931640625</ele>
        <time>2011-09-23T09:43:07Z</time>
      </trkpt>
      <trkpt lat="46.77804859355092" lon="8.278383985161781">
        <ele>2041.01611328125</ele>
        <time>2011-09-23T09:43:15Z</time>
      </trkpt>
      <trkpt lat="46.77809402346611" lon="8.278414746746421">
        <ele>2041.01611328125</ele>
        <time>2011-09-23T09:43:23Z</time>
      </trkpt>
      <trkpt lat="46.778127131983638" lon="8.278399826958776">
        <ele>2041.496826171875</ele>
        <time>2011-09-23T09:43:35Z</time>
      </trkpt>
      <trkpt lat="46.778142638504505" lon="8.278402760624886">
        <ele>2041.496826171875</ele>
        <time>2011-09-23T09:43:37Z</time>
      </trkpt>
      <trkpt lat="46.77821078337729" lon="8.278392869979143">
        <ele>2041.01611328125</ele>
        <time>2011-09-23T09:43:46Z</time>
      </trkpt>
      <trkpt lat="46.778206676244736" lon="8.278361354023218">
        <ele>2041.496826171875</ele>
        <time>2011-09-23T09:44:13Z</time>
      </trkpt>
      <trkpt lat="46.778236767277122" lon="8.278336878865957">
        <ele>2041.01611328125</ele>
        <time>2011-09-23T09:44:18Z</time>
      </trkpt>
      <trkpt lat="46.778236934915185" lon="8.2783277425915">
        <ele>2040.535400390625</ele>
        <time>2011-09-23T09:44:19Z</time>
      </trkpt>
      <trkpt lat="46.778190499171615" lon="8.278178628534079">
        <ele>2038.13232421875</ele>
        <time>2011-09-23T09:44:28Z</time>
      </trkpt>
      <trkpt lat="46.778178093954921" lon="8.278115764260292">
        <ele>2036.690185546875</ele>
        <time>2011-09-23T09:44:34Z</time>
      </trkpt>
      <trkpt lat="46.778169963508844" lon="8.278084751218557">
        <ele>2035.72900390625</ele>
        <time>2011-09-23T09:44:37Z</time>
      </trkpt>
      <trkpt lat="46.778178345412016" lon="8.278002273291349">
        <ele>2034.287109375</ele>
        <time>2011-09-23T09:44:45Z</time>
      </trkpt>
      <trkpt lat="46.778160156682134" lon="8.277932871133089">
        <ele>2033.806396484375</ele>
        <time>2011-09-23T09:44:53Z</time>
      </trkpt>
      <trkpt lat="46.778134256601334" lon="8.27785667963326">
        <ele>2032.844970703125</ele>
        <time>2011-09-23T09:45:01Z</time>
      </trkpt>
      <trkpt lat="46.778064770624042" lon="8.277793563902378">
        <ele>2032.364501953125</ele>
        <time>2011-09-23T09:45:08Z</time>
      </trkpt>
      <trkpt lat="46.778023196384311" lon="8.277726173400879">
        <ele>2032.364501953125</ele>
        <time>2011-09-23T09:45:15Z</time>
      </trkpt>
      <trkpt lat="46.778011964634061" lon="8.277643192559481">
        <ele>2029.961181640625</ele>
        <time>2011-09-23T09:45:20Z</time>
      </trkpt>
      <trkpt lat="46.777934767305851" lon="8.277521068230271">
        <ele>2027.0771484375</ele>
        <time>2011-09-23T09:45:28Z</time>
      </trkpt>
      <trkpt lat="46.77789025940001" lon="8.27736315317452">
        <ele>2025.154296875</ele>
        <time>2011-09-23T09:45:35Z</time>
      </trkpt>
      <trkpt lat="46.777841225266457" lon="8.277172883972526">
        <ele>2023.23193359375</ele>
        <time>2011-09-23T09:45:45Z</time>
      </trkpt>
      <trkpt lat="46.777784647420049" lon="8.277025194838643">
        <ele>2020.347900390625</ele>
        <time>2011-09-23T09:45:53Z</time>
      </trkpt>
      <trkpt lat="46.77766403183341" lon="8.276850264519453">
        <ele>2019.38671875</ele>
        <time>2011-09-23T09:46:05Z</time>
      </trkpt>
      <trkpt lat="46.777561353519559" lon="8.276663348078728">
        <ele>2018.42529296875</ele>
        <time>2011-09-23T09:46:18Z</time>
      </trkpt>
      <trkpt lat="46.777492957189679" lon="8.276458997279406">
        <ele>2017.4638671875</ele>
        <time>2011-09-23T09:46:30Z</time>
      </trkpt>
      <trkpt lat="46.777464542537928" lon="8.276422033086419">
        <ele>2016.9833984375</ele>
        <time>2011-09-23T09:46:36Z</time>
      </trkpt>
      <trkpt lat="46.777445347979665" lon="8.276386661455035">
        <ele>2016.02197265625</ele>
        <time>2011-09-23T09:46:43Z</time>
      </trkpt>
      <trkpt lat="46.777394721284509" lon="8.276285659521818">
        <ele>2014.580078125</ele>
        <time>2011-09-23T09:46:50Z</time>
      </trkpt>
      <trkpt lat="46.777331018820405" lon="8.276199828833342">
        <ele>2011.696044921875</ele>
        <time>2011-09-23T09:46:57Z</time>
      </trkpt>
      <trkpt lat="46.777304532006383" lon="8.276153225451708">
        <ele>2009.773193359375</ele>
        <time>2011-09-23T09:47:01Z</time>
      </trkpt>
      <trkpt lat="46.77723353728652" lon="8.276074016466737">
        <ele>2006.889404296875</ele>
        <time>2011-09-23T09:47:09Z</time>
      </trkpt>
      <trkpt lat="46.777184335514903" lon="8.276047529652715">
        <ele>2005.447509765625</ele>
        <time>2011-09-23T09:47:13Z</time>
      </trkpt>
      <trkpt lat="46.777086518704891" lon="8.276019534096122">
        <ele>2003.044189453125</ele>
        <time>2011-09-23T09:47:21Z</time>
      </trkpt>
      <trkpt lat="46.777063719928265" lon="8.275990951806307">
        <ele>2002.082763671875</ele>
        <time>2011-09-23T09:47:24Z</time>
      </trkpt>
      <trkpt lat="46.777002196758986" lon="8.275881484150887">
        <ele>1998.237548828125</ele>
        <time>2011-09-23T09:47:31Z</time>
      </trkpt>
      <trkpt lat="46.77699607796967" lon="8.275865474715829">
        <ele>1998.237548828125</ele>
        <time>2011-09-23T09:47:32Z</time>
      </trkpt>
      <trkpt lat="46.776988785713911" lon="8.275811243802309">
        <ele>1996.795654296875</ele>
        <time>2011-09-23T09:47:35Z</time>
      </trkpt>
      <trkpt lat="46.776982164010406" lon="8.275774028152227">
        <ele>1995.353515625</ele>
        <time>2011-09-23T09:47:37Z</time>
      </trkpt>
      <trkpt lat="46.777045363560319" lon="8.275594990700483">
        <ele>1993.430908203125</ele>
        <time>2011-09-23T09:47:47Z</time>
      </trkpt>
      <trkpt lat="46.777137899771333" lon="8.275450067594647">
        <ele>1991.027587890625</ele>
        <time>2011-09-23T09:47:58Z</time>
      </trkpt>
      <trkpt lat="46.777179474011064" lon="8.27530212700367">
        <ele>1987.6630859375</ele>
        <time>2011-09-23T09:48:08Z</time>
      </trkpt>
      <trkpt lat="46.77714804187417" lon="8.275165418162942">
        <ele>1984.779296875</ele>
        <time>2011-09-23T09:48:16Z</time>
      </trkpt>
      <trkpt lat="46.777084255591035" lon="8.275004737079144">
        <ele>1982.3759765625</ele>
        <time>2011-09-23T09:48:27Z</time>
      </trkpt>
      <trkpt lat="46.776999682188034" lon="8.274892251938582">
        <ele>1979.49169921875</ele>
        <time>2011-09-23T09:48:37Z</time>
      </trkpt>
      <trkpt lat="46.776993982493877" lon="8.274881020188332">
        <ele>1979.010986328125</ele>
        <time>2011-09-23T09:48:38Z</time>
      </trkpt>
      <trkpt lat="46.776918293908238" lon="8.274826286360622">
        <ele>1977.088623046875</ele>
        <time>2011-09-23T09:48:46Z</time>
      </trkpt>
      <trkpt lat="46.776794577017426" lon="8.274790495634079">
        <ele>1976.127197265625</ele>
        <time>2011-09-23T09:48:57Z</time>
      </trkpt>
      <trkpt lat="46.776665076613426" lon="8.274791417643428">
        <ele>1973.723876953125</ele>
        <time>2011-09-23T09:49:09Z</time>
      </trkpt>
      <trkpt lat="46.776575893163681" lon="8.274832656607032">
        <ele>1971.320556640625</ele>
        <time>2011-09-23T09:49:18Z</time>
      </trkpt>
      <trkpt lat="46.776484698057175" lon="8.274864926934242">
        <ele>1969.398193359375</ele>
        <time>2011-09-23T09:49:26Z</time>
      </trkpt>
      <trkpt lat="46.776343630626798" lon="8.274879427626729">
        <ele>1966.51416015625</ele>
        <time>2011-09-23T09:49:37Z</time>
      </trkpt>
      <trkpt lat="46.776209687814116" lon="8.274864256381989">
        <ele>1965.072265625</ele>
        <time>2011-09-23T09:49:47Z</time>
      </trkpt>
      <trkpt lat="46.776085635647178" lon="8.274753028526902">
        <ele>1964.11083984375</ele>
        <time>2011-09-23T09:49:58Z</time>
      </trkpt>
      <trkpt lat="46.776033835485578" lon="8.274547336623073">
        <ele>1962.18798828125</ele>
        <time>2011-09-23T09:50:09Z</time>
      </trkpt>
      <trkpt lat="46.776036517694592" lon="8.274312391877174">
        <ele>1961.226806640625</ele>
        <time>2011-09-23T09:50:22Z</time>
      </trkpt>
      <trkpt lat="46.776023525744677" lon="8.274154393002391">
        <ele>1958.3427734375</ele>
        <time>2011-09-23T09:50:32Z</time>
      </trkpt>
      <trkpt lat="46.776005169376731" lon="8.274077950045466">
        <ele>1956.90087890625</ele>
        <time>2011-09-23T09:50:37Z</time>
      </trkpt>
      <trkpt lat="46.775952279567719" lon="8.273878963664174">
        <ele>1954.49755859375</ele>
        <time>2011-09-23T09:50:49Z</time>
      </trkpt>
      <trkpt lat="46.775925541296601" lon="8.273720797151327">
        <ele>1951.133056640625</ele>
        <time>2011-09-23T09:50:58Z</time>
      </trkpt>
      <trkpt lat="46.775886816903949" lon="8.273537987843156">
        <ele>1950.171875</ele>
        <time>2011-09-23T09:51:08Z</time>
      </trkpt>
      <trkpt lat="46.775831580162048" lon="8.273333050310612">
        <ele>1948.729736328125</ele>
        <time>2011-09-23T09:51:20Z</time>
      </trkpt>
      <trkpt lat="46.775775924324989" lon="8.273149318993092">
        <ele>1946.806884765625</ele>
        <time>2011-09-23T09:51:31Z</time>
      </trkpt>
      <trkpt lat="46.775756981223822" lon="8.273059884086251">
        <ele>1944.88427734375</ele>
        <time>2011-09-23T09:51:36Z</time>
      </trkpt>
      <trkpt lat="46.775734098628163" lon="8.272904818877578">
        <ele>1942.481201171875</ele>
        <time>2011-09-23T09:51:45Z</time>
      </trkpt>
      <trkpt lat="46.775715993717313" lon="8.27277054078877">
        <ele>1939.59716796875</ele>
        <time>2011-09-23T09:51:52Z</time>
      </trkpt>
      <trkpt lat="46.775697385892272" lon="8.272578427568078">
        <ele>1937.19384765625</ele>
        <time>2011-09-23T09:52:02Z</time>
      </trkpt>
      <trkpt lat="46.775686740875244" lon="8.272373657673597">
        <ele>1936.232666015625</ele>
        <time>2011-09-23T09:52:13Z</time>
      </trkpt>
      <trkpt lat="46.775650195777416" lon="8.272197134792805">
        <ele>1934.790771484375</ele>
        <time>2011-09-23T09:52:23Z</time>
      </trkpt>
      <trkpt lat="46.775555061176419" lon="8.272033184766769">
        <ele>1932.867919921875</ele>
        <time>2011-09-23T09:52:34Z</time>
      </trkpt>
      <trkpt lat="46.775459758937359" lon="8.271843753755093">
        <ele>1932.867919921875</ele>
        <time>2011-09-23T09:52:46Z</time>
      </trkpt>
      <trkpt lat="46.775413323193789" lon="8.271628171205521">
        <ele>1932.387451171875</ele>
        <time>2011-09-23T09:52:58Z</time>
      </trkpt>
      <trkpt lat="46.77535867318511" lon="8.271371768787503">
        <ele>1932.867919921875</ele>
        <time>2011-09-23T09:53:12Z</time>
      </trkpt>
      <trkpt lat="46.775274770334363" lon="8.271138919517398">
        <ele>1932.387451171875</ele>
        <time>2011-09-23T09:53:26Z</time>
      </trkpt>
      <trkpt lat="46.775204697623849" lon="8.270906489342451">
        <ele>1932.387451171875</ele>
        <time>2011-09-23T09:53:39Z</time>
      </trkpt>
      <trkpt lat="46.775141917169094" lon="8.270774642005563">
        <ele>1931.906494140625</ele>
        <time>2011-09-23T09:53:48Z</time>
      </trkpt>
      <trkpt lat="46.774985678493977" lon="8.270664671435952">
        <ele>1930.9453125</ele>
        <time>2011-09-23T09:54:02Z</time>
      </trkpt>
      <trkpt lat="46.774831535294652" lon="8.270635418593884">
        <ele>1930.464599609375</ele>
        <time>2011-09-23T09:54:15Z</time>
      </trkpt>
      <trkpt lat="46.774692144244909" lon="8.270639190450311">
        <ele>1930.464599609375</ele>
        <time>2011-09-23T09:54:26Z</time>
      </trkpt>
      <trkpt lat="46.774527942761779" lon="8.27064111828804">
        <ele>1929.98388671875</ele>
        <time>2011-09-23T09:54:39Z</time>
      </trkpt>
      <trkpt lat="46.774361645802855" lon="8.270579678937793">
        <ele>1930.464599609375</ele>
        <time>2011-09-23T09:54:52Z</time>
      </trkpt>
      <trkpt lat="46.774271540343761" lon="8.270419416949153">
        <ele>1929.0224609375</ele>
        <time>2011-09-23T09:55:03Z</time>
      </trkpt>
      <trkpt lat="46.774186966940761" lon="8.270191429182887">
        <ele>1929.0224609375</ele>
        <time>2011-09-23T09:55:17Z</time>
      </trkpt>
      <trkpt lat="46.77417078986764" lon="8.27003083191812">
        <ele>1927.58056640625</ele>
        <time>2011-09-23T09:55:26Z</time>
      </trkpt>
      <trkpt lat="46.774183697998524" lon="8.269861349835992">
        <ele>1927.10009765625</ele>
        <time>2011-09-23T09:55:35Z</time>
      </trkpt>
      <trkpt lat="46.774193421006203" lon="8.269672421738505">
        <ele>1925.657958984375</ele>
        <time>2011-09-23T09:55:45Z</time>
      </trkpt>
      <trkpt lat="46.774196941405535" lon="8.269506124779582">
        <ele>1923.7353515625</ele>
        <time>2011-09-23T09:55:54Z</time>
      </trkpt>
      <trkpt lat="46.774219069629908" lon="8.269281992688775">
        <ele>1921.812744140625</ele>
        <time>2011-09-23T09:56:01Z</time>
      </trkpt>
      <trkpt lat="46.774234240874648" lon="8.269113348796964">
        <ele>1919.89013671875</ele>
        <time>2011-09-23T09:56:06Z</time>
      </trkpt>
      <trkpt lat="46.774260476231575" lon="8.268941687420011">
        <ele>1918.4482421875</ele>
        <time>2011-09-23T09:56:11Z</time>
      </trkpt>
      <trkpt lat="46.774344043806195" lon="8.268869938328862">
        <ele>1917.967529296875</ele>
        <time>2011-09-23T09:56:17Z</time>
      </trkpt>
      <trkpt lat="46.774359717965126" lon="8.268856192007661">
        <ele>1918.928955078125</ele>
        <time>2011-09-23T09:56:28Z</time>
      </trkpt>
      <trkpt lat="46.77444152534008" lon="8.268684782087803">
        <ele>1919.40966796875</ele>
        <time>2011-09-23T09:56:36Z</time>
      </trkpt>
      <trkpt lat="46.77447916008532" lon="8.268589982762933">
        <ele>1921.33203125</ele>
        <time>2011-09-23T09:56:44Z</time>
      </trkpt>
      <trkpt lat="46.774497935548425" lon="8.26854488812387">
        <ele>1920.8515625</ele>
        <time>2011-09-23T09:56:49Z</time>
      </trkpt>
      <trkpt lat="46.774511849507689" lon="8.268458722159267">
        <ele>1921.812744140625</ele>
        <time>2011-09-23T09:56:57Z</time>
      </trkpt>
      <trkpt lat="46.774566667154431" lon="8.268420919775963">
        <ele>1919.89013671875</ele>
        <time>2011-09-23T09:57:15Z</time>
      </trkpt>
    </trkseg>
  </trk>

</gpx>
