<?xml version="1.0" encoding="UTF-8" standalone="yes"?>
<gpx xmlns:gpxtpx1="http://www.garmin.com/xmlschemas/TrackPointExtension/v1" xmlns="http://www.topografix.com/GPX/1/1" xmlns:trp="http://www.garmin.com/xmlschemas/TripExtensions/v1" xmlns:gpxx="http://www.garmin.com/xmlschemas/GpxExtensions/v3" xmlns:gpxtpx="http://www.garmin.com/xmlschemas/TrackPointExtension/v2" version="1.1" creator="RouteConverter 2.27.2">
    <metadata>
        <name>2025-06-09 09:53</name>
        <link href="https://www.oruxmaps.com">
            <text>OruxMaps</text>
        </link>
        <time>2025-06-09T07:53:05Z</time>
        <bounds minlat="46.1280735" minlon="11.0617304" maxlat="46.1320143" maxlon="11.0636639"/>
    </metadata>
    <trk>
        <name>2025-06-09 09:53</name>
        <desc>&lt;p&gt;Startzeit: 09:53 09.06.2025&lt;br/&gt;Zielzeit: 13:35 09.06.2025&lt;br/&gt;Strecke: 1,
3 km (03:42)&lt;br/&gt;Bewegungszeit: 00:18&lt;br/&gt;Ø-Geschwindigkeit: 0,
34 km/h&lt;br/&gt;Netto-Geschwindigkeit: 4,
01 km/h&lt;br/&gt;Max. Geschwindigkeit: 6,
6 km/h&lt;br/&gt;Minimale Höhe: 695 m&lt;br/&gt;Maximale Höhe: 729 m&lt;br/&gt;Steig-Geschw.: 16,
3 m/h&lt;br/&gt;Sink-Geschw.: -287,
6 m/h&lt;br/&gt;Aufstieg: 57 m&lt;br/&gt;Abstieg: -47 m&lt;br/&gt;Steigzeit: 03:32&lt;br/&gt;Sinkzeit: 00:09&lt;br/&gt;&lt;/p&gt;&lt;hr align="center" width="480" style="height: 2px; width: 517px"/&gt;</desc>
        <type>Berg/ Klettern</type>
        <extensions>
            <om:oruxmapsextensions xmlns:om="http://www.oruxmaps.com/oruxmapsextensions/1/0" xmlns:gpxtpx="http://www.garmin.com/xmlschemas/TrackPointExtension/v1" xmlns:xsi="http://www.w3.org/2001/XMLSchema-instance">
                <om:ext subtype="0" type="TYPE">36</om:ext>
                <om:ext type="DIFFICULTY">0</om:ext>
</om:oruxmapsextensions>
        </extensions>
        <trkseg>
            <trkpt lat="46.1280772" lon="11.0618672">
                <ele>695.9</ele>
                <time>2025-06-09T07:53:04.000Z</time>
                <name>0000450</name>
            </trkpt>
            <trkpt lat="46.1281369" lon="11.0619525">
                <ele>721.7</ele>
                <time>2025-06-09T07:56:05.000Z</time>
                <name>Position 2</name>
            </trkpt>
            <trkpt lat="46.12824" lon="11.0619444">
                <ele>726.5</ele>
                <time>2025-06-09T07:56:19.000Z</time>
                <name>Position 3</name>
            </trkpt>
            <trkpt lat="46.1285024" lon="11.0619248">
                <ele>729.0</ele>
                <time>2025-06-09T07:56:46.000Z</time>
                <name>Position 4</name>
            </trkpt>
            <trkpt lat="46.1288823" lon="11.0621274">
                <ele>722.5</ele>
                <time>2025-06-09T08:07:24.000Z</time>
                <name>Position 5</name>
            </trkpt>
            <trkpt lat="46.1290562" lon="11.0622118">
                <ele>716.4</ele>
                <time>2025-06-09T08:07:43.000Z</time>
                <name>Position 6</name>
            </trkpt>
            <trkpt lat="46.1292388" lon="11.0622046">
                <ele>712.2</ele>
                <time>2025-06-09T08:08:05.000Z</time>
                <name>Position 7</name>
            </trkpt>
            <trkpt lat="46.129414" lon="11.0622868">
                <ele>709.2</ele>
                <time>2025-06-09T08:08:43.000Z</time>
                <name>Position 8</name>
            </trkpt>
            <trkpt lat="46.1294847" lon="11.0620479">
                <ele>713.5</ele>
                <time>2025-06-09T08:09:02.000Z</time>
                <name>Position 9</name>
            </trkpt>
            <trkpt lat="46.1296333" lon="11.0618757">
                <ele>719.9</ele>
                <time>2025-06-09T08:09:29.000Z</time>
                <name>Position 10</name>
            </trkpt>
            <trkpt lat="46.1298007" lon="11.06176">
                <ele>716.2</ele>
                <time>2025-06-09T08:09:51.000Z</time>
                <name>Position 11</name>
            </trkpt>
            <trkpt lat="46.1299838" lon="11.0617764">
                <ele>708.1</ele>
                <time>2025-06-09T08:10:15.000Z</time>
                <name>Position 12</name>
            </trkpt>
            <trkpt lat="46.1301489" lon="11.061894">
                <ele>709.0</ele>
                <time>2025-06-09T08:10:42.000Z</time>
                <name>Position 13</name>
            </trkpt>
            <trkpt lat="46.1303382" lon="11.0619288">
                <ele>704.9</ele>
                <time>2025-06-09T08:10:57.000Z</time>
                <name>Position 14</name>
            </trkpt>
            <trkpt lat="46.1304857" lon="11.0620921">
                <ele>705.0</ele>
                <time>2025-06-09T08:11:10.000Z</time>
                <name>Position 15</name>
            </trkpt>
            <trkpt lat="46.1306384" lon="11.0622428">
                <ele>703.3</ele>
                <time>2025-06-09T08:11:28.000Z</time>
                <name>Position 16</name>
            </trkpt>
            <trkpt lat="46.1308186" lon="11.0623375">
                <ele>700.6</ele>
                <time>2025-06-09T08:11:44.000Z</time>
                <name>Position 17</name>
            </trkpt>
            <trkpt lat="46.1309832" lon="11.0624426">
                <ele>702.4</ele>
                <time>2025-06-09T08:11:59.000Z</time>
                <name>Position 18</name>
            </trkpt>
            <trkpt lat="46.1311331" lon="11.0626069">
                <ele>701.4</ele>
                <time>2025-06-09T08:12:18.000Z</time>
                <name>Position 19</name>
            </trkpt>
            <trkpt lat="46.1312968" lon="11.0627296">
                <ele>704.4</ele>
                <time>2025-06-09T08:12:32.000Z</time>
                <name>Position 20</name>
            </trkpt>
            <trkpt lat="46.1314186" lon="11.0629213">
                <ele>707.8</ele>
                <time>2025-06-09T08:12:50.000Z</time>
                <name>Position 21</name>
            </trkpt>
            <trkpt lat="46.1315499" lon="11.063107">
                <ele>711.4</ele>
                <time>2025-06-09T08:13:06.000Z</time>
                <name>Position 22</name>
            </trkpt>
            <trkpt lat="46.1317278" lon="11.0632091">
                <ele>707.3</ele>
                <time>2025-06-09T08:13:24.000Z</time>
                <name>Position 23</name>
            </trkpt>
            <trkpt lat="46.1319029" lon="11.0632861">
                <ele>709.9</ele>
                <time>2025-06-09T08:13:37.000Z</time>
                <name>Position 24</name>
            </trkpt>
            <trkpt lat="46.1320143" lon="11.0634899">
                <ele>717.4</ele>
                <time>2025-06-09T10:54:26.000Z</time>
                <name>Position 25</name>
            </trkpt>
            <trkpt lat="46.1318773" lon="11.0633153">
                <ele>707.0</ele>
                <time>2025-06-09T11:27:59.000Z</time>
                <name>Position 26</name>
            </trkpt>
            <trkpt lat="46.1317019" lon="11.0632288">
                <ele>711.6</ele>
                <time>2025-06-09T11:28:21.000Z</time>
                <name>Position 27</name>
            </trkpt>
            <trkpt lat="46.1315316" lon="11.0631282">
                <ele>718.6</ele>
                <time>2025-06-09T11:29:03.000Z</time>
                <name>Position 28</name>
            </trkpt>
            <trkpt lat="46.131363" lon="11.0630379">
                <ele>729.3</ele>
                <time>2025-06-09T11:29:26.000Z</time>
                <name>Position 29</name>
            </trkpt>
            <trkpt lat="46.1312229" lon="11.0628703">
                <ele>726.7</ele>
                <time>2025-06-09T11:29:45.000Z</time>
                <name>Position 30</name>
            </trkpt>
            <trkpt lat="46.1310983" lon="11.062671">
                <ele>718.8</ele>
                <time>2025-06-09T11:30:02.000Z</time>
                <name>Position 31</name>
            </trkpt>
            <trkpt lat="46.1309535" lon="11.0625162">
                <ele>715.4</ele>
                <time>2025-06-09T11:30:20.000Z</time>
                <name>Position 32</name>
            </trkpt>
            <trkpt lat="46.130794" lon="11.0623691">
                <ele>716.2</ele>
                <time>2025-06-09T11:30:40.000Z</time>
                <name>Position 33</name>
            </trkpt>
            <trkpt lat="46.1306382" lon="11.0622336">
                <ele>716.0</ele>
                <time>2025-06-09T11:31:02.000Z</time>
                <name>Position 34</name>
            </trkpt>
            <trkpt lat="46.1304665" lon="11.0621083">
                <ele>714.6</ele>
                <time>2025-06-09T11:31:21.000Z</time>
                <name>Position 35</name>
            </trkpt>
            <trkpt lat="46.1303065" lon="11.06197">
                <ele>721.6</ele>
                <time>2025-06-09T11:31:41.000Z</time>
                <name>Position 36</name>
            </trkpt>
            <trkpt lat="46.1301519" lon="11.0618112">
                <ele>716.5</ele>
                <time>2025-06-09T11:31:56.000Z</time>
                <name>Position 37</name>
            </trkpt>
            <trkpt lat="46.1299688" lon="11.0617641">
                <ele>712.1</ele>
                <time>2025-06-09T11:32:12.000Z</time>
                <name>Position 38</name>
            </trkpt>
            <trkpt lat="46.129783" lon="11.0617993">
                <ele>711.7</ele>
                <time>2025-06-09T11:32:30.000Z</time>
                <name>Position 39</name>
            </trkpt>
            <trkpt lat="46.1296066" lon="11.0618948">
                <ele>712.5</ele>
                <time>2025-06-09T11:32:49.000Z</time>
                <name>Position 40</name>
            </trkpt>
            <trkpt lat="46.1294214" lon="11.0619223">
                <ele>715.9</ele>
                <time>2025-06-09T11:33:11.000Z</time>
                <name>Position 41</name>
            </trkpt>
            <trkpt lat="46.1292442" lon="11.0619694">
                <ele>713.2</ele>
                <time>2025-06-09T11:33:26.000Z</time>
                <name>Position 42</name>
            </trkpt>
            <trkpt lat="46.1290655" lon="11.0620056">
                <ele>716.1</ele>
                <time>2025-06-09T11:33:51.000Z</time>
                <name>Position 43</name>
            </trkpt>
            <trkpt lat="46.1288796" lon="11.0619694">
                <ele>714.9</ele>
                <time>2025-06-09T11:34:07.000Z</time>
                <name>Position 44</name>
            </trkpt>
            <trkpt lat="46.128696" lon="11.0619673">
                <ele>712.6</ele>
                <time>2025-06-09T11:34:25.000Z</time>
                <name>Position 45</name>
            </trkpt>
            <trkpt lat="46.1285154" lon="11.0619225">
                <ele>710.2</ele>
                <time>2025-06-09T11:34:42.000Z</time>
                <name>Position 46</name>
            </trkpt>
            <trkpt lat="46.1283356" lon="11.0619467">
                <ele>714.1</ele>
                <time>2025-06-09T11:35:04.000Z</time>
                <name>Position 47</name>
            </trkpt>
            <trkpt lat="46.1281464" lon="11.0619576">
                <ele>724.4</ele>
                <time>2025-06-09T11:35:32.000Z</time>
                <name>0000452</name>
                <desc>&lt;p&gt;&lt;br /&gt;&lt;h3&gt;Name: Segment: 1&lt;/h3&gt;&lt;br /&gt;Startzeit: 09:53 09.06.2025&lt;br/&gt;Zielzeit: 13:35 09.06.2025&lt;br/&gt;Strecke: 1,3km (03:42)&lt;br/&gt;Bewegungszeit: 00:18&lt;br/&gt;Ø-Geschwindigkeit: 0,34 km/h&lt;br/&gt;Netto-Geschwindigkeit: 3,86 km/h&lt;br/&gt;Max. Geschwindigkeit: 6,6 km/h&lt;br/&gt;Minimale Höhe: 695 m&lt;br/&gt;Maximale Höhe: 729 m&lt;br/&gt;Steig-Geschw.: 21,7 m/h&lt;br/&gt;Sink-Geschw.: -420,7 m/h&lt;br/&gt;Aufstieg: 76 m&lt;br/&gt;Abstieg: -62 m&lt;br/&gt;Steigzeit: 03:32&lt;br/&gt;Sinkzeit: 00:08&lt;br/&gt;&lt;/p&gt;</desc>
            </trkpt>
        </trkseg>
    </trk>
</gpx>
