<?xml version="1.0" encoding="UTF-8" standalone="no" ?>
<gpx xmlns="http://www.topografix.com/GPX/1/1" creator="MapSource 6.16.2" version="1.1" xmlns:xsi="http://www.w3.org/2001/XMLSchema-instance" xsi:schemaLocation="http://www.topografix.com/GPX/1/1 http://www.topografix.com/GPX/1/1/gpx.xsd">

  <metadata>
    <link href="http://www.garmin.com">
      <text>Garmin International</text>
    </link>
    <time>2012-05-02T22:12:58Z</time>
    <bounds maxlat="46.759393662214279" maxlon="12.92530364356935" minlat="46.756333345547318" minlon="12.914889045059681"/>
  </metadata>

  <trk>
    <name>20120501_-_Pirkner_Klamm</name>
    <extensions>
      <gpxx:TrackExtension xmlns:gpxx="http://www.garmin.com/xmlschemas/GpxExtensions/v3">
        <gpxx:DisplayColor>Transparent</gpxx:DisplayColor>
      </gpxx:TrackExtension>
    </extensions>
    <trkseg>
      <trkpt lat="46.759354854002595" lon="12.924885470420122">
        <ele>638.06591796875</ele>
        <time>2012-05-01T07:51:45Z</time>
      </trkpt>
      <trkpt lat="46.759348064661026" lon="12.924866946414113">
        <ele>638.06591796875</ele>
        <time>2012-05-01T07:51:52Z</time>
      </trkpt>
      <trkpt lat="46.75929257646203" lon="12.92476954869926">
        <ele>639.027099609375</ele>
        <time>2012-05-01T07:52:01Z</time>
      </trkpt>
      <trkpt lat="46.759279752150178" lon="12.924777176231146">
        <ele>638.54638671875</ele>
        <time>2012-05-01T07:52:06Z</time>
      </trkpt>
      <trkpt lat="46.759367091581225" lon="12.924957470968366">
        <ele>639.027099609375</ele>
        <time>2012-05-01T07:52:17Z</time>
      </trkpt>
      <trkpt lat="46.759323086589575" lon="12.925088731572032">
        <ele>639.027099609375</ele>
        <time>2012-05-01T07:52:25Z</time>
      </trkpt>
      <trkpt lat="46.759206326678395" lon="12.925258968025446">
        <ele>638.54638671875</ele>
        <time>2012-05-01T07:52:38Z</time>
      </trkpt>
      <trkpt lat="46.759163495153189" lon="12.92530364356935">
        <ele>638.54638671875</ele>
        <time>2012-05-01T07:52:42Z</time>
      </trkpt>
      <trkpt lat="46.759025026112795" lon="12.925229044631124">
        <ele>638.54638671875</ele>
        <time>2012-05-01T07:52:52Z</time>
      </trkpt>
      <trkpt lat="46.758906589820981" lon="12.925112368538976">
        <ele>638.06591796875</ele>
        <time>2012-05-01T07:53:02Z</time>
      </trkpt>
      <trkpt lat="46.758817574009299" lon="12.925048749893904">
        <ele>638.06591796875</ele>
        <time>2012-05-01T07:53:09Z</time>
      </trkpt>
      <trkpt lat="46.758739035576582" lon="12.924981946125627">
        <ele>637.585205078125</ele>
        <time>2012-05-01T07:53:15Z</time>
      </trkpt>
      <trkpt lat="46.758663095533848" lon="12.924892343580723">
        <ele>637.585205078125</ele>
        <time>2012-05-01T07:53:22Z</time>
      </trkpt>
      <trkpt lat="46.758588999509811" lon="12.924796370789409">
        <ele>638.06591796875</ele>
        <time>2012-05-01T07:53:29Z</time>
      </trkpt>
      <trkpt lat="46.758516831323504" lon="12.92473048903048">
        <ele>638.06591796875</ele>
        <time>2012-05-01T07:53:36Z</time>
      </trkpt>
      <trkpt lat="46.758426139131188" lon="12.924646167084575">
        <ele>638.54638671875</ele>
        <time>2012-05-01T07:53:43Z</time>
      </trkpt>
      <trkpt lat="46.758353635668755" lon="12.924565281718969">
        <ele>638.54638671875</ele>
        <time>2012-05-01T07:53:50Z</time>
      </trkpt>
      <trkpt lat="46.758287670090795" lon="12.924486827105284">
        <ele>638.54638671875</ele>
        <time>2012-05-01T07:53:58Z</time>
      </trkpt>
      <trkpt lat="46.758168479427695" lon="12.924375766888261">
        <ele>639.5078125</ele>
        <time>2012-05-01T07:54:07Z</time>
      </trkpt>
      <trkpt lat="46.758084744215012" lon="12.924264958128333">
        <ele>640.46923828125</ele>
        <time>2012-05-01T07:54:16Z</time>
      </trkpt>
      <trkpt lat="46.757997740060091" lon="12.924166470766068">
        <ele>640.46923828125</ele>
        <time>2012-05-01T07:54:25Z</time>
      </trkpt>
      <trkpt lat="46.75792632624507" lon="12.924053817987442">
        <ele>640.94970703125</ele>
        <time>2012-05-01T07:54:33Z</time>
      </trkpt>
      <trkpt lat="46.757878717035055" lon="12.923983074724674">
        <ele>640.94970703125</ele>
        <time>2012-05-01T07:54:40Z</time>
      </trkpt>
      <trkpt lat="46.757809147238731" lon="12.923874026164412">
        <ele>641.430419921875</ele>
        <time>2012-05-01T07:54:47Z</time>
      </trkpt>
      <trkpt lat="46.757799172773957" lon="12.923861872404814">
        <ele>641.9111328125</ele>
        <time>2012-05-01T07:54:48Z</time>
      </trkpt>
      <trkpt lat="46.757744858041406" lon="12.923724157735705">
        <ele>641.9111328125</ele>
        <time>2012-05-01T07:54:56Z</time>
      </trkpt>
      <trkpt lat="46.757687022909522" lon="12.923578731715679">
        <ele>641.9111328125</ele>
        <time>2012-05-01T07:55:04Z</time>
      </trkpt>
      <trkpt lat="46.757622230798006" lon="12.92342483997345">
        <ele>642.391845703125</ele>
        <time>2012-05-01T07:55:13Z</time>
      </trkpt>
      <trkpt lat="46.757543524727225" lon="12.923248652368784">
        <ele>643.353271484375</ele>
        <time>2012-05-01T07:55:22Z</time>
      </trkpt>
      <trkpt lat="46.75748317502439" lon="12.923041954636574">
        <ele>643.353271484375</ele>
        <time>2012-05-01T07:55:33Z</time>
      </trkpt>
      <trkpt lat="46.7574377451092" lon="12.922883620485663">
        <ele>643.353271484375</ele>
        <time>2012-05-01T07:55:42Z</time>
      </trkpt>
      <trkpt lat="46.757390471175313" lon="12.922682035714388">
        <ele>643.833984375</ele>
        <time>2012-05-01T07:55:52Z</time>
      </trkpt>
      <trkpt lat="46.75732827745378" lon="12.922496879473329">
        <ele>643.833984375</ele>
        <time>2012-05-01T07:56:02Z</time>
      </trkpt>
      <trkpt lat="46.757262647151947" lon="12.922294540330768">
        <ele>644.795166015625</ele>
        <time>2012-05-01T07:56:13Z</time>
      </trkpt>
      <trkpt lat="46.757217552512884" lon="12.922095553949475">
        <ele>645.756591796875</ele>
        <time>2012-05-01T07:56:24Z</time>
      </trkpt>
      <trkpt lat="46.757207745686173" lon="12.921910984441638">
        <ele>645.756591796875</ele>
        <time>2012-05-01T07:56:34Z</time>
      </trkpt>
      <trkpt lat="46.757214032113552" lon="12.921750973910093">
        <ele>645.756591796875</ele>
        <time>2012-05-01T07:56:41Z</time>
      </trkpt>
      <trkpt lat="46.757143875584006" lon="12.921608481556177">
        <ele>645.756591796875</ele>
        <time>2012-05-01T07:56:49Z</time>
      </trkpt>
      <trkpt lat="46.757075060158968" lon="12.921417122706771">
        <ele>645.756591796875</ele>
        <time>2012-05-01T07:56:59Z</time>
      </trkpt>
      <trkpt lat="46.757006160914898" lon="12.921301033347845">
        <ele>645.756591796875</ele>
        <time>2012-05-01T07:57:06Z</time>
      </trkpt>
      <trkpt lat="46.756966933608055" lon="12.921176981180906">
        <ele>646.237060546875</ele>
        <time>2012-05-01T07:57:13Z</time>
      </trkpt>
      <trkpt lat="46.756932735443115" lon="12.921030716970563">
        <ele>646.7177734375</ele>
        <time>2012-05-01T07:57:21Z</time>
      </trkpt>
      <trkpt lat="46.756899124011397" lon="12.920919992029667">
        <ele>646.7177734375</ele>
        <time>2012-05-01T07:57:28Z</time>
      </trkpt>
      <trkpt lat="46.756870960816741" lon="12.920826952904463">
        <ele>647.198486328125</ele>
        <time>2012-05-01T07:57:34Z</time>
      </trkpt>
      <trkpt lat="46.756864255294204" lon="12.920807925984263">
        <ele>647.198486328125</ele>
        <time>2012-05-01T07:57:35Z</time>
      </trkpt>
      <trkpt lat="46.756881354376674" lon="12.920743133872747">
        <ele>647.67919921875</ele>
        <time>2012-05-01T07:57:38Z</time>
      </trkpt>
      <trkpt lat="46.756853777915239" lon="12.920597959309816">
        <ele>647.67919921875</ele>
        <time>2012-05-01T07:57:46Z</time>
      </trkpt>
      <trkpt lat="46.756839863955975" lon="12.920559318736196">
        <ele>648.640380859375</ele>
        <time>2012-05-01T07:57:52Z</time>
      </trkpt>
      <trkpt lat="46.756839780136943" lon="12.92048673145473">
        <ele>650.082275390625</ele>
        <time>2012-05-01T07:57:59Z</time>
      </trkpt>
      <trkpt lat="46.756856795400381" lon="12.920462340116501">
        <ele>651.043701171875</ele>
        <time>2012-05-01T07:58:02Z</time>
      </trkpt>
      <trkpt lat="46.756893256679177" lon="12.920366199687123">
        <ele>652.485595703125</ele>
        <time>2012-05-01T07:58:12Z</time>
      </trkpt>
      <trkpt lat="46.756861489266157" lon="12.920274334028363">
        <ele>652.96630859375</ele>
        <time>2012-05-01T07:58:18Z</time>
      </trkpt>
      <trkpt lat="46.756822345778346" lon="12.920171320438385">
        <ele>653.447021484375</ele>
        <time>2012-05-01T07:58:24Z</time>
      </trkpt>
      <trkpt lat="46.756799798458815" lon="12.920098565518856">
        <ele>653.447021484375</ele>
        <time>2012-05-01T07:58:29Z</time>
      </trkpt>
      <trkpt lat="46.756802564486861" lon="12.920022457838058">
        <ele>652.96630859375</ele>
        <time>2012-05-01T07:58:37Z</time>
      </trkpt>
      <trkpt lat="46.756803654134274" lon="12.919955989345908">
        <ele>649.601806640625</ele>
        <time>2012-05-01T07:58:58Z</time>
      </trkpt>
      <trkpt lat="46.756815640255809" lon="12.919923970475793">
        <ele>649.12109375</ele>
        <time>2012-05-01T07:59:04Z</time>
      </trkpt>
      <trkpt lat="46.756838690489531" lon="12.919870996847749">
        <ele>648.640380859375</ele>
        <time>2012-05-01T07:59:10Z</time>
      </trkpt>
      <trkpt lat="46.756884958595037" lon="12.919800253584981">
        <ele>650.56298828125</ele>
        <time>2012-05-01T07:59:20Z</time>
      </trkpt>
      <trkpt lat="46.756908595561981" lon="12.919770078733563">
        <ele>650.082275390625</ele>
        <time>2012-05-01T07:59:26Z</time>
      </trkpt>
      <trkpt lat="46.756876995787024" lon="12.919701682403684">
        <ele>652.005126953125</ele>
        <time>2012-05-01T07:59:59Z</time>
      </trkpt>
      <trkpt lat="46.756892250850797" lon="12.919649463146925">
        <ele>655.36962890625</ele>
        <time>2012-05-01T08:00:40Z</time>
      </trkpt>
      <trkpt lat="46.756899124011397" lon="12.919600764289498">
        <ele>656.330810546875</ele>
        <time>2012-05-01T08:00:49Z</time>
      </trkpt>
      <trkpt lat="46.756915636360645" lon="12.919555753469467">
        <ele>656.330810546875</ele>
        <time>2012-05-01T08:02:19Z</time>
      </trkpt>
      <trkpt lat="46.756893172860146" lon="12.919566230848432">
        <ele>657.772705078125</ele>
        <time>2012-05-01T08:03:09Z</time>
      </trkpt>
      <trkpt lat="46.756905829533935" lon="12.919536223635077">
        <ele>658.734375</ele>
        <time>2012-05-01T08:04:08Z</time>
      </trkpt>
      <trkpt lat="46.756900381296873" lon="12.91952071711421">
        <ele>664.98291015625</ele>
        <time>2012-05-01T08:07:51Z</time>
      </trkpt>
      <trkpt lat="46.756878085434437" lon="12.919520549476147">
        <ele>664.98291015625</ele>
        <time>2012-05-01T08:08:03Z</time>
      </trkpt>
      <trkpt lat="46.756860986351967" lon="12.919464977458119">
        <ele>664.98291015625</ele>
        <time>2012-05-01T08:08:10Z</time>
      </trkpt>
      <trkpt lat="46.756855454295874" lon="12.919412422925234">
        <ele>663.541015625</ele>
        <time>2012-05-01T08:08:18Z</time>
      </trkpt>
      <trkpt lat="46.756857885047793" lon="12.919385097920895">
        <ele>663.541015625</ele>
        <time>2012-05-01T08:08:31Z</time>
      </trkpt>
      <trkpt lat="46.756899124011397" lon="12.919381828978658">
        <ele>664.021484375</ele>
        <time>2012-05-01T08:08:45Z</time>
      </trkpt>
      <trkpt lat="46.756881438195705" lon="12.919339668005705">
        <ele>664.021484375</ele>
        <time>2012-05-01T08:09:22Z</time>
      </trkpt>
      <trkpt lat="46.757014123722911" lon="12.919265320524573">
        <ele>666.905517578125</ele>
        <time>2012-05-01T08:11:01Z</time>
      </trkpt>
      <trkpt lat="46.757006831467152" lon="12.919265991076827">
        <ele>667.38623046875</ele>
        <time>2012-05-01T08:11:53Z</time>
      </trkpt>
      <trkpt lat="46.757001299411058" lon="12.919241767376661">
        <ele>668.347412109375</ele>
        <time>2012-05-01T08:12:07Z</time>
      </trkpt>
      <trkpt lat="46.75693592056632" lon="12.919207736849785">
        <ele>668.828125</ele>
        <time>2012-05-01T08:12:23Z</time>
      </trkpt>
      <trkpt lat="46.756925443187356" lon="12.919189380481839">
        <ele>669.30859375</ele>
        <time>2012-05-01T08:12:30Z</time>
      </trkpt>
      <trkpt lat="46.756923934444785" lon="12.91918016038835">
        <ele>668.828125</ele>
        <time>2012-05-01T08:12:35Z</time>
      </trkpt>
      <trkpt lat="46.756925443187356" lon="12.919170688837767">
        <ele>670.27001953125</ele>
        <time>2012-05-01T08:12:45Z</time>
      </trkpt>
      <trkpt lat="46.75690121948719" lon="12.919162893667817">
        <ele>671.2314453125</ele>
        <time>2012-05-01T08:12:58Z</time>
      </trkpt>
      <trkpt lat="46.756886299699545" lon="12.919144285842776">
        <ele>672.67333984375</ele>
        <time>2012-05-01T08:13:11Z</time>
      </trkpt>
      <trkpt lat="46.756878672167659" lon="12.91913129389286">
        <ele>673.15380859375</ele>
        <time>2012-05-01T08:13:18Z</time>
      </trkpt>
      <trkpt lat="46.756874229758978" lon="12.9191102553159">
        <ele>674.115478515625</ele>
        <time>2012-05-01T08:13:26Z</time>
      </trkpt>
      <trkpt lat="46.756879677996039" lon="12.919083181768656">
        <ele>674.59619140625</ele>
        <time>2012-05-01T08:13:34Z</time>
      </trkpt>
      <trkpt lat="46.756881857290864" lon="12.91906968690455">
        <ele>674.59619140625</ele>
        <time>2012-05-01T08:13:44Z</time>
      </trkpt>
      <trkpt lat="46.756893759593368" lon="12.919058874249458">
        <ele>675.557373046875</ele>
        <time>2012-05-01T08:14:42Z</time>
      </trkpt>
      <trkpt lat="46.756911864504218" lon="12.919072285294533">
        <ele>679.88330078125</ele>
        <time>2012-05-01T08:15:47Z</time>
      </trkpt>
      <trkpt lat="46.756929885596037" lon="12.919045044109225">
        <ele>680.844482421875</ele>
        <time>2012-05-01T08:15:49Z</time>
      </trkpt>
      <trkpt lat="46.756995348259807" lon="12.918948736041784">
        <ele>680.844482421875</ele>
        <time>2012-05-01T08:16:08Z</time>
      </trkpt>
      <trkpt lat="46.756921838968992" lon="12.918852176517248">
        <ele>684.209228515625</ele>
        <time>2012-05-01T08:16:47Z</time>
      </trkpt>
      <trkpt lat="46.756918150931597" lon="12.918839855119586">
        <ele>684.689697265625</ele>
        <time>2012-05-01T08:16:49Z</time>
      </trkpt>
      <trkpt lat="46.756953187286854" lon="12.918759221211076">
        <ele>686.1318359375</ele>
        <time>2012-05-01T08:16:58Z</time>
      </trkpt>
      <trkpt lat="46.757006328552961" lon="12.918703062459826">
        <ele>687.57373046875</ele>
        <time>2012-05-01T08:17:05Z</time>
      </trkpt>
      <trkpt lat="46.757001047953963" lon="12.91863827034831">
        <ele>687.57373046875</ele>
        <time>2012-05-01T08:17:11Z</time>
      </trkpt>
      <trkpt lat="46.757014878094196" lon="12.918598623946309">
        <ele>687.57373046875</ele>
        <time>2012-05-01T08:17:30Z</time>
      </trkpt>
      <trkpt lat="46.757008424028754" lon="12.918576998636127">
        <ele>687.093017578125</ele>
        <time>2012-05-01T08:17:39Z</time>
      </trkpt>
      <trkpt lat="46.75704144872725" lon="12.918584458529949">
        <ele>687.57373046875</ele>
        <time>2012-05-01T08:17:52Z</time>
      </trkpt>
      <trkpt lat="46.757078832015395" lon="12.918547075241804">
        <ele>686.1318359375</ele>
        <time>2012-05-01T08:17:58Z</time>
      </trkpt>
      <trkpt lat="46.757096936926246" lon="12.918525533750653">
        <ele>687.57373046875</ele>
        <time>2012-05-01T08:18:07Z</time>
      </trkpt>
      <trkpt lat="46.757086962461472" lon="12.918487647548318">
        <ele>687.093017578125</ele>
        <time>2012-05-01T08:18:16Z</time>
      </trkpt>
      <trkpt lat="46.757071623578668" lon="12.918455293402076">
        <ele>688.054443359375</ele>
        <time>2012-05-01T08:18:24Z</time>
      </trkpt>
      <trkpt lat="46.757069947198033" lon="12.918436685577035">
        <ele>688.054443359375</ele>
        <time>2012-05-01T08:18:30Z</time>
      </trkpt>
      <trkpt lat="46.757081430405378" lon="12.918456885963678">
        <ele>690.4580078125</ele>
        <time>2012-05-01T08:20:20Z</time>
      </trkpt>
      <trkpt lat="46.756878839805722" lon="12.918266952037811">
        <ele>689.496337890625</ele>
        <time>2012-05-01T08:22:36Z</time>
      </trkpt>
      <trkpt lat="46.75688898190856" lon="12.91825957596302">
        <ele>690.9384765625</ele>
        <time>2012-05-01T08:27:49Z</time>
      </trkpt>
      <trkpt lat="46.756953187286854" lon="12.918141223490238">
        <ele>696.706298828125</ele>
        <time>2012-05-01T08:31:19Z</time>
      </trkpt>
      <trkpt lat="46.756971376016736" lon="12.918107276782393">
        <ele>697.18701171875</ele>
        <time>2012-05-01T08:31:34Z</time>
      </trkpt>
      <trkpt lat="46.756969951093197" lon="12.918084058910608">
        <ele>695.7451171875</ele>
        <time>2012-05-01T08:32:09Z</time>
      </trkpt>
      <trkpt lat="46.756984535604715" lon="12.918082047253847">
        <ele>695.7451171875</ele>
        <time>2012-05-01T08:32:26Z</time>
      </trkpt>
      <trkpt lat="46.75698428414762" lon="12.918065870180726">
        <ele>695.7451171875</ele>
        <time>2012-05-01T08:32:38Z</time>
      </trkpt>
      <trkpt lat="46.756979674100876" lon="12.918080454692245">
        <ele>695.7451171875</ele>
        <time>2012-05-01T08:32:42Z</time>
      </trkpt>
      <trkpt lat="46.756869871169329" lon="12.917629927396774">
        <ele>710.6455078125</ele>
        <time>2012-05-01T08:44:57Z</time>
      </trkpt>
      <trkpt lat="46.756858387961984" lon="12.917614672333002">
        <ele>712.08740234375</ele>
        <time>2012-05-01T08:46:52Z</time>
      </trkpt>
      <trkpt lat="46.756766773760319" lon="12.917633028700948">
        <ele>711.606689453125</ele>
        <time>2012-05-01T08:46:59Z</time>
      </trkpt>
      <trkpt lat="46.756739281117916" lon="12.917655576020479">
        <ele>711.126220703125</ele>
        <time>2012-05-01T08:47:05Z</time>
      </trkpt>
      <trkpt lat="46.75668815150857" lon="12.917646020650864">
        <ele>711.126220703125</ele>
        <time>2012-05-01T08:47:16Z</time>
      </trkpt>
      <trkpt lat="46.756672142073512" lon="12.917642751708627">
        <ele>711.126220703125</ele>
        <time>2012-05-01T08:47:25Z</time>
      </trkpt>
      <trkpt lat="46.756641548126936" lon="12.917635627090931">
        <ele>712.08740234375</ele>
        <time>2012-05-01T08:47:47Z</time>
      </trkpt>
      <trkpt lat="46.756645487621427" lon="12.917617270722985">
        <ele>714.49072265625</ele>
        <time>2012-05-01T08:48:15Z</time>
      </trkpt>
      <trkpt lat="46.756615061312914" lon="12.91761064901948">
        <ele>714.971435546875</ele>
        <time>2012-05-01T08:48:29Z</time>
      </trkpt>
      <trkpt lat="46.756611037999392" lon="12.917590197175741">
        <ele>714.971435546875</ele>
        <time>2012-05-01T08:48:45Z</time>
      </trkpt>
      <trkpt lat="46.756592681631446" lon="12.917575193569064">
        <ele>714.49072265625</ele>
        <time>2012-05-01T08:48:56Z</time>
      </trkpt>
      <trkpt lat="46.75657968968153" lon="12.917560944333673">
        <ele>714.971435546875</ele>
        <time>2012-05-01T08:49:04Z</time>
      </trkpt>
      <trkpt lat="46.75666082650423" lon="12.917106477543712">
        <ele>720.7392578125</ele>
        <time>2012-05-01T08:56:43Z</time>
      </trkpt>
      <trkpt lat="46.756604416295886" lon="12.916943952441216">
        <ele>734.67822265625</ele>
        <time>2012-05-01T09:01:14Z</time>
      </trkpt>
      <trkpt lat="46.756581952795386" lon="12.916951831430197">
        <ele>735.6396484375</ele>
        <time>2012-05-01T09:01:20Z</time>
      </trkpt>
      <trkpt lat="46.756561836227775" lon="12.916952921077609">
        <ele>736.120361328125</ele>
        <time>2012-05-01T09:01:26Z</time>
      </trkpt>
      <trkpt lat="46.756540294736624" lon="12.916958536952734">
        <ele>737.08154296875</ele>
        <time>2012-05-01T09:01:33Z</time>
      </trkpt>
      <trkpt lat="46.756528224796057" lon="12.916943868622184">
        <ele>737.08154296875</ele>
        <time>2012-05-01T09:01:40Z</time>
      </trkpt>
      <trkpt lat="46.756520178169012" lon="12.91695442982018">
        <ele>737.08154296875</ele>
        <time>2012-05-01T09:01:50Z</time>
      </trkpt>
      <trkpt lat="46.756498217582703" lon="12.916947724297643">
        <ele>737.562255859375</ele>
        <time>2012-05-01T09:02:12Z</time>
      </trkpt>
      <trkpt lat="46.756487153470516" lon="12.916950657963753">
        <ele>738.043212890625</ele>
        <time>2012-05-01T09:02:24Z</time>
      </trkpt>
      <trkpt lat="46.756483884528279" lon="12.91696323081851">
        <ele>738.043212890625</ele>
        <time>2012-05-01T09:02:39Z</time>
      </trkpt>
      <trkpt lat="46.756484471261501" lon="12.916949819773436">
        <ele>737.562255859375</ele>
        <time>2012-05-01T09:02:47Z</time>
      </trkpt>
      <trkpt lat="46.756482543423772" lon="12.916931547224522">
        <ele>740.927001953125</ele>
        <time>2012-05-01T09:04:02Z</time>
      </trkpt>
      <trkpt lat="46.756473239511251" lon="12.91692953556776">
        <ele>741.40771484375</ele>
        <time>2012-05-01T09:04:09Z</time>
      </trkpt>
      <trkpt lat="46.756468629464507" lon="12.916915286332369">
        <ele>741.40771484375</ele>
        <time>2012-05-01T09:04:21Z</time>
      </trkpt>
      <trkpt lat="46.756448093801737" lon="12.916896091774106">
        <ele>741.40771484375</ele>
        <time>2012-05-01T09:04:29Z</time>
      </trkpt>
      <trkpt lat="46.756426971405745" lon="12.916864659637213">
        <ele>741.888427734375</ele>
        <time>2012-05-01T09:04:38Z</time>
      </trkpt>
      <trkpt lat="46.75640232861042" lon="12.916781427338719">
        <ele>741.40771484375</ele>
        <time>2012-05-01T09:04:48Z</time>
      </trkpt>
      <trkpt lat="46.756414733827114" lon="12.916749157011509">
        <ele>741.888427734375</ele>
        <time>2012-05-01T09:05:12Z</time>
      </trkpt>
      <trkpt lat="46.756403837352991" lon="12.9167340695858">
        <ele>741.888427734375</ele>
        <time>2012-05-01T09:05:20Z</time>
      </trkpt>
      <trkpt lat="46.756383720785379" lon="12.916697859764099">
        <ele>742.368896484375</ele>
        <time>2012-05-01T09:05:26Z</time>
      </trkpt>
      <trkpt lat="46.756381625309587" lon="12.916651675477624">
        <ele>742.368896484375</ele>
        <time>2012-05-01T09:05:33Z</time>
      </trkpt>
      <trkpt lat="46.756364945322275" lon="12.916644299402833">
        <ele>742.368896484375</ele>
        <time>2012-05-01T09:05:41Z</time>
      </trkpt>
      <trkpt lat="46.756377350538969" lon="12.91661043651402">
        <ele>742.849609375</ele>
        <time>2012-05-01T09:05:48Z</time>
      </trkpt>
      <trkpt lat="46.756399478763342" lon="12.916592583060265">
        <ele>742.849609375</ele>
        <time>2012-05-01T09:05:58Z</time>
      </trkpt>
      <trkpt lat="46.756420182064176" lon="12.916584620252252">
        <ele>742.368896484375</ele>
        <time>2012-05-01T09:06:27Z</time>
      </trkpt>
      <trkpt lat="46.756436945870519" lon="12.91656986810267">
        <ele>742.368896484375</ele>
        <time>2012-05-01T09:07:02Z</time>
      </trkpt>
      <trkpt lat="46.756462343037128" lon="12.916538938879967">
        <ele>742.368896484375</ele>
        <time>2012-05-01T09:07:10Z</time>
      </trkpt>
      <trkpt lat="46.756429318338633" lon="12.916520163416862">
        <ele>742.368896484375</ele>
        <time>2012-05-01T09:07:17Z</time>
      </trkpt>
      <trkpt lat="46.756406854838133" lon="12.916499627754092">
        <ele>742.368896484375</ele>
        <time>2012-05-01T09:07:24Z</time>
      </trkpt>
      <trkpt lat="46.756402496248484" lon="12.916476661339402">
        <ele>742.368896484375</ele>
        <time>2012-05-01T09:07:33Z</time>
      </trkpt>
      <trkpt lat="46.756397550925612" lon="12.916452186182141">
        <ele>742.849609375</ele>
        <time>2012-05-01T09:07:42Z</time>
      </trkpt>
      <trkpt lat="46.756369723007083" lon="12.916442882269621">
        <ele>742.849609375</ele>
        <time>2012-05-01T09:08:01Z</time>
      </trkpt>
      <trkpt lat="46.756333680823445" lon="12.91646433994174">
        <ele>742.368896484375</ele>
        <time>2012-05-01T09:08:13Z</time>
      </trkpt>
      <trkpt lat="46.756333345547318" lon="12.916447157040238">
        <ele>742.368896484375</ele>
        <time>2012-05-01T09:09:47Z</time>
      </trkpt>
      <trkpt lat="46.756351282820106" lon="12.916431734338403">
        <ele>741.888427734375</ele>
        <time>2012-05-01T09:10:00Z</time>
      </trkpt>
      <trkpt lat="46.756347762420774" lon="12.916408097371459">
        <ele>742.368896484375</ele>
        <time>2012-05-01T09:10:15Z</time>
      </trkpt>
      <trkpt lat="46.756352372467518" lon="12.916394434869289">
        <ele>742.849609375</ele>
        <time>2012-05-01T09:10:23Z</time>
      </trkpt>
      <trkpt lat="46.756385816261172" lon="12.916363589465618">
        <ele>742.368896484375</ele>
        <time>2012-05-01T09:10:30Z</time>
      </trkpt>
      <trkpt lat="46.756410375237465" lon="12.916326122358441">
        <ele>742.849609375</ele>
        <time>2012-05-01T09:10:38Z</time>
      </trkpt>
      <trkpt lat="46.756446920335293" lon="12.91626594029367">
        <ele>742.849609375</ele>
        <time>2012-05-01T09:10:44Z</time>
      </trkpt>
      <trkpt lat="46.7564482614398" lon="12.916169883683324">
        <ele>742.368896484375</ele>
        <time>2012-05-01T09:10:52Z</time>
      </trkpt>
      <trkpt lat="46.756454296410084" lon="12.916091177612543">
        <ele>742.849609375</ele>
        <time>2012-05-01T09:10:58Z</time>
      </trkpt>
      <trkpt lat="46.756434682756662" lon="12.916022529825568">
        <ele>743.330322265625</ele>
        <time>2012-05-01T09:11:06Z</time>
      </trkpt>
      <trkpt lat="46.756420265883207" lon="12.915943237021565">
        <ele>743.330322265625</ele>
        <time>2012-05-01T09:11:12Z</time>
      </trkpt>
      <trkpt lat="46.756414985284209" lon="12.915881546214223">
        <ele>743.81103515625</ele>
        <time>2012-05-01T09:11:19Z</time>
      </trkpt>
      <trkpt lat="46.756416577845812" lon="12.915823375806212">
        <ele>743.330322265625</ele>
        <time>2012-05-01T09:11:24Z</time>
      </trkpt>
      <trkpt lat="46.756415320560336" lon="12.915725894272327">
        <ele>743.81103515625</ele>
        <time>2012-05-01T09:11:31Z</time>
      </trkpt>
      <trkpt lat="46.756404088810086" lon="12.915644338354468">
        <ele>744.291748046875</ele>
        <time>2012-05-01T09:11:39Z</time>
      </trkpt>
      <trkpt lat="46.756451530382037" lon="12.915509976446629">
        <ele>743.81103515625</ele>
        <time>2012-05-01T09:11:52Z</time>
      </trkpt>
      <trkpt lat="46.756471479311585" lon="12.915494134649634">
        <ele>744.772216796875</ele>
        <time>2012-05-01T09:12:01Z</time>
      </trkpt>
      <trkpt lat="46.756463181227446" lon="12.915439149364829">
        <ele>744.772216796875</ele>
        <time>2012-05-01T09:12:10Z</time>
      </trkpt>
      <trkpt lat="46.756481789052486" lon="12.915395060554147">
        <ele>744.772216796875</ele>
        <time>2012-05-01T09:12:17Z</time>
      </trkpt>
      <trkpt lat="46.756480783224106" lon="12.915364131331444">
        <ele>744.772216796875</ele>
        <time>2012-05-01T09:12:23Z</time>
      </trkpt>
      <trkpt lat="46.756450440734625" lon="12.915324987843633">
        <ele>745.2529296875</ele>
        <time>2012-05-01T09:12:33Z</time>
      </trkpt>
      <trkpt lat="46.756524872034788" lon="12.914889045059681">
        <ele>772.169921875</ele>
        <time>2012-05-01T09:19:00Z</time>
      </trkpt>
      <trkpt lat="46.756592681631446" lon="12.914930284023285">
        <ele>775.053955078125</ele>
        <time>2012-05-01T09:19:26Z</time>
      </trkpt>
      <trkpt lat="46.756589747965336" lon="12.914959285408258">
        <ele>776.01513671875</ele>
        <time>2012-05-01T09:19:28Z</time>
      </trkpt>
      <trkpt lat="46.756604248657823" lon="12.915038578212261">
        <ele>779.379638671875</ele>
        <time>2012-05-01T09:19:49Z</time>
      </trkpt>
      <trkpt lat="46.756604835391045" lon="12.915072524920106">
        <ele>782.263671875</ele>
        <time>2012-05-01T09:20:07Z</time>
      </trkpt>
      <trkpt lat="46.756628137081861" lon="12.915188195183873">
        <ele>784.186279296875</ele>
        <time>2012-05-01T09:20:19Z</time>
      </trkpt>
      <trkpt lat="46.756651941686869" lon="12.915218537673354">
        <ele>784.186279296875</ele>
        <time>2012-05-01T09:20:26Z</time>
      </trkpt>
      <trkpt lat="46.756661161780357" lon="12.915230188518763">
        <ele>784.186279296875</ele>
        <time>2012-05-01T09:20:35Z</time>
      </trkpt>
      <trkpt lat="46.75668521784246" lon="12.915204036980867">
        <ele>784.186279296875</ele>
        <time>2012-05-01T09:20:43Z</time>
      </trkpt>
      <trkpt lat="46.75672234967351" lon="12.915091551840305">
        <ele>783.70556640625</ele>
        <time>2012-05-01T09:20:54Z</time>
      </trkpt>
      <trkpt lat="46.756671722978354" lon="12.915362538769841">
        <ele>781.489990234375</ele>
        <time>2012-05-01T09:35:41Z</time>
      </trkpt>
      <trkpt lat="46.756697539240122" lon="12.915379721671343">
        <ele>789.661376953125</ele>
        <time>2012-05-01T09:36:54Z</time>
      </trkpt>
      <trkpt lat="46.756709776818752" lon="12.915419451892376">
        <ele>791.583740234375</ele>
        <time>2012-05-01T09:37:07Z</time>
      </trkpt>
      <trkpt lat="46.756732491776347" lon="12.915485166013241">
        <ele>792.545166015625</ele>
        <time>2012-05-01T09:37:14Z</time>
      </trkpt>
      <trkpt lat="46.75673408433795" lon="12.915562782436609">
        <ele>793.506591796875</ele>
        <time>2012-05-01T09:37:20Z</time>
      </trkpt>
      <trkpt lat="46.756730061024427" lon="12.915696054697037">
        <ele>793.506591796875</ele>
        <time>2012-05-01T09:37:27Z</time>
      </trkpt>
      <trkpt lat="46.756735257804394" lon="12.915752297267318">
        <ele>792.545166015625</ele>
        <time>2012-05-01T09:37:36Z</time>
      </trkpt>
      <trkpt lat="46.756732994690537" lon="12.915816837921739">
        <ele>793.987060546875</ele>
        <time>2012-05-01T09:37:44Z</time>
      </trkpt>
      <trkpt lat="46.756709776818752" lon="12.915910296142101">
        <ele>794.4677734375</ele>
        <time>2012-05-01T09:37:53Z</time>
      </trkpt>
      <trkpt lat="46.756677255034447" lon="12.915973663330078">
        <ele>794.948486328125</ele>
        <time>2012-05-01T09:38:01Z</time>
      </trkpt>
      <trkpt lat="46.756654875352979" lon="12.916027139872313">
        <ele>793.987060546875</ele>
        <time>2012-05-01T09:38:10Z</time>
      </trkpt>
      <trkpt lat="46.756627550348639" lon="12.916082963347435">
        <ele>793.506591796875</ele>
        <time>2012-05-01T09:38:20Z</time>
      </trkpt>
      <trkpt lat="46.756655462086201" lon="12.916210116818547">
        <ele>794.4677734375</ele>
        <time>2012-05-01T09:38:29Z</time>
      </trkpt>
      <trkpt lat="46.756679266691208" lon="12.916325032711029">
        <ele>793.987060546875</ele>
        <time>2012-05-01T09:38:36Z</time>
      </trkpt>
      <trkpt lat="46.756722182035446" lon="12.916459226980805">
        <ele>794.948486328125</ele>
        <time>2012-05-01T09:38:45Z</time>
      </trkpt>
      <trkpt lat="46.756764678284526" lon="12.916606329381466">
        <ele>795.428955078125</ele>
        <time>2012-05-01T09:38:54Z</time>
      </trkpt>
      <trkpt lat="46.7567971162498" lon="12.916704062372446">
        <ele>796.390380859375</ele>
        <time>2012-05-01T09:39:00Z</time>
      </trkpt>
      <trkpt lat="46.756841624155641" lon="12.9168083332479">
        <ele>798.313232421875</ele>
        <time>2012-05-01T09:39:08Z</time>
      </trkpt>
      <trkpt lat="46.75686995498836" lon="12.916887290775776">
        <ele>798.7939453125</ele>
        <time>2012-05-01T09:39:17Z</time>
      </trkpt>
      <trkpt lat="46.756896274164319" lon="12.916975133121014">
        <ele>799.755126953125</ele>
        <time>2012-05-01T09:39:28Z</time>
      </trkpt>
      <trkpt lat="46.75692955031991" lon="12.917041769251227">
        <ele>801.677734375</ele>
        <time>2012-05-01T09:39:36Z</time>
      </trkpt>
      <trkpt lat="46.756995934993029" lon="12.917121397331357">
        <ele>801.197265625</ele>
        <time>2012-05-01T09:39:44Z</time>
      </trkpt>
      <trkpt lat="46.757057793438435" lon="12.917195241898298">
        <ele>801.677734375</ele>
        <time>2012-05-01T09:39:52Z</time>
      </trkpt>
      <trkpt lat="46.757103893905878" lon="12.917235475033522">
        <ele>802.158447265625</ele>
        <time>2012-05-01T09:40:00Z</time>
      </trkpt>
      <trkpt lat="46.757136667147279" lon="12.917256681248546">
        <ele>804.561767578125</ele>
        <time>2012-05-01T09:40:08Z</time>
      </trkpt>
      <trkpt lat="46.757143121212721" lon="12.917258944362402">
        <ele>804.561767578125</ele>
        <time>2012-05-01T09:40:09Z</time>
      </trkpt>
      <trkpt lat="46.757197519764304" lon="12.917268667370081">
        <ele>805.04248046875</ele>
        <time>2012-05-01T09:40:16Z</time>
      </trkpt>
      <trkpt lat="46.757226521149278" lon="12.917278641834855">
        <ele>805.52294921875</ele>
        <time>2012-05-01T09:40:23Z</time>
      </trkpt>
      <trkpt lat="46.757258791476488" lon="12.91729842312634">
        <ele>803.600341796875</ele>
        <time>2012-05-01T09:40:41Z</time>
      </trkpt>
      <trkpt lat="46.757260970771313" lon="12.917331028729677">
        <ele>802.158447265625</ele>
        <time>2012-05-01T09:40:49Z</time>
      </trkpt>
      <trkpt lat="46.75728133879602" lon="12.917366065084934">
        <ele>801.677734375</ele>
        <time>2012-05-01T09:40:56Z</time>
      </trkpt>
      <trkpt lat="46.757300533354282" lon="12.91742549277842">
        <ele>799.755126953125</ele>
        <time>2012-05-01T09:41:04Z</time>
      </trkpt>
      <trkpt lat="46.757329283282161" lon="12.917468575760722">
        <ele>797.832275390625</ele>
        <time>2012-05-01T09:41:12Z</time>
      </trkpt>
      <trkpt lat="46.757402457296848" lon="12.917487267404795">
        <ele>794.4677734375</ele>
        <time>2012-05-01T09:41:21Z</time>
      </trkpt>
      <trkpt lat="46.757422490045428" lon="12.917544180527329">
        <ele>793.02587890625</ele>
        <time>2012-05-01T09:41:28Z</time>
      </trkpt>
      <trkpt lat="46.75738493911922" lon="12.917619366198778">
        <ele>791.103271484375</ele>
        <time>2012-05-01T09:41:36Z</time>
      </trkpt>
      <trkpt lat="46.75734294578433" lon="12.917645769193769">
        <ele>788.699951171875</ele>
        <time>2012-05-01T09:41:43Z</time>
      </trkpt>
      <trkpt lat="46.757299276068807" lon="12.917663035914302">
        <ele>786.296630859375</ele>
        <time>2012-05-01T09:41:51Z</time>
      </trkpt>
      <trkpt lat="46.757254516705871" lon="12.917707460001111">
        <ele>784.3740234375</ele>
        <time>2012-05-01T09:41:59Z</time>
      </trkpt>
      <trkpt lat="46.757245380431414" lon="12.917782142758369">
        <ele>781.970703125</ele>
        <time>2012-05-01T09:42:08Z</time>
      </trkpt>
      <trkpt lat="46.757269268855453" lon="12.917869482189417">
        <ele>781.00927734375</ele>
        <time>2012-05-01T09:42:16Z</time>
      </trkpt>
      <trkpt lat="46.757296677678823" lon="12.917943829670548">
        <ele>778.60595703125</ele>
        <time>2012-05-01T09:42:24Z</time>
      </trkpt>
      <trkpt lat="46.757310256361961" lon="12.917983140796423">
        <ele>776.683349609375</ele>
        <time>2012-05-01T09:42:30Z</time>
      </trkpt>
      <trkpt lat="46.757337665185332" lon="12.91805773973465">
        <ele>775.72216796875</ele>
        <time>2012-05-01T09:42:38Z</time>
      </trkpt>
      <trkpt lat="46.757379490882158" lon="12.918074671179056">
        <ele>773.799560546875</ele>
        <time>2012-05-01T09:42:43Z</time>
      </trkpt>
      <trkpt lat="46.757388962432742" lon="12.918139295652509">
        <ele>772.838134765625</ele>
        <time>2012-05-01T09:42:50Z</time>
      </trkpt>
      <trkpt lat="46.757386364042759" lon="12.918157316744328">
        <ele>771.396240234375</ele>
        <time>2012-05-01T09:42:56Z</time>
      </trkpt>
      <trkpt lat="46.757430788129568" lon="12.918186821043491">
        <ele>769.4736328125</ele>
        <time>2012-05-01T09:43:04Z</time>
      </trkpt>
      <trkpt lat="46.757461382076144" lon="12.918194197118282">
        <ele>767.0703125</ele>
        <time>2012-05-01T09:43:12Z</time>
      </trkpt>
      <trkpt lat="46.757480576634407" lon="12.918180534616113">
        <ele>766.109130859375</ele>
        <time>2012-05-01T09:43:18Z</time>
      </trkpt>
      <trkpt lat="46.757509661838412" lon="12.918200567364693">
        <ele>764.666748046875</ele>
        <time>2012-05-01T09:43:26Z</time>
      </trkpt>
      <trkpt lat="46.757540423423052" lon="12.91820727288723">
        <ele>762.744384765625</ele>
        <time>2012-05-01T09:43:32Z</time>
      </trkpt>
      <trkpt lat="46.757547548040748" lon="12.91821314021945">
        <ele>761.782958984375</ele>
        <time>2012-05-01T09:43:34Z</time>
      </trkpt>
      <trkpt lat="46.757560037076473" lon="12.918242728337646">
        <ele>759.379638671875</ele>
        <time>2012-05-01T09:43:40Z</time>
      </trkpt>
      <trkpt lat="46.757580991834402" lon="12.918277597054839">
        <ele>757.937744140625</ele>
        <time>2012-05-01T09:43:47Z</time>
      </trkpt>
      <trkpt lat="46.757610496133566" lon="12.918292935937643">
        <ele>755.534423828125</ele>
        <time>2012-05-01T09:43:53Z</time>
      </trkpt>
      <trkpt lat="46.757632289081812" lon="12.918272484093904">
        <ele>754.5732421875</ele>
        <time>2012-05-01T09:43:58Z</time>
      </trkpt>
      <trkpt lat="46.757659865543246" lon="12.918269718065858">
        <ele>753.131103515625</ele>
        <time>2012-05-01T09:44:05Z</time>
      </trkpt>
      <trkpt lat="46.757629942148924" lon="12.918321350589395">
        <ele>751.208740234375</ele>
        <time>2012-05-01T09:44:15Z</time>
      </trkpt>
      <trkpt lat="46.757578896358609" lon="12.918406343087554">
        <ele>748.80517578125</ele>
        <time>2012-05-01T09:44:23Z</time>
      </trkpt>
      <trkpt lat="46.757546458393335" lon="12.918496448546648">
        <ele>746.882568359375</ele>
        <time>2012-05-01T09:44:31Z</time>
      </trkpt>
      <trkpt lat="46.757539082318544" lon="12.918574316427112">
        <ele>743.99853515625</ele>
        <time>2012-05-01T09:44:40Z</time>
      </trkpt>
      <trkpt lat="46.757542937994003" lon="12.918602228164673">
        <ele>743.037353515625</ele>
        <time>2012-05-01T09:44:45Z</time>
      </trkpt>
      <trkpt lat="46.757560539990664" lon="12.918660650029778">
        <ele>741.59521484375</ele>
        <time>2012-05-01T09:44:52Z</time>
      </trkpt>
      <trkpt lat="46.757550146430731" lon="12.918726950883865">
        <ele>739.6728515625</ele>
        <time>2012-05-01T09:44:59Z</time>
      </trkpt>
      <trkpt lat="46.757548050954938" lon="12.918805740773678">
        <ele>737.75</ele>
        <time>2012-05-01T09:45:09Z</time>
      </trkpt>
      <trkpt lat="46.757543189451098" lon="12.918857792392373">
        <ele>734.8662109375</ele>
        <time>2012-05-01T09:45:16Z</time>
      </trkpt>
      <trkpt lat="46.757537322118878" lon="12.918911017477512">
        <ele>733.904541015625</ele>
        <time>2012-05-01T09:45:23Z</time>
      </trkpt>
      <trkpt lat="46.757535645738244" lon="12.918961979448795">
        <ele>731.982177734375</ele>
        <time>2012-05-01T09:45:31Z</time>
      </trkpt>
      <trkpt lat="46.757561126723886" lon="12.91904428973794">
        <ele>729.09814453125</ele>
        <time>2012-05-01T09:45:40Z</time>
      </trkpt>
      <trkpt lat="46.757549475878477" lon="12.919087624177337">
        <ele>726.69482421875</ele>
        <time>2012-05-01T09:45:47Z</time>
      </trkpt>
      <trkpt lat="46.757515026256442" lon="12.919204635545611">
        <ele>724.291748046875</ele>
        <time>2012-05-01T09:45:57Z</time>
      </trkpt>
      <trkpt lat="46.757541764527559" lon="12.919255597516894">
        <ele>723.330322265625</ele>
        <time>2012-05-01T09:46:02Z</time>
      </trkpt>
      <trkpt lat="46.757603958249092" lon="12.91933455504477">
        <ele>721.888427734375</ele>
        <time>2012-05-01T09:46:11Z</time>
      </trkpt>
      <trkpt lat="46.757618794217706" lon="12.919394988566637">
        <ele>719.485107421875</ele>
        <time>2012-05-01T09:46:18Z</time>
      </trkpt>
      <trkpt lat="46.757657350972295" lon="12.9193917196244">
        <ele>716.60107421875</ele>
        <time>2012-05-01T09:46:26Z</time>
      </trkpt>
      <trkpt lat="46.757668582722545" lon="12.919407058507204">
        <ele>715.6396484375</ele>
        <time>2012-05-01T09:46:33Z</time>
      </trkpt>
      <trkpt lat="46.757689956575632" lon="12.919399347156286">
        <ele>713.717041015625</ele>
        <time>2012-05-01T09:46:38Z</time>
      </trkpt>
      <trkpt lat="46.757752066478133" lon="12.919347379356623">
        <ele>712.755859375</ele>
        <time>2012-05-01T09:46:45Z</time>
      </trkpt>
      <trkpt lat="46.757797664031386" lon="12.919367579743266">
        <ele>709.871826171875</ele>
        <time>2012-05-01T09:46:53Z</time>
      </trkpt>
      <trkpt lat="46.757845021784306" lon="12.919357772916555">
        <ele>709.39111328125</ele>
        <time>2012-05-01T09:46:59Z</time>
      </trkpt>
      <trkpt lat="46.757894977927208" lon="12.919369591400027">
        <ele>707.468505859375</ele>
        <time>2012-05-01T09:47:05Z</time>
      </trkpt>
      <trkpt lat="46.757903443649411" lon="12.919395826756954">
        <ele>704.584716796875</ele>
        <time>2012-05-01T09:47:11Z</time>
      </trkpt>
      <trkpt lat="46.757878130301833" lon="12.919436730444431">
        <ele>703.623291015625</ele>
        <time>2012-05-01T09:47:18Z</time>
      </trkpt>
      <trkpt lat="46.757858684286475" lon="12.919464642181993">
        <ele>701.700439453125</ele>
        <time>2012-05-01T09:47:22Z</time>
      </trkpt>
      <trkpt lat="46.757832784205675" lon="12.919549969956279">
        <ele>699.297119140625</ele>
        <time>2012-05-01T09:47:31Z</time>
      </trkpt>
      <trkpt lat="46.757819289341569" lon="12.919606128707528">
        <ele>697.855224609375</ele>
        <time>2012-05-01T09:47:36Z</time>
      </trkpt>
      <trkpt lat="46.75777779892087" lon="12.919681649655104">
        <ele>695.451904296875</ele>
        <time>2012-05-01T09:47:43Z</time>
      </trkpt>
      <trkpt lat="46.757749048992991" lon="12.919754320755601">
        <ele>694.010009765625</ele>
        <time>2012-05-01T09:47:51Z</time>
      </trkpt>
      <trkpt lat="46.757745193317533" lon="12.919836463406682">
        <ele>692.08740234375</ele>
        <time>2012-05-01T09:48:00Z</time>
      </trkpt>
      <trkpt lat="46.7577382363379" lon="12.919908128678799">
        <ele>690.6455078125</ele>
        <time>2012-05-01T09:48:07Z</time>
      </trkpt>
      <trkpt lat="46.757719879969954" lon="12.919996473938227">
        <ele>688.2421875</ele>
        <time>2012-05-01T09:48:14Z</time>
      </trkpt>
      <trkpt lat="46.757705295458436" lon="12.920041987672448">
        <ele>687.281005859375</ele>
        <time>2012-05-01T09:48:18Z</time>
      </trkpt>
      <trkpt lat="46.757673863321543" lon="12.920138463377953">
        <ele>685.358154296875</ele>
        <time>2012-05-01T09:48:27Z</time>
      </trkpt>
      <trkpt lat="46.757660284638405" lon="12.920184899121523">
        <ele>684.396728515625</ele>
        <time>2012-05-01T09:48:33Z</time>
      </trkpt>
      <trkpt lat="46.757653830572963" lon="12.920257151126862">
        <ele>681.99365234375</ele>
        <time>2012-05-01T09:48:40Z</time>
      </trkpt>
      <trkpt lat="46.757643185555935" lon="12.920293780043721">
        <ele>681.512939453125</ele>
        <time>2012-05-01T09:48:42Z</time>
      </trkpt>
      <trkpt lat="46.757641425356269" lon="12.920364858582616">
        <ele>680.551513671875</ele>
        <time>2012-05-01T09:48:50Z</time>
      </trkpt>
      <trkpt lat="46.757604880258441" lon="12.920512966811657">
        <ele>677.18701171875</ele>
        <time>2012-05-01T09:49:00Z</time>
      </trkpt>
      <trkpt lat="46.757619297131896" lon="12.920557977631688">
        <ele>675.264404296875</ele>
        <time>2012-05-01T09:49:06Z</time>
      </trkpt>
      <trkpt lat="46.757588870823383" lon="12.920665685087442">
        <ele>673.822509765625</ele>
        <time>2012-05-01T09:49:12Z</time>
      </trkpt>
      <trkpt lat="46.757596079260111" lon="12.92070516385138">
        <ele>672.38037109375</ele>
        <time>2012-05-01T09:49:18Z</time>
      </trkpt>
      <trkpt lat="46.757614854723215" lon="12.920799544081092">
        <ele>669.97705078125</ele>
        <time>2012-05-01T09:49:28Z</time>
      </trkpt>
      <trkpt lat="46.757633294910192" lon="12.920842375606298">
        <ele>668.534912109375</ele>
        <time>2012-05-01T09:49:34Z</time>
      </trkpt>
      <trkpt lat="46.75766346976161" lon="12.920915130525827">
        <ele>665.651123046875</ele>
        <time>2012-05-01T09:49:42Z</time>
      </trkpt>
      <trkpt lat="46.757707139477134" lon="12.920999033376575">
        <ele>663.728515625</ele>
        <time>2012-05-01T09:49:51Z</time>
      </trkpt>
      <trkpt lat="46.757726836949587" lon="12.921100538223982">
        <ele>661.3251953125</ele>
        <time>2012-05-01T09:50:01Z</time>
      </trkpt>
      <trkpt lat="46.757730441167951" lon="12.921108584851027">
        <ele>660.364013671875</ele>
        <time>2012-05-01T09:50:02Z</time>
      </trkpt>
      <trkpt lat="46.757738823071122" lon="12.921163821592927">
        <ele>660.364013671875</ele>
        <time>2012-05-01T09:50:08Z</time>
      </trkpt>
      <trkpt lat="46.757738320156932" lon="12.921190559864044">
        <ele>658.922119140625</ele>
        <time>2012-05-01T09:50:11Z</time>
      </trkpt>
      <trkpt lat="46.757744438946247" lon="12.921222662553191">
        <ele>657.47998046875</ele>
        <time>2012-05-01T09:50:14Z</time>
      </trkpt>
      <trkpt lat="46.757758352905512" lon="12.921323832124472">
        <ele>655.557373046875</ele>
        <time>2012-05-01T09:50:23Z</time>
      </trkpt>
      <trkpt lat="46.757765142247081" lon="12.921413518488407">
        <ele>654.115478515625</ele>
        <time>2012-05-01T09:50:30Z</time>
      </trkpt>
      <trkpt lat="46.757772685959935" lon="12.921480825170875">
        <ele>652.67333984375</ele>
        <time>2012-05-01T09:50:35Z</time>
      </trkpt>
      <trkpt lat="46.757799088954926" lon="12.921600686386228">
        <ele>650.27001953125</ele>
        <time>2012-05-01T09:50:42Z</time>
      </trkpt>
      <trkpt lat="46.757796071469784" lon="12.921610828489065">
        <ele>650.750732421875</ele>
        <time>2012-05-01T09:50:43Z</time>
      </trkpt>
      <trkpt lat="46.757746282964945" lon="12.921650726348162">
        <ele>649.789306640625</ele>
        <time>2012-05-01T09:50:48Z</time>
      </trkpt>
      <trkpt lat="46.75772063434124" lon="12.921694396063685">
        <ele>648.828125</ele>
        <time>2012-05-01T09:50:54Z</time>
      </trkpt>
      <trkpt lat="46.757700936868787" lon="12.921747118234634">
        <ele>648.347412109375</ele>
        <time>2012-05-01T09:50:59Z</time>
      </trkpt>
      <trkpt lat="46.757698087021708" lon="12.921851892024279">
        <ele>646.905517578125</ele>
        <time>2012-05-01T09:51:06Z</time>
      </trkpt>
      <trkpt lat="46.757720969617367" lon="12.921991283074021">
        <ele>646.4248046875</ele>
        <time>2012-05-01T09:51:15Z</time>
      </trkpt>
      <trkpt lat="46.75780319608748" lon="12.9222272336483">
        <ele>646.4248046875</ele>
        <time>2012-05-01T09:51:26Z</time>
      </trkpt>
      <trkpt lat="46.75785306841135" lon="12.922333935275674">
        <ele>646.4248046875</ele>
        <time>2012-05-01T09:51:34Z</time>
      </trkpt>
      <trkpt lat="46.757875364273787" lon="12.92240803129971">
        <ele>645.944091796875</ele>
        <time>2012-05-01T09:51:39Z</time>
      </trkpt>
      <trkpt lat="46.757891457527876" lon="12.922542560845613">
        <ele>645.944091796875</ele>
        <time>2012-05-01T09:51:49Z</time>
      </trkpt>
      <trkpt lat="46.757931271567941" lon="12.922618333250284">
        <ele>646.4248046875</ele>
        <time>2012-05-01T09:51:54Z</time>
      </trkpt>
      <trkpt lat="46.757957590743899" lon="12.922671223059297">
        <ele>645.46337890625</ele>
        <time>2012-05-01T09:51:58Z</time>
      </trkpt>
      <trkpt lat="46.758012073114514" lon="12.92282922193408">
        <ele>645.944091796875</ele>
        <time>2012-05-01T09:52:08Z</time>
      </trkpt>
      <trkpt lat="46.758031938225031" lon="12.922897785902023">
        <ele>645.46337890625</ele>
        <time>2012-05-01T09:52:12Z</time>
      </trkpt>
      <trkpt lat="46.758068399503827" lon="12.923041870817542">
        <ele>645.46337890625</ele>
        <time>2012-05-01T09:52:20Z</time>
      </trkpt>
      <trkpt lat="46.75810469314456" lon="12.923143124207854">
        <ele>645.46337890625</ele>
        <time>2012-05-01T09:52:27Z</time>
      </trkpt>
      <trkpt lat="46.758163282647729" lon="12.923323335126042">
        <ele>644.98291015625</ele>
        <time>2012-05-01T09:52:36Z</time>
      </trkpt>
      <trkpt lat="46.758176945149899" lon="12.923358958214521">
        <ele>644.502197265625</ele>
        <time>2012-05-01T09:52:38Z</time>
      </trkpt>
      <trkpt lat="46.758269816637039" lon="12.923463564366102">
        <ele>644.98291015625</ele>
        <time>2012-05-01T09:52:47Z</time>
      </trkpt>
      <trkpt lat="46.758332848548889" lon="12.923576636239886">
        <ele>644.502197265625</ele>
        <time>2012-05-01T09:52:55Z</time>
      </trkpt>
      <trkpt lat="46.758409542962909" lon="12.923693479970098">
        <ele>644.021484375</ele>
        <time>2012-05-01T09:53:03Z</time>
      </trkpt>
      <trkpt lat="46.758420271798968" lon="12.923704795539379">
        <ele>644.021484375</ele>
        <time>2012-05-01T09:53:04Z</time>
      </trkpt>
      <trkpt lat="46.758477855473757" lon="12.923793140798807">
        <ele>644.021484375</ele>
        <time>2012-05-01T09:53:11Z</time>
      </trkpt>
      <trkpt lat="46.758498474955559" lon="12.923879055306315">
        <ele>644.021484375</ele>
        <time>2012-05-01T09:53:16Z</time>
      </trkpt>
      <trkpt lat="46.758503587916493" lon="12.923901937901974">
        <ele>643.541015625</ele>
        <time>2012-05-01T09:53:17Z</time>
      </trkpt>
      <trkpt lat="46.758552538231015" lon="12.92400679551065">
        <ele>644.021484375</ele>
        <time>2012-05-01T09:53:24Z</time>
      </trkpt>
      <trkpt lat="46.758637446910143" lon="12.924095140770078">
        <ele>643.541015625</ele>
        <time>2012-05-01T09:53:32Z</time>
      </trkpt>
      <trkpt lat="46.75868614576757" lon="12.924131685867906">
        <ele>644.021484375</ele>
        <time>2012-05-01T09:53:38Z</time>
      </trkpt>
      <trkpt lat="46.758690252900124" lon="12.924143169075251">
        <ele>643.541015625</ele>
        <time>2012-05-01T09:53:39Z</time>
      </trkpt>
      <trkpt lat="46.758752446621656" lon="12.92427945882082">
        <ele>643.060302734375</ele>
        <time>2012-05-01T09:53:46Z</time>
      </trkpt>
      <trkpt lat="46.75885277800262" lon="12.924348441883922">
        <ele>643.541015625</ele>
        <time>2012-05-01T09:53:54Z</time>
      </trkpt>
      <trkpt lat="46.758954534307122" lon="12.924428069964051">
        <ele>643.541015625</ele>
        <time>2012-05-01T09:54:03Z</time>
      </trkpt>
      <trkpt lat="46.759002227336168" lon="12.924458831548691">
        <ele>643.060302734375</ele>
        <time>2012-05-01T09:54:07Z</time>
      </trkpt>
      <trkpt lat="46.759101552888751" lon="12.924577686935663">
        <ele>643.060302734375</ele>
        <time>2012-05-01T09:54:16Z</time>
      </trkpt>
      <trkpt lat="46.759131392464042" lon="12.924641389399767">
        <ele>643.060302734375</ele>
        <time>2012-05-01T09:54:21Z</time>
      </trkpt>
      <trkpt lat="46.759148659184575" lon="12.924646837636828">
        <ele>643.060302734375</ele>
        <time>2012-05-01T09:54:22Z</time>
      </trkpt>
      <trkpt lat="46.75923247821629" lon="12.924788072705269">
        <ele>642.57958984375</ele>
        <time>2012-05-01T09:54:32Z</time>
      </trkpt>
      <trkpt lat="46.759253432974219" lon="12.924811290577054">
        <ele>642.57958984375</ele>
        <time>2012-05-01T09:54:38Z</time>
      </trkpt>
      <trkpt lat="46.759308921173215" lon="12.924826378002763">
        <ele>642.57958984375</ele>
        <time>2012-05-01T09:54:45Z</time>
      </trkpt>
      <trkpt lat="46.759350579231977" lon="12.924842471256852">
        <ele>641.1376953125</ele>
        <time>2012-05-01T09:54:53Z</time>
      </trkpt>
      <trkpt lat="46.759393662214279" lon="12.924871724098921">
        <ele>641.1376953125</ele>
        <time>2012-05-01T09:55:15Z</time>
      </trkpt>
      <trkpt lat="46.759369857609272" lon="12.924874490126967">
        <ele>641.1376953125</ele>
        <time>2012-05-01T09:55:26Z</time>
      </trkpt>
    </trkseg>
  </trk>

</gpx>
