<?xml version="1.0" encoding="utf-8"?><gpx creator="Garmin Desktop App" version="1.1" xsi:schemaLocation="http://www.topografix.com/GPX/1/1 http://www.topografix.com/GPX/1/1/gpx.xsd http://www.garmin.com/xmlschemas/WaypointExtension/v1 http://www8.garmin.com/xmlschemas/WaypointExtensionv1.xsd http://www.garmin.com/xmlschemas/TrackPointExtension/v1 http://www.garmin.com/xmlschemas/TrackPointExtensionv1.xsd http://www.garmin.com/xmlschemas/GpxExtensions/v3 http://www8.garmin.com/xmlschemas/GpxExtensionsv3.xsd http://www.garmin.com/xmlschemas/ActivityExtension/v1 http://www8.garmin.com/xmlschemas/ActivityExtensionv1.xsd http://www.garmin.com/xmlschemas/AdventuresExtensions/v1 http://www8.garmin.com/xmlschemas/AdventuresExtensionv1.xsd http://www.garmin.com/xmlschemas/PressureExtension/v1 http://www.garmin.com/xmlschemas/PressureExtensionv1.xsd http://www.garmin.com/xmlschemas/TripExtensions/v1 http://www.garmin.com/xmlschemas/TripExtensionsv1.xsd http://www.garmin.com/xmlschemas/TripMetaDataExtensions/v1 http://www.garmin.com/xmlschemas/TripMetaDataExtensionsv1.xsd http://www.garmin.com/xmlschemas/ViaPointTransportationModeExtensions/v1 http://www.garmin.com/xmlschemas/ViaPointTransportationModeExtensionsv1.xsd http://www.garmin.com/xmlschemas/CreationTimeExtension/v1 http://www.garmin.com/xmlschemas/CreationTimeExtensionsv1.xsd http://www.garmin.com/xmlschemas/AccelerationExtension/v1 http://www.garmin.com/xmlschemas/AccelerationExtensionv1.xsd http://www.garmin.com/xmlschemas/PowerExtension/v1 http://www.garmin.com/xmlschemas/PowerExtensionv1.xsd http://www.garmin.com/xmlschemas/VideoExtension/v1 http://www.garmin.com/xmlschemas/VideoExtensionv1.xsd" xmlns="http://www.topografix.com/GPX/1/1" xmlns:xsi="http://www.w3.org/2001/XMLSchema-instance" xmlns:wptx1="http://www.garmin.com/xmlschemas/WaypointExtension/v1" xmlns:gpxtrx="http://www.garmin.com/xmlschemas/GpxExtensions/v3" xmlns:gpxtpx="http://www.garmin.com/xmlschemas/TrackPointExtension/v1" xmlns:gpxx="http://www.garmin.com/xmlschemas/GpxExtensions/v3" xmlns:trp="http://www.garmin.com/xmlschemas/TripExtensions/v1" xmlns:adv="http://www.garmin.com/xmlschemas/AdventuresExtensions/v1" xmlns:prs="http://www.garmin.com/xmlschemas/PressureExtension/v1" xmlns:tmd="http://www.garmin.com/xmlschemas/TripMetaDataExtensions/v1" xmlns:vptm="http://www.garmin.com/xmlschemas/ViaPointTransportationModeExtensions/v1" xmlns:ctx="http://www.garmin.com/xmlschemas/CreationTimeExtension/v1" xmlns:gpxacc="http://www.garmin.com/xmlschemas/AccelerationExtension/v1" xmlns:gpxpx="http://www.garmin.com/xmlschemas/PowerExtension/v1" xmlns:vidx1="http://www.garmin.com/xmlschemas/VideoExtension/v1">

  <metadata>
    <link href="http://www.garmin.com">
      <text>Garmin International</text>
    </link>
    <time>2016-07-11T17:14:34Z</time>
    <bounds maxlat="46.751048974692822" maxlon="12.439417289569974" minlat="46.749774003401399" minlon="12.436747485771775" />
  </metadata>

  <trk>
    <name>20160705_-_Burg_Heinfels kurz</name>
    <extensions>
      <gpxx:TrackExtension>
        <gpxx:DisplayColor>Red</gpxx:DisplayColor>
      </gpxx:TrackExtension>
    </extensions>
    <trkseg>
      <trkpt lat="46.749991681426764" lon="12.436912944540381">
        <ele>1085.95</ele>
        <time>2016-07-05T07:08:50Z</time>
        <extensions>
          <gpxtpx:TrackPointExtension>
            <gpxtpx:atemp>21.5</gpxtpx:atemp>
          </gpxtpx:TrackPointExtension>
          <gpxx:TrackPointExtension>
            <gpxx:Temperature>21.5</gpxx:Temperature>
          </gpxx:TrackPointExtension>
        </extensions>
      </trkpt>
      <trkpt lat="46.750003080815077" lon="12.436912693083286">
        <ele>1085.95</ele>
        <time>2016-07-05T07:09:07Z</time>
        <extensions>
          <gpxtpx:TrackPointExtension>
            <gpxtpx:atemp>21.5</gpxtpx:atemp>
          </gpxtpx:TrackPointExtension>
          <gpxx:TrackPointExtension>
            <gpxx:Temperature>21.5</gpxx:Temperature>
          </gpxx:TrackPointExtension>
        </extensions>
      </trkpt>
      <trkpt lat="46.750018838793039" lon="12.436892408877611">
        <ele>1085.95</ele>
        <time>2016-07-05T07:09:09Z</time>
        <extensions>
          <gpxtpx:TrackPointExtension>
            <gpxtpx:atemp>21.5</gpxtpx:atemp>
          </gpxtpx:TrackPointExtension>
          <gpxx:TrackPointExtension>
            <gpxx:Temperature>21.5</gpxx:Temperature>
          </gpxx:TrackPointExtension>
        </extensions>
      </trkpt>
      <trkpt lat="46.750057898461819" lon="12.436800459399819">
        <ele>1086.4300000000001</ele>
        <time>2016-07-05T07:09:16Z</time>
        <extensions>
          <gpxtpx:TrackPointExtension>
            <gpxtpx:atemp>21.5</gpxtpx:atemp>
          </gpxtpx:TrackPointExtension>
          <gpxx:TrackPointExtension>
            <gpxx:Temperature>21.5</gpxx:Temperature>
          </gpxx:TrackPointExtension>
        </extensions>
      </trkpt>
      <trkpt lat="46.750171892344952" lon="12.436747485771775">
        <ele>1086.9100000000001</ele>
        <time>2016-07-05T07:09:26Z</time>
        <extensions>
          <gpxtpx:TrackPointExtension>
            <gpxtpx:atemp>21.5</gpxtpx:atemp>
          </gpxtpx:TrackPointExtension>
          <gpxx:TrackPointExtension>
            <gpxx:Temperature>21.5</gpxx:Temperature>
          </gpxx:TrackPointExtension>
        </extensions>
      </trkpt>
      <trkpt lat="46.750292927026749" lon="12.436758214607835">
        <ele>1088.3499999999999</ele>
        <time>2016-07-05T07:09:36Z</time>
        <extensions>
          <gpxtpx:TrackPointExtension>
            <gpxtpx:atemp>21.5</gpxtpx:atemp>
          </gpxtpx:TrackPointExtension>
          <gpxx:TrackPointExtension>
            <gpxx:Temperature>21.5</gpxx:Temperature>
          </gpxx:TrackPointExtension>
        </extensions>
      </trkpt>
      <trkpt lat="46.750403987243772" lon="12.436780678108335">
        <ele>1088.3499999999999</ele>
        <time>2016-07-05T07:09:46Z</time>
        <extensions>
          <gpxtpx:TrackPointExtension>
            <gpxtpx:atemp>21.8</gpxtpx:atemp>
          </gpxtpx:TrackPointExtension>
          <gpxx:TrackPointExtension>
            <gpxx:Temperature>21.8</gpxx:Temperature>
          </gpxx:TrackPointExtension>
        </extensions>
      </trkpt>
      <trkpt lat="46.750449081882834" lon="12.436799956485629">
        <ele>1088.3499999999999</ele>
        <time>2016-07-05T07:09:50Z</time>
        <extensions>
          <gpxtpx:TrackPointExtension>
            <gpxtpx:atemp>21.8</gpxtpx:atemp>
          </gpxtpx:TrackPointExtension>
          <gpxx:TrackPointExtension>
            <gpxx:Temperature>21.8</gpxx:Temperature>
          </gpxx:TrackPointExtension>
        </extensions>
      </trkpt>
      <trkpt lat="46.750590316951275" lon="12.436891654506326">
        <ele>1087.8699999999999</ele>
        <time>2016-07-05T07:10:02Z</time>
        <extensions>
          <gpxtpx:TrackPointExtension>
            <gpxtpx:atemp>21.8</gpxtpx:atemp>
          </gpxtpx:TrackPointExtension>
          <gpxx:TrackPointExtension>
            <gpxx:Temperature>21.8</gpxx:Temperature>
          </gpxx:TrackPointExtension>
        </extensions>
      </trkpt>
      <trkpt lat="46.750725181773305" lon="12.437008917331696">
        <ele>1088.8299999999999</ele>
        <time>2016-07-05T07:10:14Z</time>
        <extensions>
          <gpxtpx:TrackPointExtension>
            <gpxtpx:atemp>21.8</gpxtpx:atemp>
          </gpxtpx:TrackPointExtension>
          <gpxx:TrackPointExtension>
            <gpxx:Temperature>21.8</gpxx:Temperature>
          </gpxx:TrackPointExtension>
        </extensions>
      </trkpt>
      <trkpt lat="46.750836074352264" lon="12.437142273411155">
        <ele>1088.8299999999999</ele>
        <time>2016-07-05T07:10:25Z</time>
        <extensions>
          <gpxtpx:TrackPointExtension>
            <gpxtpx:atemp>21.8</gpxtpx:atemp>
          </gpxtpx:TrackPointExtension>
          <gpxx:TrackPointExtension>
            <gpxx:Temperature>21.8</gpxx:Temperature>
          </gpxx:TrackPointExtension>
        </extensions>
      </trkpt>
      <trkpt lat="46.750930957496166" lon="12.437272192910314">
        <ele>1088.8299999999999</ele>
        <time>2016-07-05T07:10:35Z</time>
        <extensions>
          <gpxtpx:TrackPointExtension>
            <gpxtpx:atemp>21.8</gpxtpx:atemp>
          </gpxtpx:TrackPointExtension>
          <gpxx:TrackPointExtension>
            <gpxx:Temperature>21.8</gpxx:Temperature>
          </gpxx:TrackPointExtension>
        </extensions>
      </trkpt>
      <trkpt lat="46.750949313864112" lon="12.437371853739023">
        <ele>1088.3499999999999</ele>
        <time>2016-07-05T07:11:30Z</time>
        <extensions>
          <gpxtpx:TrackPointExtension>
            <gpxtpx:atemp>21.3</gpxtpx:atemp>
          </gpxtpx:TrackPointExtension>
          <gpxx:TrackPointExtension>
            <gpxx:Temperature>21.3</gpxx:Temperature>
          </gpxx:TrackPointExtension>
        </extensions>
      </trkpt>
      <trkpt lat="46.750937076285481" lon="12.437388533726335">
        <ele>1088.3499999999999</ele>
        <time>2016-07-05T07:17:16Z</time>
        <extensions>
          <gpxtpx:TrackPointExtension>
            <gpxtpx:atemp>18.9</gpxtpx:atemp>
          </gpxtpx:TrackPointExtension>
          <gpxx:TrackPointExtension>
            <gpxx:Temperature>18.9</gpxx:Temperature>
          </gpxx:TrackPointExtension>
        </extensions>
      </trkpt>
      <trkpt lat="46.750930286943913" lon="12.437385516241193">
        <ele>1088.8299999999999</ele>
        <time>2016-07-05T07:17:49Z</time>
        <extensions>
          <gpxtpx:TrackPointExtension>
            <gpxtpx:atemp>18.7</gpxtpx:atemp>
          </gpxtpx:TrackPointExtension>
          <gpxx:TrackPointExtension>
            <gpxx:Temperature>18.7</gpxx:Temperature>
          </gpxx:TrackPointExtension>
        </extensions>
      </trkpt>
      <trkpt lat="46.750914780423045" lon="12.437381157651544">
        <ele>1091.23</ele>
        <time>2016-07-05T07:18:13Z</time>
        <extensions>
          <gpxtpx:TrackPointExtension>
            <gpxtpx:atemp>18.7</gpxtpx:atemp>
          </gpxtpx:TrackPointExtension>
          <gpxx:TrackPointExtension>
            <gpxx:Temperature>18.7</gpxx:Temperature>
          </gpxx:TrackPointExtension>
        </extensions>
      </trkpt>
      <trkpt lat="46.750862477347255" lon="12.437335476279259">
        <ele>1096.04</ele>
        <time>2016-07-05T07:19:53Z</time>
        <extensions>
          <gpxtpx:TrackPointExtension>
            <gpxtpx:atemp>17.8</gpxtpx:atemp>
          </gpxtpx:TrackPointExtension>
          <gpxx:TrackPointExtension>
            <gpxx:Temperature>17.8</gpxx:Temperature>
          </gpxx:TrackPointExtension>
        </extensions>
      </trkpt>
      <trkpt lat="46.750860046595335" lon="12.437314186245203">
        <ele>1096.04</ele>
        <time>2016-07-05T07:20:08Z</time>
        <extensions>
          <gpxtpx:TrackPointExtension>
            <gpxtpx:atemp>17.8</gpxtpx:atemp>
          </gpxtpx:TrackPointExtension>
          <gpxx:TrackPointExtension>
            <gpxx:Temperature>17.8</gpxx:Temperature>
          </gpxx:TrackPointExtension>
        </extensions>
      </trkpt>
      <trkpt lat="46.750835236161947" lon="12.437297841534019">
        <ele>1096.52</ele>
        <time>2016-07-05T07:20:55Z</time>
        <extensions>
          <gpxtpx:TrackPointExtension>
            <gpxtpx:atemp>18</gpxtpx:atemp>
          </gpxtpx:TrackPointExtension>
          <gpxx:TrackPointExtension>
            <gpxx:Temperature>18</gpxx:Temperature>
          </gpxx:TrackPointExtension>
        </extensions>
      </trkpt>
      <trkpt lat="46.750815035775304" lon="12.4373091571033">
        <ele>1097</ele>
        <time>2016-07-05T07:21:12Z</time>
        <extensions>
          <gpxtpx:TrackPointExtension>
            <gpxtpx:atemp>18</gpxtpx:atemp>
          </gpxtpx:TrackPointExtension>
          <gpxx:TrackPointExtension>
            <gpxx:Temperature>18</gpxx:Temperature>
          </gpxx:TrackPointExtension>
        </extensions>
      </trkpt>
      <trkpt lat="46.750793578103185" lon="12.437308235093951">
        <ele>1099.4000000000001</ele>
        <time>2016-07-05T07:21:44Z</time>
        <extensions>
          <gpxtpx:TrackPointExtension>
            <gpxtpx:atemp>18</gpxtpx:atemp>
          </gpxtpx:TrackPointExtension>
          <gpxx:TrackPointExtension>
            <gpxx:Temperature>18</gpxx:Temperature>
          </gpxx:TrackPointExtension>
        </extensions>
      </trkpt>
      <trkpt lat="46.750798439607024" lon="12.437351318076253">
        <ele>1100.3699999999999</ele>
        <time>2016-07-05T07:21:58Z</time>
        <extensions>
          <gpxtpx:TrackPointExtension>
            <gpxtpx:atemp>18</gpxtpx:atemp>
          </gpxtpx:TrackPointExtension>
          <gpxx:TrackPointExtension>
            <gpxx:Temperature>18</gpxx:Temperature>
          </gpxx:TrackPointExtension>
        </extensions>
      </trkpt>
      <trkpt lat="46.750785363838077" lon="12.43737855926156">
        <ele>1101.8099999999999</ele>
        <time>2016-07-05T07:22:06Z</time>
        <extensions>
          <gpxtpx:TrackPointExtension>
            <gpxtpx:atemp>18</gpxtpx:atemp>
          </gpxtpx:TrackPointExtension>
          <gpxx:TrackPointExtension>
            <gpxx:Temperature>18</gpxx:Temperature>
          </gpxx:TrackPointExtension>
        </extensions>
      </trkpt>
      <trkpt lat="46.750770611688495" lon="12.437411248683929">
        <ele>1102.77</ele>
        <time>2016-07-05T07:22:26Z</time>
        <extensions>
          <gpxtpx:TrackPointExtension>
            <gpxtpx:atemp>18</gpxtpx:atemp>
          </gpxtpx:TrackPointExtension>
          <gpxx:TrackPointExtension>
            <gpxx:Temperature>18</gpxx:Temperature>
          </gpxx:TrackPointExtension>
        </extensions>
      </trkpt>
      <trkpt lat="46.750823250040412" lon="12.437421893700957">
        <ele>1102.29</ele>
        <time>2016-07-05T07:22:47Z</time>
        <extensions>
          <gpxtpx:TrackPointExtension>
            <gpxtpx:atemp>17.8</gpxtpx:atemp>
          </gpxtpx:TrackPointExtension>
          <gpxx:TrackPointExtension>
            <gpxx:Temperature>17.8</gpxx:Temperature>
          </gpxx:TrackPointExtension>
        </extensions>
      </trkpt>
      <trkpt lat="46.750846719369292" lon="12.437444692477584">
        <ele>1103.73</ele>
        <time>2016-07-05T07:32:26Z</time>
        <extensions>
          <gpxtpx:TrackPointExtension>
            <gpxtpx:atemp>17.3</gpxtpx:atemp>
          </gpxtpx:TrackPointExtension>
          <gpxx:TrackPointExtension>
            <gpxx:Temperature>17.3</gpxx:Temperature>
          </gpxx:TrackPointExtension>
        </extensions>
      </trkpt>
      <trkpt lat="46.751048974692822" lon="12.437856495380402">
        <ele>1133.05</ele>
        <time>2016-07-05T07:52:06Z</time>
        <extensions>
          <gpxtpx:TrackPointExtension>
            <gpxtpx:atemp>18.5</gpxtpx:atemp>
          </gpxtpx:TrackPointExtension>
          <gpxx:TrackPointExtension>
            <gpxx:Temperature>18.5</gpxx:Temperature>
          </gpxx:TrackPointExtension>
        </extensions>
      </trkpt>
      <trkpt lat="46.751024583354592" lon="12.437918186187744">
        <ele>1134.97</ele>
        <time>2016-07-05T07:53:30Z</time>
        <extensions>
          <gpxtpx:TrackPointExtension>
            <gpxtpx:atemp>18.9</gpxtpx:atemp>
          </gpxtpx:TrackPointExtension>
          <gpxx:TrackPointExtension>
            <gpxx:Temperature>18.9</gpxx:Temperature>
          </gpxx:TrackPointExtension>
        </extensions>
      </trkpt>
      <trkpt lat="46.750998347997665" lon="12.437918521463871">
        <ele>1138.3399999999999</ele>
        <time>2016-07-05T07:54:12Z</time>
        <extensions>
          <gpxtpx:TrackPointExtension>
            <gpxtpx:atemp>18.5</gpxtpx:atemp>
          </gpxtpx:TrackPointExtension>
          <gpxx:TrackPointExtension>
            <gpxx:Temperature>18.5</gpxx:Temperature>
          </gpxx:TrackPointExtension>
        </extensions>
      </trkpt>
      <trkpt lat="46.750949900597334" lon="12.437925143167377">
        <ele>1137.3800000000001</ele>
        <time>2016-07-05T07:55:32Z</time>
        <extensions>
          <gpxtpx:TrackPointExtension>
            <gpxtpx:atemp>19.4</gpxtpx:atemp>
          </gpxtpx:TrackPointExtension>
          <gpxx:TrackPointExtension>
            <gpxx:Temperature>19.4</gpxx:Temperature>
          </gpxx:TrackPointExtension>
        </extensions>
      </trkpt>
      <trkpt lat="46.75090815871954" lon="12.437867140397429">
        <ele>1136.4200000000001</ele>
        <time>2016-07-05T07:55:41Z</time>
        <extensions>
          <gpxtpx:TrackPointExtension>
            <gpxtpx:atemp>19.4</gpxtpx:atemp>
          </gpxtpx:TrackPointExtension>
          <gpxx:TrackPointExtension>
            <gpxx:Temperature>19.4</gpxx:Temperature>
          </gpxx:TrackPointExtension>
        </extensions>
      </trkpt>
      <trkpt lat="46.75084562972188" lon="12.437868900597095">
        <ele>1135.9400000000001</ele>
        <time>2016-07-05T07:56:20Z</time>
        <extensions>
          <gpxtpx:TrackPointExtension>
            <gpxtpx:atemp>21.3</gpxtpx:atemp>
          </gpxtpx:TrackPointExtension>
          <gpxx:TrackPointExtension>
            <gpxx:Temperature>21.3</gpxx:Temperature>
          </gpxx:TrackPointExtension>
        </extensions>
      </trkpt>
      <trkpt lat="46.750820148736238" lon="12.437893878668547">
        <ele>1135.9400000000001</ele>
        <time>2016-07-05T07:56:26Z</time>
        <extensions>
          <gpxtpx:TrackPointExtension>
            <gpxtpx:atemp>21.3</gpxtpx:atemp>
          </gpxtpx:TrackPointExtension>
          <gpxx:TrackPointExtension>
            <gpxx:Temperature>21.3</gpxx:Temperature>
          </gpxx:TrackPointExtension>
        </extensions>
      </trkpt>
      <trkpt lat="46.750803217291832" lon="12.437908630818129">
        <ele>1135.9400000000001</ele>
        <time>2016-07-05T07:56:49Z</time>
        <extensions>
          <gpxtpx:TrackPointExtension>
            <gpxtpx:atemp>21.5</gpxtpx:atemp>
          </gpxtpx:TrackPointExtension>
          <gpxx:TrackPointExtension>
            <gpxx:Temperature>21.5</gpxx:Temperature>
          </gpxx:TrackPointExtension>
        </extensions>
      </trkpt>
      <trkpt lat="46.750786453485489" lon="12.437943918630481">
        <ele>1135.9400000000001</ele>
        <time>2016-07-05T07:56:55Z</time>
        <extensions>
          <gpxtpx:TrackPointExtension>
            <gpxtpx:atemp>21.5</gpxtpx:atemp>
          </gpxtpx:TrackPointExtension>
          <gpxx:TrackPointExtension>
            <gpxx:Temperature>21.5</gpxx:Temperature>
          </gpxx:TrackPointExtension>
        </extensions>
      </trkpt>
      <trkpt lat="46.750765247270465" lon="12.438036371022463">
        <ele>1135.9400000000001</ele>
        <time>2016-07-05T07:57:03Z</time>
        <extensions>
          <gpxtpx:TrackPointExtension>
            <gpxtpx:atemp>21.5</gpxtpx:atemp>
          </gpxtpx:TrackPointExtension>
          <gpxx:TrackPointExtension>
            <gpxx:Temperature>21.5</gpxx:Temperature>
          </gpxx:TrackPointExtension>
        </extensions>
      </trkpt>
      <trkpt lat="46.750764576718211" lon="12.43820576928556">
        <ele>1135.9400000000001</ele>
        <time>2016-07-05T07:57:13Z</time>
        <extensions>
          <gpxtpx:TrackPointExtension>
            <gpxtpx:atemp>21.5</gpxtpx:atemp>
          </gpxtpx:TrackPointExtension>
          <gpxx:TrackPointExtension>
            <gpxx:Temperature>21.5</gpxx:Temperature>
          </gpxx:TrackPointExtension>
        </extensions>
      </trkpt>
      <trkpt lat="46.750762984156609" lon="12.438279949128628">
        <ele>1135.45</ele>
        <time>2016-07-05T07:57:17Z</time>
        <extensions>
          <gpxtpx:TrackPointExtension>
            <gpxtpx:atemp>21.5</gpxtpx:atemp>
          </gpxtpx:TrackPointExtension>
          <gpxx:TrackPointExtension>
            <gpxx:Temperature>21.5</gpxx:Temperature>
          </gpxx:TrackPointExtension>
        </extensions>
      </trkpt>
      <trkpt lat="46.750699868425727" lon="12.438408024609089">
        <ele>1134.49</ele>
        <time>2016-07-05T07:57:27Z</time>
        <extensions>
          <gpxtpx:TrackPointExtension>
            <gpxtpx:atemp>21.5</gpxtpx:atemp>
          </gpxtpx:TrackPointExtension>
          <gpxx:TrackPointExtension>
            <gpxx:Temperature>21.5</gpxx:Temperature>
          </gpxx:TrackPointExtension>
        </extensions>
      </trkpt>
      <trkpt lat="46.750684613361955" lon="12.438460243865848">
        <ele>1134.01</ele>
        <time>2016-07-05T07:57:32Z</time>
        <extensions>
          <gpxtpx:TrackPointExtension>
            <gpxtpx:atemp>21.5</gpxtpx:atemp>
          </gpxtpx:TrackPointExtension>
          <gpxx:TrackPointExtension>
            <gpxx:Temperature>21.5</gpxx:Temperature>
          </gpxx:TrackPointExtension>
        </extensions>
      </trkpt>
      <trkpt lat="46.750628538429737" lon="12.438547918573022">
        <ele>1132.5699999999999</ele>
        <time>2016-07-05T07:57:41Z</time>
        <extensions>
          <gpxtpx:TrackPointExtension>
            <gpxtpx:atemp>21.5</gpxtpx:atemp>
          </gpxtpx:TrackPointExtension>
          <gpxx:TrackPointExtension>
            <gpxx:Temperature>21.5</gpxx:Temperature>
          </gpxx:TrackPointExtension>
        </extensions>
      </trkpt>
      <trkpt lat="46.750569781288505" lon="12.438607346266508">
        <ele>1130.6500000000001</ele>
        <time>2016-07-05T07:57:49Z</time>
        <extensions>
          <gpxtpx:TrackPointExtension>
            <gpxtpx:atemp>22.6</gpxtpx:atemp>
          </gpxtpx:TrackPointExtension>
          <gpxx:TrackPointExtension>
            <gpxx:Temperature>22.6</gpxx:Temperature>
          </gpxx:TrackPointExtension>
        </extensions>
      </trkpt>
      <trkpt lat="46.750524854287505" lon="12.438670881092548">
        <ele>1130.6500000000001</ele>
        <time>2016-07-05T07:57:56Z</time>
        <extensions>
          <gpxtpx:TrackPointExtension>
            <gpxtpx:atemp>22.6</gpxtpx:atemp>
          </gpxtpx:TrackPointExtension>
          <gpxx:TrackPointExtension>
            <gpxx:Temperature>22.6</gpxx:Temperature>
          </gpxx:TrackPointExtension>
        </extensions>
      </trkpt>
      <trkpt lat="46.75050213932991" lon="12.438707510009408">
        <ele>1129.6900000000001</ele>
        <time>2016-07-05T07:58:00Z</time>
        <extensions>
          <gpxtpx:TrackPointExtension>
            <gpxtpx:atemp>22.6</gpxtpx:atemp>
          </gpxtpx:TrackPointExtension>
          <gpxx:TrackPointExtension>
            <gpxx:Temperature>22.6</gpxx:Temperature>
          </gpxx:TrackPointExtension>
        </extensions>
      </trkpt>
      <trkpt lat="46.750454697757959" lon="12.43883709423244">
        <ele>1128.73</ele>
        <time>2016-07-05T07:58:08Z</time>
        <extensions>
          <gpxtpx:TrackPointExtension>
            <gpxtpx:atemp>22.6</gpxtpx:atemp>
          </gpxtpx:TrackPointExtension>
          <gpxx:TrackPointExtension>
            <gpxx:Temperature>22.6</gpxx:Temperature>
          </gpxx:TrackPointExtension>
        </extensions>
      </trkpt>
      <trkpt lat="46.750394012778997" lon="12.438860647380352">
        <ele>1127.76</ele>
        <time>2016-07-05T07:58:16Z</time>
        <extensions>
          <gpxtpx:TrackPointExtension>
            <gpxtpx:atemp>22.6</gpxtpx:atemp>
          </gpxtpx:TrackPointExtension>
          <gpxx:TrackPointExtension>
            <gpxx:Temperature>22.6</gpxx:Temperature>
          </gpxx:TrackPointExtension>
        </extensions>
      </trkpt>
      <trkpt lat="46.750384625047445" lon="12.438842374831438">
        <ele>1126.8</ele>
        <time>2016-07-05T07:58:18Z</time>
        <extensions>
          <gpxtpx:TrackPointExtension>
            <gpxtpx:atemp>22.6</gpxtpx:atemp>
          </gpxtpx:TrackPointExtension>
          <gpxx:TrackPointExtension>
            <gpxx:Temperature>22.6</gpxx:Temperature>
          </gpxx:TrackPointExtension>
        </extensions>
      </trkpt>
      <trkpt lat="46.750373058021069" lon="12.438735086470842">
        <ele>1125.3599999999999</ele>
        <time>2016-07-05T07:58:27Z</time>
        <extensions>
          <gpxtpx:TrackPointExtension>
            <gpxtpx:atemp>22.6</gpxtpx:atemp>
          </gpxtpx:TrackPointExtension>
          <gpxx:TrackPointExtension>
            <gpxx:Temperature>22.6</gpxx:Temperature>
          </gpxx:TrackPointExtension>
        </extensions>
      </trkpt>
      <trkpt lat="46.750380685552955" lon="12.438675491139293">
        <ele>1124.4000000000001</ele>
        <time>2016-07-05T07:58:32Z</time>
        <extensions>
          <gpxtpx:TrackPointExtension>
            <gpxtpx:atemp>22.6</gpxtpx:atemp>
          </gpxtpx:TrackPointExtension>
          <gpxx:TrackPointExtension>
            <gpxx:Temperature>22.6</gpxx:Temperature>
          </gpxx:TrackPointExtension>
        </extensions>
      </trkpt>
      <trkpt lat="46.750367693603039" lon="12.438657721504569">
        <ele>1122.96</ele>
        <time>2016-07-05T07:58:38Z</time>
        <extensions>
          <gpxtpx:TrackPointExtension>
            <gpxtpx:atemp>22.6</gpxtpx:atemp>
          </gpxtpx:TrackPointExtension>
          <gpxx:TrackPointExtension>
            <gpxx:Temperature>22.6</gpxx:Temperature>
          </gpxx:TrackPointExtension>
        </extensions>
      </trkpt>
      <trkpt lat="46.750323437154293" lon="12.438774732872844">
        <ele>1121.52</ele>
        <time>2016-07-05T07:58:53Z</time>
        <extensions>
          <gpxtpx:TrackPointExtension>
            <gpxtpx:atemp>22.6</gpxtpx:atemp>
          </gpxtpx:TrackPointExtension>
          <gpxx:TrackPointExtension>
            <gpxx:Temperature>22.6</gpxx:Temperature>
          </gpxx:TrackPointExtension>
        </extensions>
      </trkpt>
      <trkpt lat="46.750307930633426" lon="12.438811361789703">
        <ele>1121.52</ele>
        <time>2016-07-05T07:58:58Z</time>
        <extensions>
          <gpxtpx:TrackPointExtension>
            <gpxtpx:atemp>22.6</gpxtpx:atemp>
          </gpxtpx:TrackPointExtension>
          <gpxx:TrackPointExtension>
            <gpxx:Temperature>22.6</gpxx:Temperature>
          </gpxx:TrackPointExtension>
        </extensions>
      </trkpt>
      <trkpt lat="46.750294016674161" lon="12.438862239941955">
        <ele>1120.0699999999999</ele>
        <time>2016-07-05T07:59:04Z</time>
        <extensions>
          <gpxtpx:TrackPointExtension>
            <gpxtpx:atemp>22.6</gpxtpx:atemp>
          </gpxtpx:TrackPointExtension>
          <gpxx:TrackPointExtension>
            <gpxx:Temperature>22.6</gpxx:Temperature>
          </gpxx:TrackPointExtension>
        </extensions>
      </trkpt>
      <trkpt lat="46.750273816287518" lon="12.438929714262486">
        <ele>1118.6300000000001</ele>
        <time>2016-07-05T07:59:12Z</time>
        <extensions>
          <gpxtpx:TrackPointExtension>
            <gpxtpx:atemp>22.6</gpxtpx:atemp>
          </gpxtpx:TrackPointExtension>
          <gpxx:TrackPointExtension>
            <gpxx:Temperature>22.6</gpxx:Temperature>
          </gpxx:TrackPointExtension>
        </extensions>
      </trkpt>
      <trkpt lat="46.750264428555965" lon="12.438949914649129">
        <ele>1118.6300000000001</ele>
        <time>2016-07-05T07:59:14Z</time>
        <extensions>
          <gpxtpx:TrackPointExtension>
            <gpxtpx:atemp>22.6</gpxtpx:atemp>
          </gpxtpx:TrackPointExtension>
          <gpxx:TrackPointExtension>
            <gpxx:Temperature>22.6</gpxx:Temperature>
          </gpxx:TrackPointExtension>
        </extensions>
      </trkpt>
      <trkpt lat="46.750242300331593" lon="12.439036751165986">
        <ele>1117.1900000000001</ele>
        <time>2016-07-05T07:59:21Z</time>
        <extensions>
          <gpxtpx:TrackPointExtension>
            <gpxtpx:atemp>22.6</gpxtpx:atemp>
          </gpxtpx:TrackPointExtension>
          <gpxx:TrackPointExtension>
            <gpxx:Temperature>22.6</gpxx:Temperature>
          </gpxx:TrackPointExtension>
        </extensions>
      </trkpt>
      <trkpt lat="46.750242048874497" lon="12.439078660681844">
        <ele>1116.23</ele>
        <time>2016-07-05T07:59:26Z</time>
        <extensions>
          <gpxtpx:TrackPointExtension>
            <gpxtpx:atemp>22.6</gpxtpx:atemp>
          </gpxtpx:TrackPointExtension>
          <gpxx:TrackPointExtension>
            <gpxx:Temperature>22.6</gpxx:Temperature>
          </gpxx:TrackPointExtension>
        </extensions>
      </trkpt>
      <trkpt lat="46.750204917043447" lon="12.439180416986346">
        <ele>1114.79</ele>
        <time>2016-07-05T07:59:34Z</time>
        <extensions>
          <gpxtpx:TrackPointExtension>
            <gpxtpx:atemp>22.6</gpxtpx:atemp>
          </gpxtpx:TrackPointExtension>
          <gpxx:TrackPointExtension>
            <gpxx:Temperature>22.6</gpxx:Temperature>
          </gpxx:TrackPointExtension>
        </extensions>
      </trkpt>
      <trkpt lat="46.750202151015401" lon="12.439206149429083">
        <ele>1114.79</ele>
        <time>2016-07-05T07:59:36Z</time>
        <extensions>
          <gpxtpx:TrackPointExtension>
            <gpxtpx:atemp>22.6</gpxtpx:atemp>
          </gpxtpx:TrackPointExtension>
          <gpxx:TrackPointExtension>
            <gpxx:Temperature>22.6</gpxx:Temperature>
          </gpxx:TrackPointExtension>
        </extensions>
      </trkpt>
      <trkpt lat="46.750150853767991" lon="12.439347552135587">
        <ele>1113.3399999999999</ele>
        <time>2016-07-05T07:59:46Z</time>
        <extensions>
          <gpxtpx:TrackPointExtension>
            <gpxtpx:atemp>22.2</gpxtpx:atemp>
          </gpxtpx:TrackPointExtension>
          <gpxx:TrackPointExtension>
            <gpxx:Temperature>22.2</gpxx:Temperature>
          </gpxx:TrackPointExtension>
        </extensions>
      </trkpt>
      <trkpt lat="46.750129563733935" lon="12.439417289569974">
        <ele>1112.3800000000001</ele>
        <time>2016-07-05T07:59:53Z</time>
        <extensions>
          <gpxtpx:TrackPointExtension>
            <gpxtpx:atemp>22.2</gpxtpx:atemp>
          </gpxtpx:TrackPointExtension>
          <gpxx:TrackPointExtension>
            <gpxx:Temperature>22.2</gpxx:Temperature>
          </gpxx:TrackPointExtension>
        </extensions>
      </trkpt>
      <trkpt lat="46.750098718330264" lon="12.439375799149275">
        <ele>1110.46</ele>
        <time>2016-07-05T08:00:02Z</time>
        <extensions>
          <gpxtpx:TrackPointExtension>
            <gpxtpx:atemp>22.2</gpxtpx:atemp>
          </gpxtpx:TrackPointExtension>
          <gpxx:TrackPointExtension>
            <gpxx:Temperature>22.2</gpxx:Temperature>
          </gpxx:TrackPointExtension>
        </extensions>
      </trkpt>
      <trkpt lat="46.750080697238445" lon="12.439348055049777">
        <ele>1110.46</ele>
        <time>2016-07-05T08:00:05Z</time>
        <extensions>
          <gpxtpx:TrackPointExtension>
            <gpxtpx:atemp>22.2</gpxtpx:atemp>
          </gpxtpx:TrackPointExtension>
          <gpxx:TrackPointExtension>
            <gpxx:Temperature>22.2</gpxx:Temperature>
          </gpxx:TrackPointExtension>
        </extensions>
      </trkpt>
      <trkpt lat="46.750055802986026" lon="12.439225595444441">
        <ele>1109.02</ele>
        <time>2016-07-05T08:00:14Z</time>
        <extensions>
          <gpxtpx:TrackPointExtension>
            <gpxtpx:atemp>22.2</gpxtpx:atemp>
          </gpxtpx:TrackPointExtension>
          <gpxx:TrackPointExtension>
            <gpxx:Temperature>22.2</gpxx:Temperature>
          </gpxx:TrackPointExtension>
        </extensions>
      </trkpt>
      <trkpt lat="46.750043230131269" lon="12.439106572419405">
        <ele>1106.6099999999999</ele>
        <time>2016-07-05T08:00:23Z</time>
        <extensions>
          <gpxtpx:TrackPointExtension>
            <gpxtpx:atemp>22.2</gpxtpx:atemp>
          </gpxtpx:TrackPointExtension>
          <gpxx:TrackPointExtension>
            <gpxx:Temperature>22.2</gpxx:Temperature>
          </gpxx:TrackPointExtension>
        </extensions>
      </trkpt>
      <trkpt lat="46.750026298686862" lon="12.438990483060479">
        <ele>1105.6500000000001</ele>
        <time>2016-07-05T08:00:32Z</time>
        <extensions>
          <gpxtpx:TrackPointExtension>
            <gpxtpx:atemp>22.2</gpxtpx:atemp>
          </gpxtpx:TrackPointExtension>
          <gpxx:TrackPointExtension>
            <gpxx:Temperature>22.2</gpxx:Temperature>
          </gpxx:TrackPointExtension>
        </extensions>
      </trkpt>
      <trkpt lat="46.750024957582355" lon="12.438870621845126">
        <ele>1104.21</ele>
        <time>2016-07-05T08:00:41Z</time>
        <extensions>
          <gpxtpx:TrackPointExtension>
            <gpxtpx:atemp>22.3</gpxtpx:atemp>
          </gpxtpx:TrackPointExtension>
          <gpxx:TrackPointExtension>
            <gpxx:Temperature>22.3</gpxx:Temperature>
          </gpxx:TrackPointExtension>
        </extensions>
      </trkpt>
      <trkpt lat="46.750028394162655" lon="12.438815468922257">
        <ele>1102.29</ele>
        <time>2016-07-05T08:00:45Z</time>
        <extensions>
          <gpxtpx:TrackPointExtension>
            <gpxtpx:atemp>22.3</gpxtpx:atemp>
          </gpxtpx:TrackPointExtension>
          <gpxx:TrackPointExtension>
            <gpxx:Temperature>22.3</gpxx:Temperature>
          </gpxx:TrackPointExtension>
        </extensions>
      </trkpt>
      <trkpt lat="46.750026885420084" lon="12.438754448667169">
        <ele>1101.3299999999999</ele>
        <time>2016-07-05T08:00:50Z</time>
        <extensions>
          <gpxtpx:TrackPointExtension>
            <gpxtpx:atemp>22.3</gpxtpx:atemp>
          </gpxtpx:TrackPointExtension>
          <gpxx:TrackPointExtension>
            <gpxx:Temperature>22.3</gpxx:Temperature>
          </gpxx:TrackPointExtension>
        </extensions>
      </trkpt>
      <trkpt lat="46.750021185725927" lon="12.438646322116256">
        <ele>1099.8900000000001</ele>
        <time>2016-07-05T08:00:58Z</time>
        <extensions>
          <gpxtpx:TrackPointExtension>
            <gpxtpx:atemp>22.3</gpxtpx:atemp>
          </gpxtpx:TrackPointExtension>
          <gpxx:TrackPointExtension>
            <gpxx:Temperature>22.3</gpxx:Temperature>
          </gpxx:TrackPointExtension>
        </extensions>
      </trkpt>
      <trkpt lat="46.750012133270502" lon="12.438535764813423">
        <ele>1098.4400000000001</ele>
        <time>2016-07-05T08:01:07Z</time>
        <extensions>
          <gpxtpx:TrackPointExtension>
            <gpxtpx:atemp>22.3</gpxtpx:atemp>
          </gpxtpx:TrackPointExtension>
          <gpxx:TrackPointExtension>
            <gpxx:Temperature>22.3</gpxx:Temperature>
          </gpxx:TrackPointExtension>
        </extensions>
      </trkpt>
      <trkpt lat="46.74999050796032" lon="12.438396541401744">
        <ele>1095.5599999999999</ele>
        <time>2016-07-05T08:01:17Z</time>
        <extensions>
          <gpxtpx:TrackPointExtension>
            <gpxtpx:atemp>22.3</gpxtpx:atemp>
          </gpxtpx:TrackPointExtension>
          <gpxx:TrackPointExtension>
            <gpxx:Temperature>22.3</gpxx:Temperature>
          </gpxx:TrackPointExtension>
        </extensions>
      </trkpt>
      <trkpt lat="46.749950107187033" lon="12.438287492841482">
        <ele>1092.2</ele>
        <time>2016-07-05T08:01:28Z</time>
        <extensions>
          <gpxtpx:TrackPointExtension>
            <gpxtpx:atemp>22.3</gpxtpx:atemp>
          </gpxtpx:TrackPointExtension>
          <gpxx:TrackPointExtension>
            <gpxx:Temperature>22.3</gpxx:Temperature>
          </gpxx:TrackPointExtension>
        </extensions>
      </trkpt>
      <trkpt lat="46.749911634251475" lon="12.438265951350331">
        <ele>1092.2</ele>
        <time>2016-07-05T08:01:33Z</time>
        <extensions>
          <gpxtpx:TrackPointExtension>
            <gpxtpx:atemp>22.3</gpxtpx:atemp>
          </gpxtpx:TrackPointExtension>
          <gpxx:TrackPointExtension>
            <gpxx:Temperature>22.3</gpxx:Temperature>
          </gpxx:TrackPointExtension>
        </extensions>
      </trkpt>
      <trkpt lat="46.74979411996901" lon="12.438342897221446">
        <ele>1091.23</ele>
        <time>2016-07-05T08:01:45Z</time>
        <extensions>
          <gpxtpx:TrackPointExtension>
            <gpxtpx:atemp>23.2</gpxtpx:atemp>
          </gpxtpx:TrackPointExtension>
          <gpxx:TrackPointExtension>
            <gpxx:Temperature>23.2</gpxx:Temperature>
          </gpxx:TrackPointExtension>
        </extensions>
      </trkpt>
      <trkpt lat="46.749777104705572" lon="12.438429147005081">
        <ele>1092.2</ele>
        <time>2016-07-05T08:01:53Z</time>
        <extensions>
          <gpxtpx:TrackPointExtension>
            <gpxtpx:atemp>23.2</gpxtpx:atemp>
          </gpxtpx:TrackPointExtension>
          <gpxx:TrackPointExtension>
            <gpxx:Temperature>23.2</gpxx:Temperature>
          </gpxx:TrackPointExtension>
        </extensions>
      </trkpt>
      <trkpt lat="46.74977408722043" lon="12.438283888623118">
        <ele>1092.2</ele>
        <time>2016-07-05T08:02:03Z</time>
        <extensions>
          <gpxtpx:TrackPointExtension>
            <gpxtpx:atemp>23.2</gpxtpx:atemp>
          </gpxtpx:TrackPointExtension>
          <gpxx:TrackPointExtension>
            <gpxx:Temperature>23.2</gpxx:Temperature>
          </gpxx:TrackPointExtension>
        </extensions>
      </trkpt>
      <trkpt lat="46.749774003401399" lon="12.43816377595067">
        <ele>1092.6800000000001</ele>
        <time>2016-07-05T08:02:11Z</time>
        <extensions>
          <gpxtpx:TrackPointExtension>
            <gpxtpx:atemp>23.2</gpxtpx:atemp>
          </gpxtpx:TrackPointExtension>
          <gpxx:TrackPointExtension>
            <gpxx:Temperature>23.2</gpxx:Temperature>
          </gpxx:TrackPointExtension>
        </extensions>
      </trkpt>
      <trkpt lat="46.749794790521264" lon="12.438022205606103">
        <ele>1092.6800000000001</ele>
        <time>2016-07-05T08:02:20Z</time>
        <extensions>
          <gpxtpx:TrackPointExtension>
            <gpxtpx:atemp>23.2</gpxtpx:atemp>
          </gpxtpx:TrackPointExtension>
          <gpxx:TrackPointExtension>
            <gpxx:Temperature>23.2</gpxx:Temperature>
          </gpxx:TrackPointExtension>
        </extensions>
      </trkpt>
      <trkpt lat="46.749794539064169" lon="12.437905194237828">
        <ele>1093.1600000000001</ele>
        <time>2016-07-05T08:02:28Z</time>
        <extensions>
          <gpxtpx:TrackPointExtension>
            <gpxtpx:atemp>23.2</gpxtpx:atemp>
          </gpxtpx:TrackPointExtension>
          <gpxx:TrackPointExtension>
            <gpxx:Temperature>23.2</gpxx:Temperature>
          </gpxx:TrackPointExtension>
        </extensions>
      </trkpt>
      <trkpt lat="46.749794874340296" lon="12.437746608629823">
        <ele>1094.1199999999999</ele>
        <time>2016-07-05T08:02:38Z</time>
        <extensions>
          <gpxtpx:TrackPointExtension>
            <gpxtpx:atemp>23.2</gpxtpx:atemp>
          </gpxtpx:TrackPointExtension>
          <gpxx:TrackPointExtension>
            <gpxx:Temperature>23.2</gpxx:Temperature>
          </gpxx:TrackPointExtension>
        </extensions>
      </trkpt>
      <trkpt lat="46.74980241805315" lon="12.437511999160051">
        <ele>1095.0799999999999</ele>
        <time>2016-07-05T08:02:50Z</time>
        <extensions>
          <gpxtpx:TrackPointExtension>
            <gpxtpx:atemp>23.1</gpxtpx:atemp>
          </gpxtpx:TrackPointExtension>
          <gpxx:TrackPointExtension>
            <gpxx:Temperature>23.1</gpxx:Temperature>
          </gpxx:TrackPointExtension>
        </extensions>
      </trkpt>
      <trkpt lat="46.749825803562999" lon="12.4373091571033">
        <ele>1094.5999999999999</ele>
        <time>2016-07-05T08:03:01Z</time>
        <extensions>
          <gpxtpx:TrackPointExtension>
            <gpxtpx:atemp>23.1</gpxtpx:atemp>
          </gpxtpx:TrackPointExtension>
          <gpxx:TrackPointExtension>
            <gpxx:Temperature>23.1</gpxx:Temperature>
          </gpxx:TrackPointExtension>
        </extensions>
      </trkpt>
      <trkpt lat="46.749886991456151" lon="12.437232797965407">
        <ele>1094.5999999999999</ele>
        <time>2016-07-05T08:03:09Z</time>
        <extensions>
          <gpxtpx:TrackPointExtension>
            <gpxtpx:atemp>23.1</gpxtpx:atemp>
          </gpxtpx:TrackPointExtension>
          <gpxx:TrackPointExtension>
            <gpxx:Temperature>23.1</gpxx:Temperature>
          </gpxx:TrackPointExtension>
        </extensions>
      </trkpt>
      <trkpt lat="46.749956393614411" lon="12.43717135861516">
        <ele>1093.1600000000001</ele>
        <time>2016-07-05T08:03:16Z</time>
        <extensions>
          <gpxtpx:TrackPointExtension>
            <gpxtpx:atemp>23.1</gpxtpx:atemp>
          </gpxtpx:TrackPointExtension>
          <gpxx:TrackPointExtension>
            <gpxx:Temperature>23.1</gpxx:Temperature>
          </gpxx:TrackPointExtension>
        </extensions>
      </trkpt>
      <trkpt lat="46.749975671991706" lon="12.437110841274261">
        <ele>1093.6400000000001</ele>
        <time>2016-07-05T08:03:20Z</time>
        <extensions>
          <gpxtpx:TrackPointExtension>
            <gpxtpx:atemp>23.1</gpxtpx:atemp>
          </gpxtpx:TrackPointExtension>
          <gpxx:TrackPointExtension>
            <gpxx:Temperature>23.1</gpxx:Temperature>
          </gpxx:TrackPointExtension>
        </extensions>
      </trkpt>
      <trkpt lat="46.750002577900887" lon="12.43695292621851">
        <ele>1093.1600000000001</ele>
        <time>2016-07-05T08:03:29Z</time>
        <extensions>
          <gpxtpx:TrackPointExtension>
            <gpxtpx:atemp>23.1</gpxtpx:atemp>
          </gpxtpx:TrackPointExtension>
          <gpxx:TrackPointExtension>
            <gpxx:Temperature>23.1</gpxx:Temperature>
          </gpxx:TrackPointExtension>
        </extensions>
      </trkpt>
    </trkseg>
  </trk>

</gpx>