<?xml version="1.0" encoding="UTF-8" standalone="yes"?>
<gpx xmlns="http://www.topografix.com/GPX/1/0" creator="Generated by Christian Pesch's RouteConverter. See http://www.routeconverter.com" version="1.0">
    <trk>
        <name>2013-07-13 18:42</name>
        <desc>&lt;h1&gt;OruxMaps&lt;/h1&gt;&lt;br /&gt;&lt;hr align=&quot;center&quot; width=&quot;480&quot; style=&quot;height: 2px; width: 517px&quot;/&gt;&lt;h2&gt;Name: 2013-07-13 18:42&lt;/h2&gt;&lt;br /&gt;&lt;p&gt;Startzeit: 07/13/2013 18:42&lt;/p&gt;&lt;p&gt;Zielzeit: 07/13/2013 20:20&lt;/p&gt;&lt;p&gt;Distanz: 4,
8 km (01:38)&lt;/p&gt;&lt;p&gt;Bewegungszeit: 00:21&lt;/p&gt;&lt;p&gt;Durchschnitts-Geschw.: 2,
9 km/h&lt;/p&gt;&lt;p&gt;Netto Geschwindigkeit: 13,
2 km/h&lt;/p&gt;&lt;p&gt;Max. Geschwindigkeit: 61 km/h&lt;/p&gt;&lt;p&gt;Minimale Höhe: 728 m&lt;/p&gt;&lt;p&gt;Maximale Höhe: 843 m&lt;/p&gt;&lt;p&gt;Steig-Geschw.: 129,
3 m/h&lt;/p&gt;&lt;p&gt;Sink-Geschw.: -1749,
1 m/h&lt;/p&gt;&lt;p&gt;Aufstieg: 27 m&lt;/p&gt;&lt;p&gt;Abstieg: -70 m&lt;/p&gt;&lt;p&gt;Steigzeit: 00:12&lt;/p&gt;&lt;p&gt;Sinkzeit: 00:02&lt;/p&gt;&lt;hr align=&quot;center&quot; width=&quot;480&quot; style=&quot;height: 2px; width: 517px&quot;/&gt;</desc>
        <trkseg>
            <trkpt lon="9.955501556396195" lat="47.35227584838729">
                <ele>741.199</ele>
                <time>2013-07-13T16:52:23.000Z</time>
                <name>Position 1</name>
            </trkpt>
            <trkpt lon="9.955308437347123" lat="47.35214710235458">
                <ele>744.949</ele>
                <time>2013-07-13T16:53:18.000Z</time>
                <name>Position 2</name>
            </trkpt>
            <trkpt lon="9.955930709838578" lat="47.35190033912521">
                <ele>752.949</ele>
                <time>2013-07-13T16:58:54.000Z</time>
                <name>Position 3</name>
            </trkpt>
            <trkpt lon="9.956231117248246" lat="47.35182523727279">
                <ele>751.949</ele>
                <time>2013-07-13T16:59:18.000Z</time>
                <name>Position 4</name>
            </trkpt>
            <trkpt lon="9.95661735534639" lat="47.35153555869918">
                <ele>749.949</ele>
                <time>2013-07-13T16:59:57.000Z</time>
                <name>Position 5</name>
            </trkpt>
            <trkpt lon="9.956681728362748" lat="47.35135316848617">
                <ele>750.199</ele>
                <time>2013-07-13T17:00:13.000Z</time>
                <name>Position 6</name>
            </trkpt>
            <trkpt lon="9.95663881301851" lat="47.35117077827316">
                <ele>752.6192</ele>
                <time>2013-07-13T17:00:41.000Z</time>
                <name>Position 7</name>
            </trkpt>
            <trkpt lon="9.95663881301851" lat="47.350988388060145">
                <ele>754.949</ele>
                <time>2013-07-13T17:01:11.000Z</time>
                <name>Position 8</name>
            </trkpt>
            <trkpt lon="9.956917762756058" lat="47.350966930388026">
                <ele>766.92523</ele>
                <time>2013-07-13T17:05:55.000Z</time>
                <name>Position 9</name>
            </trkpt>
            <trkpt lon="9.957196712493607" lat="47.350999116896205">
                <ele>772.9466</ele>
                <time>2013-07-13T17:06:58.000Z</time>
                <name>Position 10</name>
            </trkpt>
            <trkpt lon="9.957261085509964" lat="47.35106348991256">
                <ele>814.20917</ele>
                <time>2013-07-13T17:37:08.000Z</time>
                <name>Position 11</name>
            </trkpt>
            <trkpt lon="9.957325458526322" lat="47.351245880125575">
                <ele>827.1103</ele>
                <time>2013-07-13T17:37:35.000Z</time>
                <name>Position 12</name>
            </trkpt>
            <trkpt lon="9.957432746886917" lat="47.35141754150253">
                <ele>832.68884</ele>
                <time>2013-07-13T17:38:02.000Z</time>
                <name>Position 13</name>
            </trkpt>
            <trkpt lon="9.95760440826387" lat="47.3515570163713">
                <ele>835.375</ele>
                <time>2013-07-13T17:38:22.000Z</time>
                <name>Position 14</name>
            </trkpt>
            <trkpt lon="9.957840442657181" lat="47.3516643047319">
                <ele>836.8307</ele>
                <time>2013-07-13T17:38:34.000Z</time>
                <name>Position 15</name>
            </trkpt>
            <trkpt lon="9.958055019378373" lat="47.351771593092494">
                <ele>837.1862</ele>
                <time>2013-07-13T17:39:07.000Z</time>
                <name>Position 16</name>
            </trkpt>
            <trkpt lon="9.957969188689896" lat="47.35194325446945">
                <ele>836.94934</ele>
                <time>2013-07-13T17:39:30.000Z</time>
                <name>Position 17</name>
            </trkpt>
            <trkpt lon="9.957818984985062" lat="47.35209345817428">
                <ele>836.949</ele>
                <time>2013-07-13T17:39:49.000Z</time>
                <name>Position 18</name>
            </trkpt>
            <trkpt lon="9.957561492919632" lat="47.3521685600267">
                <ele>834.9809</ele>
                <time>2013-07-13T17:40:18.000Z</time>
                <name>Position 19</name>
            </trkpt>
            <trkpt lon="9.957304000854203" lat="47.352243661879115">
                <ele>834.1864</ele>
                <time>2013-07-13T17:40:38.000Z</time>
                <name>Position 20</name>
            </trkpt>
            <trkpt lon="9.957046508788773" lat="47.35232949256759">
                <ele>832.42896</ele>
                <time>2013-07-13T17:40:55.000Z</time>
                <name>Position 21</name>
            </trkpt>
            <trkpt lon="9.956767559051224" lat="47.35234022140365">
                <ele>829.949</ele>
                <time>2013-07-13T17:41:25.000Z</time>
                <name>Position 22</name>
            </trkpt>
            <trkpt lon="9.956552982330033" lat="47.352458238600306">
                <ele>825.15826</ele>
                <time>2013-07-13T17:41:41.000Z</time>
                <name>Position 23</name>
            </trkpt>
            <trkpt lon="9.956681728362748" lat="47.3526191711412">
                <ele>813.5115</ele>
                <time>2013-07-13T17:42:02.000Z</time>
                <name>Position 24</name>
            </trkpt>
            <trkpt lon="9.956552982330033" lat="47.35278010368209">
                <ele>807.519</ele>
                <time>2013-07-13T17:42:25.000Z</time>
                <name>Position 25</name>
            </trkpt>
            <trkpt lon="9.956274032592484" lat="47.35279083251815">
                <ele>802.03577</ele>
                <time>2013-07-13T17:43:02.000Z</time>
                <name>Position 26</name>
            </trkpt>
            <trkpt lon="9.956037998199173" lat="47.35268354415756">
                <ele>801.949</ele>
                <time>2013-07-13T17:43:22.000Z</time>
                <name>Position 27</name>
            </trkpt>
            <trkpt lon="9.955801963805863" lat="47.35258698463302">
                <ele>802.68115</ele>
                <time>2013-07-13T17:43:42.000Z</time>
                <name>Position 28</name>
            </trkpt>
            <trkpt lon="9.955565929412552" lat="47.352501153944544">
                <ele>801.5146</ele>
                <time>2013-07-13T17:44:01.000Z</time>
                <name>Position 29</name>
            </trkpt>
            <trkpt lon="9.955308437347123" lat="47.352458238600306">
                <ele>799.96716</ele>
                <time>2013-07-13T17:44:27.000Z</time>
                <name>Position 30</name>
            </trkpt>
            <trkpt lon="9.955179691314408" lat="47.35229730605941">
                <ele>793.29895</ele>
                <time>2013-07-13T17:45:04.000Z</time>
                <name>Position 31</name>
            </trkpt>
        </trkseg>
    </trk>
</gpx>
