<?xml version="1.0" encoding="UTF-8" standalone="yes"?>
<gpx xmlns="http://www.topografix.com/GPX/1/1" xmlns:gpxtrx="http://www.garmin.com/xmlschemas/GpxExtensions/v3" xmlns:rcxx="http://www.routeconverter.de/xmlschemas/RouteCatalogExtensions/1.0" xmlns:xsi="http://www.w3.org/2001/XMLSchema-instance" xmlns:gpxtpx="http://www.garmin.com/xmlschemas/TrackPointExtension/v1" xmlns:gpxx="http://www.garmin.com/xmlschemas/WaypointExtension/v1" xmlns:nmea="http://trekbuddy.net/2009/01/gpx/nmea" version="1.1" creator="Generated by Christian Pesch's RouteConverter. See http://www.routeconverter.com">
    <metadata>
        <name>2017-10-08 13:49</name>
        <desc></desc>
        <link href="http://www.oruxmaps.com">
            <text>OruxMaps</text>
        </link>
        <time>2017-10-08T11:49:11Z</time>
        <bounds minlat="45.9352736" minlon="10.8913224" maxlat="45.9387136" maxlon="10.8972288"/>
    </metadata>
    <trk>
        <name>2017-10-08 13:49</name>
        <desc>&lt;p&gt;Startzeit: 10/08/2017 13:49&lt;/p&gt;&lt;p&gt;Zielzeit: 10/08/2017 16:43&lt;/p&gt;&lt;p&gt;Strecke: 1,
3 km (02:54)&lt;/p&gt;&lt;p&gt;Bewegungszeit: 00:22&lt;/p&gt;&lt;p&gt;Ø-Geschwindigkeit: 0,
45 km/h&lt;/p&gt;&lt;p&gt;Netto-Geschwindigkeit: 3,
48 km/h&lt;/p&gt;&lt;p&gt;Max. Geschwindigkeit: 6,
22km/h&lt;/p&gt;&lt;p&gt;Minimale Höhe: 91 m&lt;/p&gt;&lt;p&gt;Maximale Höhe: 238 m&lt;/p&gt;&lt;p&gt;Steig-Geschw.: 59,
3 m/h&lt;/p&gt;&lt;p&gt;Sink-Geschw.: -470,
6 m/h&lt;/p&gt;&lt;p&gt;Aufstieg: 152 m&lt;/p&gt;&lt;p&gt;Abstieg: -155 m&lt;/p&gt;&lt;p&gt;Steigzeit: 02:34&lt;/p&gt;&lt;p&gt;Sinkzeit: 00:19&lt;/p&gt;&lt;hr align="center" width="480" style="height: 2px; width: 517px"/&gt;</desc>
        <type>Unbestimmt</type>
        <extensions>
            <om:oruxmapsextensions xmlns:om="http://www.oruxmaps.com/oruxmapsextensions/1/0">
                <om:ext subtype="0" type="TYPE">0</om:ext>
                <om:ext type="DIFFICULTY">0</om:ext>
</om:oruxmapsextensions>
        </extensions>
        <trkseg>
            <trkpt lat="45.9387048" lon="10.8972288">
                <ele>97.7</ele>
                <time>2017-10-08T11:49:14.000Z</time>
                <name>Position 1</name>
            </trkpt>
            <trkpt lat="45.9385782" lon="10.8970271">
                <ele>104.0</ele>
                <time>2017-10-08T11:50:10.000Z</time>
                <name>Position 2</name>
            </trkpt>
            <trkpt lat="45.9385815" lon="10.8967636">
                <ele>98.8</ele>
                <time>2017-10-08T11:52:29.000Z</time>
                <name>Position 3</name>
            </trkpt>
            <trkpt lat="45.9384872" lon="10.8965395">
                <ele>99.8</ele>
                <time>2017-10-08T11:52:49.000Z</time>
                <name>Position 4</name>
            </trkpt>
            <trkpt lat="45.9383506" lon="10.8963678">
                <ele>102.6</ele>
                <time>2017-10-08T11:53:06.000Z</time>
                <name>Position 5</name>
            </trkpt>
            <trkpt lat="45.9382073" lon="10.896211">
                <ele>98.8</ele>
                <time>2017-10-08T11:54:52.000Z</time>
                <name>Position 6</name>
            </trkpt>
            <trkpt lat="45.9380766" lon="10.8960262">
                <ele>101.8</ele>
                <time>2017-10-08T11:55:18.000Z</time>
                <name>Position 7</name>
            </trkpt>
            <trkpt lat="45.9379386" lon="10.8958577">
                <ele>101.8</ele>
                <time>2017-10-08T11:55:39.000Z</time>
                <name>Position 8</name>
            </trkpt>
            <trkpt lat="45.9378087" lon="10.8956676">
                <ele>104.8</ele>
                <time>2017-10-08T11:55:58.000Z</time>
                <name>Position 9</name>
            </trkpt>
            <trkpt lat="45.9376815" lon="10.8954778">
                <ele>105.8</ele>
                <time>2017-10-08T11:56:21.000Z</time>
                <name>Position 10</name>
            </trkpt>
            <trkpt lat="45.9375088" lon="10.8953818">
                <ele>105.8</ele>
                <time>2017-10-08T11:59:51.000Z</time>
                <name>Position 11</name>
            </trkpt>
            <trkpt lat="45.9373324" lon="10.8953025">
                <ele>107.8</ele>
                <time>2017-10-08T12:00:06.000Z</time>
                <name>Position 12</name>
            </trkpt>
            <trkpt lat="45.9372735" lon="10.8950568">
                <ele>107.8</ele>
                <time>2017-10-08T12:00:38.000Z</time>
                <name>Position 13</name>
            </trkpt>
            <trkpt lat="45.9373234" lon="10.8948056">
                <ele>116.8</ele>
                <time>2017-10-08T12:01:21.000Z</time>
                <name>Position 14</name>
            </trkpt>
            <trkpt lat="45.9372188" lon="10.8945905">
                <ele>125.8</ele>
                <time>2017-10-08T12:02:00.000Z</time>
                <name>Position 15</name>
            </trkpt>
            <trkpt lat="45.9371204" lon="10.8943722">
                <ele>132.8</ele>
                <time>2017-10-08T12:02:51.000Z</time>
                <name>Position 16</name>
            </trkpt>
            <trkpt lat="45.9370388" lon="10.8941406">
                <ele>145.6</ele>
                <time>2017-10-08T12:04:02.000Z</time>
                <name>Position 17</name>
            </trkpt>
            <trkpt lat="45.9369545" lon="10.8939107">
                <ele>152.8</ele>
                <time>2017-10-08T12:05:00.000Z</time>
                <name>Position 18</name>
            </trkpt>
            <trkpt lat="45.936921" lon="10.8936452">
                <ele>166.8</ele>
                <time>2017-10-08T12:05:52.000Z</time>
                <name>Position 19</name>
            </trkpt>
            <trkpt lat="45.9368154" lon="10.8934352">
                <ele>158.2</ele>
                <time>2017-10-08T12:06:36.000Z</time>
                <name>Position 20</name>
            </trkpt>
            <trkpt lat="45.9366345" lon="10.8933996">
                <ele>153.8</ele>
                <time>2017-10-08T12:07:16.000Z</time>
                <name>Position 21</name>
            </trkpt>
            <trkpt lat="45.9364744" lon="10.8932777">
                <ele>141.5</ele>
                <time>2017-10-08T12:07:49.000Z</time>
                <name>Position 22</name>
            </trkpt>
            <trkpt lat="45.9362968" lon="10.8931914">
                <ele>140.6</ele>
                <time>2017-10-08T12:08:11.000Z</time>
                <name>Position 23</name>
            </trkpt>
            <trkpt lat="45.9361431" lon="10.893053">
                <ele>138.0</ele>
                <time>2017-10-08T12:09:41.000Z</time>
                <name>Position 24</name>
            </trkpt>
            <trkpt lat="45.9359713" lon="10.892932">
                <ele>138.1</ele>
                <time>2017-10-08T12:11:14.000Z</time>
                <name>Position 25</name>
            </trkpt>
            <trkpt lat="45.9358253" lon="10.8927696">
                <ele>137.4</ele>
                <time>2017-10-08T12:11:38.000Z</time>
                <name>Position 26</name>
            </trkpt>
            <trkpt lat="45.9359331" lon="10.8925618">
                <ele>170.8</ele>
                <time>2017-10-08T13:02:03.000Z</time>
                <name>Position 27</name>
            </trkpt>
            <trkpt lat="45.935974" lon="10.8923067">
                <ele>180.9</ele>
                <time>2017-10-08T13:22:40.000Z</time>
                <name>Position 28</name>
            </trkpt>
            <trkpt lat="45.9361049" lon="10.8921283">
                <ele>238.8</ele>
                <time>2017-10-08T14:18:01.000Z</time>
                <name>Position 29</name>
            </trkpt>
            <trkpt lat="45.935955" lon="10.8919621">
                <ele>234.5</ele>
                <time>2017-10-08T14:27:33.000Z</time>
                <name>Position 30</name>
            </trkpt>
            <trkpt lat="45.9358017" lon="10.891816">
                <ele>229.0</ele>
                <time>2017-10-08T14:28:21.000Z</time>
                <name>Position 31</name>
            </trkpt>
            <trkpt lat="45.9356644" lon="10.8916377">
                <ele>217.0</ele>
                <time>2017-10-08T14:28:57.000Z</time>
                <name>Position 32</name>
            </trkpt>
            <trkpt lat="45.935561" lon="10.8914203">
                <ele>202.0</ele>
                <time>2017-10-08T14:30:16.000Z</time>
                <name>Position 33</name>
            </trkpt>
            <trkpt lat="45.9353929" lon="10.8913224">
                <ele>197.0</ele>
                <time>2017-10-08T14:30:54.000Z</time>
                <name>Position 34</name>
            </trkpt>
            <trkpt lat="45.9352736" lon="10.8915176">
                <ele>178.8</ele>
                <time>2017-10-08T14:32:52.000Z</time>
                <name>Position 35</name>
            </trkpt>
            <trkpt lat="45.9353816" lon="10.891733">
                <ele>169.1</ele>
                <time>2017-10-08T14:33:23.000Z</time>
                <name>Position 36</name>
            </trkpt>
            <trkpt lat="45.9355165" lon="10.8919116">
                <ele>157.6</ele>
                <time>2017-10-08T14:33:48.000Z</time>
                <name>Position 37</name>
            </trkpt>
            <trkpt lat="45.9356179" lon="10.8921404">
                <ele>148.9</ele>
                <time>2017-10-08T14:34:35.000Z</time>
                <name>Position 38</name>
            </trkpt>
            <trkpt lat="45.9356936" lon="10.8923841">
                <ele>150.5</ele>
                <time>2017-10-08T14:35:13.000Z</time>
                <name>Position 39</name>
            </trkpt>
            <trkpt lat="45.935776" lon="10.8926222">
                <ele>143.8</ele>
                <time>2017-10-08T14:35:43.000Z</time>
                <name>Position 40</name>
            </trkpt>
            <trkpt lat="45.9358924" lon="10.8928431">
                <ele>143.6</ele>
                <time>2017-10-08T14:36:03.000Z</time>
                <name>Position 41</name>
            </trkpt>
            <trkpt lat="45.9360256" lon="10.8930199">
                <ele>142.0</ele>
                <time>2017-10-08T14:36:20.000Z</time>
                <name>Position 42</name>
            </trkpt>
            <trkpt lat="45.936154" lon="10.8932024">
                <ele>139.7</ele>
                <time>2017-10-08T14:36:37.000Z</time>
                <name>Position 43</name>
            </trkpt>
            <trkpt lat="45.9363005" lon="10.893367">
                <ele>134.8</ele>
                <time>2017-10-08T14:36:54.000Z</time>
                <name>Position 44</name>
            </trkpt>
            <trkpt lat="45.9364293" lon="10.8935505">
                <ele>137.8</ele>
                <time>2017-10-08T14:37:13.000Z</time>
                <name>Position 45</name>
            </trkpt>
            <trkpt lat="45.9365482" lon="10.893746">
                <ele>133.3</ele>
                <time>2017-10-08T14:37:26.000Z</time>
                <name>Position 46</name>
            </trkpt>
            <trkpt lat="45.9366882" lon="10.8939204">
                <ele>135.8</ele>
                <time>2017-10-08T14:37:40.000Z</time>
                <name>Position 47</name>
            </trkpt>
            <trkpt lat="45.9368575" lon="10.8940133">
                <ele>132.6</ele>
                <time>2017-10-08T14:38:02.000Z</time>
                <name>Position 48</name>
            </trkpt>
            <trkpt lat="45.9370096" lon="10.8941579">
                <ele>135.8</ele>
                <time>2017-10-08T14:38:20.000Z</time>
                <name>Position 49</name>
            </trkpt>
            <trkpt lat="45.9371394" lon="10.8943415">
                <ele>128.8</ele>
                <time>2017-10-08T14:39:02.000Z</time>
                <name>Position 50</name>
            </trkpt>
            <trkpt lat="45.9372383" lon="10.894559">
                <ele>123.8</ele>
                <time>2017-10-08T14:39:22.000Z</time>
                <name>Position 51</name>
            </trkpt>
            <trkpt lat="45.9373355" lon="10.8947782">
                <ele>123.6</ele>
                <time>2017-10-08T14:39:58.000Z</time>
                <name>Position 52</name>
            </trkpt>
            <trkpt lat="45.9372578" lon="10.8950171">
                <ele>111.8</ele>
                <time>2017-10-08T14:40:25.000Z</time>
                <name>Position 53</name>
            </trkpt>
            <trkpt lat="45.9373554" lon="10.8952425">
                <ele>106.0</ele>
                <time>2017-10-08T14:40:44.000Z</time>
                <name>Position 54</name>
            </trkpt>
            <trkpt lat="45.937529" lon="10.8953282">
                <ele>100.0</ele>
                <time>2017-10-08T14:40:58.000Z</time>
                <name>Position 55</name>
            </trkpt>
            <trkpt lat="45.9376881" lon="10.895457">
                <ele>99.8</ele>
                <time>2017-10-08T14:41:16.000Z</time>
                <name>Position 56</name>
            </trkpt>
            <trkpt lat="45.9378094" lon="10.8956487">
                <ele>100.8</ele>
                <time>2017-10-08T14:41:30.000Z</time>
                <name>Position 57</name>
            </trkpt>
            <trkpt lat="45.9379446" lon="10.8958237">
                <ele>100.0</ele>
                <time>2017-10-08T14:41:45.000Z</time>
                <name>Position 58</name>
            </trkpt>
            <trkpt lat="45.938092" lon="10.8959876">
                <ele>95.7</ele>
                <time>2017-10-08T14:41:57.000Z</time>
                <name>Position 59</name>
            </trkpt>
            <trkpt lat="45.9382361" lon="10.8961448">
                <ele>95.8</ele>
                <time>2017-10-08T14:42:13.000Z</time>
                <name>Position 60</name>
            </trkpt>
            <trkpt lat="45.9383849" lon="10.8963079">
                <ele>91.8</ele>
                <time>2017-10-08T14:42:27.000Z</time>
                <name>Position 61</name>
            </trkpt>
            <trkpt lat="45.9385247" lon="10.8964889">
                <ele>92.8</ele>
                <time>2017-10-08T14:42:43.000Z</time>
                <name>Position 62</name>
            </trkpt>
            <trkpt lat="45.9386278" lon="10.8967012">
                <ele>97.7</ele>
                <time>2017-10-08T14:43:04.000Z</time>
                <name>Position 63</name>
            </trkpt>
            <trkpt lat="45.9386524" lon="10.8969643">
                <ele>94.5</ele>
                <time>2017-10-08T14:43:26.000Z</time>
                <name>Position 64</name>
            </trkpt>
            <trkpt lat="45.9387136" lon="10.8972202">
                <ele>95.9</ele>
                <time>2017-10-08T14:43:41.000Z</time>
                <name>Position 65</name>
            </trkpt>
        </trkseg>
    </trk>
</gpx>
