<?xml version="1.0" encoding="UTF-8" standalone="no" ?>
<gpx xmlns="http://www.topografix.com/GPX/1/1" xmlns:gpxtpx="http://www.garmin.com/xmlschemas/TrackPointExtension/v1" creator="OruxMaps v.7.0.2" version="1.1" xmlns:xsi="http://www.w3.org/2001/XMLSchema-instance" xsi:schemaLocation="http://www.topografix.com/GPX/1/1 http://www.topografix.com/GPX/1/1/gpx.xsd">
<metadata>
<name><![CDATA[2017-10-14 14:58]]></name>
<link href="http://www.oruxmaps.com">
<text>OruxMaps</text>
</link>
<time>2017-10-14T12:58:21Z</time><bounds maxlat="47.3744081" maxlon="15.4237453" minlat="47.3602039" minlon="15.4123727"/>
</metadata>
<wpt lat="47.3648811" lon="15.4233657">
<ele>1416.48</ele>
<time>2017-10-14T14:00:30Z</time>
<name><![CDATA[Einstieg ]]></name>
<sym>Waypoint</sym>
<type>Wegpunkt</type>
<extensions>
<om:oruxmapsextensions xmlns:om="http://www.oruxmaps.com/oruxmapsextensions/1/0">
<om:ext type="ICON" subtype="0">1</om:ext>
</om:oruxmapsextensions>
</extensions>
</wpt>
<wpt lat="47.3612460" lon="15.4219869">
<ele>1648.49</ele>
<time>2017-10-14T15:47:31Z</time>
<name><![CDATA[Ausstieg ]]></name>
<sym>Waypoint</sym>
<type>Wegpunkt</type>
<extensions>
<om:oruxmapsextensions xmlns:om="http://www.oruxmaps.com/oruxmapsextensions/1/0">
<om:ext type="ICON" subtype="0">1</om:ext>
</om:oruxmapsextensions>
</extensions>
</wpt>
<trk>
<name><![CDATA[2017-10-14 14:58]]></name>
<desc><![CDATA[<p>Startzeit: 10/14/2017 14:58<br/>Zielzeit: 10/14/2017 19:11<br/>Strecke: 4,9 km (04:12)<br/>Bewegungszeit: 01:52<br/>Ø-Geschwindigkeit: 1,16 km/h<br/>Netto-Geschwindigkeit: 2,62 km/h<br/>Max. Geschwindigkeit: 6,16 km/h<br/>Minimale Höhe: 980 m<br/>Maximale Höhe: 1657 m<br/>Steig-Geschw.: 234,2 m/h<br/>Sink-Geschw.: -595,6 m/h<br/>Aufstieg: 705 m<br/>Abstieg: -692 m<br/>Steigzeit: 03:00<br/>Sinkzeit: 01:09<br/></p><hr align="center" width="480" style="height: 2px; width: 517px"/>]]></desc>
<type>Unbestimmt</type>
<extensions>
<om:oruxmapsextensions xmlns:om="http://www.oruxmaps.com/oruxmapsextensions/1/0">
<om:ext type="TYPE" subtype="0">0</om:ext>
<om:ext type="DIFFICULTY">0</om:ext>
</om:oruxmapsextensions>
</extensions>
<trkseg>
<trkpt lat="47.3744081" lon="15.4226356">
<ele>980.48</ele>
<time>2017-10-14T12:58:24Z</time>
</trkpt>
<trkpt lat="47.3743419" lon="15.4223838">
<ele>988.39</ele>
<time>2017-10-14T12:58:43Z</time>
</trkpt>
<trkpt lat="47.3741895" lon="15.4225513">
<ele>993.09</ele>
<time>2017-10-14T13:06:57Z</time>
</trkpt>
<trkpt lat="47.3740132" lon="15.4224957">
<ele>991.47</ele>
<time>2017-10-14T13:07:46Z</time>
</trkpt>
<trkpt lat="47.3738495" lon="15.4223830">
<ele>996.30</ele>
<time>2017-10-14T13:07:59Z</time>
</trkpt>
<trkpt lat="47.3736646" lon="15.4223476">
<ele>995.39</ele>
<time>2017-10-14T13:08:18Z</time>
</trkpt>
<trkpt lat="47.3734853" lon="15.4222792">
<ele>994.40</ele>
<time>2017-10-14T13:08:33Z</time>
</trkpt>
<trkpt lat="47.3733011" lon="15.4222384">
<ele>996.46</ele>
<time>2017-10-14T13:08:53Z</time>
</trkpt>
<trkpt lat="47.3731208" lon="15.4221783">
<ele>1001.73</ele>
<time>2017-10-14T13:09:17Z</time>
</trkpt>
<trkpt lat="47.3729397" lon="15.4222251">
<ele>1006.47</ele>
<time>2017-10-14T13:09:42Z</time>
</trkpt>
<trkpt lat="47.3727646" lon="15.4223035">
<ele>1009.76</ele>
<time>2017-10-14T13:10:06Z</time>
</trkpt>
<trkpt lat="47.3725847" lon="15.4223474">
<ele>1012.19</ele>
<time>2017-10-14T13:10:27Z</time>
</trkpt>
<trkpt lat="47.3724029" lon="15.4223529">
<ele>1018.48</ele>
<time>2017-10-14T13:10:54Z</time>
</trkpt>
<trkpt lat="47.3722702" lon="15.4221641">
<ele>1014.27</ele>
<time>2017-10-14T13:11:35Z</time>
</trkpt>
<trkpt lat="47.3721319" lon="15.4219832">
<ele>1023.08</ele>
<time>2017-10-14T13:11:56Z</time>
</trkpt>
<trkpt lat="47.3719522" lon="15.4219326">
<ele>1033.35</ele>
<time>2017-10-14T13:12:16Z</time>
</trkpt>
<trkpt lat="47.3717706" lon="15.4219407">
<ele>1040.15</ele>
<time>2017-10-14T13:12:41Z</time>
</trkpt>
<trkpt lat="47.3715977" lon="15.4218579">
<ele>1042.78</ele>
<time>2017-10-14T13:13:10Z</time>
</trkpt>
<trkpt lat="47.3714142" lon="15.4218796">
<ele>1038.92</ele>
<time>2017-10-14T13:13:36Z</time>
</trkpt>
<trkpt lat="47.3712337" lon="15.4218585">
<ele>1042.83</ele>
<time>2017-10-14T13:13:56Z</time>
</trkpt>
<trkpt lat="47.3710498" lon="15.4218193">
<ele>1052.44</ele>
<time>2017-10-14T13:14:22Z</time>
</trkpt>
<trkpt lat="47.3708688" lon="15.4217878">
<ele>1061.48</ele>
<time>2017-10-14T13:14:49Z</time>
</trkpt>
<trkpt lat="47.3706804" lon="15.4217721">
<ele>1068.33</ele>
<time>2017-10-14T13:15:11Z</time>
</trkpt>
<trkpt lat="47.3705057" lon="15.4216993">
<ele>1071.48</ele>
<time>2017-10-14T13:15:36Z</time>
</trkpt>
<trkpt lat="47.3703364" lon="15.4215724">
<ele>1063.78</ele>
<time>2017-10-14T13:15:59Z</time>
</trkpt>
<trkpt lat="47.3701620" lon="15.4215007">
<ele>1059.52</ele>
<time>2017-10-14T13:16:25Z</time>
</trkpt>
<trkpt lat="47.3699847" lon="15.4214500">
<ele>1065.48</ele>
<time>2017-10-14T13:16:50Z</time>
</trkpt>
<trkpt lat="47.3698096" lon="15.4213673">
<ele>1068.48</ele>
<time>2017-10-14T13:17:12Z</time>
</trkpt>
<trkpt lat="47.3696297" lon="15.4213175">
<ele>1074.48</ele>
<time>2017-10-14T13:17:35Z</time>
</trkpt>
<trkpt lat="47.3694720" lon="15.4211698">
<ele>1081.16</ele>
<time>2017-10-14T13:18:08Z</time>
</trkpt>
<trkpt lat="47.3692919" lon="15.4211128">
<ele>1094.63</ele>
<time>2017-10-14T13:18:33Z</time>
</trkpt>
<trkpt lat="47.3691277" lon="15.4209900">
<ele>1088.88</ele>
<time>2017-10-14T13:18:53Z</time>
</trkpt>
<trkpt lat="47.3689840" lon="15.4208127">
<ele>1088.48</ele>
<time>2017-10-14T13:19:14Z</time>
</trkpt>
<trkpt lat="47.3688582" lon="15.4206150">
<ele>1092.38</ele>
<time>2017-10-14T13:19:39Z</time>
</trkpt>
<trkpt lat="47.3687377" lon="15.4204169">
<ele>1098.51</ele>
<time>2017-10-14T13:20:08Z</time>
</trkpt>
<trkpt lat="47.3686122" lon="15.4202261">
<ele>1101.21</ele>
<time>2017-10-14T13:20:38Z</time>
</trkpt>
<trkpt lat="47.3684415" lon="15.4201077">
<ele>1111.46</ele>
<time>2017-10-14T13:21:09Z</time>
</trkpt>
<trkpt lat="47.3682918" lon="15.4199593">
<ele>1108.78</ele>
<time>2017-10-14T13:21:29Z</time>
</trkpt>
<trkpt lat="47.3681571" lon="15.4197758">
<ele>1109.48</ele>
<time>2017-10-14T13:21:54Z</time>
</trkpt>
<trkpt lat="47.3680138" lon="15.4196110">
<ele>1120.36</ele>
<time>2017-10-14T13:22:26Z</time>
</trkpt>
<trkpt lat="47.3679505" lon="15.4198672">
<ele>1130.63</ele>
<time>2017-10-14T13:24:31Z</time>
</trkpt>
<trkpt lat="47.3679826" lon="15.4201303">
<ele>1133.49</ele>
<time>2017-10-14T13:24:55Z</time>
</trkpt>
<trkpt lat="47.3679672" lon="15.4204111">
<ele>1138.78</ele>
<time>2017-10-14T13:25:29Z</time>
</trkpt>
<trkpt lat="47.3679403" lon="15.4206814">
<ele>1142.16</ele>
<time>2017-10-14T13:25:57Z</time>
</trkpt>
<trkpt lat="47.3679635" lon="15.4209457">
<ele>1145.53</ele>
<time>2017-10-14T13:26:26Z</time>
</trkpt>
<trkpt lat="47.3677845" lon="15.4209737">
<ele>1148.31</ele>
<time>2017-10-14T13:27:17Z</time>
</trkpt>
<trkpt lat="47.3678532" lon="15.4212218">
<ele>1183.85</ele>
<time>2017-10-14T13:28:36Z</time>
</trkpt>
<trkpt lat="47.3679502" lon="15.4214517">
<ele>1183.38</ele>
<time>2017-10-14T13:28:51Z</time>
</trkpt>
<trkpt lat="47.3680105" lon="15.4217122">
<ele>1191.18</ele>
<time>2017-10-14T13:29:27Z</time>
</trkpt>
<trkpt lat="47.3680943" lon="15.4219528">
<ele>1183.14</ele>
<time>2017-10-14T13:29:39Z</time>
</trkpt>
<trkpt lat="47.3681894" lon="15.4221916">
<ele>1192.15</ele>
<time>2017-10-14T13:29:58Z</time>
</trkpt>
<trkpt lat="47.3682350" lon="15.4224710">
<ele>1184.50</ele>
<time>2017-10-14T13:30:11Z</time>
</trkpt>
<trkpt lat="47.3680457" lon="15.4224975">
<ele>1178.48</ele>
<time>2017-10-14T13:30:45Z</time>
</trkpt>
<trkpt lat="47.3679565" lon="15.4227305">
<ele>1190.28</ele>
<time>2017-10-14T13:31:52Z</time>
</trkpt>
<trkpt lat="47.3679472" lon="15.4229975">
<ele>1193.46</ele>
<time>2017-10-14T13:32:24Z</time>
</trkpt>
<trkpt lat="47.3677867" lon="15.4231190">
<ele>1204.48</ele>
<time>2017-10-14T13:33:53Z</time>
</trkpt>
<trkpt lat="47.3676506" lon="15.4229445">
<ele>1207.42</ele>
<time>2017-10-14T13:34:22Z</time>
</trkpt>
<trkpt lat="47.3676552" lon="15.4232105">
<ele>1212.79</ele>
<time>2017-10-14T13:35:40Z</time>
</trkpt>
<trkpt lat="47.3674861" lon="15.4231087">
<ele>1215.57</ele>
<time>2017-10-14T13:36:33Z</time>
</trkpt>
<trkpt lat="47.3673031" lon="15.4231712">
<ele>1239.49</ele>
<time>2017-10-14T13:38:46Z</time>
</trkpt>
<trkpt lat="47.3671458" lon="15.4230116">
<ele>1241.48</ele>
<time>2017-10-14T13:39:28Z</time>
</trkpt>
<trkpt lat="47.3670183" lon="15.4228118">
<ele>1244.48</ele>
<time>2017-10-14T13:39:59Z</time>
</trkpt>
<trkpt lat="47.3668800" lon="15.4226242">
<ele>1249.76</ele>
<time>2017-10-14T13:40:34Z</time>
</trkpt>
<trkpt lat="47.3667862" lon="15.4223921">
<ele>1258.48</ele>
<time>2017-10-14T13:41:18Z</time>
</trkpt>
<trkpt lat="47.3666029" lon="15.4223715">
<ele>1271.15</ele>
<time>2017-10-14T13:42:30Z</time>
</trkpt>
<trkpt lat="47.3664496" lon="15.4222261">
<ele>1278.48</ele>
<time>2017-10-14T13:43:04Z</time>
</trkpt>
<trkpt lat="47.3662908" lon="15.4220986">
<ele>1281.10</ele>
<time>2017-10-14T13:43:45Z</time>
</trkpt>
<trkpt lat="47.3661218" lon="15.4220070">
<ele>1290.48</ele>
<time>2017-10-14T13:44:35Z</time>
</trkpt>
<trkpt lat="47.3659418" lon="15.4220198">
<ele>1293.18</ele>
<time>2017-10-14T13:45:27Z</time>
</trkpt>
<trkpt lat="47.3657614" lon="15.4220422">
<ele>1298.48</ele>
<time>2017-10-14T13:46:08Z</time>
</trkpt>
<trkpt lat="47.3655855" lon="15.4221039">
<ele>1308.48</ele>
<time>2017-10-14T13:47:34Z</time>
</trkpt>
<trkpt lat="47.3656862" lon="15.4223320">
<ele>1339.49</ele>
<time>2017-10-14T13:50:24Z</time>
</trkpt>
<trkpt lat="47.3657290" lon="15.4225917">
<ele>1346.78</ele>
<time>2017-10-14T13:51:31Z</time>
</trkpt>
<trkpt lat="47.3656036" lon="15.4227860">
<ele>1363.76</ele>
<time>2017-10-14T13:53:24Z</time>
</trkpt>
<trkpt lat="47.3654375" lon="15.4229064">
<ele>1371.76</ele>
<time>2017-10-14T13:54:41Z</time>
</trkpt>
<trkpt lat="47.3652717" lon="15.4230168">
<ele>1389.55</ele>
<time>2017-10-14T13:56:13Z</time>
</trkpt>
<trkpt lat="47.3652166" lon="15.4232700">
<ele>1403.48</ele>
<time>2017-10-14T13:58:03Z</time>
</trkpt>
<trkpt lat="47.3651793" lon="15.4235314">
<ele>1411.08</ele>
<time>2017-10-14T13:58:57Z</time>
</trkpt>
<trkpt lat="47.3650018" lon="15.4234581">
<ele>1413.48</ele>
<time>2017-10-14T13:59:45Z</time>
</trkpt>
<trkpt lat="47.3648132" lon="15.4235016">
<ele>1431.78</ele>
<time>2017-10-14T14:11:27Z</time>
</trkpt>
<trkpt lat="47.3646324" lon="15.4235684">
<ele>1441.38</ele>
<time>2017-10-14T14:17:44Z</time>
</trkpt>
<trkpt lat="47.3644717" lon="15.4237082">
<ele>1449.40</ele>
<time>2017-10-14T14:20:50Z</time>
</trkpt>
<trkpt lat="47.3642859" lon="15.4236557">
<ele>1481.03</ele>
<time>2017-10-14T14:22:26Z</time>
</trkpt>
<trkpt lat="47.3641027" lon="15.4236495">
<ele>1488.85</ele>
<time>2017-10-14T14:29:11Z</time>
</trkpt>
<trkpt lat="47.3639310" lon="15.4237453">
<ele>1490.45</ele>
<time>2017-10-14T14:33:05Z</time>
</trkpt>
<trkpt lat="47.3639400" lon="15.4234798">
<ele>1499.16</ele>
<time>2017-10-14T14:35:50Z</time>
</trkpt>
<trkpt lat="47.3637638" lon="15.4234047">
<ele>1522.88</ele>
<time>2017-10-14T14:38:25Z</time>
</trkpt>
<trkpt lat="47.3639059" lon="15.4232359">
<ele>1538.15</ele>
<time>2017-10-14T14:42:16Z</time>
</trkpt>
<trkpt lat="47.3638431" lon="15.4229870">
<ele>1551.45</ele>
<time>2017-10-14T14:43:11Z</time>
</trkpt>
<trkpt lat="47.3636627" lon="15.4229791">
<ele>1535.66</ele>
<time>2017-10-14T14:44:18Z</time>
</trkpt>
<trkpt lat="47.3635658" lon="15.4227541">
<ele>1572.79</ele>
<time>2017-10-14T14:54:20Z</time>
</trkpt>
<trkpt lat="47.3633859" lon="15.4227388">
<ele>1570.58</ele>
<time>2017-10-14T15:09:30Z</time>
</trkpt>
<trkpt lat="47.3632202" lon="15.4226318">
<ele>1557.48</ele>
<time>2017-10-14T15:11:01Z</time>
</trkpt>
<trkpt lat="47.3630497" lon="15.4227187">
<ele>1548.91</ele>
<time>2017-10-14T15:13:05Z</time>
</trkpt>
<trkpt lat="47.3628728" lon="15.4226578">
<ele>1550.18</ele>
<time>2017-10-14T15:15:34Z</time>
</trkpt>
<trkpt lat="47.3627632" lon="15.4224361">
<ele>1562.94</ele>
<time>2017-10-14T15:21:16Z</time>
</trkpt>
<trkpt lat="47.3625826" lon="15.4223881">
<ele>1566.72</ele>
<time>2017-10-14T15:24:50Z</time>
</trkpt>
<trkpt lat="47.3624397" lon="15.4222196">
<ele>1579.75</ele>
<time>2017-10-14T15:29:04Z</time>
</trkpt>
<trkpt lat="47.3622616" lon="15.4221560">
<ele>1583.39</ele>
<time>2017-10-14T15:30:37Z</time>
</trkpt>
<trkpt lat="47.3620768" lon="15.4221755">
<ele>1587.88</ele>
<time>2017-10-14T15:31:28Z</time>
</trkpt>
<trkpt lat="47.3618947" lon="15.4221990">
<ele>1590.65</ele>
<time>2017-10-14T15:33:07Z</time>
</trkpt>
<trkpt lat="47.3617427" lon="15.4220505">
<ele>1635.16</ele>
<time>2017-10-14T15:39:02Z</time>
</trkpt>
<trkpt lat="47.3615521" lon="15.4220647">
<ele>1638.88</ele>
<time>2017-10-14T15:40:09Z</time>
</trkpt>
<trkpt lat="47.3613746" lon="15.4220203">
<ele>1648.47</ele>
<time>2017-10-14T15:44:48Z</time>
</trkpt>
<trkpt lat="47.3611886" lon="15.4219601">
<ele>1650.54</ele>
<time>2017-10-14T15:47:51Z</time>
</trkpt>
<trkpt lat="47.3610058" lon="15.4219642">
<ele>1656.39</ele>
<time>2017-10-14T15:48:35Z</time>
</trkpt>
<trkpt lat="47.3608248" lon="15.4218729">
<ele>1656.48</ele>
<time>2017-10-14T15:58:47Z</time>
</trkpt>
<trkpt lat="47.3606487" lon="15.4217410">
<ele>1657.71</ele>
<time>2017-10-14T15:59:08Z</time>
</trkpt>
<trkpt lat="47.3604688" lon="15.4217232">
<ele>1654.58</ele>
<time>2017-10-14T15:59:30Z</time>
</trkpt>
<trkpt lat="47.3603111" lon="15.4215791">
<ele>1648.87</ele>
<time>2017-10-14T16:00:13Z</time>
</trkpt>
<trkpt lat="47.3602039" lon="15.4213517">
<ele>1641.05</ele>
<time>2017-10-14T16:00:58Z</time>
</trkpt>
<trkpt lat="47.3603714" lon="15.4212503">
<ele>1633.78</ele>
<time>2017-10-14T16:01:50Z</time>
</trkpt>
<trkpt lat="47.3604769" lon="15.4210349">
<ele>1622.57</ele>
<time>2017-10-14T16:02:37Z</time>
</trkpt>
<trkpt lat="47.3606100" lon="15.4208518">
<ele>1613.49</ele>
<time>2017-10-14T16:03:25Z</time>
</trkpt>
<trkpt lat="47.3607524" lon="15.4206896">
<ele>1612.39</ele>
<time>2017-10-14T16:03:47Z</time>
</trkpt>
<trkpt lat="47.3607546" lon="15.4204206">
<ele>1594.55</ele>
<time>2017-10-14T16:04:39Z</time>
</trkpt>
<trkpt lat="47.3608993" lon="15.4202516">
<ele>1591.56</ele>
<time>2017-10-14T16:05:06Z</time>
</trkpt>
<trkpt lat="47.3610577" lon="15.4201142">
<ele>1586.48</ele>
<time>2017-10-14T16:05:38Z</time>
</trkpt>
<trkpt lat="47.3611904" lon="15.4199318">
<ele>1575.59</ele>
<time>2017-10-14T16:06:03Z</time>
</trkpt>
<trkpt lat="47.3613126" lon="15.4197296">
<ele>1570.73</ele>
<time>2017-10-14T16:06:38Z</time>
</trkpt>
<trkpt lat="47.3614247" lon="15.4195217">
<ele>1564.51</ele>
<time>2017-10-14T16:07:09Z</time>
</trkpt>
<trkpt lat="47.3615518" lon="15.4193230">
<ele>1560.48</ele>
<time>2017-10-14T16:07:32Z</time>
</trkpt>
<trkpt lat="47.3617032" lon="15.4191618">
<ele>1552.49</ele>
<time>2017-10-14T16:07:54Z</time>
</trkpt>
<trkpt lat="47.3618022" lon="15.4189373">
<ele>1542.82</ele>
<time>2017-10-14T16:08:27Z</time>
</trkpt>
<trkpt lat="47.3616994" lon="15.4187160">
<ele>1529.46</ele>
<time>2017-10-14T16:09:05Z</time>
</trkpt>
<trkpt lat="47.3615741" lon="15.4185237">
<ele>1524.60</ele>
<time>2017-10-14T16:09:24Z</time>
</trkpt>
<trkpt lat="47.3613964" lon="15.4184374">
<ele>1516.48</ele>
<time>2017-10-14T16:10:24Z</time>
</trkpt>
<trkpt lat="47.3612372" lon="15.4183020">
<ele>1513.46</ele>
<time>2017-10-14T16:10:52Z</time>
</trkpt>
<trkpt lat="47.3612957" lon="15.4180443">
<ele>1502.56</ele>
<time>2017-10-14T16:11:28Z</time>
</trkpt>
<trkpt lat="47.3614082" lon="15.4178369">
<ele>1495.49</ele>
<time>2017-10-14T16:11:55Z</time>
</trkpt>
<trkpt lat="47.3614714" lon="15.4175853">
<ele>1487.51</ele>
<time>2017-10-14T16:12:30Z</time>
</trkpt>
<trkpt lat="47.3615166" lon="15.4173268">
<ele>1478.19</ele>
<time>2017-10-14T16:13:13Z</time>
</trkpt>
<trkpt lat="47.3615507" lon="15.4170609">
<ele>1471.49</ele>
<time>2017-10-14T16:13:51Z</time>
</trkpt>
<trkpt lat="47.3615966" lon="15.4167971">
<ele>1468.42</ele>
<time>2017-10-14T16:14:12Z</time>
</trkpt>
<trkpt lat="47.3615010" lon="15.4165667">
<ele>1452.71</ele>
<time>2017-10-14T16:14:56Z</time>
</trkpt>
<trkpt lat="47.3615453" lon="15.4163081">
<ele>1449.60</ele>
<time>2017-10-14T16:15:28Z</time>
</trkpt>
<trkpt lat="47.3614515" lon="15.4160785">
<ele>1442.37</ele>
<time>2017-10-14T16:15:59Z</time>
</trkpt>
<trkpt lat="47.3613768" lon="15.4158241">
<ele>1432.72</ele>
<time>2017-10-14T16:16:39Z</time>
</trkpt>
<trkpt lat="47.3612661" lon="15.4156135">
<ele>1424.40</ele>
<time>2017-10-14T16:17:06Z</time>
</trkpt>
<trkpt lat="47.3612036" lon="15.4153616">
<ele>1416.57</ele>
<time>2017-10-14T16:17:30Z</time>
</trkpt>
<trkpt lat="47.3611668" lon="15.4150952">
<ele>1408.52</ele>
<time>2017-10-14T16:17:55Z</time>
</trkpt>
<trkpt lat="47.3611371" lon="15.4148256">
<ele>1405.18</ele>
<time>2017-10-14T16:18:29Z</time>
</trkpt>
<trkpt lat="47.3611119" lon="15.4145510">
<ele>1403.92</ele>
<time>2017-10-14T16:18:47Z</time>
</trkpt>
<trkpt lat="47.3610974" lon="15.4142703">
<ele>1397.58</ele>
<time>2017-10-14T16:19:12Z</time>
</trkpt>
<trkpt lat="47.3610200" lon="15.4140251">
<ele>1395.57</ele>
<time>2017-10-14T16:19:33Z</time>
</trkpt>
<trkpt lat="47.3609869" lon="15.4137454">
<ele>1398.09</ele>
<time>2017-10-14T16:19:50Z</time>
</trkpt>
<trkpt lat="47.3609587" lon="15.4134826">
<ele>1401.48</ele>
<time>2017-10-14T16:20:06Z</time>
</trkpt>
<trkpt lat="47.3608969" lon="15.4132230">
<ele>1402.60</ele>
<time>2017-10-14T16:20:22Z</time>
</trkpt>
<trkpt lat="47.3608617" lon="15.4129624">
<ele>1404.20</ele>
<time>2017-10-14T16:20:40Z</time>
</trkpt>
<trkpt lat="47.3609036" lon="15.4127037">
<ele>1406.09</ele>
<time>2017-10-14T16:20:58Z</time>
</trkpt>
<trkpt lat="47.3609829" lon="15.4124624">
<ele>1404.48</ele>
<time>2017-10-14T16:21:12Z</time>
</trkpt>
<trkpt lat="47.3611537" lon="15.4123727">
<ele>1395.56</ele>
<time>2017-10-14T16:21:47Z</time>
</trkpt>
<trkpt lat="47.3612634" lon="15.4125914">
<ele>1394.90</ele>
<time>2017-10-14T16:35:22Z</time>
</trkpt>
<trkpt lat="47.3611586" lon="15.4128104">
<ele>1392.51</ele>
<time>2017-10-14T16:35:40Z</time>
</trkpt>
<trkpt lat="47.3612896" lon="15.4130252">
<ele>1399.58</ele>
<time>2017-10-14T16:36:10Z</time>
</trkpt>
<trkpt lat="47.3614496" lon="15.4131466">
<ele>1369.81</ele>
<time>2017-10-14T16:38:07Z</time>
</trkpt>
<trkpt lat="47.3613518" lon="15.4133752">
<ele>1356.81</ele>
<time>2017-10-14T16:38:33Z</time>
</trkpt>
<trkpt lat="47.3613025" lon="15.4136520">
<ele>1350.08</ele>
<time>2017-10-14T16:38:59Z</time>
</trkpt>
<trkpt lat="47.3614140" lon="15.4138713">
<ele>1354.48</ele>
<time>2017-10-14T16:39:46Z</time>
</trkpt>
<trkpt lat="47.3615921" lon="15.4139526">
<ele>1324.11</ele>
<time>2017-10-14T16:41:13Z</time>
</trkpt>
<trkpt lat="47.3617716" lon="15.4139743">
<ele>1319.48</ele>
<time>2017-10-14T16:42:11Z</time>
</trkpt>
<trkpt lat="47.3619476" lon="15.4140321">
<ele>1306.21</ele>
<time>2017-10-14T16:42:38Z</time>
</trkpt>
<trkpt lat="47.3620568" lon="15.4138172">
<ele>1286.30</ele>
<time>2017-10-14T16:43:38Z</time>
</trkpt>
<trkpt lat="47.3622440" lon="15.4138206">
<ele>1280.69</ele>
<time>2017-10-14T16:44:15Z</time>
</trkpt>
<trkpt lat="47.3623961" lon="15.4139775">
<ele>1278.36</ele>
<time>2017-10-14T16:44:41Z</time>
</trkpt>
<trkpt lat="47.3625174" lon="15.4141933">
<ele>1277.75</ele>
<time>2017-10-14T16:45:04Z</time>
</trkpt>
<trkpt lat="47.3626547" lon="15.4143708">
<ele>1274.52</ele>
<time>2017-10-14T16:45:28Z</time>
</trkpt>
<trkpt lat="47.3627866" lon="15.4145572">
<ele>1265.88</ele>
<time>2017-10-14T16:45:52Z</time>
</trkpt>
<trkpt lat="47.3628916" lon="15.4147812">
<ele>1257.54</ele>
<time>2017-10-14T16:46:18Z</time>
</trkpt>
<trkpt lat="47.3630191" lon="15.4149695">
<ele>1251.22</ele>
<time>2017-10-14T16:46:40Z</time>
</trkpt>
<trkpt lat="47.3630678" lon="15.4152375">
<ele>1238.60</ele>
<time>2017-10-14T16:47:33Z</time>
</trkpt>
<trkpt lat="47.3631504" lon="15.4154859">
<ele>1231.78</ele>
<time>2017-10-14T16:47:54Z</time>
</trkpt>
<trkpt lat="47.3632926" lon="15.4156601">
<ele>1230.49</ele>
<time>2017-10-14T16:48:15Z</time>
</trkpt>
<trkpt lat="47.3634627" lon="15.4157763">
<ele>1224.58</ele>
<time>2017-10-14T16:48:42Z</time>
</trkpt>
<trkpt lat="47.3636390" lon="15.4158712">
<ele>1221.56</ele>
<time>2017-10-14T16:49:18Z</time>
</trkpt>
<trkpt lat="47.3638126" lon="15.4159570">
<ele>1215.78</ele>
<time>2017-10-14T16:49:42Z</time>
</trkpt>
<trkpt lat="47.3639933" lon="15.4160160">
<ele>1206.72</ele>
<time>2017-10-14T16:50:14Z</time>
</trkpt>
<trkpt lat="47.3641768" lon="15.4161118">
<ele>1200.58</ele>
<time>2017-10-14T16:50:36Z</time>
</trkpt>
<trkpt lat="47.3643652" lon="15.4161189">
<ele>1191.79</ele>
<time>2017-10-14T16:51:03Z</time>
</trkpt>
<trkpt lat="47.3645365" lon="15.4162218">
<ele>1185.49</ele>
<time>2017-10-14T16:51:25Z</time>
</trkpt>
<trkpt lat="47.3647050" lon="15.4163248">
<ele>1186.78</ele>
<time>2017-10-14T16:51:50Z</time>
</trkpt>
<trkpt lat="47.3648437" lon="15.4164988">
<ele>1183.79</ele>
<time>2017-10-14T16:52:11Z</time>
</trkpt>
<trkpt lat="47.3649785" lon="15.4166818">
<ele>1183.20</ele>
<time>2017-10-14T16:52:31Z</time>
</trkpt>
<trkpt lat="47.3651028" lon="15.4168840">
<ele>1179.49</ele>
<time>2017-10-14T16:52:50Z</time>
</trkpt>
<trkpt lat="47.3652348" lon="15.4170735">
<ele>1181.16</ele>
<time>2017-10-14T16:53:14Z</time>
</trkpt>
<trkpt lat="47.3653443" lon="15.4172853">
<ele>1176.66</ele>
<time>2017-10-14T16:53:35Z</time>
</trkpt>
<trkpt lat="47.3654397" lon="15.4175149">
<ele>1171.77</ele>
<time>2017-10-14T16:53:51Z</time>
</trkpt>
<trkpt lat="47.3655843" lon="15.4176826">
<ele>1163.80</ele>
<time>2017-10-14T16:54:11Z</time>
</trkpt>
<trkpt lat="47.3657308" lon="15.4178462">
<ele>1157.80</ele>
<time>2017-10-14T16:54:28Z</time>
</trkpt>
<trkpt lat="47.3658799" lon="15.4180112">
<ele>1144.48</ele>
<time>2017-10-14T16:55:36Z</time>
</trkpt>
<trkpt lat="47.3660670" lon="15.4180067">
<ele>1141.49</ele>
<time>2017-10-14T16:56:06Z</time>
</trkpt>
<trkpt lat="47.3662355" lon="15.4181134">
<ele>1136.49</ele>
<time>2017-10-14T16:56:48Z</time>
</trkpt>
<trkpt lat="47.3663611" lon="15.4183056">
<ele>1137.41</ele>
<time>2017-10-14T16:57:12Z</time>
</trkpt>
<trkpt lat="47.3665373" lon="15.4183757">
<ele>1133.78</ele>
<time>2017-10-14T16:57:43Z</time>
</trkpt>
<trkpt lat="47.3666783" lon="15.4185438">
<ele>1133.49</ele>
<time>2017-10-14T16:58:06Z</time>
</trkpt>
<trkpt lat="47.3668581" lon="15.4186019">
<ele>1136.38</ele>
<time>2017-10-14T16:58:29Z</time>
</trkpt>
<trkpt lat="47.3670399" lon="15.4186638">
<ele>1128.50</ele>
<time>2017-10-14T16:58:56Z</time>
</trkpt>
<trkpt lat="47.3672197" lon="15.4187484">
<ele>1122.57</ele>
<time>2017-10-14T16:59:16Z</time>
</trkpt>
<trkpt lat="47.3673783" lon="15.4188867">
<ele>1124.39</ele>
<time>2017-10-14T16:59:37Z</time>
</trkpt>
<trkpt lat="47.3675114" lon="15.4190685">
<ele>1129.39</ele>
<time>2017-10-14T16:59:54Z</time>
</trkpt>
<trkpt lat="47.3676402" lon="15.4192573">
<ele>1129.78</ele>
<time>2017-10-14T17:00:10Z</time>
</trkpt>
<trkpt lat="47.3678189" lon="15.4193306">
<ele>1134.45</ele>
<time>2017-10-14T17:00:27Z</time>
</trkpt>
<trkpt lat="47.3679801" lon="15.4194633">
<ele>1129.21</ele>
<time>2017-10-14T17:00:48Z</time>
</trkpt>
<trkpt lat="47.3681493" lon="15.4195995">
<ele>1118.28</ele>
<time>2017-10-14T17:01:05Z</time>
</trkpt>
<trkpt lat="47.3682861" lon="15.4197914">
<ele>1110.47</ele>
<time>2017-10-14T17:01:22Z</time>
</trkpt>
<trkpt lat="47.3684454" lon="15.4199426">
<ele>1110.57</ele>
<time>2017-10-14T17:01:44Z</time>
</trkpt>
<trkpt lat="47.3686090" lon="15.4200796">
<ele>1102.55</ele>
<time>2017-10-14T17:02:06Z</time>
</trkpt>
<trkpt lat="47.3687621" lon="15.4202322">
<ele>1100.07</ele>
<time>2017-10-14T17:02:25Z</time>
</trkpt>
<trkpt lat="47.3688932" lon="15.4204170">
<ele>1099.83</ele>
<time>2017-10-14T17:02:42Z</time>
</trkpt>
<trkpt lat="47.3690261" lon="15.4206185">
<ele>1101.91</ele>
<time>2017-10-14T17:02:57Z</time>
</trkpt>
<trkpt lat="47.3691746" lon="15.4208003">
<ele>1089.02</ele>
<time>2017-10-14T17:03:14Z</time>
</trkpt>
<trkpt lat="47.3693309" lon="15.4209616">
<ele>1088.72</ele>
<time>2017-10-14T17:03:30Z</time>
</trkpt>
<trkpt lat="47.3694867" lon="15.4211078">
<ele>1085.38</ele>
<time>2017-10-14T17:03:42Z</time>
</trkpt>
<trkpt lat="47.3696700" lon="15.4211837">
<ele>1081.88</ele>
<time>2017-10-14T17:03:58Z</time>
</trkpt>
<trkpt lat="47.3698492" lon="15.4212784">
<ele>1073.88</ele>
<time>2017-10-14T17:04:13Z</time>
</trkpt>
<trkpt lat="47.3700327" lon="15.4213384">
<ele>1070.57</ele>
<time>2017-10-14T17:04:30Z</time>
</trkpt>
<trkpt lat="47.3702143" lon="15.4214074">
<ele>1066.51</ele>
<time>2017-10-14T17:04:48Z</time>
</trkpt>
<trkpt lat="47.3703882" lon="15.4215069">
<ele>1068.87</ele>
<time>2017-10-14T17:05:06Z</time>
</trkpt>
<trkpt lat="47.3705732" lon="15.4215668">
<ele>1074.46</ele>
<time>2017-10-14T17:05:26Z</time>
</trkpt>
<trkpt lat="47.3707546" lon="15.4216220">
<ele>1067.16</ele>
<time>2017-10-14T17:05:42Z</time>
</trkpt>
<trkpt lat="47.3709406" lon="15.4216389">
<ele>1064.63</ele>
<time>2017-10-14T17:05:59Z</time>
</trkpt>
<trkpt lat="47.3711300" lon="15.4216531">
<ele>1059.75</ele>
<time>2017-10-14T17:06:17Z</time>
</trkpt>
<trkpt lat="47.3713241" lon="15.4216840">
<ele>1057.18</ele>
<time>2017-10-14T17:06:54Z</time>
</trkpt>
<trkpt lat="47.3715103" lon="15.4217358">
<ele>1052.32</ele>
<time>2017-10-14T17:07:08Z</time>
</trkpt>
<trkpt lat="47.3716995" lon="15.4218392">
<ele>1040.64</ele>
<time>2017-10-14T17:07:24Z</time>
</trkpt>
<trkpt lat="47.3718937" lon="15.4218544">
<ele>1025.30</ele>
<time>2017-10-14T17:07:39Z</time>
</trkpt>
<trkpt lat="47.3720723" lon="15.4219412">
<ele>1020.38</ele>
<time>2017-10-14T17:07:55Z</time>
</trkpt>
<trkpt lat="47.3721930" lon="15.4221404">
<ele>1014.81</ele>
<time>2017-10-14T17:08:11Z</time>
</trkpt>
<trkpt lat="47.3723381" lon="15.4223307">
<ele>1012.49</ele>
<time>2017-10-14T17:08:28Z</time>
</trkpt>
<trkpt lat="47.3725205" lon="15.4223506">
<ele>1012.78</ele>
<time>2017-10-14T17:08:46Z</time>
</trkpt>
<trkpt lat="47.3726993" lon="15.4222914">
<ele>1011.57</ele>
<time>2017-10-14T17:09:00Z</time>
</trkpt>
<trkpt lat="47.3728806" lon="15.4222456">
<ele>1008.48</ele>
<time>2017-10-14T17:09:15Z</time>
</trkpt>
<trkpt lat="47.3730681" lon="15.4221936">
<ele>1004.27</ele>
<time>2017-10-14T17:09:31Z</time>
</trkpt>
<trkpt lat="47.3732510" lon="15.4222406">
<ele>999.51</ele>
<time>2017-10-14T17:09:48Z</time>
</trkpt>
<trkpt lat="47.3734341" lon="15.4222914">
<ele>996.48</ele>
<time>2017-10-14T17:10:03Z</time>
</trkpt>
<trkpt lat="47.3736201" lon="15.4223395">
<ele>991.59</ele>
<time>2017-10-14T17:10:18Z</time>
</trkpt>
<trkpt lat="47.3738040" lon="15.4224168">
<ele>992.71</ele>
<time>2017-10-14T17:10:35Z</time>
</trkpt>
<trkpt lat="47.3739897" lon="15.4224629">
<ele>995.46</ele>
<time>2017-10-14T17:10:49Z</time>
</trkpt>
<trkpt lat="47.3741793" lon="15.4224788">
<ele>994.21</ele>
<time>2017-10-14T17:11:05Z</time>
</trkpt>
<trkpt lat="47.3743630" lon="15.4224412">
<ele>993.49</ele>
<time>2017-10-14T17:11:22Z</time>
</trkpt>
</trkseg>
</trk>
</gpx>
