<?xml version="1.0" encoding="UTF-8" standalone="yes"?>
<gpx xmlns="http://www.topografix.com/GPX/1/1" xmlns:gpxtrx="http://www.garmin.com/xmlschemas/GpxExtensions/v3" xmlns:rcxx="http://www.routeconverter.de/xmlschemas/RouteCatalogExtensions/1.0" xmlns:xsi="http://www.w3.org/2001/XMLSchema-instance" xmlns:gpxtpx="http://www.garmin.com/xmlschemas/TrackPointExtension/v1" xmlns:gpxx="http://www.garmin.com/xmlschemas/WaypointExtension/v1" xmlns:nmea="http://trekbuddy.net/2009/01/gpx/nmea" version="1.1" creator="Generated by Christian Pesch's RouteConverter. See http://www.routeconverter.com">
    <metadata>
        <name>2016-04-02 12:21</name>
        <link href="http://www.oruxmaps.com">
            <text>OruxMaps</text>
        </link>
        <time>2016-04-02T10:21:46Z</time>
        <bounds minlat="47.4208920" minlon="13.6942198" maxlat="47.4242128" maxlon="13.7037580"/>
    </metadata>
    <trk>
        <name>2016-04-02 12:21</name>
        <desc>&lt;p&gt;Startzeit: 04/02/2016 12:21&lt;/p&gt;&lt;p&gt;Zielzeit: 04/02/2016 15:11&lt;/p&gt;&lt;p&gt;Strecke: 2,
2 km (02:49)&lt;/p&gt;&lt;p&gt;Bewegungszeit: 00:37&lt;/p&gt;&lt;p&gt;Ø-Geschwindigkeit: 0,
8 km/h&lt;/p&gt;&lt;p&gt;Netto-Geschwindigkeit: 3,
5 km/h&lt;/p&gt;&lt;p&gt;Max. Geschwindigkeit: 40,
2km/h&lt;/p&gt;&lt;p&gt;Minimale Höhe: 1037 m&lt;/p&gt;&lt;p&gt;Maximale Höhe: 1218 m&lt;/p&gt;&lt;p&gt;Steig-Geschw.: 85 m/h&lt;/p&gt;&lt;p&gt;Sink-Geschw.: -362,
2 m/h&lt;/p&gt;&lt;p&gt;Aufstieg: 188 m&lt;/p&gt;&lt;p&gt;Abstieg: -196 m&lt;/p&gt;&lt;p&gt;Steigzeit: 02:13&lt;/p&gt;&lt;p&gt;Sinkzeit: 00:32&lt;/p&gt;&lt;hr align="center" width="480" style="height: 2px; width: 517px"/&gt;</desc>
        <type>Unbestimmt</type>
        <extensions>
            <om:oruxmapsextensions xmlns:om="http://www.oruxmaps.com/oruxmapsextensions/1/0">
                <om:ext subtype="0" type="TYPE">0</om:ext>
</om:oruxmapsextensions>
        </extensions>
        <trkseg>
            <trkpt lat="47.4240669" lon="13.7000373">
                <ele>1054.0</ele>
                <time>2016-04-02T10:21:51.000Z</time>
                <name>Position 1</name>
            </trkpt>
            <trkpt lat="47.4240507" lon="13.7003845">
                <ele>1037.4</ele>
                <time>2016-04-02T10:23:35.000Z</time>
                <name>Position 2</name>
            </trkpt>
            <trkpt lat="47.4241456" lon="13.7006163">
                <ele>1041.8</ele>
                <time>2016-04-02T10:23:43.000Z</time>
                <name>Position 3</name>
            </trkpt>
            <trkpt lat="47.4242128" lon="13.7008922">
                <ele>1045.7</ele>
                <time>2016-04-02T10:23:47.000Z</time>
                <name>Position 4</name>
            </trkpt>
            <trkpt lat="47.4240342" lon="13.7008359">
                <ele>1041.8</ele>
                <time>2016-04-02T10:24:35.000Z</time>
                <name>Position 5</name>
            </trkpt>
            <trkpt lat="47.4238887" lon="13.7009934">
                <ele>1045.0</ele>
                <time>2016-04-02T10:25:46.000Z</time>
                <name>Position 6</name>
            </trkpt>
            <trkpt lat="47.4238617" lon="13.7012804">
                <ele>1048.5</ele>
                <time>2016-04-02T10:28:06.000Z</time>
                <name>Position 7</name>
            </trkpt>
            <trkpt lat="47.4237826" lon="13.7015228">
                <ele>1059.8</ele>
                <time>2016-04-02T10:29:44.000Z</time>
                <name>Position 8</name>
            </trkpt>
            <trkpt lat="47.423616" lon="13.7014213">
                <ele>1059.2</ele>
                <time>2016-04-02T10:30:57.000Z</time>
                <name>Position 9</name>
            </trkpt>
            <trkpt lat="47.423568" lon="13.7016786">
                <ele>1078.1</ele>
                <time>2016-04-02T10:32:24.000Z</time>
                <name>Position 10</name>
            </trkpt>
            <trkpt lat="47.4235763" lon="13.7019477">
                <ele>1076.8</ele>
                <time>2016-04-02T10:37:07.000Z</time>
                <name>Position 11</name>
            </trkpt>
            <trkpt lat="47.4234851" lon="13.7017849">
                <ele>1075.8</ele>
                <time>2016-04-02T10:42:25.000Z</time>
                <name>Position 12</name>
            </trkpt>
            <trkpt lat="47.4235191" lon="13.7017503">
                <ele>1087.0</ele>
                <time>2016-04-02T10:43:00.000Z</time>
                <name>Position 13</name>
            </trkpt>
            <trkpt lat="47.4233431" lon="13.7018464">
                <ele>1088.3</ele>
                <time>2016-04-02T11:44:11.000Z</time>
                <name>Position 14</name>
            </trkpt>
            <trkpt lat="47.423182" lon="13.7019863">
                <ele>1121.7</ele>
                <time>2016-04-02T11:44:42.000Z</time>
                <name>Position 15</name>
            </trkpt>
            <trkpt lat="47.4230073" lon="13.7021151">
                <ele>1135.6</ele>
                <time>2016-04-02T11:52:34.000Z</time>
                <name>Position 16</name>
            </trkpt>
            <trkpt lat="47.4230579" lon="13.702388">
                <ele>1139.0</ele>
                <time>2016-04-02T11:54:14.000Z</time>
                <name>Position 17</name>
            </trkpt>
            <trkpt lat="47.4231389" lon="13.7026306">
                <ele>1142.9</ele>
                <time>2016-04-02T11:55:03.000Z</time>
                <name>Position 18</name>
            </trkpt>
            <trkpt lat="47.4230618" lon="13.7028927">
                <ele>1141.6</ele>
                <time>2016-04-02T11:56:26.000Z</time>
                <name>Position 19</name>
            </trkpt>
            <trkpt lat="47.423081" lon="13.7028869">
                <ele>1138.3</ele>
                <time>2016-04-02T11:57:32.000Z</time>
                <name>Position 20</name>
            </trkpt>
            <trkpt lat="47.4230639" lon="13.7028956">
                <ele>1141.9</ele>
                <time>2016-04-02T11:58:34.000Z</time>
                <name>Position 21</name>
            </trkpt>
            <trkpt lat="47.4230032" lon="13.7031484">
                <ele>1153.5</ele>
                <time>2016-04-02T12:14:00.000Z</time>
                <name>Position 22</name>
            </trkpt>
            <trkpt lat="47.4228796" lon="13.703345">
                <ele>1160.0</ele>
                <time>2016-04-02T12:15:03.000Z</time>
                <name>Position 23</name>
            </trkpt>
            <trkpt lat="47.4227211" lon="13.7034879">
                <ele>1172.8</ele>
                <time>2016-04-02T12:16:37.000Z</time>
                <name>Position 24</name>
            </trkpt>
            <trkpt lat="47.4225388" lon="13.7035274">
                <ele>1191.8</ele>
                <time>2016-04-02T12:19:13.000Z</time>
                <name>Position 25</name>
            </trkpt>
            <trkpt lat="47.4226078" lon="13.7041657">
                <ele>1210.0</ele>
                <time>2016-04-02T12:21:41.000Z</time>
                <name>Position 26</name>
            </trkpt>
            <trkpt lat="47.4226" lon="13.7041471">
                <ele>1213.0</ele>
                <time>2016-04-02T12:23:41.000Z</time>
                <name>Position 27</name>
            </trkpt>
            <trkpt lat="47.4225617" lon="13.7041646">
                <ele>1219.0</ele>
                <time>2016-04-02T12:27:01.000Z</time>
                <name>Position 28</name>
            </trkpt>
            <trkpt lat="47.4224375" lon="13.704185">
                <ele>1216.9</ele>
                <time>2016-04-02T12:27:21.000Z</time>
                <name>Position 29</name>
            </trkpt>
            <trkpt lat="47.4224911" lon="13.7041098">
                <ele>1214.0</ele>
                <time>2016-04-02T12:28:53.000Z</time>
                <name>Position 30</name>
            </trkpt>
            <trkpt lat="47.4221946" lon="13.7037528">
                <ele>1217.0</ele>
                <time>2016-04-02T12:30:19.000Z</time>
                <name>Position 31</name>
            </trkpt>
            <trkpt lat="47.4220766" lon="13.7033591">
                <ele>1215.8</ele>
                <time>2016-04-02T12:33:14.000Z</time>
                <name>Position 32</name>
            </trkpt>
            <trkpt lat="47.4221173" lon="13.7030056">
                <ele>1214.1</ele>
                <time>2016-04-02T12:33:55.000Z</time>
                <name>Position 33</name>
            </trkpt>
            <trkpt lat="47.4220612" lon="13.7027356">
                <ele>1206.8</ele>
                <time>2016-04-02T12:34:38.000Z</time>
                <name>Position 34</name>
            </trkpt>
            <trkpt lat="47.4219989" lon="13.7024651">
                <ele>1208.6</ele>
                <time>2016-04-02T12:35:19.000Z</time>
                <name>Position 35</name>
            </trkpt>
            <trkpt lat="47.4219744" lon="13.7021818">
                <ele>1203.0</ele>
                <time>2016-04-02T12:35:48.000Z</time>
                <name>Position 36</name>
            </trkpt>
            <trkpt lat="47.421945" lon="13.7019176">
                <ele>1201.2</ele>
                <time>2016-04-02T12:37:34.000Z</time>
                <name>Position 37</name>
            </trkpt>
            <trkpt lat="47.4219299" lon="13.7016435">
                <ele>1197.2</ele>
                <time>2016-04-02T12:37:59.000Z</time>
                <name>Position 38</name>
            </trkpt>
            <trkpt lat="47.4219078" lon="13.7013393">
                <ele>1197.8</ele>
                <time>2016-04-02T12:39:19.000Z</time>
                <name>Position 39</name>
            </trkpt>
            <trkpt lat="47.4219294" lon="13.7010639">
                <ele>1200.1</ele>
                <time>2016-04-02T12:40:48.000Z</time>
                <name>Position 40</name>
            </trkpt>
            <trkpt lat="47.421856" lon="13.7008027">
                <ele>1194.8</ele>
                <time>2016-04-02T12:41:15.000Z</time>
                <name>Position 41</name>
            </trkpt>
            <trkpt lat="47.4218204" lon="13.7005404">
                <ele>1193.0</ele>
                <time>2016-04-02T12:41:34.000Z</time>
                <name>Position 42</name>
            </trkpt>
            <trkpt lat="47.4218111" lon="13.7002638">
                <ele>1192.0</ele>
                <time>2016-04-02T12:42:04.000Z</time>
                <name>Position 43</name>
            </trkpt>
            <trkpt lat="47.4218799" lon="13.7000067">
                <ele>1191.0</ele>
                <time>2016-04-02T12:42:53.000Z</time>
                <name>Position 44</name>
            </trkpt>
            <trkpt lat="47.4218979" lon="13.6997348">
                <ele>1179.9</ele>
                <time>2016-04-02T12:43:30.000Z</time>
                <name>Position 45</name>
            </trkpt>
            <trkpt lat="47.4219276" lon="13.6994666">
                <ele>1173.8</ele>
                <time>2016-04-02T12:46:50.000Z</time>
                <name>Position 46</name>
            </trkpt>
            <trkpt lat="47.4219211" lon="13.6991985">
                <ele>1167.0</ele>
                <time>2016-04-02T12:47:56.000Z</time>
                <name>Position 47</name>
            </trkpt>
            <trkpt lat="47.4219671" lon="13.6989231">
                <ele>1158.6</ele>
                <time>2016-04-02T12:48:27.000Z</time>
                <name>Position 48</name>
            </trkpt>
            <trkpt lat="47.4219739" lon="13.6986468">
                <ele>1154.0</ele>
                <time>2016-04-02T12:48:46.000Z</time>
                <name>Position 49</name>
            </trkpt>
            <trkpt lat="47.4220862" lon="13.6984256">
                <ele>1150.0</ele>
                <time>2016-04-02T12:49:08.000Z</time>
                <name>Position 50</name>
            </trkpt>
            <trkpt lat="47.4219808" lon="13.6982089">
                <ele>1144.9</ele>
                <time>2016-04-02T12:49:29.000Z</time>
                <name>Position 51</name>
            </trkpt>
            <trkpt lat="47.4218488" lon="13.698011">
                <ele>1139.8</ele>
                <time>2016-04-02T12:49:52.000Z</time>
                <name>Position 52</name>
            </trkpt>
            <trkpt lat="47.4217786" lon="13.6977587">
                <ele>1133.0</ele>
                <time>2016-04-02T12:50:15.000Z</time>
                <name>Position 53</name>
            </trkpt>
            <trkpt lat="47.4219215" lon="13.6975892">
                <ele>1133.8</ele>
                <time>2016-04-02T12:50:39.000Z</time>
                <name>Position 54</name>
            </trkpt>
            <trkpt lat="47.4217325" lon="13.6975561">
                <ele>1132.0</ele>
                <time>2016-04-02T12:51:07.000Z</time>
                <name>Position 55</name>
            </trkpt>
            <trkpt lat="47.4216306" lon="13.6973208">
                <ele>1127.0</ele>
                <time>2016-04-02T12:51:23.000Z</time>
                <name>Position 56</name>
            </trkpt>
            <trkpt lat="47.4215636" lon="13.697053">
                <ele>1122.8</ele>
                <time>2016-04-02T12:51:41.000Z</time>
                <name>Position 57</name>
            </trkpt>
            <trkpt lat="47.4215739" lon="13.6967803">
                <ele>1117.0</ele>
                <time>2016-04-02T12:51:57.000Z</time>
                <name>Position 58</name>
            </trkpt>
            <trkpt lat="47.4215064" lon="13.6965214">
                <ele>1116.8</ele>
                <time>2016-04-02T12:52:15.000Z</time>
                <name>Position 59</name>
            </trkpt>
            <trkpt lat="47.4215736" lon="13.6962695">
                <ele>1115.2</ele>
                <time>2016-04-02T12:52:43.000Z</time>
                <name>Position 60</name>
            </trkpt>
            <trkpt lat="47.4215831" lon="13.6959966">
                <ele>1114.9</ele>
                <time>2016-04-02T12:53:25.000Z</time>
                <name>Position 61</name>
            </trkpt>
            <trkpt lat="47.4215609" lon="13.6957325">
                <ele>1117.2</ele>
                <time>2016-04-02T12:54:04.000Z</time>
                <name>Position 62</name>
            </trkpt>
            <trkpt lat="47.4214883" lon="13.695483">
                <ele>1117.2</ele>
                <time>2016-04-02T12:54:57.000Z</time>
                <name>Position 63</name>
            </trkpt>
            <trkpt lat="47.4214781" lon="13.695217">
                <ele>1116.7</ele>
                <time>2016-04-02T12:55:16.000Z</time>
                <name>Position 64</name>
            </trkpt>
            <trkpt lat="47.421444" lon="13.6949446">
                <ele>1118.1</ele>
                <time>2016-04-02T12:55:39.000Z</time>
                <name>Position 65</name>
            </trkpt>
            <trkpt lat="47.4213853" lon="13.694682">
                <ele>1120.7</ele>
                <time>2016-04-02T12:56:00.000Z</time>
                <name>Position 66</name>
            </trkpt>
            <trkpt lat="47.4212371" lon="13.694528">
                <ele>1115.8</ele>
                <time>2016-04-02T12:56:40.000Z</time>
                <name>Position 67</name>
            </trkpt>
            <trkpt lat="47.4210737" lon="13.6944158">
                <ele>1108.7</ele>
                <time>2016-04-02T12:56:56.000Z</time>
                <name>Position 68</name>
            </trkpt>
            <trkpt lat="47.420892" lon="13.6944047">
                <ele>1110.8</ele>
                <time>2016-04-02T12:57:16.000Z</time>
                <name>Position 69</name>
            </trkpt>
            <trkpt lat="47.4207524" lon="13.6927046">
                <ele>1105.0</ele>
                <time>2016-04-02T12:58:40.000Z</time>
                <name>Position 70</name>
            </trkpt>
            <trkpt lat="47.4211633" lon="13.6919345">
                <ele>1109.1</ele>
                <time>2016-04-02T12:58:54.000Z</time>
                <name>Position 71</name>
            </trkpt>
            <trkpt lat="47.421614" lon="13.69234">
                <ele>1112.2</ele>
                <time>2016-04-02T12:59:09.000Z</time>
                <name>Position 72</name>
            </trkpt>
            <trkpt lat="47.421632" lon="13.6942198">
                <ele>1117.6</ele>
                <time>2016-04-02T13:00:01.000Z</time>
                <name>Position 73</name>
            </trkpt>
            <trkpt lat="47.4218025" lon="13.6943564">
                <ele>1094.5</ele>
                <time>2016-04-02T13:01:28.000Z</time>
                <name>Position 74</name>
            </trkpt>
            <trkpt lat="47.4217988" lon="13.6943845">
                <ele>1092.0</ele>
                <time>2016-04-02T13:02:48.000Z</time>
                <name>Position 75</name>
            </trkpt>
            <trkpt lat="47.4219456" lon="13.694625">
                <ele>1078.8</ele>
                <time>2016-04-02T13:02:57.000Z</time>
                <name>Position 76</name>
            </trkpt>
            <trkpt lat="47.4220723" lon="13.694476">
                <ele>1075.2</ele>
                <time>2016-04-02T13:03:47.000Z</time>
                <name>Position 77</name>
            </trkpt>
            <trkpt lat="47.422187" lon="13.6953763">
                <ele>1067.0</ele>
                <time>2016-04-02T13:04:22.000Z</time>
                <name>Position 78</name>
            </trkpt>
            <trkpt lat="47.4222073" lon="13.6949733">
                <ele>1064.0</ele>
                <time>2016-04-02T13:04:41.000Z</time>
                <name>Position 79</name>
            </trkpt>
            <trkpt lat="47.4222827" lon="13.6952216">
                <ele>1060.0</ele>
                <time>2016-04-02T13:04:54.000Z</time>
                <name>Position 80</name>
            </trkpt>
            <trkpt lat="47.4223477" lon="13.695474">
                <ele>1055.0</ele>
                <time>2016-04-02T13:05:15.000Z</time>
                <name>Position 81</name>
            </trkpt>
            <trkpt lat="47.4224448" lon="13.6957946">
                <ele>1058.2</ele>
                <time>2016-04-02T13:05:30.000Z</time>
                <name>Position 82</name>
            </trkpt>
            <trkpt lat="47.4225807" lon="13.6959262">
                <ele>1059.0</ele>
                <time>2016-04-02T13:05:52.000Z</time>
                <name>Position 83</name>
            </trkpt>
            <trkpt lat="47.4225269" lon="13.6961121">
                <ele>1050.8</ele>
                <time>2016-04-02T13:06:08.000Z</time>
                <name>Position 84</name>
            </trkpt>
            <trkpt lat="47.4225415" lon="13.696318">
                <ele>1043.0</ele>
                <time>2016-04-02T13:07:12.000Z</time>
                <name>Position 85</name>
            </trkpt>
            <trkpt lat="47.4224986" lon="13.695998">
                <ele>1045.0</ele>
                <time>2016-04-02T13:07:33.000Z</time>
                <name>Position 86</name>
            </trkpt>
            <trkpt lat="47.4226078" lon="13.6964029">
                <ele>1049.0</ele>
                <time>2016-04-02T13:07:52.000Z</time>
                <name>Position 87</name>
            </trkpt>
            <trkpt lat="47.4226233" lon="13.6968535">
                <ele>1053.7</ele>
                <time>2016-04-02T13:08:14.000Z</time>
                <name>Position 88</name>
            </trkpt>
            <trkpt lat="47.422795" lon="13.6971272">
                <ele>1056.3</ele>
                <time>2016-04-02T13:10:28.000Z</time>
                <name>Position 89</name>
            </trkpt>
            <trkpt lat="47.4229241" lon="13.6973881">
                <ele>1058.0</ele>
                <time>2016-04-02T13:10:31.000Z</time>
                <name>Position 90</name>
            </trkpt>
            <trkpt lat="47.4230269" lon="13.6974848">
                <ele>1060.9</ele>
                <time>2016-04-02T13:10:34.000Z</time>
                <name>Position 91</name>
            </trkpt>
            <trkpt lat="47.4230478" lon="13.6976045">
                <ele>1060.0</ele>
                <time>2016-04-02T13:10:36.000Z</time>
                <name>Position 92</name>
            </trkpt>
            <trkpt lat="47.4232415" lon="13.6990381">
                <ele>1059.0</ele>
                <time>2016-04-02T13:10:38.000Z</time>
                <name>Position 93</name>
            </trkpt>
            <trkpt lat="47.4235244" lon="13.7007362">
                <ele>1056.2</ele>
                <time>2016-04-02T13:10:40.000Z</time>
                <name>Position 94</name>
            </trkpt>
            <trkpt lat="47.4236213" lon="13.7011323">
                <ele>1053.4</ele>
                <time>2016-04-02T13:10:42.000Z</time>
                <name>Position 95</name>
            </trkpt>
            <trkpt lat="47.4238308" lon="13.7011993">
                <ele>1051.0</ele>
                <time>2016-04-02T13:10:45.000Z</time>
                <name>Position 96</name>
            </trkpt>
            <trkpt lat="47.4239373" lon="13.7008803">
                <ele>1050.0</ele>
                <time>2016-04-02T13:10:47.000Z</time>
                <name>Position 97</name>
            </trkpt>
            <trkpt lat="47.4240242" lon="13.7008808">
                <ele>1048.8</ele>
                <time>2016-04-02T13:10:49.000Z</time>
                <name>Position 98</name>
            </trkpt>
            <trkpt lat="47.4241867" lon="13.7008794">
                <ele>1045.2</ele>
                <time>2016-04-02T13:10:53.000Z</time>
                <name>Position 99</name>
            </trkpt>
            <trkpt lat="47.4240494" lon="13.7003329">
                <ele>1044.0</ele>
                <time>2016-04-02T13:10:55.000Z</time>
                <name>Position 100</name>
            </trkpt>
            <trkpt lat="47.4240432" lon="13.7001488">
                <ele>1038.1</ele>
                <time>2016-04-02T13:11:01.000Z</time>
                <name>Position 101</name>
            </trkpt>
        </trkseg>
    </trk>
</gpx>
