<?xml version="1.0" encoding="UTF-8" standalone="yes"?>
<gpx xmlns="http://www.topografix.com/GPX/1/0" creator="Generated by Christian Pesch's RouteConverter. See http://www.routeconverter.com" version="1.0">
    <trk>
        <name>2011-07-03 10:13</name>
        <desc>&lt;h1&gt;OruxMaps&lt;/h1&gt;&lt;br /&gt;&lt;h2&gt;Name: 2011-07-03 10:13&lt;/h2&gt;&lt;br /&gt;&lt;p&gt;Startzeit: 07/03/2011 10:13&lt;/p&gt;&lt;p&gt;Zielzeit: 07/03/2011 14:38&lt;/p&gt;&lt;p&gt;Distanz: 25 km (04:24)&lt;/p&gt;&lt;p&gt;Bewegungszeit: 02:00&lt;/p&gt;&lt;p&gt;Durchschnitts-Geschw.: 5,
7 km/h&lt;/p&gt;&lt;p&gt;Netto Geschwindigkeit12,
4 km/h&lt;/p&gt;&lt;p&gt;Max. Geschwindigkeit: 0 km/h&lt;/p&gt;&lt;p&gt;Maximale Höhe: 1150 m&lt;/p&gt;&lt;p&gt;Minimale Höhe: 2245 m&lt;/p&gt;&lt;p&gt;Steig-Geschw.: 353,
3 m/h&lt;/p&gt;&lt;p&gt;Sink-Geschw.: -494,
6 m/h&lt;/p&gt;&lt;p&gt;Aufstieg: 717 m&lt;/p&gt;&lt;p&gt;Abstieg: -1110 m&lt;/p&gt;&lt;p&gt;Steigzeit: 02:01&lt;/p&gt;&lt;p&gt;Sinkzeit: 02:14&lt;/p&gt;</desc>
        <trkseg>
            <trkpt lon="11.1812281" lat="47.0152509">
                <ele>1617.0</ele>
                <time>2011-07-03T08:20:18.000Z</time>
                <name>Position 1</name>
            </trkpt>
            <trkpt lon="11.1809492" lat="47.0152401">
                <ele>1619.0</ele>
                <time>2011-07-03T08:20:31.000Z</time>
                <name>Position 2</name>
            </trkpt>
            <trkpt lon="11.1807346" lat="47.0151329">
                <ele>1621.0</ele>
                <time>2011-07-03T08:20:50.000Z</time>
                <name>Position 3</name>
            </trkpt>
            <trkpt lon="11.1804771" lat="47.0151543">
                <ele>1630.0</ele>
                <time>2011-07-03T08:28:00.000Z</time>
                <name>Position 4</name>
            </trkpt>
            <trkpt lon="11.1801981" lat="47.0151436">
                <ele>1632.0</ele>
                <time>2011-07-03T08:28:17.000Z</time>
                <name>Position 5</name>
            </trkpt>
            <trkpt lon="11.1799407" lat="47.0152187">
                <ele>1633.0</ele>
                <time>2011-07-03T08:28:35.000Z</time>
                <name>Position 6</name>
            </trkpt>
            <trkpt lon="11.1797046" lat="47.0151329">
                <ele>1636.0</ele>
                <time>2011-07-03T08:28:53.000Z</time>
                <name>Position 7</name>
            </trkpt>
            <trkpt lon="11.1794257" lat="47.0151543">
                <ele>1638.0</ele>
                <time>2011-07-03T08:29:08.000Z</time>
                <name>Position 8</name>
            </trkpt>
            <trkpt lon="11.1795973" lat="47.0150148">
                <ele>1641.0</ele>
                <time>2011-07-03T08:29:32.000Z</time>
                <name>Position 9</name>
            </trkpt>
            <trkpt lon="11.1798119" lat="47.0148861">
                <ele>1644.0</ele>
                <time>2011-07-03T08:29:49.000Z</time>
                <name>Position 10</name>
            </trkpt>
            <trkpt lon="11.180005" lat="47.0147573">
                <ele>1647.0</ele>
                <time>2011-07-03T08:30:06.000Z</time>
                <name>Position 11</name>
            </trkpt>
            <trkpt lon="11.1802196" lat="47.0146501">
                <ele>1650.0</ele>
                <time>2011-07-03T08:30:24.000Z</time>
                <name>Position 12</name>
            </trkpt>
            <trkpt lon="11.1804556" lat="47.0145535">
                <ele>1654.0</ele>
                <time>2011-07-03T08:30:42.000Z</time>
                <name>Position 13</name>
            </trkpt>
            <trkpt lon="11.1803913" lat="47.0143711">
                <ele>1659.0</ele>
                <time>2011-07-03T08:31:27.000Z</time>
                <name>Position 14</name>
            </trkpt>
            <trkpt lon="11.1801767" lat="47.0144784">
                <ele>1665.0</ele>
                <time>2011-07-03T08:32:24.000Z</time>
                <name>Position 15</name>
            </trkpt>
            <trkpt lon="11.1799192" lat="47.0145428">
                <ele>1671.0</ele>
                <time>2011-07-03T08:32:40.000Z</time>
                <name>Position 16</name>
            </trkpt>
            <trkpt lon="11.1796832" lat="47.0144462">
                <ele>1674.0</ele>
                <time>2011-07-03T08:32:56.000Z</time>
                <name>Position 17</name>
            </trkpt>
            <trkpt lon="11.1795759" lat="47.0142745">
                <ele>1677.0</ele>
                <time>2011-07-03T08:33:38.000Z</time>
                <name>Position 18</name>
            </trkpt>
            <trkpt lon="11.1793613" lat="47.0141673">
                <ele>1682.0</ele>
                <time>2011-07-03T08:34:17.000Z</time>
                <name>Position 19</name>
            </trkpt>
            <trkpt lon="11.17949" lat="47.0139956">
                <ele>1687.0</ele>
                <time>2011-07-03T08:34:49.000Z</time>
                <name>Position 20</name>
            </trkpt>
            <trkpt lon="11.1792325" lat="47.0139312">
                <ele>1693.0</ele>
                <time>2011-07-03T08:35:30.000Z</time>
                <name>Position 21</name>
            </trkpt>
            <trkpt lon="11.1793184" lat="47.0137488">
                <ele>1699.0</ele>
                <time>2011-07-03T08:36:09.000Z</time>
                <name>Position 22</name>
            </trkpt>
            <trkpt lon="11.1794686" lat="47.0135986">
                <ele>1705.0</ele>
                <time>2011-07-03T08:36:27.000Z</time>
                <name>Position 23</name>
            </trkpt>
            <trkpt lon="11.1796402" lat="47.0134592">
                <ele>1710.0</ele>
                <time>2011-07-03T08:36:46.000Z</time>
                <name>Position 24</name>
            </trkpt>
            <trkpt lon="11.1798119" lat="47.0133197">
                <ele>1714.0</ele>
                <time>2011-07-03T08:37:03.000Z</time>
                <name>Position 25</name>
            </trkpt>
            <trkpt lon="11.180005" lat="47.0131909">
                <ele>1717.0</ele>
                <time>2011-07-03T08:37:17.000Z</time>
                <name>Position 26</name>
            </trkpt>
            <trkpt lon="11.1801767" lat="47.0130407">
                <ele>1720.0</ele>
                <time>2011-07-03T08:37:32.000Z</time>
                <name>Position 27</name>
            </trkpt>
            <trkpt lon="11.1803913" lat="47.0129227">
                <ele>1721.0</ele>
                <time>2011-07-03T08:37:46.000Z</time>
                <name>Position 28</name>
            </trkpt>
            <trkpt lon="11.1805415" lat="47.0127725">
                <ele>1723.0</ele>
                <time>2011-07-03T08:38:01.000Z</time>
                <name>Position 29</name>
            </trkpt>
            <trkpt lon="11.1807775" lat="47.0126652">
                <ele>1725.0</ele>
                <time>2011-07-03T08:38:17.000Z</time>
                <name>Position 30</name>
            </trkpt>
            <trkpt lon="11.1810135" lat="47.0125687">
                <ele>1727.0</ele>
                <time>2011-07-03T08:38:34.000Z</time>
                <name>Position 31</name>
            </trkpt>
            <trkpt lon="11.1812067" lat="47.0124399">
                <ele>1730.0</ele>
                <time>2011-07-03T08:38:50.000Z</time>
                <name>Position 32</name>
            </trkpt>
            <trkpt lon="11.1813998" lat="47.0123112">
                <ele>1732.0</ele>
                <time>2011-07-03T08:39:05.000Z</time>
                <name>Position 33</name>
            </trkpt>
            <trkpt lon="11.1815929" lat="47.0121824">
                <ele>1734.0</ele>
                <time>2011-07-03T08:39:20.000Z</time>
                <name>Position 34</name>
            </trkpt>
            <trkpt lon="11.1817216" lat="47.0120215">
                <ele>1736.0</ele>
                <time>2011-07-03T08:39:35.000Z</time>
                <name>Position 35</name>
            </trkpt>
            <trkpt lon="11.1819791" lat="47.0119571">
                <ele>1739.0</ele>
                <time>2011-07-03T08:39:51.000Z</time>
                <name>Position 36</name>
            </trkpt>
            <trkpt lon="11.1822152" lat="47.0118713">
                <ele>1742.0</ele>
                <time>2011-07-03T08:40:05.000Z</time>
                <name>Position 37</name>
            </trkpt>
            <trkpt lon="11.1823654" lat="47.0117211">
                <ele>1745.0</ele>
                <time>2011-07-03T08:40:18.000Z</time>
                <name>Position 38</name>
            </trkpt>
            <trkpt lon="11.1826014" lat="47.0116353">
                <ele>1748.0</ele>
                <time>2011-07-03T08:40:34.000Z</time>
                <name>Position 39</name>
            </trkpt>
            <trkpt lon="11.1828589" lat="47.0115709">
                <ele>1751.0</ele>
                <time>2011-07-03T08:40:52.000Z</time>
                <name>Position 40</name>
            </trkpt>
            <trkpt lon="11.183052" lat="47.0114421">
                <ele>1755.0</ele>
                <time>2011-07-03T08:41:09.000Z</time>
                <name>Position 41</name>
            </trkpt>
            <trkpt lon="11.1831593" lat="47.0112705">
                <ele>1757.0</ele>
                <time>2011-07-03T08:41:20.000Z</time>
                <name>Position 42</name>
            </trkpt>
            <trkpt lon="11.1834168" lat="47.0111846">
                <ele>1760.0</ele>
                <time>2011-07-03T08:41:34.000Z</time>
                <name>Position 43</name>
            </trkpt>
            <trkpt lon="11.1835455" lat="47.0110237">
                <ele>1762.0</ele>
                <time>2011-07-03T08:41:48.000Z</time>
                <name>Position 44</name>
            </trkpt>
            <trkpt lon="11.1836099" lat="47.0108306">
                <ele>1764.0</ele>
                <time>2011-07-03T08:42:02.000Z</time>
                <name>Position 45</name>
            </trkpt>
            <trkpt lon="11.1838245" lat="47.0107126">
                <ele>1766.0</ele>
                <time>2011-07-03T08:42:18.000Z</time>
                <name>Position 46</name>
            </trkpt>
            <trkpt lon="11.1838459" lat="47.0105302">
                <ele>1768.0</ele>
                <time>2011-07-03T08:42:47.000Z</time>
                <name>Position 47</name>
            </trkpt>
            <trkpt lon="11.1840605" lat="47.0104229">
                <ele>1770.0</ele>
                <time>2011-07-03T08:43:01.000Z</time>
                <name>Position 48</name>
            </trkpt>
            <trkpt lon="11.1841249" lat="47.0102405">
                <ele>1773.0</ele>
                <time>2011-07-03T08:43:16.000Z</time>
                <name>Position 49</name>
            </trkpt>
            <trkpt lon="11.1842966" lat="47.010101">
                <ele>1775.0</ele>
                <time>2011-07-03T08:43:31.000Z</time>
                <name>Position 50</name>
            </trkpt>
            <trkpt lon="11.1845326" lat="47.0100152">
                <ele>1777.0</ele>
                <time>2011-07-03T08:43:49.000Z</time>
                <name>Position 51</name>
            </trkpt>
            <trkpt lon="11.1847901" lat="47.0099508">
                <ele>1780.0</ele>
                <time>2011-07-03T08:44:06.000Z</time>
                <name>Position 52</name>
            </trkpt>
            <trkpt lon="11.1849188" lat="47.0097899">
                <ele>1784.0</ele>
                <time>2011-07-03T08:44:46.000Z</time>
                <name>Position 53</name>
            </trkpt>
            <trkpt lon="11.1851763" lat="47.0097362">
                <ele>1788.0</ele>
                <time>2011-07-03T08:45:02.000Z</time>
                <name>Position 54</name>
            </trkpt>
            <trkpt lon="11.1853051" lat="47.0095753">
                <ele>1794.0</ele>
                <time>2011-07-03T08:45:35.000Z</time>
                <name>Position 55</name>
            </trkpt>
            <trkpt lon="11.1854553" lat="47.0094251">
                <ele>1798.0</ele>
                <time>2011-07-03T08:45:57.000Z</time>
                <name>Position 56</name>
            </trkpt>
            <trkpt lon="11.1856698" lat="47.0093178">
                <ele>1802.0</ele>
                <time>2011-07-03T08:46:15.000Z</time>
                <name>Position 57</name>
            </trkpt>
            <trkpt lon="11.1858415" lat="47.0091676">
                <ele>1805.0</ele>
                <time>2011-07-03T08:46:34.000Z</time>
                <name>Position 58</name>
            </trkpt>
            <trkpt lon="11.186099" lat="47.009114">
                <ele>1808.0</ele>
                <time>2011-07-03T08:46:51.000Z</time>
                <name>Position 59</name>
            </trkpt>
            <trkpt lon="11.186378" lat="47.0090818">
                <ele>1812.0</ele>
                <time>2011-07-03T08:47:06.000Z</time>
                <name>Position 60</name>
            </trkpt>
            <trkpt lon="11.1866569" lat="47.009114">
                <ele>1815.0</ele>
                <time>2011-07-03T08:47:25.000Z</time>
                <name>Position 61</name>
            </trkpt>
            <trkpt lon="11.1869359" lat="47.0090711">
                <ele>1820.0</ele>
                <time>2011-07-03T08:47:43.000Z</time>
                <name>Position 62</name>
            </trkpt>
            <trkpt lon="11.1871933" lat="47.0090067">
                <ele>1824.0</ele>
                <time>2011-07-03T08:47:59.000Z</time>
                <name>Position 63</name>
            </trkpt>
            <trkpt lon="11.1874723" lat="47.0089745">
                <ele>1828.0</ele>
                <time>2011-07-03T08:48:15.000Z</time>
                <name>Position 64</name>
            </trkpt>
            <trkpt lon="11.1877298" lat="47.0089316">
                <ele>1832.0</ele>
                <time>2011-07-03T08:48:30.000Z</time>
                <name>Position 65</name>
            </trkpt>
            <trkpt lon="11.1879873" lat="47.0089745">
                <ele>1835.0</ele>
                <time>2011-07-03T08:48:47.000Z</time>
                <name>Position 66</name>
            </trkpt>
            <trkpt lon="11.1882662" lat="47.0090067">
                <ele>1838.0</ele>
                <time>2011-07-03T08:49:05.000Z</time>
                <name>Position 67</name>
            </trkpt>
            <trkpt lon="11.1885452" lat="47.0090174">
                <ele>1841.0</ele>
                <time>2011-07-03T08:49:27.000Z</time>
                <name>Position 68</name>
            </trkpt>
            <trkpt lon="11.1888027" lat="47.0090818">
                <ele>1843.0</ele>
                <time>2011-07-03T08:49:44.000Z</time>
                <name>Position 69</name>
            </trkpt>
            <trkpt lon="11.1890602" lat="47.0091354">
                <ele>1846.0</ele>
                <time>2011-07-03T08:50:02.000Z</time>
                <name>Position 70</name>
            </trkpt>
            <trkpt lon="11.1893177" lat="47.0091891">
                <ele>1849.0</ele>
                <time>2011-07-03T08:50:20.000Z</time>
                <name>Position 71</name>
            </trkpt>
            <trkpt lon="11.1895751" lat="47.0092427">
                <ele>1852.0</ele>
                <time>2011-07-03T08:50:38.000Z</time>
                <name>Position 72</name>
            </trkpt>
            <trkpt lon="11.1897683" lat="47.0093715">
                <ele>1856.0</ele>
                <time>2011-07-03T08:50:55.000Z</time>
                <name>Position 73</name>
            </trkpt>
            <trkpt lon="11.1899828" lat="47.0094895">
                <ele>1859.0</ele>
                <time>2011-07-03T08:51:12.000Z</time>
                <name>Position 74</name>
            </trkpt>
            <trkpt lon="11.1902189" lat="47.0095753">
                <ele>1862.0</ele>
                <time>2011-07-03T08:51:32.000Z</time>
                <name>Position 75</name>
            </trkpt>
            <trkpt lon="11.1904549" lat="47.009468">
                <ele>1864.0</ele>
                <time>2011-07-03T08:51:49.000Z</time>
                <name>Position 76</name>
            </trkpt>
            <trkpt lon="11.1903691" lat="47.0092964">
                <ele>1867.0</ele>
                <time>2011-07-03T08:52:11.000Z</time>
                <name>Position 77</name>
            </trkpt>
            <trkpt lon="11.1902189" lat="47.0091462">
                <ele>1870.0</ele>
                <time>2011-07-03T08:52:47.000Z</time>
                <name>Position 78</name>
            </trkpt>
            <trkpt lon="11.1903262" lat="47.0089745">
                <ele>1874.0</ele>
                <time>2011-07-03T08:53:04.000Z</time>
                <name>Position 79</name>
            </trkpt>
            <trkpt lon="11.1902403" lat="47.0088028">
                <ele>1877.0</ele>
                <time>2011-07-03T08:53:19.000Z</time>
                <name>Position 80</name>
            </trkpt>
            <trkpt lon="11.190176" lat="47.0086205">
                <ele>1879.0</ele>
                <time>2011-07-03T08:53:34.000Z</time>
                <name>Position 81</name>
            </trkpt>
            <trkpt lon="11.1901545" lat="47.0084273">
                <ele>1881.0</ele>
                <time>2011-07-03T08:53:47.000Z</time>
                <name>Position 82</name>
            </trkpt>
            <trkpt lon="11.1900901" lat="47.0082342">
                <ele>1883.0</ele>
                <time>2011-07-03T08:54:01.000Z</time>
                <name>Position 83</name>
            </trkpt>
            <trkpt lon="11.1900687" lat="47.0080518">
                <ele>1885.0</ele>
                <time>2011-07-03T08:54:14.000Z</time>
                <name>Position 84</name>
            </trkpt>
            <trkpt lon="11.1900043" lat="47.0078694">
                <ele>1886.0</ele>
                <time>2011-07-03T08:54:27.000Z</time>
                <name>Position 85</name>
            </trkpt>
            <trkpt lon="11.1899828" lat="47.007687">
                <ele>1888.0</ele>
                <time>2011-07-03T08:54:39.000Z</time>
                <name>Position 86</name>
            </trkpt>
            <trkpt lon="11.189897" lat="47.0075047">
                <ele>1889.0</ele>
                <time>2011-07-03T08:54:51.000Z</time>
                <name>Position 87</name>
            </trkpt>
            <trkpt lon="11.1897468" lat="47.0073544">
                <ele>1890.0</ele>
                <time>2011-07-03T08:55:04.000Z</time>
                <name>Position 88</name>
            </trkpt>
            <trkpt lon="11.189661" lat="47.0071721">
                <ele>1891.0</ele>
                <time>2011-07-03T08:55:19.000Z</time>
                <name>Position 89</name>
            </trkpt>
            <trkpt lon="11.1895108" lat="47.0070219">
                <ele>1892.0</ele>
                <time>2011-07-03T08:55:31.000Z</time>
                <name>Position 90</name>
            </trkpt>
            <trkpt lon="11.1893177" lat="47.0068824">
                <ele>1893.0</ele>
                <time>2011-07-03T08:55:43.000Z</time>
                <name>Position 91</name>
            </trkpt>
            <trkpt lon="11.189146" lat="47.0067429">
                <ele>1894.0</ele>
                <time>2011-07-03T08:55:55.000Z</time>
                <name>Position 92</name>
            </trkpt>
            <trkpt lon="11.188867" lat="47.0067536">
                <ele>1894.0</ele>
                <time>2011-07-03T08:56:10.000Z</time>
                <name>Position 93</name>
            </trkpt>
            <trkpt lon="11.188631" lat="47.0066678">
                <ele>1894.0</ele>
                <time>2011-07-03T08:56:22.000Z</time>
                <name>Position 94</name>
            </trkpt>
            <trkpt lon="11.1884164" lat="47.0065605">
                <ele>1894.0</ele>
                <time>2011-07-03T08:56:34.000Z</time>
                <name>Position 95</name>
            </trkpt>
            <trkpt lon="11.1881804" lat="47.006464">
                <ele>1893.0</ele>
                <time>2011-07-03T08:56:47.000Z</time>
                <name>Position 96</name>
            </trkpt>
            <trkpt lon="11.1879229" lat="47.0063889">
                <ele>1893.0</ele>
                <time>2011-07-03T08:57:05.000Z</time>
                <name>Position 97</name>
            </trkpt>
            <trkpt lon="11.1877083" lat="47.0062708">
                <ele>1893.0</ele>
                <time>2011-07-03T08:57:18.000Z</time>
                <name>Position 98</name>
            </trkpt>
            <trkpt lon="11.187601" lat="47.0060992">
                <ele>1893.0</ele>
                <time>2011-07-03T08:57:31.000Z</time>
                <name>Position 99</name>
            </trkpt>
            <trkpt lon="11.1874294" lat="47.0059597">
                <ele>1893.0</ele>
                <time>2011-07-03T08:57:43.000Z</time>
                <name>Position 100</name>
            </trkpt>
            <trkpt lon="11.1872577" lat="47.0058095">
                <ele>1893.0</ele>
                <time>2011-07-03T08:57:55.000Z</time>
                <name>Position 101</name>
            </trkpt>
            <trkpt lon="11.187129" lat="47.0056486">
                <ele>1893.0</ele>
                <time>2011-07-03T08:58:07.000Z</time>
                <name>Position 102</name>
            </trkpt>
            <trkpt lon="11.1870002" lat="47.0054662">
                <ele>1893.0</ele>
                <time>2011-07-03T08:58:20.000Z</time>
                <name>Position 103</name>
            </trkpt>
            <trkpt lon="11.1867856" lat="47.0053589">
                <ele>1893.0</ele>
                <time>2011-07-03T08:58:32.000Z</time>
                <name>Position 104</name>
            </trkpt>
            <trkpt lon="11.1866569" lat="47.0051872">
                <ele>1894.0</ele>
                <time>2011-07-03T08:58:45.000Z</time>
                <name>Position 105</name>
            </trkpt>
            <trkpt lon="11.1866569" lat="47.0050048">
                <ele>1895.0</ele>
                <time>2011-07-03T08:58:57.000Z</time>
                <name>Position 106</name>
            </trkpt>
            <trkpt lon="11.186614" lat="47.0048224">
                <ele>1896.0</ele>
                <time>2011-07-03T08:59:09.000Z</time>
                <name>Position 107</name>
            </trkpt>
            <trkpt lon="11.1864638" lat="47.0046615">
                <ele>1896.0</ele>
                <time>2011-07-03T08:59:21.000Z</time>
                <name>Position 108</name>
            </trkpt>
            <trkpt lon="11.186335" lat="47.0044791">
                <ele>1897.0</ele>
                <time>2011-07-03T08:59:34.000Z</time>
                <name>Position 109</name>
            </trkpt>
            <trkpt lon="11.1862277" lat="47.0043075">
                <ele>1897.0</ele>
                <time>2011-07-03T08:59:46.000Z</time>
                <name>Position 110</name>
            </trkpt>
            <trkpt lon="11.1859917" lat="47.0042002">
                <ele>1898.0</ele>
                <time>2011-07-03T09:00:06.000Z</time>
                <name>Position 111</name>
            </trkpt>
            <trkpt lon="11.1857986" lat="47.0040714">
                <ele>1898.0</ele>
                <time>2011-07-03T09:00:20.000Z</time>
                <name>Position 112</name>
            </trkpt>
            <trkpt lon="11.1856698" lat="47.0038998">
                <ele>1899.0</ele>
                <time>2011-07-03T09:01:12.000Z</time>
                <name>Position 113</name>
            </trkpt>
            <trkpt lon="11.1856269" lat="47.0037066">
                <ele>1900.0</ele>
                <time>2011-07-03T09:01:25.000Z</time>
                <name>Position 114</name>
            </trkpt>
            <trkpt lon="11.185584" lat="47.0035135">
                <ele>1901.0</ele>
                <time>2011-07-03T09:01:38.000Z</time>
                <name>Position 115</name>
            </trkpt>
            <trkpt lon="11.1855411" lat="47.0033311">
                <ele>1901.0</ele>
                <time>2011-07-03T09:01:51.000Z</time>
                <name>Position 116</name>
            </trkpt>
            <trkpt lon="11.1855411" lat="47.003138">
                <ele>1902.0</ele>
                <time>2011-07-03T09:02:22.000Z</time>
                <name>Position 117</name>
            </trkpt>
            <trkpt lon="11.1854982" lat="47.0029556">
                <ele>1902.0</ele>
                <time>2011-07-03T09:02:34.000Z</time>
                <name>Position 118</name>
            </trkpt>
            <trkpt lon="11.1854553" lat="47.0027732">
                <ele>1902.0</ele>
                <time>2011-07-03T09:02:46.000Z</time>
                <name>Position 119</name>
            </trkpt>
            <trkpt lon="11.1854338" lat="47.0025801">
                <ele>1902.0</ele>
                <time>2011-07-03T09:02:59.000Z</time>
                <name>Position 120</name>
            </trkpt>
            <trkpt lon="11.1853909" lat="47.0023977">
                <ele>1902.0</ele>
                <time>2011-07-03T09:03:11.000Z</time>
                <name>Position 121</name>
            </trkpt>
            <trkpt lon="11.1853694" lat="47.0022153">
                <ele>1902.0</ele>
                <time>2011-07-03T09:03:24.000Z</time>
                <name>Position 122</name>
            </trkpt>
            <trkpt lon="11.1852622" lat="47.0020329">
                <ele>1902.0</ele>
                <time>2011-07-03T09:03:37.000Z</time>
                <name>Position 123</name>
            </trkpt>
            <trkpt lon="11.1851978" lat="47.0018506">
                <ele>1903.0</ele>
                <time>2011-07-03T09:03:55.000Z</time>
                <name>Position 124</name>
            </trkpt>
            <trkpt lon="11.185069" lat="47.0016789">
                <ele>1903.0</ele>
                <time>2011-07-03T09:04:09.000Z</time>
                <name>Position 125</name>
            </trkpt>
            <trkpt lon="11.1849188" lat="47.0015287">
                <ele>1903.0</ele>
                <time>2011-07-03T09:04:22.000Z</time>
                <name>Position 126</name>
            </trkpt>
            <trkpt lon="11.184833" lat="47.001357">
                <ele>1903.0</ele>
                <time>2011-07-03T09:04:35.000Z</time>
                <name>Position 127</name>
            </trkpt>
            <trkpt lon="11.1847257" lat="47.0011854">
                <ele>1904.0</ele>
                <time>2011-07-03T09:04:48.000Z</time>
                <name>Position 128</name>
            </trkpt>
            <trkpt lon="11.1845755" lat="47.0010352">
                <ele>1904.0</ele>
                <time>2011-07-03T09:05:03.000Z</time>
                <name>Position 129</name>
            </trkpt>
            <trkpt lon="11.1844897" lat="47.0008635">
                <ele>1904.0</ele>
                <time>2011-07-03T09:05:16.000Z</time>
                <name>Position 130</name>
            </trkpt>
            <trkpt lon="11.1844468" lat="47.0006811">
                <ele>1904.0</ele>
                <time>2011-07-03T09:05:29.000Z</time>
                <name>Position 131</name>
            </trkpt>
            <trkpt lon="11.1844253" lat="47.000488">
                <ele>1905.0</ele>
                <time>2011-07-03T09:05:43.000Z</time>
                <name>Position 132</name>
            </trkpt>
            <trkpt lon="11.1844468" lat="47.0003056">
                <ele>1905.0</ele>
                <time>2011-07-03T09:05:56.000Z</time>
                <name>Position 133</name>
            </trkpt>
            <trkpt lon="11.1842322" lat="47.0001876">
                <ele>1906.0</ele>
                <time>2011-07-03T09:06:18.000Z</time>
                <name>Position 134</name>
            </trkpt>
            <trkpt lon="11.1841678" lat="47.0000052">
                <ele>1907.0</ele>
                <time>2011-07-03T09:06:34.000Z</time>
                <name>Position 135</name>
            </trkpt>
            <trkpt lon="11.1841034" lat="46.9998228">
                <ele>1910.0</ele>
                <time>2011-07-03T09:06:51.000Z</time>
                <name>Position 136</name>
            </trkpt>
            <trkpt lon="11.1839962" lat="46.9996511">
                <ele>1914.0</ele>
                <time>2011-07-03T09:07:11.000Z</time>
                <name>Position 137</name>
            </trkpt>
            <trkpt lon="11.1840391" lat="46.9994688">
                <ele>1917.0</ele>
                <time>2011-07-03T09:07:38.000Z</time>
                <name>Position 138</name>
            </trkpt>
            <trkpt lon="11.1840391" lat="46.9992864">
                <ele>1921.0</ele>
                <time>2011-07-03T09:08:02.000Z</time>
                <name>Position 139</name>
            </trkpt>
            <trkpt lon="11.1840176" lat="46.999104">
                <ele>1925.0</ele>
                <time>2011-07-03T09:08:36.000Z</time>
                <name>Position 140</name>
            </trkpt>
            <trkpt lon="11.1839318" lat="46.9989323">
                <ele>1931.0</ele>
                <time>2011-07-03T09:09:13.000Z</time>
                <name>Position 141</name>
            </trkpt>
            <trkpt lon="11.1836743" lat="46.9988572">
                <ele>1939.0</ele>
                <time>2011-07-03T09:09:44.000Z</time>
                <name>Position 142</name>
            </trkpt>
            <trkpt lon="11.1834168" lat="46.9988036">
                <ele>1946.0</ele>
                <time>2011-07-03T09:10:04.000Z</time>
                <name>Position 143</name>
            </trkpt>
            <trkpt lon="11.1832022" lat="46.9989109">
                <ele>1951.0</ele>
                <time>2011-07-03T09:10:24.000Z</time>
                <name>Position 144</name>
            </trkpt>
            <trkpt lon="11.1829447" lat="46.9989645">
                <ele>1955.0</ele>
                <time>2011-07-03T09:11:04.000Z</time>
                <name>Position 145</name>
            </trkpt>
            <trkpt lon="11.1827945" lat="46.9988143">
                <ele>1959.0</ele>
                <time>2011-07-03T09:11:51.000Z</time>
                <name>Position 146</name>
            </trkpt>
            <trkpt lon="11.182537" lat="46.9987392">
                <ele>1965.0</ele>
                <time>2011-07-03T09:12:32.000Z</time>
                <name>Position 147</name>
            </trkpt>
            <trkpt lon="11.1822795" lat="46.9986963">
                <ele>1973.0</ele>
                <time>2011-07-03T09:13:16.000Z</time>
                <name>Position 148</name>
            </trkpt>
            <trkpt lon="11.182022" lat="46.9986426">
                <ele>1982.0</ele>
                <time>2011-07-03T09:14:03.000Z</time>
                <name>Position 149</name>
            </trkpt>
            <trkpt lon="11.1820006" lat="46.9984602">
                <ele>1992.0</ele>
                <time>2011-07-03T09:14:56.000Z</time>
                <name>Position 150</name>
            </trkpt>
            <trkpt lon="11.181786" lat="46.998353">
                <ele>2003.0</ele>
                <time>2011-07-03T09:15:44.000Z</time>
                <name>Position 151</name>
            </trkpt>
            <trkpt lon="11.1815071" lat="46.9983744">
                <ele>2014.0</ele>
                <time>2011-07-03T09:16:28.000Z</time>
                <name>Position 152</name>
            </trkpt>
            <trkpt lon="11.1812496" lat="46.9983315">
                <ele>2025.0</ele>
                <time>2011-07-03T09:17:13.000Z</time>
                <name>Position 153</name>
            </trkpt>
            <trkpt lon="11.1809921" lat="46.9983744">
                <ele>2036.0</ele>
                <time>2011-07-03T09:17:55.000Z</time>
                <name>Position 154</name>
            </trkpt>
            <trkpt lon="11.1807131" lat="46.9984066">
                <ele>2046.0</ele>
                <time>2011-07-03T09:18:28.000Z</time>
                <name>Position 155</name>
            </trkpt>
            <trkpt lon="11.1805629" lat="46.9985675">
                <ele>2054.0</ele>
                <time>2011-07-03T09:18:47.000Z</time>
                <name>Position 156</name>
            </trkpt>
            <trkpt lon="11.1804771" lat="46.9987392">
                <ele>2060.0</ele>
                <time>2011-07-03T09:19:12.000Z</time>
                <name>Position 157</name>
            </trkpt>
            <trkpt lon="11.1804986" lat="46.9989216">
                <ele>2064.0</ele>
                <time>2011-07-03T09:19:34.000Z</time>
                <name>Position 158</name>
            </trkpt>
            <trkpt lon="11.1806058" lat="46.9990932">
                <ele>2069.0</ele>
                <time>2011-07-03T09:19:56.000Z</time>
                <name>Position 159</name>
            </trkpt>
            <trkpt lon="11.1806058" lat="46.9992756">
                <ele>2072.0</ele>
                <time>2011-07-03T09:20:11.000Z</time>
                <name>Position 160</name>
            </trkpt>
            <trkpt lon="11.1806058" lat="46.999458">
                <ele>2075.0</ele>
                <time>2011-07-03T09:20:27.000Z</time>
                <name>Position 161</name>
            </trkpt>
            <trkpt lon="11.1803483" lat="46.9995224">
                <ele>2080.0</ele>
                <time>2011-07-03T09:21:40.000Z</time>
                <name>Position 162</name>
            </trkpt>
            <trkpt lon="11.1800909" lat="46.999576">
                <ele>2089.0</ele>
                <time>2011-07-03T09:22:46.000Z</time>
                <name>Position 163</name>
            </trkpt>
            <trkpt lon="11.1799192" lat="46.9994258">
                <ele>2098.0</ele>
                <time>2011-07-03T09:23:08.000Z</time>
                <name>Position 164</name>
            </trkpt>
            <trkpt lon="11.1797904" lat="46.9992649">
                <ele>2106.0</ele>
                <time>2011-07-03T09:23:37.000Z</time>
                <name>Position 165</name>
            </trkpt>
            <trkpt lon="11.1796188" lat="46.9994044">
                <ele>2113.0</ele>
                <time>2011-07-03T09:24:30.000Z</time>
                <name>Position 166</name>
            </trkpt>
            <trkpt lon="11.1794471" lat="46.9992542">
                <ele>2122.0</ele>
                <time>2011-07-03T09:25:14.000Z</time>
                <name>Position 167</name>
            </trkpt>
            <trkpt lon="11.1795115" lat="46.9990718">
                <ele>2130.0</ele>
                <time>2011-07-03T09:25:33.000Z</time>
                <name>Position 168</name>
            </trkpt>
            <trkpt lon="11.1794686" lat="46.9988894">
                <ele>2135.0</ele>
                <time>2011-07-03T09:25:55.000Z</time>
                <name>Position 169</name>
            </trkpt>
            <trkpt lon="11.1794686" lat="46.998707">
                <ele>2139.0</ele>
                <time>2011-07-03T09:26:15.000Z</time>
                <name>Position 170</name>
            </trkpt>
            <trkpt lon="11.1793184" lat="46.9985568">
                <ele>2144.0</ele>
                <time>2011-07-03T09:26:51.000Z</time>
                <name>Position 171</name>
            </trkpt>
            <trkpt lon="11.1790394" lat="46.998589">
                <ele>2150.0</ele>
                <time>2011-07-03T09:27:38.000Z</time>
                <name>Position 172</name>
            </trkpt>
            <trkpt lon="11.1788034" lat="46.9984924">
                <ele>2158.0</ele>
                <time>2011-07-03T09:28:17.000Z</time>
                <name>Position 173</name>
            </trkpt>
            <trkpt lon="11.1786317" lat="46.9986319">
                <ele>2164.0</ele>
                <time>2011-07-03T09:28:44.000Z</time>
                <name>Position 174</name>
            </trkpt>
            <trkpt lon="11.1785244" lat="46.9984602">
                <ele>2169.0</ele>
                <time>2011-07-03T09:29:06.000Z</time>
                <name>Position 175</name>
            </trkpt>
            <trkpt lon="11.1783957" lat="46.9982993">
                <ele>2174.0</ele>
                <time>2011-07-03T09:29:26.000Z</time>
                <name>Position 176</name>
            </trkpt>
            <trkpt lon="11.1782884" lat="46.9981276">
                <ele>2177.0</ele>
                <time>2011-07-03T09:29:45.000Z</time>
                <name>Position 177</name>
            </trkpt>
            <trkpt lon="11.1781382" lat="46.9979667">
                <ele>2181.0</ele>
                <time>2011-07-03T09:30:04.000Z</time>
                <name>Position 178</name>
            </trkpt>
            <trkpt lon="11.1782455" lat="46.9977951">
                <ele>2184.0</ele>
                <time>2011-07-03T09:30:21.000Z</time>
                <name>Position 179</name>
            </trkpt>
            <trkpt lon="11.1782884" lat="46.9976127">
                <ele>2188.0</ele>
                <time>2011-07-03T09:30:40.000Z</time>
                <name>Position 180</name>
            </trkpt>
            <trkpt lon="11.1783742" lat="46.997441">
                <ele>2192.0</ele>
                <time>2011-07-03T09:31:01.000Z</time>
                <name>Position 181</name>
            </trkpt>
            <trkpt lon="11.1786532" lat="46.9974195">
                <ele>2195.0</ele>
                <time>2011-07-03T09:31:20.000Z</time>
                <name>Position 182</name>
            </trkpt>
            <trkpt lon="11.178739" lat="46.9972372">
                <ele>2200.0</ele>
                <time>2011-07-03T09:31:51.000Z</time>
                <name>Position 183</name>
            </trkpt>
            <trkpt lon="11.1789965" lat="46.9971621">
                <ele>2204.0</ele>
                <time>2011-07-03T09:32:07.000Z</time>
                <name>Position 184</name>
            </trkpt>
            <trkpt lon="11.179254" lat="46.9971084">
                <ele>2208.0</ele>
                <time>2011-07-03T09:32:24.000Z</time>
                <name>Position 185</name>
            </trkpt>
            <trkpt lon="11.1794257" lat="46.9969689">
                <ele>2211.0</ele>
                <time>2011-07-03T09:32:42.000Z</time>
                <name>Position 186</name>
            </trkpt>
            <trkpt lon="11.1794686" lat="46.9967758">
                <ele>2213.0</ele>
                <time>2011-07-03T09:33:12.000Z</time>
                <name>Position 187</name>
            </trkpt>
            <trkpt lon="11.1796617" lat="46.9966471">
                <ele>2215.0</ele>
                <time>2011-07-03T09:33:31.000Z</time>
                <name>Position 188</name>
            </trkpt>
            <trkpt lon="11.1799192" lat="46.9967329">
                <ele>2218.0</ele>
                <time>2011-07-03T09:33:48.000Z</time>
                <name>Position 189</name>
            </trkpt>
            <trkpt lon="11.1801981" lat="46.9967114">
                <ele>2219.0</ele>
                <time>2011-07-03T09:34:06.000Z</time>
                <name>Position 190</name>
            </trkpt>
            <trkpt lon="11.1804556" lat="46.9966363">
                <ele>2221.0</ele>
                <time>2011-07-03T09:34:24.000Z</time>
                <name>Position 191</name>
            </trkpt>
            <trkpt lon="11.1806917" lat="46.9965505">
                <ele>2223.0</ele>
                <time>2011-07-03T09:34:42.000Z</time>
                <name>Position 192</name>
            </trkpt>
            <trkpt lon="11.1809062" lat="46.9964432">
                <ele>2226.0</ele>
                <time>2011-07-03T09:34:58.000Z</time>
                <name>Position 193</name>
            </trkpt>
            <trkpt lon="11.1810564" lat="46.996293">
                <ele>2229.0</ele>
                <time>2011-07-03T09:35:14.000Z</time>
                <name>Position 194</name>
            </trkpt>
            <trkpt lon="11.1812925" lat="46.9962072">
                <ele>2232.0</ele>
                <time>2011-07-03T09:35:30.000Z</time>
                <name>Position 195</name>
            </trkpt>
            <trkpt lon="11.18155" lat="46.9961214">
                <ele>2234.0</ele>
                <time>2011-07-03T09:35:50.000Z</time>
                <name>Position 196</name>
            </trkpt>
            <trkpt lon="11.1816787" lat="46.9959604">
                <ele>2235.0</ele>
                <time>2011-07-03T09:36:08.000Z</time>
                <name>Position 197</name>
            </trkpt>
            <trkpt lon="11.1819362" lat="46.9959068">
                <ele>2238.0</ele>
                <time>2011-07-03T09:36:59.000Z</time>
                <name>Position 198</name>
            </trkpt>
            <trkpt lon="11.1817002" lat="46.9958209">
                <ele>2241.0</ele>
                <time>2011-07-03T10:15:01.000Z</time>
                <name>Position 199</name>
            </trkpt>
            <trkpt lon="11.1818933" lat="46.9956922">
                <ele>2244.0</ele>
                <time>2011-07-03T10:15:15.000Z</time>
                <name>Position 200</name>
            </trkpt>
            <trkpt lon="11.1821937" lat="46.9957137">
                <ele>2245.0</ele>
                <time>2011-07-03T10:15:42.000Z</time>
                <name>Position 201</name>
            </trkpt>
            <trkpt lon="11.1824083" lat="46.9958317">
                <ele>2245.0</ele>
                <time>2011-07-03T10:17:43.000Z</time>
                <name>Position 202</name>
            </trkpt>
            <trkpt lon="11.1826872" lat="46.9958102">
                <ele>2243.0</ele>
                <time>2011-07-03T10:18:43.000Z</time>
                <name>Position 203</name>
            </trkpt>
            <trkpt lon="11.1829018" lat="46.9959175">
                <ele>2240.0</ele>
                <time>2011-07-03T10:19:16.000Z</time>
                <name>Position 204</name>
            </trkpt>
            <trkpt lon="11.1831378" lat="46.9960033">
                <ele>2236.0</ele>
                <time>2011-07-03T10:21:51.000Z</time>
                <name>Position 205</name>
            </trkpt>
            <trkpt lon="11.1831808" lat="46.9961857">
                <ele>2231.0</ele>
                <time>2011-07-03T10:24:32.000Z</time>
                <name>Position 206</name>
            </trkpt>
            <trkpt lon="11.1831593" lat="46.9963681">
                <ele>2228.0</ele>
                <time>2011-07-03T10:25:24.000Z</time>
                <name>Position 207</name>
            </trkpt>
            <trkpt lon="11.1832237" lat="46.9961857">
                <ele>2223.0</ele>
                <time>2011-07-03T10:39:40.000Z</time>
                <name>Position 208</name>
            </trkpt>
            <trkpt lon="11.1831808" lat="46.9960033">
                <ele>2222.0</ele>
                <time>2011-07-03T10:43:20.000Z</time>
                <name>Position 209</name>
            </trkpt>
            <trkpt lon="11.183052" lat="46.9958424">
                <ele>2222.0</ele>
                <time>2011-07-03T10:45:06.000Z</time>
                <name>Position 210</name>
            </trkpt>
            <trkpt lon="11.1829018" lat="46.9959926">
                <ele>2226.0</ele>
                <time>2011-07-03T10:52:36.000Z</time>
                <name>Position 211</name>
            </trkpt>
            <trkpt lon="11.1830091" lat="46.9961643">
                <ele>2228.0</ele>
                <time>2011-07-03T10:53:15.000Z</time>
                <name>Position 212</name>
            </trkpt>
            <trkpt lon="11.1827945" lat="46.996057">
                <ele>2229.0</ele>
                <time>2011-07-03T11:08:45.000Z</time>
                <name>Position 213</name>
            </trkpt>
            <trkpt lon="11.1825585" lat="46.9959712">
                <ele>2229.0</ele>
                <time>2011-07-03T11:09:07.000Z</time>
                <name>Position 214</name>
            </trkpt>
            <trkpt lon="11.1823868" lat="46.9958317">
                <ele>2230.0</ele>
                <time>2011-07-03T11:09:33.000Z</time>
                <name>Position 215</name>
            </trkpt>
            <trkpt lon="11.1821293" lat="46.9957566">
                <ele>2232.0</ele>
                <time>2011-07-03T11:09:58.000Z</time>
                <name>Position 216</name>
            </trkpt>
            <trkpt lon="11.1818718" lat="46.9957137">
                <ele>2235.0</ele>
                <time>2011-07-03T11:10:20.000Z</time>
                <name>Position 217</name>
            </trkpt>
        </trkseg>
    </trk>
</gpx>
