<?xml version="1.0" encoding="UTF-8" standalone="no" ?>
<gpx xmlns="http://www.topografix.com/GPX/1/1" creator="MapSource 6.16.3" version="1.1" xmlns:xsi="http://www.w3.org/2001/XMLSchema-instance" xsi:schemaLocation="http://www.topografix.com/GPX/1/1 http://www.topografix.com/GPX/1/1/gpx.xsd">

  <metadata>
    <link href="http://www.garmin.com">
      <text>Garmin International</text>
    </link>
    <time>2011-08-13T11:33:20Z</time>
    <bounds maxlat="47.12500867433846" maxlon="11.690226187929511" minlat="47.078618444502354" minlon="11.643471429124475"/>
  </metadata>

  <wpt lat="47.088078679516912" lon="11.656461954116821">
    <ele>2100</ele>
    <name>Bikedepot</name>
    <cmt>11-AUG-11 10:17:20</cmt>
    <desc>11-AUG-11 10:17:20</desc>
    <sym>Waypoint</sym>
    <extensions>
      <gpxx:WaypointExtension xmlns:gpxx="http://www.garmin.com/xmlschemas/GpxExtensions/v3">
        <gpxx:DisplayMode>SymbolAndName</gpxx:DisplayMode>
      </gpxx:WaypointExtension>
    </extensions>
  </wpt>

  <wpt lat="47.082270355895162" lon="11.655958285555243">
    <ele>2432</ele>
    <name>Einstieg N-Kante</name>
    <cmt>11-AUG-11 11:10:09</cmt>
    <desc>11-AUG-11 11:10:09</desc>
    <sym>Waypoint</sym>
    <extensions>
      <gpxx:WaypointExtension xmlns:gpxx="http://www.garmin.com/xmlschemas/GpxExtensions/v3">
        <gpxx:DisplayMode>SymbolAndName</gpxx:DisplayMode>
      </gpxx:WaypointExtension>
    </extensions>
  </wpt>

  <wpt lat="47.080198433250189" lon="11.654306212440133">
    <ele>2688.67236328125</ele>
    <name>Lärmstange</name>
    <cmt>11-AUG-11 15:07:57</cmt>
    <desc>11-AUG-11 15:07:57</desc>
    <sym>Summit</sym>
    <extensions>
      <gpxx:WaypointExtension xmlns:gpxx="http://www.garmin.com/xmlschemas/GpxExtensions/v3">
        <gpxx:DisplayMode>SymbolAndName</gpxx:DisplayMode>
      </gpxx:WaypointExtension>
    </extensions>
  </wpt>

  <trk>
    <name>11-AUG-11</name>
    <extensions>
      <gpxx:TrackExtension xmlns:gpxx="http://www.garmin.com/xmlschemas/GpxExtensions/v3">
        <gpxx:DisplayColor>Red</gpxx:DisplayColor>
      </gpxx:TrackExtension>
    </extensions>
    <trkseg>
      <trkpt lat="47.118293344974518" lon="11.686292057856917">
        <ele>1524.3076171875</ele>
      </trkpt>
      <trkpt lat="47.118265852332115" lon="11.686401776969433">
        <ele>1526.7109375</ele>
      </trkpt>
      <trkpt lat="47.118329219520092" lon="11.686281580477953">
        <ele>1527.191650390625</ele>
      </trkpt>
      <trkpt lat="47.118271552026272" lon="11.686203377321362">
        <ele>1527.191650390625</ele>
      </trkpt>
      <trkpt lat="47.118425276130438" lon="11.686699837446213">
        <ele>1530.075439453125</ele>
      </trkpt>
      <trkpt lat="47.118629794567823" lon="11.686935871839523">
        <ele>1532.95947265625</ele>
      </trkpt>
      <trkpt lat="47.11889935657382" lon="11.687095630913973">
        <ele>1536.32421875</ele>
      </trkpt>
      <trkpt lat="47.119539147242904" lon="11.687987549230456">
        <ele>1546.41796875</ele>
      </trkpt>
      <trkpt lat="47.120116492733359" lon="11.688464228063822">
        <ele>1549.78271484375</ele>
      </trkpt>
      <trkpt lat="47.120386557653546" lon="11.68842164799571">
        <ele>1551.224609375</ele>
      </trkpt>
      <trkpt lat="47.121156770735979" lon="11.68816365301609">
        <ele>1558.434326171875</ele>
      </trkpt>
      <trkpt lat="47.121335053816438" lon="11.68820665217936">
        <ele>1560.35693359375</ele>
      </trkpt>
      <trkpt lat="47.121655745431781" lon="11.688532959669828">
        <ele>1566.125</ele>
      </trkpt>
      <trkpt lat="47.122284136712551" lon="11.688522230833769">
        <ele>1571.892822265625</ele>
      </trkpt>
      <trkpt lat="47.123361881822348" lon="11.689050626009703">
        <ele>1581.98681640625</ele>
      </trkpt>
      <trkpt lat="47.123648794367909" lon="11.68943946249783">
        <ele>1586.793212890625</ele>
      </trkpt>
      <trkpt lat="47.124112145975232" lon="11.689750263467431">
        <ele>1591.599853515625</ele>
      </trkpt>
      <trkpt lat="47.124327979981899" lon="11.689825030043721">
        <ele>1593.5224609375</ele>
      </trkpt>
      <trkpt lat="47.124644899740815" lon="11.690072631463408">
        <ele>1597.367919921875</ele>
      </trkpt>
      <trkpt lat="47.124969447031617" lon="11.690174136310816">
        <ele>1600.732421875</ele>
      </trkpt>
      <trkpt lat="47.12489333935082" lon="11.690011778846383">
        <ele>1602.655029296875</ele>
      </trkpt>
      <trkpt lat="47.124439626932144" lon="11.689567370340228">
        <ele>1610.345458984375</ele>
      </trkpt>
      <trkpt lat="47.124254554510117" lon="11.689233267679811">
        <ele>1614.19091796875</ele>
      </trkpt>
      <trkpt lat="47.123810984194279" lon="11.68881744146347">
        <ele>1619.958740234375</ele>
      </trkpt>
      <trkpt lat="47.123532621189952" lon="11.688295835629106">
        <ele>1623.803955078125</ele>
      </trkpt>
      <trkpt lat="47.123067928478122" lon="11.68787682428956">
        <ele>1627.649169921875</ele>
      </trkpt>
      <trkpt lat="47.122782943770289" lon="11.687390673905611">
        <ele>1633.417236328125</ele>
      </trkpt>
      <trkpt lat="47.12258261628449" lon="11.687177689746022">
        <ele>1636.78173828125</ele>
      </trkpt>
      <trkpt lat="47.122291764244437" lon="11.686607049778104">
        <ele>1642.069091796875</ele>
      </trkpt>
      <trkpt lat="47.121886163949966" lon="11.686094747856259">
        <ele>1647.3564453125</ele>
      </trkpt>
      <trkpt lat="47.12148517370224" lon="11.685764668509364">
        <ele>1652.162841796875</ele>
      </trkpt>
      <trkpt lat="47.121334550902247" lon="11.685577249154449">
        <ele>1653.60498046875</ele>
      </trkpt>
      <trkpt lat="47.121145874261856" lon="11.68519034050405">
        <ele>1658.411376953125</ele>
      </trkpt>
      <trkpt lat="47.120910594239831" lon="11.68490837328136">
        <ele>1660.334228515625</ele>
      </trkpt>
      <trkpt lat="47.120485296472907" lon="11.684732269495726">
        <ele>1667.0634765625</ele>
      </trkpt>
      <trkpt lat="47.120205173268914" lon="11.684159366413951">
        <ele>1672.3505859375</ele>
      </trkpt>
      <trkpt lat="47.120157731696963" lon="11.683828867971897">
        <ele>1675.715087890625</ele>
      </trkpt>
      <trkpt lat="47.120211543515325" lon="11.683419495820999">
        <ele>1679.079833984375</ele>
      </trkpt>
      <trkpt lat="47.120277089998126" lon="11.683258144184947">
        <ele>1680.041259765625</ele>
      </trkpt>
      <trkpt lat="47.120142644271255" lon="11.682885736227036">
        <ele>1683.40576171875</ele>
      </trkpt>
      <trkpt lat="47.120014233514667" lon="11.682746596634388">
        <ele>1686.770263671875</ele>
      </trkpt>
      <trkpt lat="47.119985232129693" lon="11.682444764301181">
        <ele>1688.21240234375</ele>
      </trkpt>
      <trkpt lat="47.119744084775448" lon="11.681829197332263">
        <ele>1693.499755859375</ele>
      </trkpt>
      <trkpt lat="47.119720447808504" lon="11.681358721107244">
        <ele>1695.903076171875</ele>
      </trkpt>
      <trkpt lat="47.119308058172464" lon="11.679034838452935">
        <ele>1710.803466796875</ele>
      </trkpt>
      <trkpt lat="47.119173277169466" lon="11.678660670295358">
        <ele>1713.687255859375</ele>
      </trkpt>
      <trkpt lat="47.11894428357482" lon="11.677647717297077">
        <ele>1718.01318359375</ele>
      </trkpt>
      <trkpt lat="47.118742363527417" lon="11.677384274080396">
        <ele>1720.41650390625</ele>
      </trkpt>
      <trkpt lat="47.118451595306396" lon="11.677329791709781">
        <ele>1723.781005859375</ele>
      </trkpt>
      <trkpt lat="47.118307175114751" lon="11.677171122282743">
        <ele>1727.14599609375</ele>
      </trkpt>
      <trkpt lat="47.118028728291392" lon="11.67656066827476">
        <ele>1733.394287109375</ele>
      </trkpt>
      <trkpt lat="47.11760108359158" lon="11.675345543771982">
        <ele>1736.2783203125</ele>
      </trkpt>
      <trkpt lat="47.117451885715127" lon="11.674722349271178">
        <ele>1737.239501953125</ele>
      </trkpt>
      <trkpt lat="47.117232196033001" lon="11.674303337931633">
        <ele>1739.642822265625</ele>
      </trkpt>
      <trkpt lat="47.117011165246367" lon="11.673695230856538">
        <ele>1741.0849609375</ele>
      </trkpt>
      <trkpt lat="47.116867499426007" lon="11.673410832881927">
        <ele>1744.449462890625</ele>
      </trkpt>
      <trkpt lat="47.116636829450727" lon="11.673092991113663">
        <ele>1747.33349609375</ele>
      </trkpt>
      <trkpt lat="47.116391155868769" lon="11.672939769923687">
        <ele>1750.697998046875</ele>
      </trkpt>
      <trkpt lat="47.116102986037731" lon="11.67249427177012">
        <ele>1753.101318359375</ele>
      </trkpt>
      <trkpt lat="47.116016820073128" lon="11.671738140285015">
        <ele>1753.58203125</ele>
      </trkpt>
      <trkpt lat="47.115809787064791" lon="11.671336395666003">
        <ele>1754.062744140625</ele>
      </trkpt>
      <trkpt lat="47.115191454067826" lon="11.670698449015617">
        <ele>1755.504638671875</ele>
      </trkpt>
      <trkpt lat="47.115004286170006" lon="11.670215232297778">
        <ele>1755.504638671875</ele>
      </trkpt>
      <trkpt lat="47.11484469473362" lon="11.669949777424335">
        <ele>1755.985107421875</ele>
      </trkpt>
      <trkpt lat="47.114297188818455" lon="11.66961332783103">
        <ele>1757.427490234375</ele>
      </trkpt>
      <trkpt lat="47.113925786688924" lon="11.669214684516191">
        <ele>1759.83056640625</ele>
      </trkpt>
      <trkpt lat="47.113122716546059" lon="11.668579084798694">
        <ele>1762.714599609375</ele>
      </trkpt>
      <trkpt lat="47.112260051071644" lon="11.667087692767382">
        <ele>1772.327880859375</ele>
      </trkpt>
      <trkpt lat="47.111943382769823" lon="11.666106758639216">
        <ele>1778.095703125</ele>
      </trkpt>
      <trkpt lat="47.111752443015575" lon="11.665658159181476">
        <ele>1781.460205078125</ele>
      </trkpt>
      <trkpt lat="47.111569046974182" lon="11.664668759331107">
        <ele>1786.747314453125</ele>
      </trkpt>
      <trkpt lat="47.111549852415919" lon="11.664099963381886">
        <ele>1790.1123046875</ele>
      </trkpt>
      <trkpt lat="47.111632162705064" lon="11.663373252376914">
        <ele>1792.515625</ele>
      </trkpt>
      <trkpt lat="47.111784545704722" lon="11.662667663767934">
        <ele>1795.3994140625</ele>
      </trkpt>
      <trkpt lat="47.11160508915782" lon="11.662244377657771">
        <ele>1796.36083984375</ele>
      </trkpt>
      <trkpt lat="47.110993126407266" lon="11.661782199516892">
        <ele>1791.073486328125</ele>
      </trkpt>
      <trkpt lat="47.110800677910447" lon="11.661732159554958">
        <ele>1791.073486328125</ele>
      </trkpt>
      <trkpt lat="47.110679978504777" lon="11.662547383457422">
        <ele>1795.3994140625</ele>
      </trkpt>
      <trkpt lat="47.110366327688098" lon="11.66302272118628">
        <ele>1802.12841796875</ele>
      </trkpt>
      <trkpt lat="47.110080420970917" lon="11.663321452215314">
        <ele>1805.0126953125</ele>
      </trkpt>
      <trkpt lat="47.109894677996635" lon="11.663640467450023">
        <ele>1807.416015625</ele>
      </trkpt>
      <trkpt lat="47.109679179266095" lon="11.663822773844004">
        <ele>1810.2998046875</ele>
      </trkpt>
      <trkpt lat="47.109558060765266" lon="11.664018239825964">
        <ele>1813.664306640625</ele>
      </trkpt>
      <trkpt lat="47.109407857060432" lon="11.664701532572508">
        <ele>1819.912841796875</ele>
      </trkpt>
      <trkpt lat="47.109266621991992" lon="11.664925748482347">
        <ele>1822.797119140625</ele>
      </trkpt>
      <trkpt lat="47.109182635322213" lon="11.665255827829242">
        <ele>1825.2001953125</ele>
      </trkpt>
      <trkpt lat="47.109015081077814" lon="11.66559923440218">
        <ele>1827.603515625</ele>
      </trkpt>
      <trkpt lat="47.108757253736258" lon="11.665624380111694">
        <ele>1829.04541015625</ele>
      </trkpt>
      <trkpt lat="47.10835668258369" lon="11.665449868887663">
        <ele>1828.56494140625</ele>
      </trkpt>
      <trkpt lat="47.108095251023769" lon="11.66555967181921">
        <ele>1830.487548828125</ele>
      </trkpt>
      <trkpt lat="47.107703648507595" lon="11.665596971288323">
        <ele>1836.736083984375</ele>
      </trkpt>
      <trkpt lat="47.107448671013117" lon="11.665702750906348">
        <ele>1838.658935546875</ele>
      </trkpt>
      <trkpt lat="47.107196291908622" lon="11.665699481964111">
        <ele>1841.542724609375</ele>
      </trkpt>
      <trkpt lat="47.106657838448882" lon="11.665579453110695">
        <ele>1851.15576171875</ele>
      </trkpt>
      <trkpt lat="47.106391880661249" lon="11.665420280769467">
        <ele>1856.443115234375</ele>
      </trkpt>
      <trkpt lat="47.105681262910366" lon="11.665245266631246">
        <ele>1868.459716796875</ele>
      </trkpt>
      <trkpt lat="47.105651590973139" lon="11.665142755955458">
        <ele>1869.421142578125</ele>
      </trkpt>
      <trkpt lat="47.105689560994506" lon="11.665053321048617">
        <ele>1869.901611328125</ele>
      </trkpt>
      <trkpt lat="47.106185853481293" lon="11.664694827049971">
        <ele>1880.47607421875</ele>
      </trkpt>
      <trkpt lat="47.106160623952746" lon="11.664615366607904">
        <ele>1880.956787109375</ele>
      </trkpt>
      <trkpt lat="47.105765584856272" lon="11.66458141990006">
        <ele>1889.608642578125</ele>
      </trkpt>
      <trkpt lat="47.105584535747766" lon="11.664613354951143">
        <ele>1892.97314453125</ele>
      </trkpt>
      <trkpt lat="47.105402145534754" lon="11.664727851748466">
        <ele>1896.337890625</ele>
      </trkpt>
      <trkpt lat="47.105050357058644" lon="11.66460145264864">
        <ele>1902.58642578125</ele>
      </trkpt>
      <trkpt lat="47.104645762592554" lon="11.664609247818589">
        <ele>1908.354248046875</ele>
      </trkpt>
      <trkpt lat="47.104504443705082" lon="11.664577648043633">
        <ele>1911.718994140625</ele>
      </trkpt>
      <trkpt lat="47.104063052684069" lon="11.664126198738813">
        <ele>1923.7353515625</ele>
      </trkpt>
      <trkpt lat="47.103754850104451" lon="11.663980688899755">
        <ele>1928.5419921875</ele>
      </trkpt>
      <trkpt lat="47.103414544835687" lon="11.663946658372879">
        <ele>1934.790771484375</ele>
      </trkpt>
      <trkpt lat="47.103282446041703" lon="11.663864850997925">
        <ele>1935.751953125</ele>
      </trkpt>
      <trkpt lat="47.102883383631706" lon="11.663786731660366">
        <ele>1942.00048828125</ele>
      </trkpt>
      <trkpt lat="47.102566799148917" lon="11.663929056376219">
        <ele>1943.4423828125</ele>
      </trkpt>
      <trkpt lat="47.102260189130902" lon="11.663885219022632">
        <ele>1944.88427734375</ele>
      </trkpt>
      <trkpt lat="47.101980317384005" lon="11.663691261783242">
        <ele>1944.403564453125</ele>
      </trkpt>
      <trkpt lat="47.101600365713239" lon="11.663518426939845">
        <ele>1944.403564453125</ele>
      </trkpt>
      <trkpt lat="47.101303646340966" lon="11.663519265130162">
        <ele>1942.961669921875</ele>
      </trkpt>
      <trkpt lat="47.101124776527286" lon="11.663460675626993">
        <ele>1942.00048828125</ele>
      </trkpt>
      <trkpt lat="47.101016482338309" lon="11.664053946733475">
        <ele>1945.845703125</ele>
      </trkpt>
      <trkpt lat="47.100857058539987" lon="11.664043134078383">
        <ele>1949.21044921875</ele>
      </trkpt>
      <trkpt lat="47.100614318624139" lon="11.663914220407605">
        <ele>1952.574951171875</ele>
      </trkpt>
      <trkpt lat="47.100414494052529" lon="11.663946742191911">
        <ele>1955.458984375</ele>
      </trkpt>
      <trkpt lat="47.100183656439185" lon="11.664367262274027">
        <ele>1955.939453125</ele>
      </trkpt>
      <trkpt lat="47.099951226264238" lon="11.664504557847977">
        <ele>1952.574951171875</ele>
      </trkpt>
      <trkpt lat="47.099634893238544" lon="11.664312025532126">
        <ele>1953.536376953125</ele>
      </trkpt>
      <trkpt lat="47.099521066993475" lon="11.664529368281364">
        <ele>1954.49755859375</ele>
      </trkpt>
      <trkpt lat="47.099289055913687" lon="11.665176032111049">
        <ele>1960.74609375</ele>
      </trkpt>
      <trkpt lat="47.099291821941733" lon="11.666380595415831">
        <ele>1971.320556640625</ele>
      </trkpt>
      <trkpt lat="47.099128877744079" lon="11.666355784982443">
        <ele>1972.281982421875</ele>
      </trkpt>
      <trkpt lat="47.098995521664619" lon="11.665914561599493">
        <ele>1979.010986328125</ele>
      </trkpt>
      <trkpt lat="47.098778933286667" lon="11.665623541921377">
        <ele>1980.453369140625</ele>
      </trkpt>
      <trkpt lat="47.098493445664644" lon="11.665691854432225">
        <ele>1980.93408203125</ele>
      </trkpt>
      <trkpt lat="47.097835130989552" lon="11.665476188063622">
        <ele>1978.0498046875</ele>
      </trkpt>
      <trkpt lat="47.097257617861032" lon="11.664998671039939">
        <ele>1979.49169921875</ele>
      </trkpt>
      <trkpt lat="47.097020074725151" lon="11.664935387670994">
        <ele>1982.3759765625</ele>
      </trkpt>
      <trkpt lat="47.096816645935178" lon="11.664795828983188">
        <ele>1985.740478515625</ele>
      </trkpt>
      <trkpt lat="47.096324628219008" lon="11.664514532312751">
        <ele>1985.740478515625</ele>
      </trkpt>
      <trkpt lat="47.095946772024035" lon="11.664509922266006">
        <ele>1987.6630859375</ele>
      </trkpt>
      <trkpt lat="47.095525497570634" lon="11.665025493130088">
        <ele>1987.6630859375</ele>
      </trkpt>
      <trkpt lat="47.095148228108883" lon="11.665106629952788">
        <ele>1987.182373046875</ele>
      </trkpt>
      <trkpt lat="47.094909930601716" lon="11.665221964940429">
        <ele>1986.70166015625</ele>
      </trkpt>
      <trkpt lat="47.094636932015419" lon="11.664894986897707">
        <ele>1980.93408203125</ele>
      </trkpt>
      <trkpt lat="47.094363933429122" lon="11.664413530379534">
        <ele>1977.088623046875</ele>
      </trkpt>
      <trkpt lat="47.093900078907609" lon="11.663903826847672">
        <ele>1968.436767578125</ele>
      </trkpt>
      <trkpt lat="47.093580896034837" lon="11.663413150236011">
        <ele>1969.878662109375</ele>
      </trkpt>
      <trkpt lat="47.093361373990774" lon="11.66277595795691">
        <ele>1973.243408203125</ele>
      </trkpt>
      <trkpt lat="47.092884946614504" lon="11.661847326904535">
        <ele>1980.93408203125</ele>
      </trkpt>
      <trkpt lat="47.091591954231262" lon="11.659903731197119">
        <ele>1995.834228515625</ele>
      </trkpt>
      <trkpt lat="47.091305460780859" lon="11.659546243026853">
        <ele>2003.044189453125</ele>
      </trkpt>
      <trkpt lat="47.090488644316792" lon="11.658717943355441">
        <ele>2018.42529296875</ele>
      </trkpt>
      <trkpt lat="47.090191086754203" lon="11.658602440729737">
        <ele>2025.154296875</ele>
      </trkpt>
      <trkpt lat="47.089620446786284" lon="11.658593388274312">
        <ele>2035.72900390625</ele>
      </trkpt>
      <trkpt lat="47.089547943323851" lon="11.658397167921066">
        <ele>2039.093505859375</ele>
      </trkpt>
      <trkpt lat="47.089691692963243" lon="11.657944545149803">
        <ele>2044.380859375</ele>
      </trkpt>
      <trkpt lat="47.089657997712493" lon="11.657832143828273">
        <ele>2044.861572265625</ele>
      </trkpt>
      <trkpt lat="47.089323056861758" lon="11.657977737486362">
        <ele>2050.14892578125</ele>
      </trkpt>
      <trkpt lat="47.089172182604671" lon="11.658021239563823">
        <ele>2053.513427734375</ele>
      </trkpt>
      <trkpt lat="47.089137397706509" lon="11.657966841012239">
        <ele>2053.994140625</ele>
      </trkpt>
      <trkpt lat="47.089360440149903" lon="11.657397374510765">
        <ele>2060.24267578125</ele>
      </trkpt>
      <trkpt lat="47.08926354534924" lon="11.657257145270705">
        <ele>2062.165283203125</ele>
      </trkpt>
      <trkpt lat="47.08847681991756" lon="11.65772108361125">
        <ele>2080.9111328125</ele>
      </trkpt>
      <trkpt lat="47.088285544887185" lon="11.657738769426942">
        <ele>2084.75634765625</ele>
      </trkpt>
      <trkpt lat="47.088214885443449" lon="11.657690573483706">
        <ele>2086.6787109375</ele>
      </trkpt>
      <trkpt lat="47.088170628994703" lon="11.656793626025319">
        <ele>2097.25341796875</ele>
      </trkpt>
      <trkpt lat="47.088085385039449" lon="11.656472180038691">
        <ele>2099.176025390625</ele>
      </trkpt>
      <trkpt lat="47.087986478582025" lon="11.656446363776922">
        <ele>2100.617919921875</ele>
      </trkpt>
      <trkpt lat="47.087971558794379" lon="11.656493889167905">
        <ele>2103.021240234375</ele>
      </trkpt>
      <trkpt lat="47.088001063093543" lon="11.656190045177937">
        <ele>2107.827880859375</ele>
      </trkpt>
      <trkpt lat="47.087739631533623" lon="11.656454661861062">
        <ele>2119.36376953125</ele>
      </trkpt>
      <trkpt lat="47.087264126166701" lon="11.656747190281749">
        <ele>2143.87744140625</ele>
      </trkpt>
      <trkpt lat="47.086007092148066" lon="11.657077185809612">
        <ele>2187.6171875</ele>
      </trkpt>
      <trkpt lat="47.085023056715727" lon="11.657161172479391">
        <ele>2230.876708984375</ele>
      </trkpt>
      <trkpt lat="47.084659868851304" lon="11.657153628766537">
        <ele>2245.29638671875</ele>
      </trkpt>
      <trkpt lat="47.084578145295382" lon="11.657132422551513">
        <ele>2248.18017578125</ele>
      </trkpt>
      <trkpt lat="47.084515197202563" lon="11.657036198303103">
        <ele>2251.064208984375</ele>
      </trkpt>
      <trkpt lat="47.084168689325452" lon="11.65697643533349">
        <ele>2264.522705078125</ele>
      </trkpt>
      <trkpt lat="47.084116218611598" lon="11.656978446990252">
        <ele>2268.3681640625</ele>
      </trkpt>
      <trkpt lat="47.084090569987893" lon="11.65706436149776">
        <ele>2272.694091796875</ele>
      </trkpt>
      <trkpt lat="47.083611292764544" lon="11.656957659870386">
        <ele>2296.246337890625</ele>
      </trkpt>
      <trkpt lat="47.083506183698773" lon="11.65688163600862">
        <ele>2303.456298828125</ele>
      </trkpt>
      <trkpt lat="47.083518756553531" lon="11.656819023191929">
        <ele>2308.2626953125</ele>
      </trkpt>
      <trkpt lat="47.083493024110794" lon="11.65677267126739">
        <ele>2308.743408203125</ele>
      </trkpt>
      <trkpt lat="47.083367379382253" lon="11.656766133382916">
        <ele>2317.395263671875</ele>
      </trkpt>
      <trkpt lat="47.083403337746859" lon="11.656661024317145">
        <ele>2317.395263671875</ele>
      </trkpt>
      <trkpt lat="47.083474583923817" lon="11.656382326036692">
        <ele>2326.52783203125</ele>
      </trkpt>
      <trkpt lat="47.0833994820714" lon="11.656252155080438">
        <ele>2334.218505859375</ele>
      </trkpt>
      <trkpt lat="47.083385568112135" lon="11.656104549765587">
        <ele>2336.62158203125</ele>
      </trkpt>
      <trkpt lat="47.083313064649701" lon="11.656199349090457">
        <ele>2341.42822265625</ele>
      </trkpt>
      <trkpt lat="47.083225725218654" lon="11.656225081533194">
        <ele>2347.196044921875</ele>
      </trkpt>
      <trkpt lat="47.083199825137854" lon="11.656085019931197">
        <ele>2350.560791015625</ele>
      </trkpt>
      <trkpt lat="47.083149617537856" lon="11.656098933890462">
        <ele>2356.32861328125</ele>
      </trkpt>
      <trkpt lat="47.083020117133856" lon="11.655890895053744">
        <ele>2366.422607421875</ele>
      </trkpt>
      <trkpt lat="47.082979381084442" lon="11.655909167602658">
        <ele>2368.825927734375</ele>
      </trkpt>
      <trkpt lat="47.08291182294488" lon="11.655761143192649">
        <ele>2374.59375</ele>
      </trkpt>
      <trkpt lat="47.08281266503036" lon="11.655738344416022">
        <ele>2383.726318359375</ele>
      </trkpt>
      <trkpt lat="47.082788944244385" lon="11.655659219250083">
        <ele>2385.168212890625</ele>
      </trkpt>
      <trkpt lat="47.082690959796309" lon="11.655748151242733">
        <ele>2394.300537109375</ele>
      </trkpt>
      <trkpt lat="47.082678554579616" lon="11.655599791556597">
        <ele>2399.588134765625</ele>
      </trkpt>
      <trkpt lat="47.082648295909166" lon="11.655641198158264">
        <ele>2401.5107421875</ele>
      </trkpt>
      <trkpt lat="47.082568416371942" lon="11.655479092150927">
        <ele>2408.720458984375</ele>
      </trkpt>
      <trkpt lat="47.082369597628713" lon="11.65568838827312">
        <ele>2425.062744140625</ele>
      </trkpt>
      <trkpt lat="47.082253340631723" lon="11.656037159264088">
        <ele>2432.75341796875</ele>
      </trkpt>
      <trkpt lat="47.082253340631723" lon="11.655944623053074">
        <ele>2430.350341796875</ele>
      </trkpt>
      <trkpt lat="47.08223657682538" lon="11.656012935563922">
        <ele>2435.637451171875</ele>
      </trkpt>
      <trkpt lat="47.082251077517867" lon="11.655987873673439">
        <ele>2436.1181640625</ele>
      </trkpt>
      <trkpt lat="47.082142196595669" lon="11.655990639701486">
        <ele>2449.095947265625</ele>
      </trkpt>
      <trkpt lat="47.082026023417711" lon="11.655837334692478">
        <ele>2463.996337890625</ele>
      </trkpt>
      <trkpt lat="47.081934660673141" lon="11.655790144577622">
        <ele>2479.37744140625</ele>
      </trkpt>
      <trkpt lat="47.081960644572973" lon="11.655696853995323">
        <ele>2480.3388671875</ele>
      </trkpt>
      <trkpt lat="47.081938348710537" lon="11.655750246718526">
        <ele>2480.819580078125</ele>
      </trkpt>
      <trkpt lat="47.081932565197349" lon="11.655631978064775">
        <ele>2492.8359375</ele>
      </trkpt>
      <trkpt lat="47.081752186641097" lon="11.655352022498846">
        <ele>2525.0400390625</ele>
      </trkpt>
      <trkpt lat="47.081682533025742" lon="11.655319081619382">
        <ele>2538.017822265625</ele>
      </trkpt>
      <trkpt lat="47.081662248820066" lon="11.655245991423726">
        <ele>2546.189208984375</ele>
      </trkpt>
      <trkpt lat="47.081614891067147" lon="11.655268119648099">
        <ele>2552.918212890625</ele>
      </trkpt>
      <trkpt lat="47.081639030948281" lon="11.655293852090836">
        <ele>2551.476318359375</ele>
      </trkpt>
      <trkpt lat="47.081629475578666" lon="11.655256049707532">
        <ele>2549.5537109375</ele>
      </trkpt>
      <trkpt lat="47.08163064904511" lon="11.655236016958952">
        <ele>2555.321533203125</ele>
      </trkpt>
      <trkpt lat="47.081603240221739" lon="11.655262336134911">
        <ele>2561.089599609375</ele>
      </trkpt>
      <trkpt lat="47.081524785608053" lon="11.6551782656461">
        <ele>2573.586669921875</ele>
      </trkpt>
      <trkpt lat="47.081500394269824" lon="11.655228389427066">
        <ele>2574.0673828125</ele>
      </trkpt>
      <trkpt lat="47.081420263275504" lon="11.655067037791014">
        <ele>2581.277099609375</ele>
      </trkpt>
      <trkpt lat="47.081433925777674" lon="11.655096877366304">
        <ele>2581.277099609375</ele>
      </trkpt>
      <trkpt lat="47.081387238577008" lon="11.65505706332624">
        <ele>2596.177734375</ele>
      </trkpt>
      <trkpt lat="47.081278273835778" lon="11.654884396120906">
        <ele>2609.1552734375</ele>
      </trkpt>
      <trkpt lat="47.08121775649488" lon="11.654884982854128">
        <ele>2620.69140625</ele>
      </trkpt>
      <trkpt lat="47.081164363771677" lon="11.654866794124246">
        <ele>2620.69140625</ele>
      </trkpt>
      <trkpt lat="47.081188755109906" lon="11.654915744438767">
        <ele>2621.65283203125</ele>
      </trkpt>
      <trkpt lat="47.081127148121595" lon="11.654816837981343">
        <ele>2635.11083984375</ele>
      </trkpt>
      <trkpt lat="47.081015249714255" lon="11.654782555997372">
        <ele>2646.16650390625</ele>
      </trkpt>
      <trkpt lat="47.081046178936958" lon="11.654790518805385">
        <ele>2648.0888671875</ele>
      </trkpt>
      <trkpt lat="47.080846019089222" lon="11.654673339799047">
        <ele>2652.4150390625</ele>
      </trkpt>
      <trkpt lat="47.08067393861711" lon="11.654640063643456">
        <ele>2658.6630859375</ele>
      </trkpt>
      <trkpt lat="47.080557430163026" lon="11.654513329267502">
        <ele>2662.5087890625</ele>
      </trkpt>
      <trkpt lat="47.080512754619122" lon="11.65451374836266">
        <ele>2665.392578125</ele>
      </trkpt>
      <trkpt lat="47.080507557839155" lon="11.654578289017081">
        <ele>2669.23779296875</ele>
      </trkpt>
      <trkpt lat="47.080443687736988" lon="11.654379637911916">
        <ele>2667.7958984375</ele>
      </trkpt>
      <trkpt lat="47.080449890345335" lon="11.654414255172014">
        <ele>2667.31494140625</ele>
      </trkpt>
      <trkpt lat="47.080438155680895" lon="11.65441207587719">
        <ele>2669.71826171875</ele>
      </trkpt>
      <trkpt lat="47.08045257255435" lon="11.654402017593384">
        <ele>2666.83447265625</ele>
      </trkpt>
      <trkpt lat="47.080279653891921" lon="11.654210155829787">
        <ele>2671.64111328125</ele>
      </trkpt>
      <trkpt lat="47.080218717455864" lon="11.654200768098235">
        <ele>2671.64111328125</ele>
      </trkpt>
      <trkpt lat="47.080182339996099" lon="11.654072860255837">
        <ele>2670.19921875</ele>
      </trkpt>
      <trkpt lat="47.080100616440177" lon="11.654106555506587">
        <ele>2670.6796875</ele>
      </trkpt>
      <trkpt lat="47.08007195033133" lon="11.654308140277863">
        <ele>2679.33203125</ele>
      </trkpt>
      <trkpt lat="47.080148225650191" lon="11.654297998175025">
        <ele>2686.54150390625</ele>
      </trkpt>
      <trkpt lat="47.080221064388752" lon="11.654335968196392">
        <ele>2689.42529296875</ele>
      </trkpt>
      <trkpt lat="47.080188542604446" lon="11.654310571029782">
        <ele>2687.9833984375</ele>
      </trkpt>
      <trkpt lat="47.080195918679237" lon="11.654311576858163">
        <ele>2694.23193359375</ele>
      </trkpt>
      <trkpt lat="47.080227350816131" lon="11.654343595728278">
        <ele>2693.27099609375</ele>
      </trkpt>
      <trkpt lat="47.080137748271227" lon="11.6542889457196">
        <ele>2689.42529296875</ele>
      </trkpt>
      <trkpt lat="47.080070525407791" lon="11.654297495260835">
        <ele>2684.13818359375</ele>
      </trkpt>
      <trkpt lat="47.080037165433168" lon="11.654276875779033">
        <ele>2677.89013671875</ele>
      </trkpt>
      <trkpt lat="47.079818481579423" lon="11.653849063441157">
        <ele>2667.7958984375</ele>
      </trkpt>
      <trkpt lat="47.079814039170742" lon="11.653782594949007">
        <ele>2664.91162109375</ele>
      </trkpt>
      <trkpt lat="47.079876651987433" lon="11.653712689876556">
        <ele>2659.14404296875</ele>
      </trkpt>
      <trkpt lat="47.079789228737354" lon="11.653469949960709">
        <ele>2650.97265625</ele>
      </trkpt>
      <trkpt lat="47.079585380852222" lon="11.653279261663556">
        <ele>2642.32080078125</ele>
      </trkpt>
      <trkpt lat="47.079529976472259" lon="11.653277920559049">
        <ele>2639.43701171875</ele>
      </trkpt>
      <trkpt lat="47.079466776922345" lon="11.653169123455882">
        <ele>2633.1884765625</ele>
      </trkpt>
      <trkpt lat="47.079198220744729" lon="11.653037862852216">
        <ele>2629.34326171875</ele>
      </trkpt>
      <trkpt lat="47.078874763101339" lon="11.653043562546372">
        <ele>2625.978515625</ele>
      </trkpt>
      <trkpt lat="47.078751549124718" lon="11.652908278629184">
        <ele>2625.498046875</ele>
      </trkpt>
      <trkpt lat="47.078664293512702" lon="11.652751117944717">
        <ele>2620.21044921875</ele>
      </trkpt>
      <trkpt lat="47.078701173886657" lon="11.652750531211495">
        <ele>2620.69140625</ele>
      </trkpt>
      <trkpt lat="47.07867493852973" lon="11.652647769078612">
        <ele>2618.7685546875</ele>
      </trkpt>
      <trkpt lat="47.078618444502354" lon="11.652628658339381">
        <ele>2617.32666015625</ele>
      </trkpt>
      <trkpt lat="47.078623892739415" lon="11.652399748563766">
        <ele>2613.0009765625</ele>
      </trkpt>
      <trkpt lat="47.078640824183822" lon="11.652285167947412">
        <ele>2615.884765625</ele>
      </trkpt>
      <trkpt lat="47.078623054549098" lon="11.651985431089997">
        <ele>2613.4814453125</ele>
      </trkpt>
      <trkpt lat="47.078701090067625" lon="11.651798933744431">
        <ele>2610.59716796875</ele>
      </trkpt>
      <trkpt lat="47.078647194430232" lon="11.651604222133756">
        <ele>2607.232421875</ele>
      </trkpt>
      <trkpt lat="47.078693797811866" lon="11.651259642094374">
        <ele>2600.02294921875</ele>
      </trkpt>
      <trkpt lat="47.078811228275299" lon="11.651204321533442">
        <ele>2596.177734375</ele>
      </trkpt>
      <trkpt lat="47.078934945166111" lon="11.650963928550482">
        <ele>2590.40966796875</ele>
      </trkpt>
      <trkpt lat="47.078956067562103" lon="11.650701491162181">
        <ele>2582.718994140625</ele>
      </trkpt>
      <trkpt lat="47.078877026215196" lon="11.650571236386895">
        <ele>2579.3544921875</ele>
      </trkpt>
      <trkpt lat="47.079060841351748" lon="11.650113584473729">
        <ele>2568.780029296875</ele>
      </trkpt>
      <trkpt lat="47.079167542979121" lon="11.649476392194629">
        <ele>2556.282958984375</ele>
      </trkpt>
      <trkpt lat="47.079230491071939" lon="11.649341359734535">
        <ele>2551.956787109375</ele>
      </trkpt>
      <trkpt lat="47.079235687851906" lon="11.649025529623032">
        <ele>2547.150390625</ele>
      </trkpt>
      <trkpt lat="47.079385221004486" lon="11.648384230211377">
        <ele>2542.343994140625</ele>
      </trkpt>
      <trkpt lat="47.079411456361413" lon="11.648062448948622">
        <ele>2542.824462890625</ele>
      </trkpt>
      <trkpt lat="47.079951586201787" lon="11.64678119122982">
        <ele>2536.09521484375</ele>
      </trkpt>
      <trkpt lat="47.080096593126655" lon="11.64657399058342">
        <ele>2533.211181640625</ele>
      </trkpt>
      <trkpt lat="47.080188542604446" lon="11.646285820752382">
        <ele>2525.0400390625</ele>
      </trkpt>
      <trkpt lat="47.080317372456193" lon="11.646168977022171">
        <ele>2520.2333984375</ele>
      </trkpt>
      <trkpt lat="47.080714255571365" lon="11.645603952929378">
        <ele>2514.9462890625</ele>
      </trkpt>
      <trkpt lat="47.080764546990395" lon="11.645613759756088">
        <ele>2513.98486328125</ele>
      </trkpt>
      <trkpt lat="47.080828165635467" lon="11.645531533285975">
        <ele>2512.062255859375</ele>
      </trkpt>
      <trkpt lat="47.080835960805416" lon="11.645082347095013">
        <ele>2504.852294921875</ele>
      </trkpt>
      <trkpt lat="47.081137290224433" lon="11.644732234999537">
        <ele>2495.719970703125</ele>
      </trkpt>
      <trkpt lat="47.081388328224421" lon="11.644560322165489">
        <ele>2490.9130859375</ele>
      </trkpt>
      <trkpt lat="47.081525539979339" lon="11.644499385729432">
        <ele>2485.145263671875</ele>
      </trkpt>
      <trkpt lat="47.081538196653128" lon="11.644401485100389">
        <ele>2482.741943359375</ele>
      </trkpt>
      <trkpt lat="47.081575244665146" lon="11.644429732114077">
        <ele>2479.37744140625</ele>
      </trkpt>
      <trkpt lat="47.08172058686614" lon="11.644176431000233">
        <ele>2471.2060546875</ele>
      </trkpt>
      <trkpt lat="47.081938264891505" lon="11.643796479329467">
        <ele>2466.88037109375</ele>
      </trkpt>
      <trkpt lat="47.082111351191998" lon="11.643703272566199">
        <ele>2464.47705078125</ele>
      </trkpt>
      <trkpt lat="47.082346547394991" lon="11.643471429124475">
        <ele>2462.07373046875</ele>
      </trkpt>
      <trkpt lat="47.082412261515856" lon="11.643497748300433">
        <ele>2460.151123046875</ele>
      </trkpt>
      <trkpt lat="47.082501528784633" lon="11.643593972548842">
        <ele>2456.786376953125</ele>
      </trkpt>
      <trkpt lat="47.082510748878121" lon="11.644215071573853">
        <ele>2444.289306640625</ele>
      </trkpt>
      <trkpt lat="47.082473868504167" lon="11.644403748214245">
        <ele>2439.482666015625</ele>
      </trkpt>
      <trkpt lat="47.082639494910836" lon="11.644419925287366">
        <ele>2434.67626953125</ele>
      </trkpt>
      <trkpt lat="47.08288743160665" lon="11.64435463026166">
        <ele>2426.5048828125</ele>
      </trkpt>
      <trkpt lat="47.083044592291117" lon="11.644169976934791">
        <ele>2421.217529296875</ele>
      </trkpt>
      <trkpt lat="47.083211559802294" lon="11.644209455698729">
        <ele>2418.814453125</ele>
      </trkpt>
      <trkpt lat="47.083694860339165" lon="11.644666353240609">
        <ele>2412.56591796875</ele>
      </trkpt>
      <trkpt lat="47.08396534435451" lon="11.645207991823554">
        <ele>2397.184814453125</ele>
      </trkpt>
      <trkpt lat="47.084233397617936" lon="11.645472524687648">
        <ele>2394.300537109375</ele>
      </trkpt>
      <trkpt lat="47.084619551897049" lon="11.646181885153055">
        <ele>2387.571533203125</ele>
      </trkpt>
      <trkpt lat="47.084710663184524" lon="11.646778760477901">
        <ele>2378.91943359375</ele>
      </trkpt>
      <trkpt lat="47.084855083376169" lon="11.647315286099911">
        <ele>2366.422607421875</ele>
      </trkpt>
      <trkpt lat="47.085027331486344" lon="11.647395836189389">
        <ele>2359.693115234375</ele>
      </trkpt>
      <trkpt lat="47.084987433627248" lon="11.647516284137964">
        <ele>2356.32861328125</ele>
      </trkpt>
      <trkpt lat="47.085161274299026" lon="11.647763047367334">
        <ele>2351.04150390625</ele>
      </trkpt>
      <trkpt lat="47.085267975926399" lon="11.648099832236767">
        <ele>2344.31201171875</ele>
      </trkpt>
      <trkpt lat="47.085301922634244" lon="11.648382218554616">
        <ele>2338.54443359375</ele>
      </trkpt>
      <trkpt lat="47.085514739155769" lon="11.64865848608315">
        <ele>2328.450439453125</ele>
      </trkpt>
      <trkpt lat="47.085847835987806" lon="11.648923689499497">
        <ele>2322.201904296875</ele>
      </trkpt>
      <trkpt lat="47.086183363571763" lon="11.649497682228684">
        <ele>2314.991943359375</ele>
      </trkpt>
      <trkpt lat="47.086383271962404" lon="11.649697842076421">
        <ele>2313.0693359375</ele>
      </trkpt>
      <trkpt lat="47.086536660790443" lon="11.649987353011966">
        <ele>2310.666015625</ele>
      </trkpt>
      <trkpt lat="47.086539259180427" lon="11.650094389915466">
        <ele>2308.2626953125</ele>
      </trkpt>
      <trkpt lat="47.086598016321659" lon="11.65010922588408">
        <ele>2304.41748046875</ele>
      </trkpt>
      <trkpt lat="47.086787531152368" lon="11.650249790400267">
        <ele>2298.168701171875</ele>
      </trkpt>
      <trkpt lat="47.086867578327656" lon="11.650560759007931">
        <ele>2288.0751953125</ele>
      </trkpt>
      <trkpt lat="47.086808988824487" lon="11.650971220806241">
        <ele>2274.61669921875</ele>
      </trkpt>
      <trkpt lat="47.086885683238506" lon="11.6511011403054">
        <ele>2272.694091796875</ele>
      </trkpt>
      <trkpt lat="47.087032869458199" lon="11.65126534178853">
        <ele>2272.694091796875</ele>
      </trkpt>
      <trkpt lat="47.087364038452506" lon="11.651433985680342">
        <ele>2271.732666015625</ele>
      </trkpt>
      <trkpt lat="47.087415587157011" lon="11.651592487469316">
        <ele>2269.32958984375</ele>
      </trkpt>
      <trkpt lat="47.087535448372364" lon="11.65170413441956">
        <ele>2267.88720703125</ele>
      </trkpt>
      <trkpt lat="47.087420029565692" lon="11.651661386713386">
        <ele>2265.00341796875</ele>
      </trkpt>
      <trkpt lat="47.08735347725451" lon="11.651688292622566">
        <ele>2261.638916015625</ele>
      </trkpt>
      <trkpt lat="47.087299916893244" lon="11.651837825775146">
        <ele>2254.428955078125</ele>
      </trkpt>
      <trkpt lat="47.0873246435076" lon="11.65211895480752">
        <ele>2244.3349609375</ele>
      </trkpt>
      <trkpt lat="47.087260689586401" lon="11.6521683242172">
        <ele>2241.451171875</ele>
      </trkpt>
      <trkpt lat="47.087238058447838" lon="11.652318947017193">
        <ele>2237.60595703125</ele>
      </trkpt>
      <trkpt lat="47.087276866659522" lon="11.652331268414855">
        <ele>2236.1640625</ele>
      </trkpt>
      <trkpt lat="47.0873246435076" lon="11.652560764923692">
        <ele>2228.953857421875</ele>
      </trkpt>
      <trkpt lat="47.087563695386052" lon="11.652791183441877">
        <ele>2217.898681640625</ele>
      </trkpt>
      <trkpt lat="47.087646760046482" lon="11.652955636382103">
        <ele>2213.57275390625</ele>
      </trkpt>
      <trkpt lat="47.087567467242479" lon="11.653043562546372">
        <ele>2209.7275390625</ele>
      </trkpt>
      <trkpt lat="47.087610885500908" lon="11.653164261952043">
        <ele>2205.88232421875</ele>
      </trkpt>
      <trkpt lat="47.087483564391732" lon="11.653650160878897">
        <ele>2193.865966796875</ele>
      </trkpt>
      <trkpt lat="47.087572244927287" lon="11.653827354311943">
        <ele>2190.501220703125</ele>
      </trkpt>
      <trkpt lat="47.087624967098236" lon="11.654206048697233">
        <ele>2181.36865234375</ele>
      </trkpt>
      <trkpt lat="47.087578950449824" lon="11.654299171641469">
        <ele>2179.9267578125</ele>
      </trkpt>
      <trkpt lat="47.087619099766016" lon="11.654557920992374">
        <ele>2172.236328125</ele>
      </trkpt>
      <trkpt lat="47.087572747841477" lon="11.654776437208056">
        <ele>2166.948974609375</ele>
      </trkpt>
      <trkpt lat="47.087664194405079" lon="11.655304078012705">
        <ele>2154.45166015625</ele>
      </trkpt>
      <trkpt lat="47.087549446150661" lon="11.655674641951919">
        <ele>2145.3193359375</ele>
      </trkpt>
      <trkpt lat="47.087594289332628" lon="11.655837753787637">
        <ele>2138.590087890625</ele>
      </trkpt>
      <trkpt lat="47.087726052850485" lon="11.655919393524528">
        <ele>2132.822021484375</ele>
      </trkpt>
      <trkpt lat="47.087785229086876" lon="11.655890643596649">
        <ele>2130.899658203125</ele>
      </trkpt>
      <trkpt lat="47.087792521342635" lon="11.655924757942557">
        <ele>2130.4189453125</ele>
      </trkpt>
      <trkpt lat="47.087859660387039" lon="11.655855691060424">
        <ele>2128.976806640625</ele>
      </trkpt>
      <trkpt lat="47.088034925982356" lon="11.655924590304494">
        <ele>2117.921630859375</ele>
      </trkpt>
      <trkpt lat="47.087998883798718" lon="11.656016958877444">
        <ele>2115.9990234375</ele>
      </trkpt>
      <trkpt lat="47.088081948459148" lon="11.656216364353895">
        <ele>2113.115234375</ele>
      </trkpt>
      <trkpt lat="47.088097119703889" lon="11.656542923301458">
        <ele>2106.866455078125</ele>
      </trkpt>
      <trkpt lat="47.088088821619749" lon="11.656519453972578">
        <ele>2109.75048828125</ele>
      </trkpt>
      <trkpt lat="47.088169790804386" lon="11.65670569986105">
        <ele>2109.27001953125</ele>
      </trkpt>
      <trkpt lat="47.088205497711897" lon="11.656944751739502">
        <ele>2105.905029296875</ele>
      </trkpt>
      <trkpt lat="47.088215555995703" lon="11.657587476074696">
        <ele>2098.6953125</ele>
      </trkpt>
      <trkpt lat="47.088437676429749" lon="11.657741367816925">
        <ele>2094.369384765625</ele>
      </trkpt>
      <trkpt lat="47.088906140998006" lon="11.657534167170525">
        <ele>2084.275634765625</ele>
      </trkpt>
      <trkpt lat="47.089253319427371" lon="11.657312884926796">
        <ele>2074.662353515625</ele>
      </trkpt>
      <trkpt lat="47.089356668293476" lon="11.657528970390558">
        <ele>2071.7783203125</ele>
      </trkpt>
      <trkpt lat="47.089231526479125" lon="11.657761735841632">
        <ele>2069.855712890625</ele>
      </trkpt>
      <trkpt lat="47.089189365506172" lon="11.658017635345459">
        <ele>2065.530029296875</ele>
      </trkpt>
      <trkpt lat="47.089372845366597" lon="11.658026352524757">
        <ele>2064.087890625</ele>
      </trkpt>
      <trkpt lat="47.089646263048053" lon="11.657880591228604">
        <ele>2057.83935546875</ele>
      </trkpt>
      <trkpt lat="47.089683646336198" lon="11.658081840723753">
        <ele>2054.474609375</ele>
      </trkpt>
      <trkpt lat="47.089610053226352" lon="11.65852096863091">
        <ele>2049.1875</ele>
      </trkpt>
      <trkpt lat="47.090432653203607" lon="11.658707298338413">
        <ele>2037.651611328125</ele>
      </trkpt>
      <trkpt lat="47.091370671987534" lon="11.659617992118001">
        <ele>2017.4638671875</ele>
      </trkpt>
      <trkpt lat="47.09172623232007" lon="11.660050665959716">
        <ele>2012.657470703125</ele>
      </trkpt>
      <trkpt lat="47.092730719596148" lon="11.661575585603714">
        <ele>1999.198974609375</ele>
      </trkpt>
      <trkpt lat="47.093169176951051" lon="11.66239189915359">
        <ele>1990.06640625</ele>
      </trkpt>
      <trkpt lat="47.093818355351686" lon="11.663765022531152">
        <ele>1980.453369140625</ele>
      </trkpt>
      <trkpt lat="47.094254968687892" lon="11.664231056347489">
        <ele>1983.337158203125</ele>
      </trkpt>
      <trkpt lat="47.094681188464165" lon="11.6649523191154">
        <ele>1990.546875</ele>
      </trkpt>
      <trkpt lat="47.094880845397711" lon="11.665143258869648">
        <ele>1997.2763671875</ele>
      </trkpt>
      <trkpt lat="47.095101037994027" lon="11.665186174213886">
        <ele>1999.198974609375</ele>
      </trkpt>
      <trkpt lat="47.095573777332902" lon="11.665050471201539">
        <ele>2000.160400390625</ele>
      </trkpt>
      <trkpt lat="47.09621474146843" lon="11.664472036063671">
        <ele>1999.6796875</ele>
      </trkpt>
      <trkpt lat="47.096951846033335" lon="11.66493178345263">
        <ele>1997.2763671875</ele>
      </trkpt>
      <trkpt lat="47.097399355843663" lon="11.66509548202157">
        <ele>1992.4697265625</ele>
      </trkpt>
      <trkpt lat="47.097661877050996" lon="11.665379879996181">
        <ele>1991.027587890625</ele>
      </trkpt>
      <trkpt lat="47.097929175943136" lon="11.665521282702684">
        <ele>1989.585693359375</ele>
      </trkpt>
      <trkpt lat="47.098432090133429" lon="11.665691770613194">
        <ele>1990.06640625</ele>
      </trkpt>
      <trkpt lat="47.098730569705367" lon="11.665652291849256">
        <ele>1992.9501953125</ele>
      </trkpt>
      <trkpt lat="47.098947744816542" lon="11.665795538574457">
        <ele>1991.989013671875</ele>
      </trkpt>
      <trkpt lat="47.099230717867613" lon="11.666461983695626">
        <ele>1983.81787109375</ele>
      </trkpt>
      <trkpt lat="47.09932534955442" lon="11.66614162735641">
        <ele>1982.3759765625</ele>
      </trkpt>
      <trkpt lat="47.099306071177125" lon="11.665234118700027">
        <ele>1975.646484375</ele>
      </trkpt>
      <trkpt lat="47.099551241844893" lon="11.664480082690716">
        <ele>1968.436767578125</ele>
      </trkpt>
      <trkpt lat="47.099823821336031" lon="11.664359886199236">
        <ele>1964.11083984375</ele>
      </trkpt>
      <trkpt lat="47.099988525733352" lon="11.664497265592217">
        <ele>1964.11083984375</ele>
      </trkpt>
      <trkpt lat="47.100194888189435" lon="11.664391988888383">
        <ele>1964.591552734375</ele>
      </trkpt>
      <trkpt lat="47.10040963254869" lon="11.6639593988657">
        <ele>1966.51416015625</ele>
      </trkpt>
      <trkpt lat="47.100694449618459" lon="11.663959734141827">
        <ele>1963.6298828125</ele>
      </trkpt>
      <trkpt lat="47.101008184254169" lon="11.664038021117449">
        <ele>1958.823486328125</ele>
      </trkpt>
      <trkpt lat="47.101044058799744" lon="11.663565449416637">
        <ele>1954.49755859375</ele>
      </trkpt>
      <trkpt lat="47.101136930286884" lon="11.663445336744189">
        <ele>1954.49755859375</ele>
      </trkpt>
      <trkpt lat="47.101642275229096" lon="11.663546590134501">
        <ele>1955.458984375</ele>
      </trkpt>
      <trkpt lat="47.102365549653769" lon="11.66400239802897">
        <ele>1956.90087890625</ele>
      </trkpt>
      <trkpt lat="47.102798474952579" lon="11.663826042786241">
        <ele>1955.939453125</ele>
      </trkpt>
      <trkpt lat="47.103008860722184" lon="11.663812380284071">
        <ele>1954.978271484375</ele>
      </trkpt>
      <trkpt lat="47.103672791272402" lon="11.663980018347502">
        <ele>1944.88427734375</ele>
      </trkpt>
      <trkpt lat="47.103949729353189" lon="11.664099879562855">
        <ele>1940.558349609375</ele>
      </trkpt>
      <trkpt lat="47.104491284117103" lon="11.664572870358825">
        <ele>1926.619384765625</ele>
      </trkpt>
      <trkpt lat="47.104742070659995" lon="11.664640177041292">
        <ele>1921.812744140625</ele>
      </trkpt>
      <trkpt lat="47.105070725083351" lon="11.664616875350475">
        <ele>1916.044921875</ele>
      </trkpt>
      <trkpt lat="47.105367695912719" lon="11.664708321914077">
        <ele>1910.757568359375</ele>
      </trkpt>
      <trkpt lat="47.105671288445592" lon="11.664569517597556">
        <ele>1904.509033203125</ele>
      </trkpt>
      <trkpt lat="47.106093736365438" lon="11.664612768217921">
        <ele>1897.299072265625</ele>
      </trkpt>
      <trkpt lat="47.106221560388803" lon="11.664731036871672">
        <ele>1893.9345703125</ele>
      </trkpt>
      <trkpt lat="47.10598929785192" lon="11.664833379909396">
        <ele>1890.08935546875</ele>
      </trkpt>
      <trkpt lat="47.105746725574136" lon="11.665079472586513">
        <ele>1884.321533203125</ele>
      </trkpt>
      <trkpt lat="47.105719819664955" lon="11.665267227217555">
        <ele>1881.91796875</ele>
      </trkpt>
      <trkpt lat="47.106251819059253" lon="11.665393793955445">
        <ele>1875.66943359375</ele>
      </trkpt>
      <trkpt lat="47.106627831235528" lon="11.665572077035904">
        <ele>1867.498046875</ele>
      </trkpt>
      <trkpt lat="47.107143318280578" lon="11.665733344852924">
        <ele>1858.846435546875</ele>
      </trkpt>
      <trkpt lat="47.107894169166684" lon="11.665618177503347">
        <ele>1848.75244140625</ele>
      </trkpt>
      <trkpt lat="47.108409320935607" lon="11.665484737604856">
        <ele>1843.946044921875</ele>
      </trkpt>
      <trkpt lat="47.108550556004047" lon="11.665507620200515">
        <ele>1844.426513671875</ele>
      </trkpt>
      <trkpt lat="47.108786590397358" lon="11.665690261870623">
        <ele>1844.9072265625</ele>
      </trkpt>
      <trkpt lat="47.108987085521221" lon="11.665724460035563">
        <ele>1843.46533203125</ele>
      </trkpt>
      <trkpt lat="47.10926016792655" lon="11.665111072361469">
        <ele>1839.6201171875</ele>
      </trkpt>
      <trkpt lat="47.109678927809" lon="11.663960656151175">
        <ele>1829.526123046875</ele>
      </trkpt>
      <trkpt lat="47.110021580010653" lon="11.663606520742178">
        <ele>1823.75830078125</ele>
      </trkpt>
      <trkpt lat="47.110733790323138" lon="11.662578731775284">
        <ele>1813.183837890625</ele>
      </trkpt>
      <trkpt lat="47.110876198858023" lon="11.661820588633418">
        <ele>1807.896728515625</ele>
      </trkpt>
      <trkpt lat="47.110961778089404" lon="11.661694021895528">
        <ele>1806.935302734375</ele>
      </trkpt>
      <trkpt lat="47.111023217439651" lon="11.661701817065477">
        <ele>1806.935302734375</ele>
      </trkpt>
      <trkpt lat="47.111229663714767" lon="11.661924691870809">
        <ele>1809.338623046875</ele>
      </trkpt>
      <trkpt lat="47.111540967598557" lon="11.662137256935239">
        <ele>1811.741943359375</ele>
      </trkpt>
      <trkpt lat="47.11183475330472" lon="11.662571858614683">
        <ele>1811.26123046875</ele>
      </trkpt>
      <trkpt lat="47.111594695597887" lon="11.664018826559186">
        <ele>1808.377197265625</ele>
      </trkpt>
      <trkpt lat="47.111612046137452" lon="11.664768168702722">
        <ele>1805.493408203125</ele>
      </trkpt>
      <trkpt lat="47.111831735819578" lon="11.665807859972119">
        <ele>1797.802734375</ele>
      </trkpt>
      <trkpt lat="47.112136166542768" lon="11.666770270094275">
        <ele>1792.034912109375</ele>
      </trkpt>
      <trkpt lat="47.112364741042256" lon="11.667276369407773">
        <ele>1787.708740234375</ele>
      </trkpt>
      <trkpt lat="47.112945020198822" lon="11.668213550001383">
        <ele>1782.902099609375</ele>
      </trkpt>
      <trkpt lat="47.113337963819504" lon="11.668752254918218">
        <ele>1779.53759765625</ele>
      </trkpt>
      <trkpt lat="47.114258464425802" lon="11.669584158807993">
        <ele>1772.80859375</ele>
      </trkpt>
      <trkpt lat="47.114481842145324" lon="11.66968809440732">
        <ele>1772.80859375</ele>
      </trkpt>
      <trkpt lat="47.114888364449143" lon="11.669987160712481">
        <ele>1772.327880859375</ele>
      </trkpt>
      <trkpt lat="47.115149544551969" lon="11.670601135119796">
        <ele>1771.3662109375</ele>
      </trkpt>
      <trkpt lat="47.115901317447424" lon="11.671405797824264">
        <ele>1769.44384765625</ele>
      </trkpt>
      <trkpt lat="47.116061830893159" lon="11.671854481101036">
        <ele>1769.44384765625</ele>
      </trkpt>
      <trkpt lat="47.116078259423375" lon="11.672165868803859">
        <ele>1768.963134765625</ele>
      </trkpt>
      <trkpt lat="47.116216560825706" lon="11.672713877633214">
        <ele>1767.04052734375</ele>
      </trkpt>
      <trkpt lat="47.116851238533854" lon="11.673347130417824">
        <ele>1762.23388671875</ele>
      </trkpt>
      <trkpt lat="47.117089033126831" lon="11.673810398206115">
        <ele>1758.869384765625</ele>
      </trkpt>
      <trkpt lat="47.118258224800229" lon="11.677017062902451">
        <ele>1743.007568359375</ele>
      </trkpt>
      <trkpt lat="47.118488727137446" lon="11.677290229126811">
        <ele>1738.681640625</ele>
      </trkpt>
      <trkpt lat="47.11880799382925" lon="11.677377820014954">
        <ele>1735.797607421875</ele>
      </trkpt>
      <trkpt lat="47.118947049602866" lon="11.677481168881059">
        <ele>1734.355712890625</ele>
      </trkpt>
      <trkpt lat="47.119364719837904" lon="11.679158471524715">
        <ele>1727.62646484375</ele>
      </trkpt>
      <trkpt lat="47.119694547727704" lon="11.680998466908932">
        <ele>1717.052001953125</ele>
      </trkpt>
      <trkpt lat="47.11972857825458" lon="11.681692572310567">
        <ele>1710.803466796875</ele>
      </trkpt>
      <trkpt lat="47.120196623727679" lon="11.683155130594969">
        <ele>1698.30615234375</ele>
      </trkpt>
      <trkpt lat="47.120139794424176" lon="11.68377622961998">
        <ele>1693.98046875</ele>
      </trkpt>
      <trkpt lat="47.120279353111982" lon="11.684353826567531">
        <ele>1690.615478515625</ele>
      </trkpt>
      <trkpt lat="47.120418325066566" lon="11.684647696092725">
        <ele>1687.731689453125</ele>
      </trkpt>
      <trkpt lat="47.120833564549685" lon="11.684973584488034">
        <ele>1683.886474609375</ele>
      </trkpt>
      <trkpt lat="47.121168170124292" lon="11.685305926948786">
        <ele>1677.637939453125</ele>
      </trkpt>
      <trkpt lat="47.12146807461977" lon="11.685719657689333">
        <ele>1674.273193359375</ele>
      </trkpt>
      <trkpt lat="47.121828999370337" lon="11.68605275452137">
        <ele>1669.466796875</ele>
      </trkpt>
      <trkpt lat="47.12247365154326" lon="11.686795726418495">
        <ele>1662.2568359375</ele>
      </trkpt>
      <trkpt lat="47.122689988464117" lon="11.687084482982755">
        <ele>1657.4501953125</ele>
      </trkpt>
      <trkpt lat="47.122984947636724" lon="11.687628384679556">
        <ele>1651.20166015625</ele>
      </trkpt>
      <trkpt lat="47.123552234843373" lon="11.688247639685869">
        <ele>1645.433837890625</ele>
      </trkpt>
      <trkpt lat="47.1238496247679" lon="11.68875047005713">
        <ele>1643.510986328125</ele>
      </trkpt>
      <trkpt lat="47.124220188707113" lon="11.689188424497843">
        <ele>1637.7431640625</ele>
      </trkpt>
      <trkpt lat="47.124458150938153" lon="11.689570052549243">
        <ele>1634.378662109375</ele>
      </trkpt>
      <trkpt lat="47.124803988263011" lon="11.689964169636369">
        <ele>1627.168701171875</ele>
      </trkpt>
      <trkpt lat="47.124977158382535" lon="11.690057963132858">
        <ele>1624.28466796875</ele>
      </trkpt>
      <trkpt lat="47.12500867433846" lon="11.690226187929511">
        <ele>1620.920166015625</ele>
      </trkpt>
      <trkpt lat="47.124341642484069" lon="11.689879260957241">
        <ele>1616.59423828125</ele>
      </trkpt>
      <trkpt lat="47.123936545103788" lon="11.689442144706845">
        <ele>1610.826171875</ele>
      </trkpt>
      <trkpt lat="47.122512878850102" lon="11.688499432057142">
        <ele>1596.88720703125</ele>
      </trkpt>
      <trkpt lat="47.121658427640796" lon="11.688277395442128">
        <ele>1589.196533203125</ele>
      </trkpt>
      <trkpt lat="47.12142214179039" lon="11.688098190352321">
        <ele>1586.312744140625</ele>
      </trkpt>
      <trkpt lat="47.121125673875213" lon="11.688014287501574">
        <ele>1583.4287109375</ele>
      </trkpt>
      <trkpt lat="47.120913276448846" lon="11.688080755993724">
        <ele>1581.025634765625</ele>
      </trkpt>
      <trkpt lat="47.120487140491605" lon="11.688359035179019">
        <ele>1577.18017578125</ele>
      </trkpt>
      <trkpt lat="47.120328638702631" lon="11.688395831733942">
        <ele>1576.21875</ele>
      </trkpt>
      <trkpt lat="47.11996017023921" lon="11.688298350200057">
        <ele>1574.296142578125</ele>
      </trkpt>
      <trkpt lat="47.119554737582803" lon="11.687880931422114">
        <ele>1571.892822265625</ele>
      </trkpt>
      <trkpt lat="47.119309986010194" lon="11.687440127134323">
        <ele>1566.605712890625</ele>
      </trkpt>
      <trkpt lat="47.119031120091677" lon="11.687105186283588">
        <ele>1563.240966796875</ele>
      </trkpt>
      <trkpt lat="47.118736831471324" lon="11.686881138011813">
        <ele>1557.953857421875</ele>
      </trkpt>
      <trkpt lat="47.118525020778179" lon="11.686630267649889">
        <ele>1556.031005859375</ele>
      </trkpt>
      <trkpt lat="47.118404321372509" lon="11.686292476952076">
        <ele>1552.66650390625</ele>
      </trkpt>
      <trkpt lat="47.118361825123429" lon="11.6863102465868">
        <ele>1549.302001953125</ele>
      </trkpt>
    </trkseg>
  </trk>

</gpx>
