<?xml version="1.0" encoding="UTF-8" standalone="yes"?>
<gpx xmlns="http://www.topografix.com/GPX/1/1" xmlns:gpxtrx="http://www.garmin.com/xmlschemas/GpxExtensions/v3" xmlns:rcxx="http://www.routeconverter.de/xmlschemas/RouteCatalogExtensions/1.0" xmlns:xsi="http://www.w3.org/2001/XMLSchema-instance" xmlns:gpxtpx="http://www.garmin.com/xmlschemas/TrackPointExtension/v1" xmlns:gpxx="http://www.garmin.com/xmlschemas/WaypointExtension/v1" xmlns:nmea="http://trekbuddy.net/2009/01/gpx/nmea" version="1.1" creator="Generated by Christian Pesch's RouteConverter. See http://www.routeconverter.com">
    <metadata>
        <name>2016-12-30 12:25</name>
        <link href="http://www.oruxmaps.com">
            <text>OruxMaps</text>
        </link>
        <time>2016-12-30T11:25:18Z</time>
        <bounds minlat="47.5850924" minlon="11.0575887" maxlat="47.5931050" maxlon="11.0661610"/>
    </metadata>
    <wpt lat="47.586271" lon="11.0597611">
        <ele>1222.7</ele>
        <time>2016-12-30T12:21:40.000Z</time>
        <sym>Waypoint</sym>
        <type>Wegpunkt</type>
        <extensions>
            <om:oruxmapsextensions xmlns:om="http://www.oruxmaps.com/oruxmapsextensions/1/0">
                <om:ext subtype="0" type="ICON">1</om:ext>
</om:oruxmapsextensions>
        </extensions>
    </wpt>
    <trk>
        <name>2016-12-30 12:25</name>
        <desc>&lt;p&gt;Startzeit: 12/30/2016 12:25&lt;/p&gt;&lt;p&gt;Zielzeit: 12/30/2016 17:04&lt;/p&gt;&lt;p&gt;Strecke: 4,
4 km (04:38)&lt;/p&gt;&lt;p&gt;Bewegungszeit: 01:20&lt;/p&gt;&lt;p&gt;Ø-Geschwindigkeit: 0,
96 km/h&lt;/p&gt;&lt;p&gt;Netto-Geschwindigkeit: 3,
32 km/h&lt;/p&gt;&lt;p&gt;Max. Geschwindigkeit: 7,
6km/h&lt;/p&gt;&lt;p&gt;Minimale Höhe: 825 m&lt;/p&gt;&lt;p&gt;Maximale Höhe: 1336 m&lt;/p&gt;&lt;p&gt;Steig-Geschw.: 152,
6 m/h&lt;/p&gt;&lt;p&gt;Sink-Geschw.: -484,
6 m/h&lt;/p&gt;&lt;p&gt;Aufstieg: 532 m&lt;/p&gt;&lt;p&gt;Abstieg: -535 m&lt;/p&gt;&lt;p&gt;Steigzeit: 03:29&lt;/p&gt;&lt;p&gt;Sinkzeit: 01:06&lt;/p&gt;&lt;hr align="center" width="480" style="height: 2px; width: 517px"/&gt;</desc>
        <type>Unbestimmt</type>
        <extensions>
            <om:oruxmapsextensions xmlns:om="http://www.oruxmaps.com/oruxmapsextensions/1/0">
                <om:ext subtype="0" type="TYPE">0</om:ext>
                <om:ext type="DIFFICULTY">0</om:ext>
</om:oruxmapsextensions>
        </extensions>
        <trkseg>
            <trkpt lat="47.5930789" lon="11.0640762">
                <ele>842.0</ele>
                <time>2016-12-30T11:25:23.000Z</time>
                <name>Position 1</name>
            </trkpt>
            <trkpt lat="47.5929321" lon="11.0642313">
                <ele>834.9</ele>
                <time>2016-12-30T11:26:42.000Z</time>
                <name>Position 2</name>
            </trkpt>
            <trkpt lat="47.592752" lon="11.0642757">
                <ele>835.9</ele>
                <time>2016-12-30T11:27:01.000Z</time>
                <name>Position 3</name>
            </trkpt>
            <trkpt lat="47.5925613" lon="11.0643008">
                <ele>834.8</ele>
                <time>2016-12-30T11:27:16.000Z</time>
                <name>Position 4</name>
            </trkpt>
            <trkpt lat="47.5923714" lon="11.0643121">
                <ele>833.9</ele>
                <time>2016-12-30T11:27:31.000Z</time>
                <name>Position 5</name>
            </trkpt>
            <trkpt lat="47.5921927" lon="11.0643588">
                <ele>834.0</ele>
                <time>2016-12-30T11:27:44.000Z</time>
                <name>Position 6</name>
            </trkpt>
            <trkpt lat="47.5920154" lon="11.0644298">
                <ele>833.9</ele>
                <time>2016-12-30T11:27:57.000Z</time>
                <name>Position 7</name>
            </trkpt>
            <trkpt lat="47.5918378" lon="11.0644824">
                <ele>833.8</ele>
                <time>2016-12-30T11:28:10.000Z</time>
                <name>Position 8</name>
            </trkpt>
            <trkpt lat="47.5916594" lon="11.0645257">
                <ele>833.9</ele>
                <time>2016-12-30T11:28:23.000Z</time>
                <name>Position 9</name>
            </trkpt>
            <trkpt lat="47.5914828" lon="11.0645812">
                <ele>833.9</ele>
                <time>2016-12-30T11:28:37.000Z</time>
                <name>Position 10</name>
            </trkpt>
            <trkpt lat="47.5913026" lon="11.0646645">
                <ele>833.9</ele>
                <time>2016-12-30T11:28:52.000Z</time>
                <name>Position 11</name>
            </trkpt>
            <trkpt lat="47.5911252" lon="11.0647746">
                <ele>832.9</ele>
                <time>2016-12-30T11:29:06.000Z</time>
                <name>Position 12</name>
            </trkpt>
            <trkpt lat="47.5909464" lon="11.064853">
                <ele>831.9</ele>
                <time>2016-12-30T11:29:20.000Z</time>
                <name>Position 13</name>
            </trkpt>
            <trkpt lat="47.5907786" lon="11.0649582">
                <ele>832.9</ele>
                <time>2016-12-30T11:29:34.000Z</time>
                <name>Position 14</name>
            </trkpt>
            <trkpt lat="47.5906068" lon="11.0650652">
                <ele>831.9</ele>
                <time>2016-12-30T11:29:48.000Z</time>
                <name>Position 15</name>
            </trkpt>
            <trkpt lat="47.5904398" lon="11.0651774">
                <ele>831.0</ele>
                <time>2016-12-30T11:30:02.000Z</time>
                <name>Position 16</name>
            </trkpt>
            <trkpt lat="47.5902852" lon="11.0653308">
                <ele>828.9</ele>
                <time>2016-12-30T11:30:17.000Z</time>
                <name>Position 17</name>
            </trkpt>
            <trkpt lat="47.5901076" lon="11.0654255">
                <ele>829.9</ele>
                <time>2016-12-30T11:30:33.000Z</time>
                <name>Position 18</name>
            </trkpt>
            <trkpt lat="47.5899575" lon="11.0655758">
                <ele>831.1</ele>
                <time>2016-12-30T11:30:48.000Z</time>
                <name>Position 19</name>
            </trkpt>
            <trkpt lat="47.5897774" lon="11.065693">
                <ele>825.2</ele>
                <time>2016-12-30T11:31:03.000Z</time>
                <name>Position 20</name>
            </trkpt>
            <trkpt lat="47.5896056" lon="11.0655756">
                <ele>833.9</ele>
                <time>2016-12-30T11:31:19.000Z</time>
                <name>Position 21</name>
            </trkpt>
            <trkpt lat="47.5894411" lon="11.0654538">
                <ele>835.9</ele>
                <time>2016-12-30T11:31:32.000Z</time>
                <name>Position 22</name>
            </trkpt>
            <trkpt lat="47.5893979" lon="11.06519">
                <ele>831.9</ele>
                <time>2016-12-30T11:32:57.000Z</time>
                <name>Position 23</name>
            </trkpt>
            <trkpt lat="47.5893638" lon="11.0649054">
                <ele>833.9</ele>
                <time>2016-12-30T11:33:06.000Z</time>
                <name>Position 24</name>
            </trkpt>
            <trkpt lat="47.5893264" lon="11.0646368">
                <ele>837.7</ele>
                <time>2016-12-30T11:33:17.000Z</time>
                <name>Position 25</name>
            </trkpt>
            <trkpt lat="47.5892972" lon="11.064358">
                <ele>833.9</ele>
                <time>2016-12-30T11:33:29.000Z</time>
                <name>Position 26</name>
            </trkpt>
            <trkpt lat="47.589266" lon="11.0640922">
                <ele>832.9</ele>
                <time>2016-12-30T11:33:41.000Z</time>
                <name>Position 27</name>
            </trkpt>
            <trkpt lat="47.5892255" lon="11.0638157">
                <ele>829.0</ele>
                <time>2016-12-30T11:33:53.000Z</time>
                <name>Position 28</name>
            </trkpt>
            <trkpt lat="47.5890735" lon="11.0636395">
                <ele>833.7</ele>
                <time>2016-12-30T11:34:07.000Z</time>
                <name>Position 29</name>
            </trkpt>
            <trkpt lat="47.5889045" lon="11.0637316">
                <ele>838.0</ele>
                <time>2016-12-30T11:34:27.000Z</time>
                <name>Position 30</name>
            </trkpt>
            <trkpt lat="47.5887647" lon="11.0635529">
                <ele>836.2</ele>
                <time>2016-12-30T11:34:55.000Z</time>
                <name>Position 31</name>
            </trkpt>
            <trkpt lat="47.5887866" lon="11.0632825">
                <ele>835.9</ele>
                <time>2016-12-30T11:35:31.000Z</time>
                <name>Position 32</name>
            </trkpt>
            <trkpt lat="47.5886992" lon="11.0635239">
                <ele>844.9</ele>
                <time>2016-12-30T11:36:08.000Z</time>
                <name>Position 33</name>
            </trkpt>
            <trkpt lat="47.5886543" lon="11.0638035">
                <ele>847.0</ele>
                <time>2016-12-30T11:36:21.000Z</time>
                <name>Position 34</name>
            </trkpt>
            <trkpt lat="47.5886083" lon="11.0640692">
                <ele>847.2</ele>
                <time>2016-12-30T11:36:34.000Z</time>
                <name>Position 35</name>
            </trkpt>
            <trkpt lat="47.5885429" lon="11.0643342">
                <ele>841.1</ele>
                <time>2016-12-30T11:36:49.000Z</time>
                <name>Position 36</name>
            </trkpt>
            <trkpt lat="47.5885124" lon="11.0646118">
                <ele>845.2</ele>
                <time>2016-12-30T11:37:04.000Z</time>
                <name>Position 37</name>
            </trkpt>
            <trkpt lat="47.5884284" lon="11.0648632">
                <ele>845.0</ele>
                <time>2016-12-30T11:37:19.000Z</time>
                <name>Position 38</name>
            </trkpt>
            <trkpt lat="47.5883715" lon="11.0651182">
                <ele>843.1</ele>
                <time>2016-12-30T11:37:32.000Z</time>
                <name>Position 39</name>
            </trkpt>
            <trkpt lat="47.5883022" lon="11.0653793">
                <ele>839.2</ele>
                <time>2016-12-30T11:37:53.000Z</time>
                <name>Position 40</name>
            </trkpt>
            <trkpt lat="47.5882601" lon="11.0656447">
                <ele>840.7</ele>
                <time>2016-12-30T11:38:08.000Z</time>
                <name>Position 41</name>
            </trkpt>
            <trkpt lat="47.5882164" lon="11.0659038">
                <ele>842.9</ele>
                <time>2016-12-30T11:38:21.000Z</time>
                <name>Position 42</name>
            </trkpt>
            <trkpt lat="47.5880932" lon="11.0661129">
                <ele>845.0</ele>
                <time>2016-12-30T11:38:35.000Z</time>
                <name>Position 43</name>
            </trkpt>
            <trkpt lat="47.587911" lon="11.0661114">
                <ele>853.7</ele>
                <time>2016-12-30T11:39:35.000Z</time>
                <name>Position 44</name>
            </trkpt>
            <trkpt lat="47.5877251" lon="11.0660852">
                <ele>856.3</ele>
                <time>2016-12-30T11:40:00.000Z</time>
                <name>Position 45</name>
            </trkpt>
            <trkpt lat="47.5875454" lon="11.0661266">
                <ele>856.1</ele>
                <time>2016-12-30T11:40:18.000Z</time>
                <name>Position 46</name>
            </trkpt>
            <trkpt lat="47.5873635" lon="11.0660787">
                <ele>855.0</ele>
                <time>2016-12-30T11:40:31.000Z</time>
                <name>Position 47</name>
            </trkpt>
            <trkpt lat="47.5871892" lon="11.0659834">
                <ele>859.9</ele>
                <time>2016-12-30T11:40:45.000Z</time>
                <name>Position 48</name>
            </trkpt>
            <trkpt lat="47.5870381" lon="11.0658352">
                <ele>859.7</ele>
                <time>2016-12-30T11:41:05.000Z</time>
                <name>Position 49</name>
            </trkpt>
            <trkpt lat="47.5868712" lon="11.0657161">
                <ele>864.9</ele>
                <time>2016-12-30T11:41:28.000Z</time>
                <name>Position 50</name>
            </trkpt>
            <trkpt lat="47.5866949" lon="11.0656485">
                <ele>876.7</ele>
                <time>2016-12-30T11:41:54.000Z</time>
                <name>Position 51</name>
            </trkpt>
            <trkpt lat="47.5866242" lon="11.0653996">
                <ele>882.9</ele>
                <time>2016-12-30T11:42:22.000Z</time>
                <name>Position 52</name>
            </trkpt>
            <trkpt lat="47.5865331" lon="11.065167">
                <ele>900.9</ele>
                <time>2016-12-30T11:43:04.000Z</time>
                <name>Position 53</name>
            </trkpt>
            <trkpt lat="47.5864018" lon="11.0649834">
                <ele>914.5</ele>
                <time>2016-12-30T11:43:45.000Z</time>
                <name>Position 54</name>
            </trkpt>
            <trkpt lat="47.5862252" lon="11.0649157">
                <ele>917.2</ele>
                <time>2016-12-30T11:44:31.000Z</time>
                <name>Position 55</name>
            </trkpt>
            <trkpt lat="47.5860639" lon="11.0647955">
                <ele>921.1</ele>
                <time>2016-12-30T11:45:03.000Z</time>
                <name>Position 56</name>
            </trkpt>
            <trkpt lat="47.5860007" lon="11.0645398">
                <ele>939.7</ele>
                <time>2016-12-30T11:46:03.000Z</time>
                <name>Position 57</name>
            </trkpt>
            <trkpt lat="47.5861352" lon="11.0643581">
                <ele>954.5</ele>
                <time>2016-12-30T11:46:50.000Z</time>
                <name>Position 58</name>
            </trkpt>
            <trkpt lat="47.5860995" lon="11.0640835">
                <ele>951.1</ele>
                <time>2016-12-30T11:47:54.000Z</time>
                <name>Position 59</name>
            </trkpt>
            <trkpt lat="47.5859535" lon="11.063927">
                <ele>967.9</ele>
                <time>2016-12-30T11:48:39.000Z</time>
                <name>Position 60</name>
            </trkpt>
            <trkpt lat="47.5861247" lon="11.0638116">
                <ele>978.3</ele>
                <time>2016-12-30T11:49:20.000Z</time>
                <name>Position 61</name>
            </trkpt>
            <trkpt lat="47.5862871" lon="11.0636966">
                <ele>968.3</ele>
                <time>2016-12-30T11:49:42.000Z</time>
                <name>Position 62</name>
            </trkpt>
            <trkpt lat="47.5861843" lon="11.0634593">
                <ele>974.1</ele>
                <time>2016-12-30T11:50:27.000Z</time>
                <name>Position 63</name>
            </trkpt>
            <trkpt lat="47.5860101" lon="11.0633908">
                <ele>983.1</ele>
                <time>2016-12-30T11:50:52.000Z</time>
                <name>Position 64</name>
            </trkpt>
            <trkpt lat="47.585844" lon="11.0632784">
                <ele>996.9</ele>
                <time>2016-12-30T11:51:30.000Z</time>
                <name>Position 65</name>
            </trkpt>
            <trkpt lat="47.5860243" lon="11.0632354">
                <ele>1010.1</ele>
                <time>2016-12-30T11:52:04.000Z</time>
                <name>Position 66</name>
            </trkpt>
            <trkpt lat="47.586074" lon="11.0629775">
                <ele>1005.9</ele>
                <time>2016-12-30T11:53:06.000Z</time>
                <name>Position 67</name>
            </trkpt>
            <trkpt lat="47.5859682" lon="11.0627542">
                <ele>1005.9</ele>
                <time>2016-12-30T11:53:30.000Z</time>
                <name>Position 68</name>
            </trkpt>
            <trkpt lat="47.5857932" lon="11.0626655">
                <ele>1010.9</ele>
                <time>2016-12-30T11:54:02.000Z</time>
                <name>Position 69</name>
            </trkpt>
            <trkpt lat="47.5859032" lon="11.0624534">
                <ele>1038.7</ele>
                <time>2016-12-30T11:55:29.000Z</time>
                <name>Position 70</name>
            </trkpt>
            <trkpt lat="47.5860449" lon="11.0622845">
                <ele>1051.0</ele>
                <time>2016-12-30T11:56:45.000Z</time>
                <name>Position 71</name>
            </trkpt>
            <trkpt lat="47.5859395" lon="11.0620654">
                <ele>1060.7</ele>
                <time>2016-12-30T11:59:18.000Z</time>
                <name>Position 72</name>
            </trkpt>
            <trkpt lat="47.5858287" lon="11.0618548">
                <ele>1060.9</ele>
                <time>2016-12-30T11:59:52.000Z</time>
                <name>Position 73</name>
            </trkpt>
            <trkpt lat="47.5860142" lon="11.0618383">
                <ele>1079.0</ele>
                <time>2016-12-30T12:00:44.000Z</time>
                <name>Position 74</name>
            </trkpt>
            <trkpt lat="47.5861679" lon="11.0616932">
                <ele>1086.1</ele>
                <time>2016-12-30T12:01:24.000Z</time>
                <name>Position 75</name>
            </trkpt>
            <trkpt lat="47.5860604" lon="11.061474">
                <ele>1088.9</ele>
                <time>2016-12-30T12:02:27.000Z</time>
                <name>Position 76</name>
            </trkpt>
            <trkpt lat="47.5859461" lon="11.0612662">
                <ele>1099.7</ele>
                <time>2016-12-30T12:03:08.000Z</time>
                <name>Position 77</name>
            </trkpt>
            <trkpt lat="47.5856601" lon="11.0609329">
                <ele>1138.0</ele>
                <time>2016-12-30T12:04:20.826Z</time>
                <name>Position 78</name>
            </trkpt>
            <trkpt lat="47.5857879" lon="11.0607061">
                <ele>1153.9</ele>
                <time>2016-12-30T12:05:28.113Z</time>
                <name>Position 79</name>
            </trkpt>
            <trkpt lat="47.5855994" lon="11.0607157">
                <ele>1150.0</ele>
                <time>2016-12-30T12:06:22.868Z</time>
                <name>Position 80</name>
            </trkpt>
            <trkpt lat="47.5856899" lon="11.0604714">
                <ele>1167.2</ele>
                <time>2016-12-30T12:07:38.739Z</time>
                <name>Position 81</name>
            </trkpt>
            <trkpt lat="47.5855214" lon="11.0603753">
                <ele>1168.7</ele>
                <time>2016-12-30T12:08:31.091Z</time>
                <name>Position 82</name>
            </trkpt>
            <trkpt lat="47.5856453" lon="11.0601775">
                <ele>1184.0</ele>
                <time>2016-12-30T12:09:22.548Z</time>
                <name>83 Kofelsteig, 82487 Oberammergau, Deutschland</name>
            </trkpt>
            <trkpt lat="47.5856203" lon="11.0599097">
                <ele>1199.2</ele>
                <time>2016-12-30T12:10:03.224Z</time>
                <name>84 Kofelsteig, 82487 Oberammergau, Deutschland</name>
            </trkpt>
            <trkpt lat="47.585436" lon="11.0598831">
                <ele>1194.4</ele>
                <time>2016-12-30T12:10:30.057Z</time>
                <name>85 Kofelsteig, 82487 Oberammergau, Deutschland</name>
            </trkpt>
            <trkpt lat="47.5852534" lon="11.0598107">
                <ele>1192.3</ele>
                <time>2016-12-30T12:10:49.255Z</time>
                <name>86 Kofelsteig, 82487 Oberammergau, Deutschland</name>
            </trkpt>
            <trkpt lat="47.585428" lon="11.0597343">
                <ele>1200.9</ele>
                <time>2016-12-30T12:11:07.510Z</time>
                <name>87 Kofelsteig, 82487 Oberammergau, Deutschland</name>
            </trkpt>
            <trkpt lat="47.5856166" lon="11.0597417">
                <ele>1208.1</ele>
                <time>2016-12-30T12:11:26.390Z</time>
                <name>88 Kofelsteig, 82487 Oberammergau, Deutschland</name>
            </trkpt>
            <trkpt lat="47.5857851" lon="11.0596221">
                <ele>1220.3</ele>
                <time>2016-12-30T12:11:43.964Z</time>
                <name>89 Kofelsteig, 82487 Oberammergau, Deutschland</name>
            </trkpt>
            <trkpt lat="47.5859634" lon="11.059648">
                <ele>1222.2</ele>
                <time>2016-12-30T12:12:00.536Z</time>
                <name>90 Kofelsteig, 82487 Oberammergau, Deutschland</name>
            </trkpt>
            <trkpt lat="47.586248" lon="11.0597388">
                <ele>1218.4</ele>
                <time>2016-12-30T12:12:25.233Z</time>
                <name>91 Kofelsteig, 82487 Oberammergau, Deutschland</name>
            </trkpt>
            <trkpt lat="47.5863118" lon="11.0599208">
                <ele>1181.0</ele>
                <time>2016-12-30T12:12:37.000Z</time>
                <name>Position 92</name>
            </trkpt>
            <trkpt lat="47.5864225" lon="11.060132">
                <ele>1222.3</ele>
                <time>2016-12-30T12:25:25.000Z</time>
                <name>Position 93</name>
            </trkpt>
            <trkpt lat="47.5865515" lon="11.06032">
                <ele>1220.7</ele>
                <time>2016-12-30T12:27:18.000Z</time>
                <name>Position 94</name>
            </trkpt>
            <trkpt lat="47.5866531" lon="11.0600875">
                <ele>1242.4</ele>
                <time>2016-12-30T12:30:07.000Z</time>
                <name>Position 95</name>
            </trkpt>
            <trkpt lat="47.5866076" lon="11.0598288">
                <ele>1284.7</ele>
                <time>2016-12-30T13:18:30.000Z</time>
                <name>Position 96</name>
            </trkpt>
            <trkpt lat="47.5867556" lon="11.059676">
                <ele>1327.2</ele>
                <time>2016-12-30T13:47:58.000Z</time>
                <name>Position 97</name>
            </trkpt>
            <trkpt lat="47.5868853" lon="11.0594813">
                <ele>1336.7</ele>
                <time>2016-12-30T13:49:48.000Z</time>
                <name>Position 98</name>
            </trkpt>
            <trkpt lat="47.5870697" lon="11.0594883">
                <ele>1333.9</ele>
                <time>2016-12-30T14:00:43.000Z</time>
                <name>Position 99</name>
            </trkpt>
            <trkpt lat="47.587164" lon="11.0592565">
                <ele>1321.7</ele>
                <time>2016-12-30T14:01:55.000Z</time>
                <name>Position 100</name>
            </trkpt>
            <trkpt lat="47.5871479" lon="11.058987">
                <ele>1318.5</ele>
                <time>2016-12-30T14:02:09.000Z</time>
                <name>Position 101</name>
            </trkpt>
            <trkpt lat="47.5872322" lon="11.0587391">
                <ele>1316.9</ele>
                <time>2016-12-30T14:03:15.000Z</time>
                <name>Position 102</name>
            </trkpt>
            <trkpt lat="47.5871224" lon="11.0585279">
                <ele>1301.9</ele>
                <time>2016-12-30T14:04:41.000Z</time>
                <name>Position 103</name>
            </trkpt>
            <trkpt lat="47.5869891" lon="11.0583353">
                <ele>1296.0</ele>
                <time>2016-12-30T14:05:55.000Z</time>
                <name>Position 104</name>
            </trkpt>
            <trkpt lat="47.5868277" lon="11.0581944">
                <ele>1298.6</ele>
                <time>2016-12-30T14:06:43.000Z</time>
                <name>Position 105</name>
            </trkpt>
            <trkpt lat="47.5869064" lon="11.058438">
                <ele>1297.1</ele>
                <time>2016-12-30T14:08:27.000Z</time>
                <name>Position 106</name>
            </trkpt>
            <trkpt lat="47.5868278" lon="11.0586915">
                <ele>1284.8</ele>
                <time>2016-12-30T14:09:54.000Z</time>
                <name>Position 107</name>
            </trkpt>
            <trkpt lat="47.5866488" lon="11.0588046">
                <ele>1292.8</ele>
                <time>2016-12-30T14:10:06.000Z</time>
                <name>Position 108</name>
            </trkpt>
            <trkpt lat="47.586463" lon="11.0587609">
                <ele>1289.0</ele>
                <time>2016-12-30T14:10:31.000Z</time>
                <name>Position 109</name>
            </trkpt>
            <trkpt lat="47.5863983" lon="11.0586191">
                <ele>1253.7</ele>
                <time>2016-12-30T14:13:40.909Z</time>
                <name>Position 110</name>
            </trkpt>
            <trkpt lat="47.586358" lon="11.0585768">
                <ele>1250.9</ele>
                <time>2016-12-30T14:15:02.028Z</time>
                <name>Position 111</name>
            </trkpt>
            <trkpt lat="47.5862609" lon="11.0586996">
                <ele>1250.7</ele>
                <time>2016-12-30T14:16:44.384Z</time>
                <name>Position 112</name>
            </trkpt>
            <trkpt lat="47.586176" lon="11.0588081">
                <ele>1249.8</ele>
                <time>2016-12-30T14:17:46.448Z</time>
                <name>Position 113</name>
            </trkpt>
            <trkpt lat="47.5860514" lon="11.0588865">
                <ele>1246.8</ele>
                <time>2016-12-30T14:19:01.353Z</time>
                <name>Position 114</name>
            </trkpt>
            <trkpt lat="47.5859019" lon="11.058921">
                <ele>1243.0</ele>
                <time>2016-12-30T14:20:33.000Z</time>
                <name>Position 115</name>
            </trkpt>
            <trkpt lat="47.585732" lon="11.0588245">
                <ele>1238.7</ele>
                <time>2016-12-30T14:20:49.000Z</time>
                <name>Position 116</name>
            </trkpt>
            <trkpt lat="47.5856582" lon="11.0585806">
                <ele>1231.6</ele>
                <time>2016-12-30T14:21:57.000Z</time>
                <name>Position 117</name>
            </trkpt>
            <trkpt lat="47.5857181" lon="11.058317">
                <ele>1231.6</ele>
                <time>2016-12-30T14:22:11.000Z</time>
                <name>Position 118</name>
            </trkpt>
            <trkpt lat="47.585824" lon="11.0581005">
                <ele>1218.2</ele>
                <time>2016-12-30T14:23:18.000Z</time>
                <name>Position 119</name>
            </trkpt>
            <trkpt lat="47.5859277" lon="11.0578601">
                <ele>1224.7</ele>
                <time>2016-12-30T14:23:31.000Z</time>
                <name>Position 120</name>
            </trkpt>
            <trkpt lat="47.5859978" lon="11.0577067">
                <ele>1217.6</ele>
                <time>2016-12-30T14:24:03.871Z</time>
                <name>Position 121</name>
            </trkpt>
            <trkpt lat="47.586099" lon="11.0576152">
                <ele>1234.5</ele>
                <time>2016-12-30T14:24:35.000Z</time>
                <name>Position 122</name>
            </trkpt>
            <trkpt lat="47.5862827" lon="11.0575948">
                <ele>1240.3</ele>
                <time>2016-12-30T14:24:59.000Z</time>
                <name>Position 123</name>
            </trkpt>
            <trkpt lat="47.5864695" lon="11.0575915">
                <ele>1244.7</ele>
                <time>2016-12-30T14:26:17.000Z</time>
                <name>Position 124</name>
            </trkpt>
            <trkpt lat="47.586523" lon="11.0576009">
                <ele>1211.4</ele>
                <time>2016-12-30T14:41:39.331Z</time>
                <name>Position 125</name>
            </trkpt>
            <trkpt lat="47.5863815" lon="11.0577447">
                <ele>1221.2</ele>
                <time>2016-12-30T15:05:19.931Z</time>
                <name>Position 126</name>
            </trkpt>
            <trkpt lat="47.5862944" lon="11.0578568">
                <ele>1251.6</ele>
                <time>2016-12-30T15:21:15.000Z</time>
                <name>Position 127</name>
            </trkpt>
            <trkpt lat="47.5862116" lon="11.058106">
                <ele>1254.1</ele>
                <time>2016-12-30T15:21:36.000Z</time>
                <name>Position 128</name>
            </trkpt>
            <trkpt lat="47.5860739" lon="11.0582832">
                <ele>1251.1</ele>
                <time>2016-12-30T15:22:08.000Z</time>
                <name>Position 129</name>
            </trkpt>
            <trkpt lat="47.5859071" lon="11.0583963">
                <ele>1246.9</ele>
                <time>2016-12-30T15:22:51.000Z</time>
                <name>Position 130</name>
            </trkpt>
            <trkpt lat="47.5857292" lon="11.0583444">
                <ele>1234.0</ele>
                <time>2016-12-30T15:23:43.000Z</time>
                <name>Position 131</name>
            </trkpt>
            <trkpt lat="47.5855942" lon="11.0585298">
                <ele>1227.9</ele>
                <time>2016-12-30T15:24:31.000Z</time>
                <name>Position 132</name>
            </trkpt>
            <trkpt lat="47.5854121" lon="11.0585859">
                <ele>1221.4</ele>
                <time>2016-12-30T15:24:55.000Z</time>
                <name>Position 133</name>
            </trkpt>
            <trkpt lat="47.5852269" lon="11.0586018">
                <ele>1216.8</ele>
                <time>2016-12-30T15:25:55.000Z</time>
                <name>Position 134</name>
            </trkpt>
            <trkpt lat="47.5850924" lon="11.0587908">
                <ele>1218.1</ele>
                <time>2016-12-30T15:26:11.000Z</time>
                <name>Position 135</name>
            </trkpt>
            <trkpt lat="47.5851902" lon="11.0590176">
                <ele>1204.6</ele>
                <time>2016-12-30T15:27:20.000Z</time>
                <name>Position 136</name>
            </trkpt>
            <trkpt lat="47.5853642" lon="11.0591259">
                <ele>1195.0</ele>
                <time>2016-12-30T15:27:37.000Z</time>
                <name>Position 137</name>
            </trkpt>
            <trkpt lat="47.5855092" lon="11.059288">
                <ele>1194.1</ele>
                <time>2016-12-30T15:27:56.000Z</time>
                <name>Position 138</name>
            </trkpt>
            <trkpt lat="47.5857043" lon="11.0592878">
                <ele>1194.0</ele>
                <time>2016-12-30T15:28:13.000Z</time>
                <name>Position 139</name>
            </trkpt>
            <trkpt lat="47.585842" lon="11.0594701">
                <ele>1185.5</ele>
                <time>2016-12-30T15:28:26.000Z</time>
                <name>Position 140</name>
            </trkpt>
            <trkpt lat="47.5859709" lon="11.0596566">
                <ele>1184.1</ele>
                <time>2016-12-30T15:28:52.000Z</time>
                <name>Position 141</name>
            </trkpt>
            <trkpt lat="47.5857906" lon="11.0596157">
                <ele>1187.7</ele>
                <time>2016-12-30T15:30:18.000Z</time>
                <name>Position 142</name>
            </trkpt>
            <trkpt lat="47.5856218" lon="11.0597402">
                <ele>1198.6</ele>
                <time>2016-12-30T15:30:36.000Z</time>
                <name>Position 143</name>
            </trkpt>
            <trkpt lat="47.5854335" lon="11.0597329">
                <ele>1185.8</ele>
                <time>2016-12-30T15:30:55.000Z</time>
                <name>Position 144</name>
            </trkpt>
            <trkpt lat="47.5852548" lon="11.0598122">
                <ele>1179.1</ele>
                <time>2016-12-30T15:31:18.000Z</time>
                <name>Position 145</name>
            </trkpt>
            <trkpt lat="47.585435" lon="11.0598836">
                <ele>1160.9</ele>
                <time>2016-12-30T15:32:31.000Z</time>
                <name>Position 146</name>
            </trkpt>
            <trkpt lat="47.5856199" lon="11.0599096">
                <ele>1154.9</ele>
                <time>2016-12-30T15:32:47.000Z</time>
                <name>Position 147</name>
            </trkpt>
            <trkpt lat="47.5856447" lon="11.0601763">
                <ele>1157.1</ele>
                <time>2016-12-30T15:33:03.000Z</time>
                <name>Position 148</name>
            </trkpt>
            <trkpt lat="47.5855158" lon="11.0603785">
                <ele>1159.9</ele>
                <time>2016-12-30T15:33:20.000Z</time>
                <name>Position 149</name>
            </trkpt>
            <trkpt lat="47.5856865" lon="11.0604698">
                <ele>1135.5</ele>
                <time>2016-12-30T15:34:32.000Z</time>
                <name>Position 150</name>
            </trkpt>
            <trkpt lat="47.585597" lon="11.0607224">
                <ele>1128.5</ele>
                <time>2016-12-30T15:35:02.000Z</time>
                <name>Position 151</name>
            </trkpt>
            <trkpt lat="47.5857865" lon="11.0607085">
                <ele>1113.0</ele>
                <time>2016-12-30T15:35:39.000Z</time>
                <name>Position 152</name>
            </trkpt>
            <trkpt lat="47.5856664" lon="11.060922">
                <ele>1107.7</ele>
                <time>2016-12-30T15:36:06.000Z</time>
                <name>Position 153</name>
            </trkpt>
            <trkpt lat="47.5858192" lon="11.0610626">
                <ele>1098.9</ele>
                <time>2016-12-30T15:37:03.000Z</time>
                <name>Position 154</name>
            </trkpt>
            <trkpt lat="47.5859587" lon="11.0612317">
                <ele>1098.9</ele>
                <time>2016-12-30T15:37:27.000Z</time>
                <name>Position 155</name>
            </trkpt>
            <trkpt lat="47.5860663" lon="11.0614647">
                <ele>1098.7</ele>
                <time>2016-12-30T15:38:20.000Z</time>
                <name>Position 156</name>
            </trkpt>
            <trkpt lat="47.5861668" lon="11.0617027">
                <ele>1094.9</ele>
                <time>2016-12-30T15:38:30.000Z</time>
                <name>Position 157</name>
            </trkpt>
            <trkpt lat="47.5860998" lon="11.0619554">
                <ele>1098.5</ele>
                <time>2016-12-30T15:38:46.000Z</time>
                <name>Position 158</name>
            </trkpt>
            <trkpt lat="47.5859156" lon="11.0619114">
                <ele>1072.1</ele>
                <time>2016-12-30T15:39:30.000Z</time>
                <name>Position 159</name>
            </trkpt>
            <trkpt lat="47.5859987" lon="11.0621595">
                <ele>1059.8</ele>
                <time>2016-12-30T15:40:26.000Z</time>
                <name>Position 160</name>
            </trkpt>
            <trkpt lat="47.5859653" lon="11.0624228">
                <ele>1053.9</ele>
                <time>2016-12-30T15:41:07.000Z</time>
                <name>Position 161</name>
            </trkpt>
            <trkpt lat="47.5858406" lon="11.0626056">
                <ele>1014.3</ele>
                <time>2016-12-30T15:43:11.000Z</time>
                <name>Position 162</name>
            </trkpt>
            <trkpt lat="47.5860309" lon="11.062622">
                <ele>1005.1</ele>
                <time>2016-12-30T15:43:27.000Z</time>
                <name>Position 163</name>
            </trkpt>
            <trkpt lat="47.5861905" lon="11.0627496">
                <ele>1002.7</ele>
                <time>2016-12-30T15:43:41.000Z</time>
                <name>Position 164</name>
            </trkpt>
            <trkpt lat="47.5862809" lon="11.0629922">
                <ele>1002.8</ele>
                <time>2016-12-30T15:44:00.000Z</time>
                <name>Position 165</name>
            </trkpt>
            <trkpt lat="47.5861217" lon="11.0631168">
                <ele>999.2</ele>
                <time>2016-12-30T15:44:20.000Z</time>
                <name>Position 166</name>
            </trkpt>
            <trkpt lat="47.5859625" lon="11.0632469">
                <ele>1000.7</ele>
                <time>2016-12-30T15:44:42.000Z</time>
                <name>Position 167</name>
            </trkpt>
            <trkpt lat="47.5857843" lon="11.0633151">
                <ele>995.3</ele>
                <time>2016-12-30T15:45:01.000Z</time>
                <name>Position 168</name>
            </trkpt>
            <trkpt lat="47.5859594" lon="11.063247">
                <ele>987.2</ele>
                <time>2016-12-30T15:45:26.000Z</time>
                <name>Position 169</name>
            </trkpt>
            <trkpt lat="47.5861397" lon="11.0633218">
                <ele>985.4</ele>
                <time>2016-12-30T15:45:42.000Z</time>
                <name>Position 170</name>
            </trkpt>
            <trkpt lat="47.5863096" lon="11.0634128">
                <ele>978.7</ele>
                <time>2016-12-30T15:46:02.000Z</time>
                <name>Position 171</name>
            </trkpt>
            <trkpt lat="47.586223" lon="11.0636727">
                <ele>975.0</ele>
                <time>2016-12-30T15:46:42.000Z</time>
                <name>Position 172</name>
            </trkpt>
            <trkpt lat="47.586055" lon="11.0637682">
                <ele>972.9</ele>
                <time>2016-12-30T15:47:02.000Z</time>
                <name>Position 173</name>
            </trkpt>
            <trkpt lat="47.5858945" lon="11.0639019">
                <ele>972.8</ele>
                <time>2016-12-30T15:47:27.000Z</time>
                <name>Position 174</name>
            </trkpt>
            <trkpt lat="47.586071" lon="11.0638304">
                <ele>951.9</ele>
                <time>2016-12-30T15:48:10.000Z</time>
                <name>Position 175</name>
            </trkpt>
            <trkpt lat="47.5862317" lon="11.063974">
                <ele>943.0</ele>
                <time>2016-12-30T15:48:28.000Z</time>
                <name>Position 176</name>
            </trkpt>
            <trkpt lat="47.5862952" lon="11.0642372">
                <ele>943.7</ele>
                <time>2016-12-30T15:48:49.000Z</time>
                <name>Position 177</name>
            </trkpt>
            <trkpt lat="47.5861212" lon="11.0643168">
                <ele>943.8</ele>
                <time>2016-12-30T15:49:07.000Z</time>
                <name>Position 178</name>
            </trkpt>
            <trkpt lat="47.585977" lon="11.0644973">
                <ele>936.9</ele>
                <time>2016-12-30T15:49:29.000Z</time>
                <name>Position 179</name>
            </trkpt>
            <trkpt lat="47.5860542" lon="11.0647457">
                <ele>931.1</ele>
                <time>2016-12-30T15:50:23.000Z</time>
                <name>Position 180</name>
            </trkpt>
            <trkpt lat="47.5862242" lon="11.0648529">
                <ele>923.1</ele>
                <time>2016-12-30T15:50:59.000Z</time>
                <name>Position 181</name>
            </trkpt>
            <trkpt lat="47.586405" lon="11.0648045">
                <ele>908.8</ele>
                <time>2016-12-30T15:51:24.000Z</time>
                <name>Position 182</name>
            </trkpt>
            <trkpt lat="47.5865737" lon="11.064902">
                <ele>907.0</ele>
                <time>2016-12-30T15:51:42.000Z</time>
                <name>Position 183</name>
            </trkpt>
            <trkpt lat="47.586552" lon="11.0651729">
                <ele>909.1</ele>
                <time>2016-12-30T15:52:02.000Z</time>
                <name>Position 184</name>
            </trkpt>
            <trkpt lat="47.5866194" lon="11.0654308">
                <ele>899.0</ele>
                <time>2016-12-30T15:52:47.000Z</time>
                <name>Position 185</name>
            </trkpt>
            <trkpt lat="47.5867906" lon="11.0655153">
                <ele>890.2</ele>
                <time>2016-12-30T15:53:25.000Z</time>
                <name>Position 186</name>
            </trkpt>
            <trkpt lat="47.5869537" lon="11.065659">
                <ele>878.9</ele>
                <time>2016-12-30T15:53:44.000Z</time>
                <name>Position 187</name>
            </trkpt>
            <trkpt lat="47.5871277" lon="11.065768">
                <ele>875.1</ele>
                <time>2016-12-30T15:54:00.000Z</time>
                <name>Position 188</name>
            </trkpt>
            <trkpt lat="47.5872977" lon="11.0658826">
                <ele>868.7</ele>
                <time>2016-12-30T15:54:19.000Z</time>
                <name>Position 189</name>
            </trkpt>
            <trkpt lat="47.5874758" lon="11.0659824">
                <ele>872.3</ele>
                <time>2016-12-30T15:54:36.000Z</time>
                <name>Position 190</name>
            </trkpt>
            <trkpt lat="47.5876602" lon="11.0660072">
                <ele>868.1</ele>
                <time>2016-12-30T15:54:59.000Z</time>
                <name>Position 191</name>
            </trkpt>
            <trkpt lat="47.5878419" lon="11.0660329">
                <ele>868.1</ele>
                <time>2016-12-30T15:55:18.000Z</time>
                <name>Position 192</name>
            </trkpt>
            <trkpt lat="47.5880053" lon="11.066161">
                <ele>857.9</ele>
                <time>2016-12-30T15:56:09.000Z</time>
                <name>Position 193</name>
            </trkpt>
            <trkpt lat="47.5881745" lon="11.0660651">
                <ele>859.1</ele>
                <time>2016-12-30T15:56:25.000Z</time>
                <name>Position 194</name>
            </trkpt>
            <trkpt lat="47.5883182" lon="11.0658835">
                <ele>858.3</ele>
                <time>2016-12-30T15:56:41.000Z</time>
                <name>Position 195</name>
            </trkpt>
            <trkpt lat="47.5885144" lon="11.0658658">
                <ele>850.7</ele>
                <time>2016-12-30T15:57:27.000Z</time>
                <name>Position 196</name>
            </trkpt>
            <trkpt lat="47.5886854" lon="11.0659512">
                <ele>846.2</ele>
                <time>2016-12-30T15:57:37.000Z</time>
                <name>Position 197</name>
            </trkpt>
            <trkpt lat="47.5888637" lon="11.0660168">
                <ele>846.0</ele>
                <time>2016-12-30T15:57:54.000Z</time>
                <name>Position 198</name>
            </trkpt>
            <trkpt lat="47.5890497" lon="11.0660632">
                <ele>845.9</ele>
                <time>2016-12-30T15:58:07.000Z</time>
                <name>Position 199</name>
            </trkpt>
            <trkpt lat="47.5892352" lon="11.0660609">
                <ele>841.9</ele>
                <time>2016-12-30T15:58:28.000Z</time>
                <name>Position 200</name>
            </trkpt>
            <trkpt lat="47.5893666" lon="11.0658573">
                <ele>843.2</ele>
                <time>2016-12-30T15:58:40.000Z</time>
                <name>Position 201</name>
            </trkpt>
            <trkpt lat="47.5895299" lon="11.065744">
                <ele>841.9</ele>
                <time>2016-12-30T15:58:52.000Z</time>
                <name>Position 202</name>
            </trkpt>
            <trkpt lat="47.5897036" lon="11.0656606">
                <ele>841.9</ele>
                <time>2016-12-30T15:59:06.000Z</time>
                <name>Position 203</name>
            </trkpt>
            <trkpt lat="47.5898799" lon="11.0655466">
                <ele>842.7</ele>
                <time>2016-12-30T15:59:19.000Z</time>
                <name>Position 204</name>
            </trkpt>
            <trkpt lat="47.5900572" lon="11.0654573">
                <ele>842.1</ele>
                <time>2016-12-30T16:00:02.000Z</time>
                <name>Position 205</name>
            </trkpt>
            <trkpt lat="47.590205" lon="11.0652783">
                <ele>836.9</ele>
                <time>2016-12-30T16:00:20.000Z</time>
                <name>Position 206</name>
            </trkpt>
            <trkpt lat="47.5903744" lon="11.0651658">
                <ele>836.9</ele>
                <time>2016-12-30T16:00:34.000Z</time>
                <name>Position 207</name>
            </trkpt>
            <trkpt lat="47.5905543" lon="11.0650814">
                <ele>835.9</ele>
                <time>2016-12-30T16:00:48.000Z</time>
                <name>Position 208</name>
            </trkpt>
            <trkpt lat="47.5907343" lon="11.0649873">
                <ele>836.9</ele>
                <time>2016-12-30T16:01:02.000Z</time>
                <name>Position 209</name>
            </trkpt>
            <trkpt lat="47.5909105" lon="11.064876">
                <ele>840.0</ele>
                <time>2016-12-30T16:01:16.000Z</time>
                <name>Position 210</name>
            </trkpt>
            <trkpt lat="47.5910889" lon="11.0647897">
                <ele>839.9</ele>
                <time>2016-12-30T16:01:30.000Z</time>
                <name>Position 211</name>
            </trkpt>
            <trkpt lat="47.5912667" lon="11.0647125">
                <ele>842.9</ele>
                <time>2016-12-30T16:01:43.000Z</time>
                <name>Position 212</name>
            </trkpt>
            <trkpt lat="47.5914565" lon="11.0646484">
                <ele>843.0</ele>
                <time>2016-12-30T16:01:56.000Z</time>
                <name>Position 213</name>
            </trkpt>
            <trkpt lat="47.5916353" lon="11.0645504">
                <ele>840.9</ele>
                <time>2016-12-30T16:02:11.000Z</time>
                <name>Position 214</name>
            </trkpt>
            <trkpt lat="47.5918207" lon="11.0644821">
                <ele>842.7</ele>
                <time>2016-12-30T16:02:31.000Z</time>
                <name>Position 215</name>
            </trkpt>
            <trkpt lat="47.5920087" lon="11.0644353">
                <ele>842.1</ele>
                <time>2016-12-30T16:02:44.000Z</time>
                <name>Position 216</name>
            </trkpt>
            <trkpt lat="47.592201" lon="11.064401">
                <ele>838.0</ele>
                <time>2016-12-30T16:02:57.000Z</time>
                <name>Position 217</name>
            </trkpt>
            <trkpt lat="47.5923842" lon="11.0643386">
                <ele>838.3</ele>
                <time>2016-12-30T16:03:10.000Z</time>
                <name>Position 218</name>
            </trkpt>
            <trkpt lat="47.5925713" lon="11.0643263">
                <ele>838.7</ele>
                <time>2016-12-30T16:03:27.000Z</time>
                <name>Position 219</name>
            </trkpt>
            <trkpt lat="47.5927529" lon="11.0642913">
                <ele>838.9</ele>
                <time>2016-12-30T16:03:39.000Z</time>
                <name>Position 220</name>
            </trkpt>
            <trkpt lat="47.5929288" lon="11.0642343">
                <ele>844.9</ele>
                <time>2016-12-30T16:03:55.000Z</time>
                <name>Position 221</name>
            </trkpt>
            <trkpt lat="47.593105" lon="11.0641576">
                <ele>842.9</ele>
                <time>2016-12-30T16:04:14.000Z</time>
                <name>Position 222</name>
            </trkpt>
        </trkseg>
    </trk>
</gpx>
