<?xml version="1.0" encoding="UTF-8"?>
<gpx
  version="1.0"
  creator="GPSBabel - http://www.gpsbabel.org"
  xmlns:xsi="http://www.w3.org/2001/XMLSchema-instance"
  xmlns="http://www.topografix.com/GPX/1/0"
  xsi:schemaLocation="http://www.topografix.com/GPX/1/0 http://www.topografix.com/GPX/1/0/gpx.xsd">
<time>2013-07-23T11:27:38Z</time>
<bounds minlat="45.882040000" minlon="10.821650000" maxlat="45.893980000" maxlon="10.837910000"/>
<trk>
  <name>Via dell&apos; Amicizia</name>
<trkseg>
<trkpt lat="45.887020000" lon="10.837820000">
  <ele>85.000000</ele>
</trkpt>
<trkpt lat="45.886590000" lon="10.837680000">
  <ele>88.000000</ele>
</trkpt>
<trkpt lat="45.886600000" lon="10.837510000">
  <ele>89.000000</ele>
</trkpt>
<trkpt lat="45.886720000" lon="10.837190000">
  <ele>95.000000</ele>
</trkpt>
<trkpt lat="45.886650000" lon="10.837150000">
  <ele>97.000000</ele>
</trkpt>
<trkpt lat="45.886730000" lon="10.836980000">
  <ele>102.000000</ele>
</trkpt>
<trkpt lat="45.886650000" lon="10.836960000">
  <ele>104.000000</ele>
</trkpt>
<trkpt lat="45.886710000" lon="10.836880000">
  <ele>107.000000</ele>
</trkpt>
<trkpt lat="45.886470000" lon="10.836880000">
  <ele>112.000000</ele>
</trkpt>
<trkpt lat="45.886740000" lon="10.836760000">
  <ele>114.000000</ele>
</trkpt>
<trkpt lat="45.886160000" lon="10.836780000">
  <ele>122.000000</ele>
</trkpt>
<trkpt lat="45.886780000" lon="10.836350000">
  <ele>135.000000</ele>
</trkpt>
<trkpt lat="45.886500000" lon="10.836290000">
  <ele>141.000000</ele>
</trkpt>
<trkpt lat="45.886950000" lon="10.836090000">
  <ele>148.000000</ele>
</trkpt>
<trkpt lat="45.886530000" lon="10.836060000">
  <ele>155.000000</ele>
</trkpt>
<trkpt lat="45.886770000" lon="10.835870000">
  <ele>160.000000</ele>
</trkpt>
<trkpt lat="45.886390000" lon="10.835790000">
  <ele>168.000000</ele>
</trkpt>
<trkpt lat="45.886270000" lon="10.835820000">
  <ele>171.000000</ele>
</trkpt>
<trkpt lat="45.886360000" lon="10.835710000">
  <ele>174.000000</ele>
</trkpt>
<trkpt lat="45.886240000" lon="10.835680000">
  <ele>176.000000</ele>
</trkpt>
<trkpt lat="45.886340000" lon="10.835580000">
  <ele>179.000000</ele>
</trkpt>
<trkpt lat="45.885910000" lon="10.835510000">
  <ele>187.000000</ele>
</trkpt>
<trkpt lat="45.886100000" lon="10.835390000">
  <ele>191.000000</ele>
</trkpt>
<trkpt lat="45.885920000" lon="10.835330000">
  <ele>194.000000</ele>
</trkpt>
<trkpt lat="45.886240000" lon="10.835190000">
  <ele>201.000000</ele>
</trkpt>
<trkpt lat="45.885690000" lon="10.835070000">
  <ele>207.000000</ele>
</trkpt>
<trkpt lat="45.885360000" lon="10.835280000">
  <ele>210.000000</ele>
</trkpt>
<trkpt lat="45.885000000" lon="10.835670000">
  <ele>214.000000</ele>
</trkpt>
<trkpt lat="45.884770000" lon="10.835700000">
  <ele>226.000000</ele>
</trkpt>
<trkpt lat="45.884830000" lon="10.835520000">
  <ele>233.000000</ele>
</trkpt>
<trkpt lat="45.884660000" lon="10.835000000">
  <ele>253.000000</ele>
</trkpt>
<trkpt lat="45.884370000" lon="10.834780000">
  <ele>265.000000</ele>
</trkpt>
<trkpt lat="45.883960000" lon="10.834610000">
  <ele>279.000000</ele>
</trkpt>
<trkpt lat="45.884560000" lon="10.834240000">
  <ele>298.000000</ele>
</trkpt>
<trkpt lat="45.883950000" lon="10.833850000">
  <ele>312.000000</ele>
</trkpt>
<trkpt lat="45.883660000" lon="10.833820000">
  <ele>312.000000</ele>
</trkpt>
<trkpt lat="45.883520000" lon="10.833900000">
  <ele>312.000000</ele>
</trkpt>
<trkpt lat="45.883530000" lon="10.833770000">
  <ele>315.000000</ele>
</trkpt>
<trkpt lat="45.883170000" lon="10.833720000">
  <ele>325.000000</ele>
</trkpt>
<trkpt lat="45.883540000" lon="10.833210000">
  <ele>335.000000</ele>
</trkpt>
<trkpt lat="45.883420000" lon="10.833270000">
  <ele>336.000000</ele>
</trkpt>
<trkpt lat="45.883050000" lon="10.833460000">
  <ele>341.000000</ele>
</trkpt>
<trkpt lat="45.882820000" lon="10.833290000">
  <ele>345.000000</ele>
</trkpt>
<trkpt lat="45.882040000" lon="10.833740000">
  <ele>357.000000</ele>
</trkpt>
<trkpt lat="45.882440000" lon="10.833100000">
  <ele>376.000000</ele>
</trkpt>
<trkpt lat="45.882650000" lon="10.832460000">
  <ele>395.000000</ele>
</trkpt>
<trkpt lat="45.883150000" lon="10.832260000">
  <ele>408.000000</ele>
</trkpt>
<trkpt lat="45.883620000" lon="10.832170000">
  <ele>415.000000</ele>
</trkpt>
<trkpt lat="45.883260000" lon="10.831980000">
  <ele>422.000000</ele>
</trkpt>
<trkpt lat="45.883590000" lon="10.831880000">
  <ele>428.000000</ele>
</trkpt>
<trkpt lat="45.884920000" lon="10.831740000">
  <ele>448.000000</ele>
</trkpt>
<trkpt lat="45.884540000" lon="10.831360000">
  <ele>469.000000</ele>
</trkpt>
<trkpt lat="45.884820000" lon="10.831180000">
  <ele>477.000000</ele>
</trkpt>
<trkpt lat="45.884680000" lon="10.831060000">
  <ele>481.000000</ele>
</trkpt>
<trkpt lat="45.885210000" lon="10.831060000">
  <ele>495.000000</ele>
</trkpt>
<trkpt lat="45.884660000" lon="10.830720000">
  <ele>512.000000</ele>
</trkpt>
<trkpt lat="45.884450000" lon="10.830650000">
  <ele>519.000000</ele>
</trkpt>
<trkpt lat="45.885040000" lon="10.830420000">
  <ele>541.000000</ele>
</trkpt>
<trkpt lat="45.884850000" lon="10.830170000">
  <ele>548.000000</ele>
</trkpt>
<trkpt lat="45.884470000" lon="10.830250000">
  <ele>548.000000</ele>
</trkpt>
<trkpt lat="45.884180000" lon="10.830260000">
  <ele>554.000000</ele>
</trkpt>
<trkpt lat="45.883910000" lon="10.830050000">
  <ele>567.000000</ele>
</trkpt>
<trkpt lat="45.883740000" lon="10.829960000">
  <ele>575.000000</ele>
</trkpt>
<trkpt lat="45.883640000" lon="10.829650000">
  <ele>584.000000</ele>
</trkpt>
<trkpt lat="45.883630000" lon="10.829590000">
  <ele>586.000000</ele>
</trkpt>
<trkpt lat="45.883430000" lon="10.829460000">
  <ele>593.000000</ele>
</trkpt>
<trkpt lat="45.883320000" lon="10.829440000">
  <ele>597.000000</ele>
</trkpt>
<trkpt lat="45.883000000" lon="10.829220000">
  <ele>606.000000</ele>
</trkpt>
<trkpt lat="45.883880000" lon="10.829060000">
  <ele>630.000000</ele>
</trkpt>
<trkpt lat="45.884300000" lon="10.828510000">
  <ele>650.000000</ele>
</trkpt>
<trkpt lat="45.884210000" lon="10.828400000">
  <ele>654.000000</ele>
</trkpt>
<trkpt lat="45.883830000" lon="10.828610000">
  <ele>661.000000</ele>
</trkpt>
<trkpt lat="45.883760000" lon="10.828510000">
  <ele>662.000000</ele>
</trkpt>
<trkpt lat="45.883460000" lon="10.828670000">
  <ele>668.000000</ele>
</trkpt>
<trkpt lat="45.883610000" lon="10.828150000">
  <ele>699.000000</ele>
</trkpt>
<trkpt lat="45.884210000" lon="10.827810000">
  <ele>740.000000</ele>
</trkpt>
<trkpt lat="45.884150000" lon="10.827730000">
  <ele>745.000000</ele>
</trkpt>
<trkpt lat="45.883970000" lon="10.827730000">
  <ele>756.000000</ele>
</trkpt>
<trkpt lat="45.884000000" lon="10.827580000">
  <ele>765.000000</ele>
</trkpt>
<trkpt lat="45.884270000" lon="10.827390000">
  <ele>791.000000</ele>
</trkpt>
<trkpt lat="45.884320000" lon="10.826900000">
  <ele>820.000000</ele>
</trkpt>
<trkpt lat="45.884540000" lon="10.826170000">
  <ele>870.000000</ele>
</trkpt>
<trkpt lat="45.884580000" lon="10.825720000">
  <ele>901.000000</ele>
</trkpt>
<trkpt lat="45.884580000" lon="10.825460000">
  <ele>919.000000</ele>
</trkpt>
<trkpt lat="45.885160000" lon="10.825200000">
  <ele>978.000000</ele>
</trkpt>
<trkpt lat="45.885180000" lon="10.825100000">
  <ele>985.000000</ele>
</trkpt>
<trkpt lat="45.885530000" lon="10.824520000">
  <ele>1071.000000</ele>
</trkpt>
<trkpt lat="45.886020000" lon="10.824000000">
  <ele>1139.000000</ele>
</trkpt>
<trkpt lat="45.886110000" lon="10.823790000">
  <ele>1153.000000</ele>
</trkpt>
<trkpt lat="45.886010000" lon="10.823520000">
  <ele>1169.000000</ele>
</trkpt>
<trkpt lat="45.886000000" lon="10.823280000">
  <ele>1181.000000</ele>
</trkpt>
<trkpt lat="45.886300000" lon="10.822630000">
  <ele>1209.000000</ele>
</trkpt>
<trkpt lat="45.886040000" lon="10.822080000">
  <ele>1218.000000</ele>
</trkpt>
<trkpt lat="45.886240000" lon="10.821650000">
  <ele>1206.000000</ele>
</trkpt>
<trkpt lat="45.886510000" lon="10.822560000">
  <ele>1176.000000</ele>
</trkpt>
<trkpt lat="45.887240000" lon="10.821650000">
  <ele>1113.000000</ele>
</trkpt>
<trkpt lat="45.887680000" lon="10.822680000">
  <ele>1072.000000</ele>
</trkpt>
<trkpt lat="45.888090000" lon="10.822130000">
  <ele>1031.000000</ele>
</trkpt>
<trkpt lat="45.888640000" lon="10.822600000">
  <ele>982.000000</ele>
</trkpt>
<trkpt lat="45.888600000" lon="10.823290000">
  <ele>965.000000</ele>
</trkpt>
<trkpt lat="45.889070000" lon="10.823760000">
  <ele>929.000000</ele>
</trkpt>
<trkpt lat="45.890080000" lon="10.823370000">
  <ele>812.000000</ele>
</trkpt>
<trkpt lat="45.890370000" lon="10.824100000">
  <ele>770.000000</ele>
</trkpt>
<trkpt lat="45.892320000" lon="10.825640000">
  <ele>578.000000</ele>
</trkpt>
<trkpt lat="45.893640000" lon="10.826190000">
  <ele>474.000000</ele>
</trkpt>
<trkpt lat="45.893530000" lon="10.826410000">
  <ele>466.000000</ele>
</trkpt>
<trkpt lat="45.893930000" lon="10.827250000">
  <ele>443.000000</ele>
</trkpt>
<trkpt lat="45.893980000" lon="10.827630000">
  <ele>443.000000</ele>
</trkpt>
<trkpt lat="45.893760000" lon="10.828220000">
  <ele>437.000000</ele>
</trkpt>
<trkpt lat="45.893880000" lon="10.828830000">
  <ele>426.000000</ele>
</trkpt>
<trkpt lat="45.893800000" lon="10.830060000">
  <ele>418.000000</ele>
</trkpt>
<trkpt lat="45.893230000" lon="10.830360000">
  <ele>420.000000</ele>
</trkpt>
<trkpt lat="45.892700000" lon="10.830490000">
  <ele>416.000000</ele>
</trkpt>
<trkpt lat="45.891820000" lon="10.830490000">
  <ele>399.000000</ele>
</trkpt>
<trkpt lat="45.890770000" lon="10.830470000">
  <ele>376.000000</ele>
</trkpt>
<trkpt lat="45.890010000" lon="10.830900000">
  <ele>360.000000</ele>
</trkpt>
<trkpt lat="45.889100000" lon="10.831850000">
  <ele>334.000000</ele>
</trkpt>
<trkpt lat="45.888220000" lon="10.831850000">
  <ele>334.000000</ele>
</trkpt>
<trkpt lat="45.887710000" lon="10.831900000">
  <ele>331.000000</ele>
</trkpt>
<trkpt lat="45.887240000" lon="10.832030000">
  <ele>329.000000</ele>
</trkpt>
<trkpt lat="45.886140000" lon="10.832420000">
  <ele>326.000000</ele>
</trkpt>
<trkpt lat="45.885300000" lon="10.833230000">
  <ele>319.000000</ele>
</trkpt>
<trkpt lat="45.884970000" lon="10.833530000">
  <ele>328.000000</ele>
</trkpt>
<trkpt lat="45.883830000" lon="10.833170000">
  <ele>334.000000</ele>
</trkpt>
<trkpt lat="45.883170000" lon="10.833820000">
  <ele>312.000000</ele>
</trkpt>
<trkpt lat="45.884550000" lon="10.834160000">
  <ele>293.000000</ele>
</trkpt>
<trkpt lat="45.883910000" lon="10.834590000">
  <ele>271.000000</ele>
</trkpt>
<trkpt lat="45.884680000" lon="10.834910000">
  <ele>242.000000</ele>
</trkpt>
<trkpt lat="45.884750000" lon="10.835450000">
  <ele>221.000000</ele>
</trkpt>
<trkpt lat="45.884800000" lon="10.835860000">
  <ele>213.000000</ele>
</trkpt>
<trkpt lat="45.885300000" lon="10.835410000">
  <ele>209.000000</ele>
</trkpt>
<trkpt lat="45.885590000" lon="10.835050000">
  <ele>209.000000</ele>
</trkpt>
<trkpt lat="45.886160000" lon="10.835040000">
  <ele>195.000000</ele>
</trkpt>
<trkpt lat="45.885870000" lon="10.835420000">
  <ele>181.000000</ele>
</trkpt>
<trkpt lat="45.886610000" lon="10.835870000">
  <ele>147.000000</ele>
</trkpt>
<trkpt lat="45.886750000" lon="10.836130000">
  <ele>136.000000</ele>
</trkpt>
<trkpt lat="45.886580000" lon="10.836400000">
  <ele>129.000000</ele>
</trkpt>
<trkpt lat="45.886050000" lon="10.836760000">
  <ele>120.000000</ele>
</trkpt>
<trkpt lat="45.886730000" lon="10.836660000">
  <ele>105.000000</ele>
</trkpt>
<trkpt lat="45.886550000" lon="10.837410000">
  <ele>86.000000</ele>
</trkpt>
<trkpt lat="45.887110000" lon="10.837910000">
  <ele>85.000000</ele>
</trkpt>
</trkseg>
</trk>
</gpx>
