<?xml version="1.0" encoding="UTF-8"?>
<gpx xmlns="http://www.topografix.com/GPX/1/1" creator="MTK - http://www.toursprung.com" version="1.1"
   xmlns:xsi="http://www.w3.org/2001/XMLSchema-instance"
   xsi:schemaLocation="http://www.topografix.com/GPX/1/1 http://www.topografix.com/GPX/1/1/gpx.xsd">
   <metadata>
      <name><![CDATA[Via ferrata Maria e Andrea Ferrari - Ra Bujela]]></name>
      
   </metadata>
   
      <trk><name><![CDATA[Via ferrata Maria e Andrea Ferrari - Ra Bujela]]></name><trkseg>
         <trkpt lat="46.5407147" lon="12.0990462"><ele>1656</ele></trkpt>
<trkpt lat="46.541315576531" lon="12.099022876721"><ele>1660</ele></trkpt>
<trkpt lat="46.541451031492" lon="12.098541871164"><ele>1665</ele></trkpt>
<trkpt lat="46.541518630738" lon="12.098099552115"><ele>1671</ele></trkpt>
<trkpt lat="46.54142890846" lon="12.097336793918"><ele>1680</ele></trkpt>
<trkpt lat="46.541381529346" lon="12.097025149738"><ele>1685</ele></trkpt>
<trkpt lat="46.541267574102" lon="12.096528215344"><ele>1693</ele></trkpt>
<trkpt lat="46.54115515778" lon="12.09617295582"><ele>1698</ele></trkpt>
<trkpt lat="46.540781792868" lon="12.095870740475"><ele>1706</ele></trkpt>
<trkpt lat="46.5406124" lon="12.0957046"><ele>1711</ele></trkpt>
<trkpt lat="46.5405391" lon="12.0954553"><ele>1716</ele></trkpt>
<trkpt lat="46.5404292" lon="12.0952392"><ele>1721</ele></trkpt>
<trkpt lat="46.5403344" lon="12.0950034"><ele>1727</ele></trkpt>
<trkpt lat="46.540287" lon="12.0947507"><ele>1732</ele></trkpt>
<trkpt lat="46.5402336" lon="12.0944942"><ele>1738</ele></trkpt>
<trkpt lat="46.5401686" lon="12.0942478"><ele>1744</ele></trkpt>
<trkpt lat="46.5400674" lon="12.0940294"><ele>1750</ele></trkpt>
<trkpt lat="46.5399011" lon="12.0939087"><ele>1754</ele></trkpt>
<trkpt lat="46.5397499" lon="12.0937472"><ele>1757</ele></trkpt>
<trkpt lat="46.539342666062" lon="12.093446984656"><ele>1763</ele></trkpt>
<trkpt lat="46.539132350202" lon="12.092825575394"><ele>1774</ele></trkpt>
<trkpt lat="46.539287370438" lon="12.092200537296"><ele>1786</ele></trkpt>
<trkpt lat="46.539504311151" lon="12.091634355017"><ele>1800</ele></trkpt>
<trkpt lat="46.539661152" lon="12.091241078296"><ele>1813</ele></trkpt>
<trkpt lat="46.539688835381" lon="12.091210182001"><ele>1815</ele></trkpt>
<trkpt lat="46.53981375457" lon="12.090756173541"><ele>1828</ele></trkpt>
<trkpt lat="46.539325740552" lon="12.090645890738"><ele>1842</ele></trkpt>
<trkpt lat="46.539546474238" lon="12.090250229361"><ele>1858</ele></trkpt>
<trkpt lat="46.539384411841" lon="12.089869231213"><ele>1875</ele></trkpt>
<trkpt lat="46.539313230361" lon="12.089687646558"><ele>1884</ele></trkpt>
<trkpt lat="46.539363891433" lon="12.08951494841"><ele>1891</ele></trkpt>
<trkpt lat="46.539010298614" lon="12.089387521426"><ele>1909</ele></trkpt>
<trkpt lat="46.539071000863" lon="12.089069661902"><ele>1916</ele></trkpt>
<trkpt lat="46.539254538262" lon="12.088798033066"><ele>1929</ele></trkpt>
<trkpt lat="46.53915934087" lon="12.08858634841"><ele>1940</ele></trkpt>
<trkpt lat="46.539178222125" lon="12.088223360049"><ele>1958</ele></trkpt>
<trkpt lat="46.538964087269" lon="12.08806040423"><ele>1973</ele></trkpt>
<trkpt lat="46.539116586165" lon="12.087728931213"><ele>1983</ele></trkpt>
<trkpt lat="46.539192165199" lon="12.087317027509"><ele>1997</ele></trkpt>
<trkpt lat="46.539321722556" lon="12.086904723804"><ele>2008</ele></trkpt>
<trkpt lat="46.539590779323" lon="12.086281043378"><ele>2019</ele></trkpt>
<trkpt lat="46.539558519343" lon="12.086003346033"><ele>2024</ele></trkpt>
<trkpt lat="46.539457776367" lon="12.085614682803"><ele>2034</ele></trkpt>
<trkpt lat="46.539286852951" lon="12.085265117197"><ele>2043</ele></trkpt>
<trkpt lat="46.539170339768" lon="12.085044405557"><ele>2048</ele></trkpt>
<trkpt lat="46.538966" lon="12.0848957"><ele>2053</ele></trkpt>
<trkpt lat="46.5388451" lon="12.0851067"><ele>2056</ele></trkpt>
<trkpt lat="46.538809" lon="12.0853785"><ele>2058</ele></trkpt>
<trkpt lat="46.5387574" lon="12.085634"><ele>2063</ele></trkpt>
<trkpt lat="46.5385921" lon="12.0857379"><ele>2071</ele></trkpt>
<trkpt lat="46.5384169" lon="12.0856512"><ele>2075</ele></trkpt>
<trkpt lat="46.5382332" lon="12.0856235"><ele>2079</ele></trkpt>
<trkpt lat="46.5380576" lon="12.0855614"><ele>2082</ele></trkpt>
<trkpt lat="46.5379084" lon="12.0854123"><ele>2084</ele></trkpt>
<trkpt lat="46.537827" lon="12.0851619"><ele>2087</ele></trkpt>
<trkpt lat="46.537876" lon="12.0849011"><ele>2089</ele></trkpt>
<trkpt lat="46.5380466" lon="12.0847859"><ele>2092</ele></trkpt>
<trkpt lat="46.5380836" lon="12.0845199"><ele>2095</ele></trkpt>
<trkpt lat="46.5381031" lon="12.0842581"><ele>2098</ele></trkpt>
<trkpt lat="46.5381131" lon="12.0839955"><ele>2101</ele></trkpt>
<trkpt lat="46.5381573" lon="12.0837416"><ele>2103</ele></trkpt>
<trkpt lat="46.5381992" lon="12.0834813"><ele>2107</ele></trkpt>
<trkpt lat="46.5381767" lon="12.0832129"><ele>2111</ele></trkpt>
<trkpt lat="46.5380717" lon="12.0829983"><ele>2114</ele></trkpt>
<trkpt lat="46.537968" lon="12.082778"><ele>2117</ele></trkpt>
<trkpt lat="46.537905" lon="12.0825315"><ele>2119</ele></trkpt>
<trkpt lat="46.5377265" lon="12.082566"><ele>2121</ele></trkpt>
<trkpt lat="46.537619" lon="12.0823501"><ele>2127</ele></trkpt>
<trkpt lat="46.5375594" lon="12.082103"><ele>2132</ele></trkpt>
<trkpt lat="46.5377395" lon="12.0820982"><ele>2154</ele></trkpt>
<trkpt lat="46.5377412" lon="12.0818364"><ele>2181</ele></trkpt>
<trkpt lat="46.5377875" lon="12.0815837"><ele>2203</ele></trkpt>
<trkpt lat="46.5377331" lon="12.0813307"><ele>2221</ele></trkpt>
<trkpt lat="46.5377034" lon="12.0810721"><ele>2230</ele></trkpt>
<trkpt lat="46.5376854" lon="12.0808054"><ele>2230</ele></trkpt>
<trkpt lat="46.5376176" lon="12.0805631"><ele>2228</ele></trkpt>
<trkpt lat="46.537533" lon="12.0803307"><ele>2224</ele></trkpt>
<trkpt lat="46.537409" lon="12.0801297"><ele>2221</ele></trkpt>
<trkpt lat="46.5373677" lon="12.0798556"><ele>2221</ele></trkpt>
<trkpt lat="46.5373014" lon="12.0796021"><ele>2220</ele></trkpt>
<trkpt lat="46.5374417" lon="12.0794379"><ele>2215</ele></trkpt>
<trkpt lat="46.5375762" lon="12.0792531"><ele>2209</ele></trkpt>
<trkpt lat="46.5377419" lon="12.0791138"><ele>2202</ele></trkpt>
<trkpt lat="46.5378865" lon="12.0792886"><ele>2194</ele></trkpt>
<trkpt lat="46.5379711" lon="12.0795322"><ele>2188</ele></trkpt>
<trkpt lat="46.5380332" lon="12.0797821"><ele>2182</ele></trkpt>
<trkpt lat="46.5381039" lon="12.0800387"><ele>2175</ele></trkpt>
<trkpt lat="46.5381906" lon="12.0802827"><ele>2169</ele></trkpt>
<trkpt lat="46.5382697" lon="12.0805231"><ele>2162</ele></trkpt>
<trkpt lat="46.5382989" lon="12.0807813"><ele>2156</ele></trkpt>
<trkpt lat="46.5383836" lon="12.0810136"><ele>2149</ele></trkpt>
<trkpt lat="46.5384168" lon="12.0812852"><ele>2142</ele></trkpt>
<trkpt lat="46.5384526" lon="12.0815508"><ele>2135</ele></trkpt>
<trkpt lat="46.5384537" lon="12.0818212"><ele>2128</ele></trkpt>
<trkpt lat="46.5384681" lon="12.0820918"><ele>2122</ele></trkpt>
<trkpt lat="46.538439" lon="12.0823696"><ele>2117</ele></trkpt>
<trkpt lat="46.5383949" lon="12.0826409"><ele>2112</ele></trkpt>
<trkpt lat="46.5383732" lon="12.0829193"><ele>2107</ele></trkpt>
<trkpt lat="46.5383134" lon="12.0831778"><ele>2105</ele></trkpt>
<trkpt lat="46.5382247" lon="12.0834173"><ele>2102</ele></trkpt>
<trkpt lat="46.5381796" lon="12.0836778"><ele>2099</ele></trkpt>
<trkpt lat="46.5381365" lon="12.0839517"><ele>2096</ele></trkpt>
<trkpt lat="46.5381259" lon="12.0842277"><ele>2094</ele></trkpt>
<trkpt lat="46.5380848" lon="12.0844973"><ele>2091</ele></trkpt>
<trkpt lat="46.5380426" lon="12.0847616"><ele>2088</ele></trkpt>
<trkpt lat="46.5378861" lon="12.084913"><ele>2085</ele></trkpt>
<trkpt lat="46.5377237" lon="12.0850516"><ele>2083</ele></trkpt>
<trkpt lat="46.5375592" lon="12.0851734"><ele>2083</ele></trkpt>
<trkpt lat="46.537734" lon="12.0852447"><ele>2082</ele></trkpt>
<trkpt lat="46.5379006" lon="12.0853597"><ele>2080</ele></trkpt>
<trkpt lat="46.538031" lon="12.0855653"><ele>2077</ele></trkpt>
<trkpt lat="46.5381978" lon="12.0856653"><ele>2073</ele></trkpt>
<trkpt lat="46.5383895" lon="12.0857114"><ele>2068</ele></trkpt>
<trkpt lat="46.5385574" lon="12.0858062"><ele>2062</ele></trkpt>
<trkpt lat="46.538742" lon="12.0857696"><ele>2057</ele></trkpt>
<trkpt lat="46.5387834" lon="12.0854986"><ele>2054</ele></trkpt>
<trkpt lat="46.5388239" lon="12.0852225"><ele>2050</ele></trkpt>
<trkpt lat="46.5389508" lon="12.0850207"><ele>2048</ele></trkpt>
<trkpt lat="46.5390933" lon="12.0848487"><ele>2045</ele></trkpt>
<trkpt lat="46.539269917251" lon="12.085255859525"><ele>2035</ele></trkpt>
<trkpt lat="46.539469098974" lon="12.085584514017"><ele>2025</ele></trkpt>
<trkpt lat="46.53951295463" lon="12.085856097345"><ele>2019</ele></trkpt>
<trkpt lat="46.539591966704" lon="12.086231175919"><ele>2012</ele></trkpt>
<trkpt lat="46.539565601625" lon="12.086448777771"><ele>2010</ele></trkpt>
<trkpt lat="46.539307004421" lon="12.086889167984"><ele>1999</ele></trkpt>
<trkpt lat="46.53919548551" lon="12.087311150787"><ele>1984</ele></trkpt>
<trkpt lat="46.539113626579" lon="12.087734583328"><ele>1971</ele></trkpt>
<trkpt lat="46.538975626846" lon="12.088044698673"><ele>1953</ele></trkpt>
<trkpt lat="46.539177676136" lon="12.08828171727"><ele>1935</ele></trkpt>
<trkpt lat="46.539152283421" lon="12.088514175394"><ele>1924</ele></trkpt>
<trkpt lat="46.539248984229" lon="12.08882774841"><ele>1915</ele></trkpt>
<trkpt lat="46.539065124296" lon="12.089045733066"><ele>1907</ele></trkpt>
<trkpt lat="46.539023364954" lon="12.089398063754"><ele>1894</ele></trkpt>
<trkpt lat="46.539363280505" lon="12.089534217722"><ele>1873</ele></trkpt>
<trkpt lat="46.539321240475" lon="12.089678271689"><ele>1867</ele></trkpt>
<trkpt lat="46.539377060506" lon="12.089843512164"><ele>1861</ele></trkpt>
<trkpt lat="46.539560717053" lon="12.090270015869"><ele>1847</ele></trkpt>
<trkpt lat="46.539375540252" lon="12.090384012164"><ele>1841</ele></trkpt>
<trkpt lat="46.539280084855" lon="12.090632598673"><ele>1834</ele></trkpt>
<trkpt lat="46.539852971639" lon="12.090898945755"><ele>1812</ele></trkpt>
<trkpt lat="46.539422716325" lon="12.091830277771"><ele>1786</ele></trkpt>
<trkpt lat="46.539294114577" lon="12.092307956344"><ele>1776</ele></trkpt>
<trkpt lat="46.53913653261" lon="12.092837065607"><ele>1768</ele></trkpt>
<trkpt lat="46.539377328389" lon="12.093487032541"><ele>1759</ele></trkpt>
<trkpt lat="46.539606924764" lon="12.093635415344"><ele>1755</ele></trkpt>
<trkpt lat="46.539886" lon="12.093858"><ele>1747</ele></trkpt>
<trkpt lat="46.5399657" lon="12.0940972"><ele>1742</ele></trkpt>
<trkpt lat="46.5400543" lon="12.0943288"><ele>1735</ele></trkpt>
<trkpt lat="46.5401214" lon="12.0945844"><ele>1729</ele></trkpt>
<trkpt lat="46.5401785" lon="12.0948364"><ele>1724</ele></trkpt>
<trkpt lat="46.540279" lon="12.0950634"><ele>1718</ele></trkpt>
<trkpt lat="46.5403539" lon="12.0953112"><ele>1713</ele></trkpt>
<trkpt lat="46.5404125" lon="12.0955778"><ele>1708</ele></trkpt>
<trkpt lat="46.5406320014" lon="12.095778315869"><ele>1703</ele></trkpt>
<trkpt lat="46.540978128393" lon="12.096037187033"><ele>1696</ele></trkpt>
<trkpt lat="46.541216036907" lon="12.096345402377"><ele>1690</ele></trkpt>
<trkpt lat="46.541274376923" lon="12.096615460049"><ele>1685</ele></trkpt>
<trkpt lat="46.541415452191" lon="12.097156109787"><ele>1679</ele></trkpt>
<trkpt lat="46.541485771729" lon="12.097504469312"><ele>1674</ele></trkpt>
<trkpt lat="46.541503548124" lon="12.09814904418"><ele>1666</ele></trkpt>
<trkpt lat="46.541460109562" lon="12.098566647885"><ele>1661</ele></trkpt>
<trkpt lat="46.541311460863" lon="12.099012124606"><ele>1658</ele></trkpt>
<trkpt lat="46.540708784129" lon="12.099024719049"><ele>1656</ele></trkpt>
      </trkseg></trk>
   
</gpx>
   