<?xml version="1.0" encoding="UTF-8"?>
<gpx xmlns="http://www.topografix.com/GPX/1/1" creator="MTK - http://www.toursprung.com" version="1.1"
   xmlns:xsi="http://www.w3.org/2001/XMLSchema-instance"
   xsi:schemaLocation="http://www.topografix.com/GPX/1/1 http://www.topografix.com/GPX/1/1/gpx.xsd">
   <metadata>
      <name><![CDATA[Sentiero degli Scaloni, Sentiero della Cavre, Sentiero dell‘ Anglone]]></name>
      
   </metadata>
   
      <trk><name><![CDATA[Sentiero degli Scaloni, Sentiero della Cavre, Sentiero dell‘ Anglone]]></name><trkseg>
         <trkpt lat="45.95058" lon="10.90127"><ele>112</ele></trkpt>
<trkpt lat="45.95049" lon="10.90101"><ele>111</ele></trkpt>
<trkpt lat="45.95061" lon="10.90039"><ele>110</ele></trkpt>
<trkpt lat="45.95094" lon="10.89996"><ele>109</ele></trkpt>
<trkpt lat="45.95051" lon="10.89876"><ele>109</ele></trkpt>
<trkpt lat="45.95015" lon="10.89835"><ele>109</ele></trkpt>
<trkpt lat="45.95002" lon="10.8979"><ele>110</ele></trkpt>
<trkpt lat="45.95012" lon="10.89758"><ele>112</ele></trkpt>
<trkpt lat="45.95037" lon="10.89743"><ele>113</ele></trkpt>
<trkpt lat="45.95063" lon="10.89728"><ele>111</ele></trkpt>
<trkpt lat="45.95124" lon="10.89717"><ele>109</ele></trkpt>
<trkpt lat="45.95245" lon="10.89747"><ele>111</ele></trkpt>
<trkpt lat="45.95313" lon="10.89764"><ele>111</ele></trkpt>
<trkpt lat="45.95376" lon="10.89721"><ele>115</ele></trkpt>
<trkpt lat="45.95392" lon="10.89655"><ele>119</ele></trkpt>
<trkpt lat="45.95373" lon="10.8958"><ele>129</ele></trkpt>
<trkpt lat="45.95392" lon="10.89554"><ele>134</ele></trkpt>
<trkpt lat="45.95389" lon="10.89526"><ele>139</ele></trkpt>
<trkpt lat="45.95389" lon="10.89511"><ele>142</ele></trkpt>
<trkpt lat="45.95396" lon="10.89498"><ele>145</ele></trkpt>
<trkpt lat="45.95386" lon="10.89493"><ele>147</ele></trkpt>
<trkpt lat="45.9541" lon="10.89489"><ele>153</ele></trkpt>
<trkpt lat="45.95406" lon="10.8948"><ele>155</ele></trkpt>
<trkpt lat="45.95442" lon="10.89482"><ele>163</ele></trkpt>
<trkpt lat="45.95489" lon="10.8949"><ele>180</ele></trkpt>
<trkpt lat="45.95507" lon="10.8948"><ele>188</ele></trkpt>
<trkpt lat="45.95536" lon="10.89482"><ele>202</ele></trkpt>
<trkpt lat="45.95564" lon="10.89481"><ele>217</ele></trkpt>
<trkpt lat="45.95596" lon="10.89489"><ele>236</ele></trkpt>
<trkpt lat="45.9559" lon="10.89468"><ele>246</ele></trkpt>
<trkpt lat="45.95524" lon="10.89415"><ele>297</ele></trkpt>
<trkpt lat="45.95504" lon="10.89389"><ele>317</ele></trkpt>
<trkpt lat="45.95488" lon="10.89368"><ele>336</ele></trkpt>
<trkpt lat="45.95489" lon="10.8935"><ele>347</ele></trkpt>
<trkpt lat="45.95464" lon="10.89311"><ele>378</ele></trkpt>
<trkpt lat="45.95475" lon="10.89298"><ele>387</ele></trkpt>
<trkpt lat="45.95504" lon="10.89315"><ele>408</ele></trkpt>
<trkpt lat="45.95539" lon="10.8933"><ele>427</ele></trkpt>
<trkpt lat="45.95517" lon="10.89283"><ele>446</ele></trkpt>
<trkpt lat="45.95557" lon="10.89292"><ele>454</ele></trkpt>
<trkpt lat="45.95591" lon="10.89308"><ele>460</ele></trkpt>
<trkpt lat="45.95624" lon="10.89332"><ele>460</ele></trkpt>
<trkpt lat="45.95657" lon="10.89375"><ele>467</ele></trkpt>
<trkpt lat="45.95665" lon="10.89338"><ele>479</ele></trkpt>
<trkpt lat="45.9571" lon="10.8935"><ele>497</ele></trkpt>
<trkpt lat="45.95727" lon="10.89319"><ele>505</ele></trkpt>
<trkpt lat="45.95759" lon="10.89343"><ele>506</ele></trkpt>
<trkpt lat="45.9578" lon="10.89371"><ele>499</ele></trkpt>
<trkpt lat="45.95844" lon="10.8943"><ele>489</ele></trkpt>
<trkpt lat="45.95872" lon="10.8947"><ele>488</ele></trkpt>
<trkpt lat="45.95898" lon="10.8949"><ele>488</ele></trkpt>
<trkpt lat="45.95921" lon="10.89521"><ele>488</ele></trkpt>
<trkpt lat="45.95985" lon="10.89561"><ele>485</ele></trkpt>
<trkpt lat="45.96022" lon="10.89591"><ele>481</ele></trkpt>
<trkpt lat="45.96132" lon="10.89668"><ele>502</ele></trkpt>
<trkpt lat="45.96249" lon="10.89736"><ele>509</ele></trkpt>
<trkpt lat="45.96335" lon="10.89865"><ele>509</ele></trkpt>
<trkpt lat="45.96428" lon="10.8996"><ele>518</ele></trkpt>
<trkpt lat="45.96496" lon="10.90088"><ele>513</ele></trkpt>
<trkpt lat="45.96532" lon="10.90209"><ele>505</ele></trkpt>
<trkpt lat="45.96651" lon="10.90337"><ele>488</ele></trkpt>
<trkpt lat="45.96789" lon="10.90475"><ele>473</ele></trkpt>
<trkpt lat="45.96821" lon="10.90543"><ele>471</ele></trkpt>
<trkpt lat="45.9712" lon="10.90878"><ele>433</ele></trkpt>
<trkpt lat="45.97126" lon="10.9096"><ele>425</ele></trkpt>
<trkpt lat="45.97203" lon="10.91118"><ele>372</ele></trkpt>
<trkpt lat="45.97218" lon="10.9117"><ele>354</ele></trkpt>
<trkpt lat="45.97182" lon="10.91174"><ele>318</ele></trkpt>
<trkpt lat="45.97176" lon="10.91264"><ele>269</ele></trkpt>
<trkpt lat="45.9709" lon="10.91161"><ele>223</ele></trkpt>
<trkpt lat="45.96977" lon="10.91131"><ele>159</ele></trkpt>
<trkpt lat="45.96908" lon="10.9114"><ele>141</ele></trkpt>
<trkpt lat="45.9681" lon="10.91045"><ele>135</ele></trkpt>
<trkpt lat="45.96758" lon="10.90965"><ele>132</ele></trkpt>
<trkpt lat="45.96736" lon="10.90931"><ele>131</ele></trkpt>
<trkpt lat="45.96692" lon="10.90907"><ele>128</ele></trkpt>
<trkpt lat="45.96564" lon="10.90843"><ele>124</ele></trkpt>
<trkpt lat="45.96555" lon="10.90857"><ele>123</ele></trkpt>
<trkpt lat="45.96507" lon="10.90892"><ele>122</ele></trkpt>
<trkpt lat="45.96478" lon="10.90873"><ele>122</ele></trkpt>
<trkpt lat="45.96414" lon="10.9076"><ele>122</ele></trkpt>
<trkpt lat="45.96395" lon="10.90732"><ele>122</ele></trkpt>
<trkpt lat="45.96357" lon="10.9067"><ele>123</ele></trkpt>
<trkpt lat="45.96386" lon="10.90605"><ele>126</ele></trkpt>
<trkpt lat="45.96368" lon="10.90545"><ele>127</ele></trkpt>
<trkpt lat="45.96255" lon="10.90479"><ele>122</ele></trkpt>
<trkpt lat="45.96216" lon="10.90479"><ele>120</ele></trkpt>
<trkpt lat="45.96094" lon="10.90348"><ele>113</ele></trkpt>
<trkpt lat="45.96071" lon="10.90314"><ele>112</ele></trkpt>
<trkpt lat="45.96028" lon="10.90275"><ele>112</ele></trkpt>
<trkpt lat="45.95953" lon="10.90082"><ele>118</ele></trkpt>
<trkpt lat="45.95895" lon="10.9005"><ele>119</ele></trkpt>
<trkpt lat="45.95753" lon="10.89921"><ele>121</ele></trkpt>
<trkpt lat="45.9571" lon="10.89872"><ele>118</ele></trkpt>
<trkpt lat="45.95651" lon="10.89844"><ele>117</ele></trkpt>
<trkpt lat="45.95603" lon="10.89844"><ele>114</ele></trkpt>
<trkpt lat="45.95558" lon="10.89846"><ele>112</ele></trkpt>
<trkpt lat="45.95531" lon="10.89837"><ele>112</ele></trkpt>
<trkpt lat="45.95469" lon="10.89801"><ele>112</ele></trkpt>
<trkpt lat="45.95381" lon="10.89741"><ele>112</ele></trkpt>
<trkpt lat="45.953" lon="10.89769"><ele>110</ele></trkpt>
<trkpt lat="45.95188" lon="10.89719"><ele>110</ele></trkpt>
<trkpt lat="45.95122" lon="10.89705"><ele>110</ele></trkpt>
<trkpt lat="45.95002" lon="10.89768"><ele>112</ele></trkpt>
<trkpt lat="45.94996" lon="10.89809"><ele>110</ele></trkpt>
<trkpt lat="45.95002" lon="10.89818"><ele>110</ele></trkpt>
<trkpt lat="45.95049" lon="10.89853"><ele>109</ele></trkpt>
<trkpt lat="45.95071" lon="10.89913"><ele>109</ele></trkpt>
<trkpt lat="45.95093" lon="10.90011"><ele>110</ele></trkpt>
<trkpt lat="45.95066" lon="10.90023"><ele>110</ele></trkpt>
<trkpt lat="45.95051" lon="10.90057"><ele>110</ele></trkpt>
<trkpt lat="45.95049" lon="10.90085"><ele>110</ele></trkpt>
<trkpt lat="45.95051" lon="10.90116"><ele>111</ele></trkpt>
<trkpt lat="45.95058" lon="10.90138"><ele>111</ele></trkpt>
      </trkseg></trk>
   
</gpx>
   