<?xml version="1.0" encoding="UTF-8"?>
<gpx xmlns="http://www.topografix.com/GPX/1/1" creator="MTK - http://www.toursprung.com" version="1.1"
   xmlns:xsi="http://www.w3.org/2001/XMLSchema-instance"
   xsi:schemaLocation="http://www.topografix.com/GPX/1/1 http://www.topografix.com/GPX/1/1/gpx.xsd">
   <metadata>
      <name><![CDATA[Hohe Munde Westgrat Klettersteig]]></name>
      
   </metadata>
   
      <trk><name><![CDATA[Hohe Munde Westgrat Klettersteig]]></name><trkseg>
         <trkpt lat="47.3365117" lon="11.0487357"><ele>1170</ele></trkpt>
<trkpt lat="47.3366942" lon="11.0488055"><ele>1172</ele></trkpt>
<trkpt lat="47.3368769" lon="11.0488114"><ele>1174</ele></trkpt>
<trkpt lat="47.3370508" lon="11.0488833"><ele>1176</ele></trkpt>
<trkpt lat="47.3371888" lon="11.0486964"><ele>1179</ele></trkpt>
<trkpt lat="47.3373053" lon="11.0484904"><ele>1181</ele></trkpt>
<trkpt lat="47.3374625" lon="11.048353"><ele>1182</ele></trkpt>
<trkpt lat="47.3375586" lon="11.048111"><ele>1183</ele></trkpt>
<trkpt lat="47.3376516" lon="11.0478639"><ele>1184</ele></trkpt>
<trkpt lat="47.3377246" lon="11.0476049"><ele>1186</ele></trkpt>
<trkpt lat="47.3377852" lon="11.0473505"><ele>1187</ele></trkpt>
<trkpt lat="47.3378515" lon="11.0470936"><ele>1188</ele></trkpt>
<trkpt lat="47.3378968" lon="11.0468322"><ele>1189</ele></trkpt>
<trkpt lat="47.3379756" lon="11.0465797"><ele>1190</ele></trkpt>
<trkpt lat="47.3380708" lon="11.0463393"><ele>1191</ele></trkpt>
<trkpt lat="47.3381911" lon="11.0461157"><ele>1192</ele></trkpt>
<trkpt lat="47.3383104" lon="11.0459001"><ele>1193</ele></trkpt>
<trkpt lat="47.3384122" lon="11.0456613"><ele>1193</ele></trkpt>
<trkpt lat="47.3385133" lon="11.0454321"><ele>1194</ele></trkpt>
<trkpt lat="47.3386298" lon="11.045224"><ele>1194</ele></trkpt>
<trkpt lat="47.3387411" lon="11.0450093"><ele>1196</ele></trkpt>
<trkpt lat="47.3388814" lon="11.0448298"><ele>1198</ele></trkpt>
<trkpt lat="47.3390009" lon="11.0446281"><ele>1200</ele></trkpt>
<trkpt lat="47.3391379" lon="11.0444558"><ele>1202</ele></trkpt>
<trkpt lat="47.3392727" lon="11.0442759"><ele>1203</ele></trkpt>
<trkpt lat="47.3393897" lon="11.0440614"><ele>1206</ele></trkpt>
<trkpt lat="47.3394934" lon="11.0438444"><ele>1209</ele></trkpt>
<trkpt lat="47.3395844" lon="11.0436052"><ele>1211</ele></trkpt>
<trkpt lat="47.3396855" lon="11.0433779"><ele>1214</ele></trkpt>
<trkpt lat="47.3397897" lon="11.0431546"><ele>1217</ele></trkpt>
<trkpt lat="47.3398776" lon="11.042912"><ele>1220</ele></trkpt>
<trkpt lat="47.3400126" lon="11.0427155"><ele>1224</ele></trkpt>
<trkpt lat="47.3401444" lon="11.0425223"><ele>1227</ele></trkpt>
<trkpt lat="47.3402642" lon="11.0423176"><ele>1231</ele></trkpt>
<trkpt lat="47.3403998" lon="11.0421374"><ele>1234</ele></trkpt>
<trkpt lat="47.3404904" lon="11.0419022"><ele>1238</ele></trkpt>
<trkpt lat="47.340572" lon="11.0416499"><ele>1241</ele></trkpt>
<trkpt lat="47.3406651" lon="11.0414199"><ele>1244</ele></trkpt>
<trkpt lat="47.3407438" lon="11.0411738"><ele>1247</ele></trkpt>
<trkpt lat="47.340807" lon="11.0409175"><ele>1251</ele></trkpt>
<trkpt lat="47.3408566" lon="11.0406565"><ele>1254</ele></trkpt>
<trkpt lat="47.3408745" lon="11.0403894"><ele>1258</ele></trkpt>
<trkpt lat="47.3409855" lon="11.040166"><ele>1261</ele></trkpt>
<trkpt lat="47.3411585" lon="11.0400799"><ele>1265</ele></trkpt>
<trkpt lat="47.3412747" lon="11.0398765"><ele>1268</ele></trkpt>
<trkpt lat="47.3413698" lon="11.0396508"><ele>1271</ele></trkpt>
<trkpt lat="47.3414455" lon="11.0394028"><ele>1274</ele></trkpt>
<trkpt lat="47.3415564" lon="11.0391838"><ele>1277</ele></trkpt>
<trkpt lat="47.3416434" lon="11.0389458"><ele>1280</ele></trkpt>
<trkpt lat="47.3417854" lon="11.0387793"><ele>1284</ele></trkpt>
<trkpt lat="47.3419377" lon="11.0386257"><ele>1289</ele></trkpt>
<trkpt lat="47.342117" lon="11.0385711"><ele>1294</ele></trkpt>
<trkpt lat="47.3422999" lon="11.0385396"><ele>1299</ele></trkpt>
<trkpt lat="47.3424132" lon="11.0387522"><ele>1304</ele></trkpt>
<trkpt lat="47.3425587" lon="11.038916"><ele>1310</ele></trkpt>
<trkpt lat="47.3427108" lon="11.039073"><ele>1317</ele></trkpt>
<trkpt lat="47.3428957" lon="11.0391039"><ele>1324</ele></trkpt>
<trkpt lat="47.3430696" lon="11.0391952"><ele>1330</ele></trkpt>
<trkpt lat="47.3432077" lon="11.03902"><ele>1337</ele></trkpt>
<trkpt lat="47.3431373" lon="11.0387665"><ele>1342</ele></trkpt>
<trkpt lat="47.3432099" lon="11.0385207"><ele>1348</ele></trkpt>
<trkpt lat="47.3433164" lon="11.038304"><ele>1353</ele></trkpt>
<trkpt lat="47.3434932" lon="11.0382422"><ele>1359</ele></trkpt>
<trkpt lat="47.3436421" lon="11.0380781"><ele>1364</ele></trkpt>
<trkpt lat="47.3438202" lon="11.0381283"><ele>1372</ele></trkpt>
<trkpt lat="47.3440049" lon="11.0381462"><ele>1380</ele></trkpt>
<trkpt lat="47.3441562" lon="11.0379921"><ele>1387</ele></trkpt>
<trkpt lat="47.3443348" lon="11.0379175"><ele>1395</ele></trkpt>
<trkpt lat="47.3445164" lon="11.0379513"><ele>1402</ele></trkpt>
<trkpt lat="47.344697" lon="11.0379205"><ele>1409</ele></trkpt>
<trkpt lat="47.3448454" lon="11.038074"><ele>1417</ele></trkpt>
<trkpt lat="47.3450062" lon="11.038212"><ele>1424</ele></trkpt>
<trkpt lat="47.3451705" lon="11.0380919"><ele>1431</ele></trkpt>
<trkpt lat="47.3453462" lon="11.0381584"><ele>1438</ele></trkpt>
<trkpt lat="47.3455265" lon="11.0381856"><ele>1445</ele></trkpt>
<trkpt lat="47.3456938" lon="11.0380823"><ele>1453</ele></trkpt>
<trkpt lat="47.3458758" lon="11.0381267"><ele>1460</ele></trkpt>
<trkpt lat="47.3460317" lon="11.0382608"><ele>1467</ele></trkpt>
<trkpt lat="47.3461951" lon="11.0383791"><ele>1474</ele></trkpt>
<trkpt lat="47.3463737" lon="11.038347"><ele>1479</ele></trkpt>
<trkpt lat="47.3464405" lon="11.0380979"><ele>1484</ele></trkpt>
<trkpt lat="47.3463968" lon="11.0378398"><ele>1489</ele></trkpt>
<trkpt lat="47.346347" lon="11.0375798"><ele>1494</ele></trkpt>
<trkpt lat="47.3462179" lon="11.0373823"><ele>1498</ele></trkpt>
<trkpt lat="47.3461375" lon="11.0371359"><ele>1499</ele></trkpt>
<trkpt lat="47.3461122" lon="11.0368657"><ele>1499</ele></trkpt>
<trkpt lat="47.3462206" lon="11.0366534"><ele>1500</ele></trkpt>
<trkpt lat="47.3463224" lon="11.0364323"><ele>1501</ele></trkpt>
<trkpt lat="47.3464256" lon="11.0362104"><ele>1507</ele></trkpt>
<trkpt lat="47.3466059" lon="11.0361972"><ele>1518</ele></trkpt>
<trkpt lat="47.3467127" lon="11.0364175"><ele>1528</ele></trkpt>
<trkpt lat="47.3468715" lon="11.0362776"><ele>1539</ele></trkpt>
<trkpt lat="47.3470509" lon="11.0363002"><ele>1550</ele></trkpt>
<trkpt lat="47.3472147" lon="11.0361888"><ele>1560</ele></trkpt>
<trkpt lat="47.3473963" lon="11.0361298"><ele>1571</ele></trkpt>
<trkpt lat="47.3475296" lon="11.0359434"><ele>1581</ele></trkpt>
<trkpt lat="47.3476848" lon="11.0358036"><ele>1591</ele></trkpt>
<trkpt lat="47.3478574" lon="11.0357188"><ele>1601</ele></trkpt>
<trkpt lat="47.3480178" lon="11.0358678"><ele>1611</ele></trkpt>
<trkpt lat="47.3480901" lon="11.0361118"><ele>1621</ele></trkpt>
<trkpt lat="47.3482512" lon="11.0362378"><ele>1630</ele></trkpt>
<trkpt lat="47.348432" lon="11.0362598"><ele>1639</ele></trkpt>
<trkpt lat="47.3486132" lon="11.0362724"><ele>1649</ele></trkpt>
<trkpt lat="47.34879" lon="11.0362161"><ele>1658</ele></trkpt>
<trkpt lat="47.3489724" lon="11.0362143"><ele>1668</ele></trkpt>
<trkpt lat="47.3491517" lon="11.0362364"><ele>1678</ele></trkpt>
<trkpt lat="47.3492907" lon="11.0364161"><ele>1688</ele></trkpt>
<trkpt lat="47.349357" lon="11.0366707"><ele>1698</ele></trkpt>
<trkpt lat="47.3493943" lon="11.0369379"><ele>1708</ele></trkpt>
<trkpt lat="47.3494324" lon="11.0372048"><ele>1718</ele></trkpt>
<trkpt lat="47.3495859" lon="11.0373536"><ele>1728</ele></trkpt>
<trkpt lat="47.3497025" lon="11.037563"><ele>1737</ele></trkpt>
<trkpt lat="47.3498022" lon="11.0377899"><ele>1747</ele></trkpt>
<trkpt lat="47.3499822" lon="11.0377346"><ele>1758</ele></trkpt>
<trkpt lat="47.3501084" lon="11.0379256"><ele>1770</ele></trkpt>
<trkpt lat="47.3501938" lon="11.0376857"><ele>1781</ele></trkpt>
<trkpt lat="47.3502636" lon="11.0374359"><ele>1793</ele></trkpt>
<trkpt lat="47.3504084" lon="11.0376063"><ele>1803</ele></trkpt>
<trkpt lat="47.3505782" lon="11.0375046"><ele>1808</ele></trkpt>
<trkpt lat="47.3506738" lon="11.0377322"><ele>1812</ele></trkpt>
<trkpt lat="47.3507738" lon="11.0379601"><ele>1817</ele></trkpt>
<trkpt lat="47.3509216" lon="11.0381121"><ele>1821</ele></trkpt>
<trkpt lat="47.3509835" lon="11.0383686"><ele>1826</ele></trkpt>
<trkpt lat="47.351064" lon="11.0386085"><ele>1833</ele></trkpt>
<trkpt lat="47.3511336" lon="11.0388614"><ele>1840</ele></trkpt>
<trkpt lat="47.3511646" lon="11.0391319"><ele>1847</ele></trkpt>
<trkpt lat="47.3512515" lon="11.0393708"><ele>1854</ele></trkpt>
<trkpt lat="47.3513667" lon="11.0395779"><ele>1862</ele></trkpt>
<trkpt lat="47.351485" lon="11.0397825"><ele>1870</ele></trkpt>
<trkpt lat="47.3515479" lon="11.0400356"><ele>1878</ele></trkpt>
<trkpt lat="47.351502" lon="11.0402929"><ele>1886</ele></trkpt>
<trkpt lat="47.3516818" lon="11.0402397"><ele>1894</ele></trkpt>
<trkpt lat="47.3518321" lon="11.0400862"><ele>1902</ele></trkpt>
<trkpt lat="47.3519008" lon="11.0398352"><ele>1910</ele></trkpt>
<trkpt lat="47.3520177" lon="11.0396241"><ele>1917</ele></trkpt>
<trkpt lat="47.3521438" lon="11.0394328"><ele>1925</ele></trkpt>
<trkpt lat="47.3522508" lon="11.0392136"><ele>1932</ele></trkpt>
<trkpt lat="47.3523724" lon="11.0394101"><ele>1938</ele></trkpt>
<trkpt lat="47.3524574" lon="11.0396474"><ele>1943</ele></trkpt>
<trkpt lat="47.3525174" lon="11.0399016"><ele>1948</ele></trkpt>
<trkpt lat="47.352587" lon="11.0401589"><ele>1953</ele></trkpt>
<trkpt lat="47.3525786" lon="11.0404243"><ele>1958</ele></trkpt>
<trkpt lat="47.35258" lon="11.0406929"><ele>1963</ele></trkpt>
<trkpt lat="47.3525102" lon="11.040948"><ele>1968</ele></trkpt>
<trkpt lat="47.3525443" lon="11.0412116"><ele>1974</ele></trkpt>
<trkpt lat="47.3526316" lon="11.041448"><ele>1979</ele></trkpt>
<trkpt lat="47.3527181" lon="11.0416861"><ele>1984</ele></trkpt>
<trkpt lat="47.3528038" lon="11.0419263"><ele>1991</ele></trkpt>
<trkpt lat="47.3529293" lon="11.0421197"><ele>1997</ele></trkpt>
<trkpt lat="47.3530662" lon="11.0423037"><ele>2004</ele></trkpt>
<trkpt lat="47.3532149" lon="11.0424681"><ele>2010</ele></trkpt>
<trkpt lat="47.3533321" lon="11.0426756"><ele>2017</ele></trkpt>
<trkpt lat="47.35347" lon="11.0428504"><ele>2022</ele></trkpt>
<trkpt lat="47.3535845" lon="11.043058"><ele>2026</ele></trkpt>
<trkpt lat="47.353725" lon="11.0432274"><ele>2031</ele></trkpt>
<trkpt lat="47.3538227" lon="11.0434539"><ele>2036</ele></trkpt>
<trkpt lat="47.3538976" lon="11.0436993"><ele>2040</ele></trkpt>
<trkpt lat="47.3539865" lon="11.0439405"><ele>2042</ele></trkpt>
<trkpt lat="47.3540638" lon="11.04419"><ele>2044</ele></trkpt>
<trkpt lat="47.3541161" lon="11.0444515"><ele>2045</ele></trkpt>
<trkpt lat="47.3541402" lon="11.0447255"><ele>2047</ele></trkpt>
<trkpt lat="47.3541712" lon="11.0449909"><ele>2049</ele></trkpt>
<trkpt lat="47.3542125" lon="11.0452604"><ele>2050</ele></trkpt>
<trkpt lat="47.3543189" lon="11.04548"><ele>2052</ele></trkpt>
<trkpt lat="47.3543636" lon="11.0457435"><ele>2053</ele></trkpt>
<trkpt lat="47.3545141" lon="11.0458898"><ele>2054</ele></trkpt>
<trkpt lat="47.3544603" lon="11.0461465"><ele>2057</ele></trkpt>
<trkpt lat="47.3544868" lon="11.0464175"><ele>2062</ele></trkpt>
<trkpt lat="47.3545551" lon="11.0466705"><ele>2067</ele></trkpt>
<trkpt lat="47.3545076" lon="11.0469324"><ele>2072</ele></trkpt>
<trkpt lat="47.3544932" lon="11.0472028"><ele>2077</ele></trkpt>
<trkpt lat="47.3544453" lon="11.0474616"><ele>2081</ele></trkpt>
<trkpt lat="47.3544253" lon="11.0477281"><ele>2084</ele></trkpt>
<trkpt lat="47.3543043" lon="11.0479282"><ele>2088</ele></trkpt>
<trkpt lat="47.3542365" lon="11.0481808"><ele>2091</ele></trkpt>
<trkpt lat="47.3542303" lon="11.0484487"><ele>2095</ele></trkpt>
<trkpt lat="47.3542008" lon="11.0487193"><ele>2098</ele></trkpt>
<trkpt lat="47.3540661" lon="11.0488966"><ele>2101</ele></trkpt>
<trkpt lat="47.3540641" lon="11.0491766"><ele>2104</ele></trkpt>
<trkpt lat="47.3540273" lon="11.0494384"><ele>2107</ele></trkpt>
<trkpt lat="47.3539608" lon="11.04969"><ele>2110</ele></trkpt>
<trkpt lat="47.3538634" lon="11.0499181"><ele>2112</ele></trkpt>
<trkpt lat="47.353791" lon="11.0501669"><ele>2114</ele></trkpt>
<trkpt lat="47.3537278" lon="11.050422"><ele>2115</ele></trkpt>
<trkpt lat="47.3537637" lon="11.050693"><ele>2117</ele></trkpt>
<trkpt lat="47.3538248" lon="11.0509506"><ele>2118</ele></trkpt>
<trkpt lat="47.3537855" lon="11.0512157"><ele>2120</ele></trkpt>
<trkpt lat="47.3538018" lon="11.0514851"><ele>2121</ele></trkpt>
<trkpt lat="47.3537662" lon="11.0517491"><ele>2123</ele></trkpt>
<trkpt lat="47.3536793" lon="11.0519855"><ele>2125</ele></trkpt>
<trkpt lat="47.3535429" lon="11.0521589"><ele>2126</ele></trkpt>
<trkpt lat="47.3536085" lon="11.0524072"><ele>2134</ele></trkpt>
<trkpt lat="47.3536319" lon="11.0526727"><ele>2142</ele></trkpt>
<trkpt lat="47.353596" lon="11.0529376"><ele>2151</ele></trkpt>
<trkpt lat="47.3534744" lon="11.0531361"><ele>2160</ele></trkpt>
<trkpt lat="47.3533894" lon="11.0533731"><ele>2168</ele></trkpt>
<trkpt lat="47.3532939" lon="11.0536055"><ele>2178</ele></trkpt>
<trkpt lat="47.3532072" lon="11.0538414"><ele>2187</ele></trkpt>
<trkpt lat="47.3532869" lon="11.0540812"><ele>2197</ele></trkpt>
<trkpt lat="47.3532378" lon="11.0543405"><ele>2206</ele></trkpt>
<trkpt lat="47.3532573" lon="11.0546089"><ele>2216</ele></trkpt>
<trkpt lat="47.3531561" lon="11.0548338"><ele>2221</ele></trkpt>
<trkpt lat="47.3531639" lon="11.0550996"><ele>2225</ele></trkpt>
<trkpt lat="47.3531059" lon="11.055351"><ele>2230</ele></trkpt>
<trkpt lat="47.3530101" lon="11.0555809"><ele>2235</ele></trkpt>
<trkpt lat="47.3529007" lon="11.0557921"><ele>2240</ele></trkpt>
<trkpt lat="47.35281" lon="11.0560218"><ele>2246</ele></trkpt>
<trkpt lat="47.3527405" lon="11.0562712"><ele>2252</ele></trkpt>
<trkpt lat="47.3526695" lon="11.0565235"><ele>2259</ele></trkpt>
<trkpt lat="47.3526006" lon="11.0567729"><ele>2265</ele></trkpt>
<trkpt lat="47.3525116" lon="11.0570054"><ele>2271</ele></trkpt>
<trkpt lat="47.352571" lon="11.0572561"><ele>2277</ele></trkpt>
<trkpt lat="47.3525399" lon="11.0575245"><ele>2283</ele></trkpt>
<trkpt lat="47.3524335" lon="11.0577416"><ele>2289</ele></trkpt>
<trkpt lat="47.3523837" lon="11.0580016"><ele>2295</ele></trkpt>
<trkpt lat="47.3523405" lon="11.0582605"><ele>2302</ele></trkpt>
<trkpt lat="47.3522907" lon="11.058521"><ele>2310</ele></trkpt>
<trkpt lat="47.3521714" lon="11.0587279"><ele>2318</ele></trkpt>
<trkpt lat="47.3521908" lon="11.0589966"><ele>2326</ele></trkpt>
<trkpt lat="47.3521043" lon="11.0592341"><ele>2335</ele></trkpt>
<trkpt lat="47.3521026" lon="11.0595008"><ele>2343</ele></trkpt>
<trkpt lat="47.3520236" lon="11.0597464"><ele>2352</ele></trkpt>
<trkpt lat="47.3518752" lon="11.059903"><ele>2361</ele></trkpt>
<trkpt lat="47.3517406" lon="11.0600844"><ele>2370</ele></trkpt>
<trkpt lat="47.3516738" lon="11.0603378"><ele>2379</ele></trkpt>
<trkpt lat="47.3516414" lon="11.0606047"><ele>2387</ele></trkpt>
<trkpt lat="47.3515037" lon="11.0607806"><ele>2393</ele></trkpt>
<trkpt lat="47.3514814" lon="11.0610496"><ele>2400</ele></trkpt>
<trkpt lat="47.3513999" lon="11.0612905"><ele>2406</ele></trkpt>
<trkpt lat="47.3512896" lon="11.0615039"><ele>2413</ele></trkpt>
<trkpt lat="47.3512346" lon="11.0617656"><ele>2418</ele></trkpt>
<trkpt lat="47.3512821" lon="11.0620296"><ele>2423</ele></trkpt>
<trkpt lat="47.3512034" lon="11.0622704"><ele>2428</ele></trkpt>
<trkpt lat="47.3511017" lon="11.0624941"><ele>2432</ele></trkpt>
<trkpt lat="47.3510299" lon="11.0627425"><ele>2437</ele></trkpt>
<trkpt lat="47.3510003" lon="11.0630108"><ele>2444</ele></trkpt>
<trkpt lat="47.3508463" lon="11.0631577"><ele>2452</ele></trkpt>
<trkpt lat="47.3507629" lon="11.0633947"><ele>2459</ele></trkpt>
<trkpt lat="47.3506776" lon="11.0636294"><ele>2467</ele></trkpt>
<trkpt lat="47.3506097" lon="11.0638755"><ele>2474</ele></trkpt>
<trkpt lat="47.3506604" lon="11.0641385"><ele>2480</ele></trkpt>
<trkpt lat="47.3506424" lon="11.0644073"><ele>2485</ele></trkpt>
<trkpt lat="47.3506535" lon="11.0646781"><ele>2490</ele></trkpt>
<trkpt lat="47.3505518" lon="11.0648996"><ele>2495</ele></trkpt>
<trkpt lat="47.3505062" lon="11.0651571"><ele>2500</ele></trkpt>
<trkpt lat="47.3504775" lon="11.06542"><ele>2511</ele></trkpt>
<trkpt lat="47.3504701" lon="11.0656866"><ele>2522</ele></trkpt>
<trkpt lat="47.3504231" lon="11.0659491"><ele>2534</ele></trkpt>
<trkpt lat="47.3503531" lon="11.0661961"><ele>2546</ele></trkpt>
<trkpt lat="47.3502701" lon="11.0664344"><ele>2557</ele></trkpt>
<trkpt lat="47.3502344" lon="11.0666981"><ele>2561</ele></trkpt>
<trkpt lat="47.3500766" lon="11.0668268"><ele>2565</ele></trkpt>
<trkpt lat="47.3501135" lon="11.0670895"><ele>2570</ele></trkpt>
<trkpt lat="47.3501636" lon="11.0673504"><ele>2574</ele></trkpt>
<trkpt lat="47.3501077" lon="11.0676062"><ele>2577</ele></trkpt>
<trkpt lat="47.3499642" lon="11.0677698"><ele>2577</ele></trkpt>
<trkpt lat="47.3497918" lon="11.0678455"><ele>2577</ele></trkpt>
<trkpt lat="47.3496403" lon="11.0679889"><ele>2576</ele></trkpt>
<trkpt lat="47.3495353" lon="11.0682053"><ele>2576</ele></trkpt>
<trkpt lat="47.3495648" lon="11.0684676"><ele>2575</ele></trkpt>
<trkpt lat="47.3495245" lon="11.0687299"><ele>2566</ele></trkpt>
<trkpt lat="47.3494496" lon="11.0689717"><ele>2556</ele></trkpt>
<trkpt lat="47.3494526" lon="11.0692431"><ele>2547</ele></trkpt>
<trkpt lat="47.3493382" lon="11.0694481"><ele>2538</ele></trkpt>
<trkpt lat="47.3492998" lon="11.0697079"><ele>2533</ele></trkpt>
<trkpt lat="47.3491571" lon="11.0698728"><ele>2548</ele></trkpt>
<trkpt lat="47.3491732" lon="11.0701393"><ele>2563</ele></trkpt>
<trkpt lat="47.3492518" lon="11.0703808"><ele>2578</ele></trkpt>
<trkpt lat="47.3492702" lon="11.070646"><ele>2593</ele></trkpt>
<trkpt lat="47.3493362" lon="11.0708971"><ele>2606</ele></trkpt>
<trkpt lat="47.3491914" lon="11.0710629"><ele>2611</ele></trkpt>
<trkpt lat="47.3490147" lon="11.0711161"><ele>2616</ele></trkpt>
<trkpt lat="47.3488371" lon="11.0711934"><ele>2621</ele></trkpt>
<trkpt lat="47.3486791" lon="11.0713317"><ele>2626</ele></trkpt>
<trkpt lat="47.3485314" lon="11.0714892"><ele>2630</ele></trkpt>
<trkpt lat="47.34841" lon="11.071687"><ele>2631</ele></trkpt>
<trkpt lat="47.348227" lon="11.0717029"><ele>2632</ele></trkpt>
<trkpt lat="47.3480405" lon="11.0717012"><ele>2634</ele></trkpt>
<trkpt lat="47.3478532" lon="11.0717019"><ele>2635</ele></trkpt>
<trkpt lat="47.3476728" lon="11.0717039"><ele>2633</ele></trkpt>
<trkpt lat="47.3474863" lon="11.071719"><ele>2628</ele></trkpt>
<trkpt lat="47.3473053" lon="11.0717555"><ele>2622</ele></trkpt>
<trkpt lat="47.347154103509" lon="11.071815490723"><ele>2618</ele></trkpt>
<trkpt lat="47.346950560691" lon="11.072030067444"><ele>2611</ele></trkpt>
<trkpt lat="47.346754286517" lon="11.072416305542"><ele>2604</ele></trkpt>
<trkpt lat="47.346754286517" lon="11.072781085968"><ele>2599</ele></trkpt>
<trkpt lat="47.34682698074" lon="11.073596477509"><ele>2587</ele></trkpt>
<trkpt lat="47.346885136047" lon="11.073982715607"><ele>2579</ele></trkpt>
<trkpt lat="47.346725208799" lon="11.074229478836"><ele>2572</ele></trkpt>
<trkpt lat="47.346877866637" lon="11.074755191803"><ele>2558</ele></trkpt>
<trkpt lat="47.34694329129" lon="11.075066328049"><ele>2548</ele></trkpt>
<trkpt lat="47.346761555943" lon="11.075720787048"><ele>2527</ele></trkpt>
<trkpt lat="47.347401261589" lon="11.077984571457"><ele>2515</ele></trkpt>
<trkpt lat="47.347546648155" lon="11.078370809555"><ele>2521</ele></trkpt>
<trkpt lat="47.347546648155" lon="11.078585386276"><ele>2527</ele></trkpt>
<trkpt lat="47.347604802669" lon="11.078864336014"><ele>2535</ele></trkpt>
<trkpt lat="47.347226797071" lon="11.079035997391"><ele>2550</ele></trkpt>
<trkpt lat="47.347132295276" lon="11.079143285751"><ele>2554</ele></trkpt>
<trkpt lat="47.347110487146" lon="11.079250574112"><ele>2556</ele></trkpt>
<trkpt lat="47.346812441793" lon="11.07958316803"><ele>2568</ele></trkpt>
<trkpt lat="47.346565280955" lon="11.080237627029"><ele>2581</ele></trkpt>
<trkpt lat="47.346434430631" lon="11.080484390259"><ele>2583</ele></trkpt>
<trkpt lat="47.346310849472" lon="11.081160306931"><ele>2588</ele></trkpt>
<trkpt lat="47.346528933675" lon="11.081750392914"><ele>2585</ele></trkpt>
<trkpt lat="47.346630705995" lon="11.082007884979"><ele>2583</ele></trkpt>
<trkpt lat="47.346863327704" lon="11.082544326782"><ele>2576</ele></trkpt>
<trkpt lat="47.346936021777" lon="11.083091497421"><ele>2564</ele></trkpt>
<trkpt lat="47.347314029375" lon="11.083703041077"><ele>2541</ele></trkpt>
<trkpt lat="47.347532109433" lon="11.084014177322"><ele>2523</ele></trkpt>
<trkpt lat="47.347415800181" lon="11.084303855896"><ele>2510</ele></trkpt>
<trkpt lat="47.347568456022" lon="11.084851026535"><ele>2486</ele></trkpt>
<trkpt lat="47.347386722828" lon="11.085312366486"><ele>2464</ele></trkpt>
<trkpt lat="47.347146834053" lon="11.085891723633"><ele>2434</ele></trkpt>
<trkpt lat="47.346950560608" lon="11.085891723633"><ele>2420</ele></trkpt>
<trkpt lat="47.346776094711" lon="11.086546182632"><ele>2388</ele></trkpt>
<trkpt lat="47.346688861519" lon="11.086610556304"><ele>2381</ele></trkpt>
<trkpt lat="47.346405352737" lon="11.086696386992"><ele>2359</ele></trkpt>
<trkpt lat="47.346339927418" lon="11.086857319533"><ele>2350</ele></trkpt>
<trkpt lat="47.345765635022" lon="11.087061167418"><ele>2308</ele></trkpt>
<trkpt lat="47.345634782716" lon="11.087318659484"><ele>2294</ele></trkpt>
<trkpt lat="47.345416694818" lon="11.08723282814"><ele>2280</ele></trkpt>
<trkpt lat="47.345249493487" lon="11.08747959137"><ele>2265</ele></trkpt>
<trkpt lat="47.345009594999" lon="11.08758687973"><ele>2252</ele></trkpt>
<trkpt lat="47.345016864666" lon="11.087962388992"><ele>2240</ele></trkpt>
<trkpt lat="47.344675189227" lon="11.087973117828"><ele>2224</ele></trkpt>
<trkpt lat="47.34478423482" lon="11.088423728943"><ele>2207</ele></trkpt>
<trkpt lat="47.344689728652" lon="11.088809967368"><ele>2192</ele></trkpt>
<trkpt lat="47.344922358915" lon="11.089164018958"><ele>2175</ele></trkpt>
<trkpt lat="47.344638840646" lon="11.089421511024"><ele>2156</ele></trkpt>
<trkpt lat="47.344689728652" lon="11.089818477958"><ele>2140</ele></trkpt>
<trkpt lat="47.344733346905" lon="11.090312004417"><ele>2121</ele></trkpt>
<trkpt lat="47.344428018382" lon="11.090172529548"><ele>2105</ele></trkpt>
<trkpt lat="47.344268083689" lon="11.090236902564"><ele>2097</ele></trkpt>
<trkpt lat="47.344108148512" lon="11.090236902564"><ele>2089</ele></trkpt>
<trkpt lat="47.344129957882" lon="11.090644598335"><ele>2074</ele></trkpt>
<trkpt lat="47.34415903703" lon="11.090837717384"><ele>2066</ele></trkpt>
<trkpt lat="47.344348101568" lon="11.091384887695"><ele>2038</ele></trkpt>
<trkpt lat="47.344362641084" lon="11.092028617859"><ele>2013</ele></trkpt>
<trkpt lat="47.34427540393" lon="11.092286109924"><ele>2006</ele></trkpt>
<trkpt lat="47.344667969985" lon="11.093273162842"><ele>1981</ele></trkpt>
<trkpt lat="47.345583946091" lon="11.094410419464"><ele>1943</ele></trkpt>
<trkpt lat="47.345787494179" lon="11.094861030579"><ele>1931</ele></trkpt>
<trkpt lat="47.346223666009" lon="11.09477519989"><ele>1902</ele></trkpt>
<trkpt lat="47.346630756465" lon="11.095461845398"><ele>1861</ele></trkpt>
<trkpt lat="47.347401311948" lon="11.096019744873"><ele>1811</ele></trkpt>
<trkpt lat="47.347939240239" lon="11.096556186676"><ele>1778</ele></trkpt>
<trkpt lat="47.348026471338" lon="11.097629070282"><ele>1752</ele></trkpt>
<trkpt lat="47.348651623324" lon="11.098787784576"><ele>1714</ele></trkpt>
<trkpt lat="47.348971465662" lon="11.099624633789"><ele>1691</ele></trkpt>
<trkpt lat="47.348927850912" lon="11.099882125854"><ele>1685</ele></trkpt>
<trkpt lat="47.348302702198" lon="11.101384162903"><ele>1641</ele></trkpt>
<trkpt lat="47.348200933102" lon="11.101770401001"><ele>1638</ele></trkpt>
<trkpt lat="47.346936072247" lon="11.102049350739"><ele>1619</ele></trkpt>
<trkpt lat="47.346470828446" lon="11.102221012115"><ele>1612</ele></trkpt>
<trkpt lat="47.345816572413" lon="11.103937625885"><ele>1604</ele></trkpt>
<trkpt lat="47.345409475677" lon="11.104538440704"><ele>1597</ele></trkpt>
<trkpt lat="47.344726127448" lon="11.104924681422"><ele>1582</ele></trkpt>
<trkpt lat="47.344595272566" lon="11.104710104701"><ele>1577</ele></trkpt>
<trkpt lat="47.344013691384" lon="11.104924681422"><ele>1563</ele></trkpt>
<trkpt lat="47.34383921578" lon="11.104817393061"><ele>1562</ele></trkpt>
<trkpt lat="47.343432103795" lon="11.106276514765"><ele>1551</ele></trkpt>
<trkpt lat="47.343141307598" lon="11.106662752863"><ele>1546</ele></trkpt>
<trkpt lat="47.343199466966" lon="11.107263567683"><ele>1532</ele></trkpt>
<trkpt lat="47.342850509799" lon="11.10713482165"><ele>1520</ele></trkpt>
<trkpt lat="47.34258879041" lon="11.108036043879"><ele>1503</ele></trkpt>
<trkpt lat="47.342079887885" lon="11.10885143542"><ele>1484</ele></trkpt>
<trkpt lat="47.341803624459" lon="11.109216215846"><ele>1472</ele></trkpt>
<trkpt lat="47.341774544015" lon="11.109602453944"><ele>1463</ele></trkpt>
<trkpt lat="47.341294714365" lon="11.109795572993"><ele>1444</ele></trkpt>
<trkpt lat="47.341207472142" lon="11.110439303156"><ele>1428</ele></trkpt>
<trkpt lat="47.340727637338" lon="11.11026764178"><ele>1411</ele></trkpt>
<trkpt lat="47.340669475248" lon="11.111555102107"><ele>1383</ele></trkpt>
<trkpt lat="47.340276879459" lon="11.11138344073"><ele>1370</ele></trkpt>
<trkpt lat="47.340058769427" lon="11.111104490992"><ele>1360</ele></trkpt>
<trkpt lat="47.340000606599" lon="11.111512186762"><ele>1350</ele></trkpt>
<trkpt lat="47.339797036198" lon="11.111426356074"><ele>1342</ele></trkpt>
<trkpt lat="47.339753413867" lon="11.111640932795"><ele>1335</ele></trkpt>
<trkpt lat="47.339506219978" lon="11.111576559779"><ele>1323</ele></trkpt>
<trkpt lat="47.339462597407" lon="11.112027170893"><ele>1309</ele></trkpt>
<trkpt lat="47.338924582732" lon="11.111769678828"><ele>1295</ele></trkpt>
<trkpt lat="47.338735549247" lon="11.110546591517"><ele>1274</ele></trkpt>
<trkpt lat="47.338342939078" lon="11.11037493014"><ele>1260</ele></trkpt>
<trkpt lat="47.337630416871" lon="11.110761168238"><ele>1249</ele></trkpt>
<trkpt lat="47.337223257006" lon="11.111018660304"><ele>1247</ele></trkpt>
<trkpt lat="47.337055979134" lon="11.111147403717"><ele>1248</ele></trkpt>
<trkpt lat="47.3374776817" lon="11.112284660339"><ele>1251</ele></trkpt>
<trkpt lat="47.337535847307" lon="11.112595796585"><ele>1252</ele></trkpt>
<trkpt lat="47.337455869581" lon="11.112756729126"><ele>1253</ele></trkpt>
<trkpt lat="47.33670698136" lon="11.112477779388"><ele>1257</ele></trkpt>
<trkpt lat="47.336372522996" lon="11.112477779388"><ele>1258</ele></trkpt>
<trkpt lat="47.335500012943" lon="11.112381219864"><ele>1249</ele></trkpt>
<trkpt lat="47.335114649746" lon="11.112713813782"><ele>1248</ele></trkpt>
<trkpt lat="47.334787452372" lon="11.113035678864"><ele>1247</ele></trkpt>
<trkpt lat="47.334329372641" lon="11.114012002945"><ele>1247</ele></trkpt>
<trkpt lat="47.334227576606" lon="11.114044189453"><ele>1247</ele></trkpt>
      </trkseg></trk>
   
</gpx>
   