<?xml version="1.0" encoding="UTF-8"?>
<gpx xmlns="http://www.topografix.com/GPX/1/1" creator="MTK - http://www.toursprung.com" version="1.1"
   xmlns:xsi="http://www.w3.org/2001/XMLSchema-instance"
   xsi:schemaLocation="http://www.topografix.com/GPX/1/1 http://www.topografix.com/GPX/1/1/gpx.xsd">
   <metadata>
      <name><![CDATA[Siega - Klettersteig]]></name>
      
   </metadata>
   
      <trk><name><![CDATA[Siega - Klettersteig]]></name><trkseg>
         <trkpt lat="47.43392" lon="13.71803"><ele>960</ele></trkpt>
<trkpt lat="47.43401" lon="13.71805"><ele>960</ele></trkpt>
<trkpt lat="47.43411" lon="13.71802"><ele>960</ele></trkpt>
<trkpt lat="47.4342" lon="13.71799"><ele>960</ele></trkpt>
<trkpt lat="47.4343" lon="13.71795"><ele>960</ele></trkpt>
<trkpt lat="47.43439" lon="13.71789"><ele>963</ele></trkpt>
<trkpt lat="47.43447" lon="13.71782"><ele>965</ele></trkpt>
<trkpt lat="47.43456" lon="13.71777"><ele>967</ele></trkpt>
<trkpt lat="47.43463" lon="13.71766"><ele>970</ele></trkpt>
<trkpt lat="47.4347" lon="13.71757"><ele>973</ele></trkpt>
<trkpt lat="47.43477" lon="13.71747"><ele>976</ele></trkpt>
<trkpt lat="47.43486" lon="13.71739"><ele>980</ele></trkpt>
<trkpt lat="47.43494" lon="13.71731"><ele>983</ele></trkpt>
<trkpt lat="47.43503" lon="13.71723"><ele>987</ele></trkpt>
<trkpt lat="47.43511" lon="13.71715"><ele>991</ele></trkpt>
<trkpt lat="47.43518" lon="13.71708"><ele>994</ele></trkpt>
<trkpt lat="47.43528" lon="13.71704"><ele>997</ele></trkpt>
<trkpt lat="47.43537" lon="13.71696"><ele>1000</ele></trkpt>
<trkpt lat="47.43544" lon="13.71683"><ele>1002</ele></trkpt>
<trkpt lat="47.43551" lon="13.71675"><ele>1004</ele></trkpt>
<trkpt lat="47.43559" lon="13.71664"><ele>1006</ele></trkpt>
<trkpt lat="47.43566" lon="13.71656"><ele>1007</ele></trkpt>
<trkpt lat="47.43575" lon="13.71649"><ele>1009</ele></trkpt>
<trkpt lat="47.43584" lon="13.71643"><ele>1011</ele></trkpt>
<trkpt lat="47.43592" lon="13.71637"><ele>1012</ele></trkpt>
<trkpt lat="47.43602" lon="13.71635"><ele>1014</ele></trkpt>
<trkpt lat="47.43611" lon="13.71633"><ele>1015</ele></trkpt>
<trkpt lat="47.43618" lon="13.71623"><ele>1018</ele></trkpt>
<trkpt lat="47.43627" lon="13.71623"><ele>1020</ele></trkpt>
<trkpt lat="47.43636" lon="13.71628"><ele>1022</ele></trkpt>
<trkpt lat="47.43645" lon="13.71631"><ele>1024</ele></trkpt>
<trkpt lat="47.43654" lon="13.71629"><ele>1028</ele></trkpt>
<trkpt lat="47.43663" lon="13.71622"><ele>1031</ele></trkpt>
<trkpt lat="47.43672" lon="13.71616"><ele>1035</ele></trkpt>
<trkpt lat="47.43681" lon="13.71609"><ele>1038</ele></trkpt>
<trkpt lat="47.4369" lon="13.71604"><ele>1042</ele></trkpt>
<trkpt lat="47.43699" lon="13.71599"><ele>1045</ele></trkpt>
<trkpt lat="47.43709" lon="13.71595"><ele>1048</ele></trkpt>
<trkpt lat="47.43719" lon="13.71594"><ele>1053</ele></trkpt>
<trkpt lat="47.43727" lon="13.71585"><ele>1059</ele></trkpt>
<trkpt lat="47.43731" lon="13.71571"><ele>1066</ele></trkpt>
<trkpt lat="47.43737" lon="13.71561"><ele>1072</ele></trkpt>
<trkpt lat="47.43746" lon="13.71558"><ele>1073</ele></trkpt>
<trkpt lat="47.43756" lon="13.71554"><ele>1073</ele></trkpt>
<trkpt lat="47.43756" lon="13.71569"><ele>1073</ele></trkpt>
<trkpt lat="47.43763" lon="13.71578"><ele>1073</ele></trkpt>
<trkpt lat="47.43769" lon="13.7159"><ele>1081</ele></trkpt>
<trkpt lat="47.43779" lon="13.71592"><ele>1088</ele></trkpt>
<trkpt lat="47.4379" lon="13.71592"><ele>1096</ele></trkpt>
<trkpt lat="47.43799" lon="13.71588"><ele>1101</ele></trkpt>
<trkpt lat="47.43807" lon="13.7158"><ele>1105</ele></trkpt>
<trkpt lat="47.43799" lon="13.71587"><ele>1109</ele></trkpt>
<trkpt lat="47.43808" lon="13.71585"><ele>1112</ele></trkpt>
<trkpt lat="47.4385" lon="13.71549"><ele>1134</ele></trkpt>
<trkpt lat="47.43906" lon="13.71512"><ele>1144</ele></trkpt>
<trkpt lat="47.43965" lon="13.7151"><ele>1140</ele></trkpt>
<trkpt lat="47.43975" lon="13.71509"><ele>1140</ele></trkpt>
<trkpt lat="47.44045" lon="13.7143"><ele>1165</ele></trkpt>
<trkpt lat="47.44131" lon="13.71356"><ele>1181</ele></trkpt>
<trkpt lat="47.44147" lon="13.71367"><ele>1182</ele></trkpt>
<trkpt lat="47.44189" lon="13.71362"><ele>1186</ele></trkpt>
<trkpt lat="47.4424" lon="13.71353"><ele>1191</ele></trkpt>
<trkpt lat="47.44362" lon="13.71373"><ele>1212</ele></trkpt>
<trkpt lat="47.44391" lon="13.71341"><ele>1222</ele></trkpt>
<trkpt lat="47.44391" lon="13.71273"><ele>1232</ele></trkpt>
<trkpt lat="47.44401" lon="13.71278"><ele>1234</ele></trkpt>
<trkpt lat="47.44405" lon="13.71266"><ele>1235</ele></trkpt>
<trkpt lat="47.44398" lon="13.71254"><ele>1232</ele></trkpt>
<trkpt lat="47.44388" lon="13.71248"><ele>1230</ele></trkpt>
<trkpt lat="47.44376" lon="13.71246"><ele>1227</ele></trkpt>
<trkpt lat="47.44366" lon="13.71248"><ele>1226</ele></trkpt>
<trkpt lat="47.4436" lon="13.71236"><ele>1225</ele></trkpt>
<trkpt lat="47.44352" lon="13.7123"><ele>1223</ele></trkpt>
<trkpt lat="47.44341" lon="13.71232"><ele>1223</ele></trkpt>
<trkpt lat="47.44332" lon="13.71237"><ele>1224</ele></trkpt>
<trkpt lat="47.44323" lon="13.71233"><ele>1224</ele></trkpt>
<trkpt lat="47.44325" lon="13.71219"><ele>1225</ele></trkpt>
<trkpt lat="47.44334" lon="13.71216"><ele>1227</ele></trkpt>
<trkpt lat="47.44343" lon="13.71218"><ele>1229</ele></trkpt>
<trkpt lat="47.44343" lon="13.71202"><ele>1232</ele></trkpt>
<trkpt lat="47.4435" lon="13.71194"><ele>1234</ele></trkpt>
<trkpt lat="47.44359" lon="13.71187"><ele>1237</ele></trkpt>
<trkpt lat="47.44366" lon="13.71177"><ele>1240</ele></trkpt>
<trkpt lat="47.44374" lon="13.71169"><ele>1243</ele></trkpt>
<trkpt lat="47.44381" lon="13.71159"><ele>1246</ele></trkpt>
<trkpt lat="47.44389" lon="13.71151"><ele>1249</ele></trkpt>
<trkpt lat="47.44398" lon="13.71147"><ele>1252</ele></trkpt>
<trkpt lat="47.44404" lon="13.71134"><ele>1256</ele></trkpt>
<trkpt lat="47.44403" lon="13.71121"><ele>1258</ele></trkpt>
<trkpt lat="47.44397" lon="13.71108"><ele>1260</ele></trkpt>
<trkpt lat="47.44392" lon="13.71097"><ele>1262</ele></trkpt>
<trkpt lat="47.44388" lon="13.71084"><ele>1264</ele></trkpt>
<trkpt lat="47.44379" lon="13.71081"><ele>1266</ele></trkpt>
<trkpt lat="47.44374" lon="13.71069"><ele>1267</ele></trkpt>
<trkpt lat="47.4437" lon="13.71057"><ele>1269</ele></trkpt>
<trkpt lat="47.44361" lon="13.71049"><ele>1271</ele></trkpt>
<trkpt lat="47.44354" lon="13.7104"><ele>1272</ele></trkpt>
<trkpt lat="47.44363" lon="13.71037"><ele>1273</ele></trkpt>
<trkpt lat="47.44359" lon="13.71025"><ele>1274</ele></trkpt>
<trkpt lat="47.44353" lon="13.71014"><ele>1275</ele></trkpt>
<trkpt lat="47.44345" lon="13.71005"><ele>1278</ele></trkpt>
<trkpt lat="47.44338" lon="13.70995"><ele>1281</ele></trkpt>
<trkpt lat="47.44335" lon="13.70981"><ele>1284</ele></trkpt>
<trkpt lat="47.4433" lon="13.70968"><ele>1289</ele></trkpt>
<trkpt lat="47.44329" lon="13.70953"><ele>1299</ele></trkpt>
<trkpt lat="47.4433" lon="13.70939"><ele>1310</ele></trkpt>
<trkpt lat="47.44339" lon="13.70933"><ele>1320</ele></trkpt>
<trkpt lat="47.44348" lon="13.70931"><ele>1327</ele></trkpt>
<trkpt lat="47.44356" lon="13.70924"><ele>1331</ele></trkpt>
<trkpt lat="47.44361" lon="13.70935"><ele>1335</ele></trkpt>
<trkpt lat="47.44401" lon="13.70936"><ele>1370</ele></trkpt>
<trkpt lat="47.4441" lon="13.70931"><ele>1381</ele></trkpt>
<trkpt lat="47.44414" lon="13.70918"><ele>1393</ele></trkpt>
<trkpt lat="47.44419" lon="13.70906"><ele>1404</ele></trkpt>
<trkpt lat="47.44418" lon="13.70892"><ele>1416</ele></trkpt>
<trkpt lat="47.44416" lon="13.70879"><ele>1427</ele></trkpt>
<trkpt lat="47.44424" lon="13.70871"><ele>1433</ele></trkpt>
<trkpt lat="47.44429" lon="13.7086"><ele>1439</ele></trkpt>
<trkpt lat="47.44435" lon="13.70849"><ele>1446</ele></trkpt>
<trkpt lat="47.44444" lon="13.70852"><ele>1452</ele></trkpt>
<trkpt lat="47.44453" lon="13.70856"><ele>1455</ele></trkpt>
<trkpt lat="47.44461" lon="13.70849"><ele>1458</ele></trkpt>
<trkpt lat="47.4447" lon="13.7085"><ele>1461</ele></trkpt>
<trkpt lat="47.4448" lon="13.70852"><ele>1464</ele></trkpt>
<trkpt lat="47.44489" lon="13.70849"><ele>1469</ele></trkpt>
<trkpt lat="47.44497" lon="13.70841"><ele>1473</ele></trkpt>
<trkpt lat="47.44507" lon="13.70833"><ele>1478</ele></trkpt>
<trkpt lat="47.44514" lon="13.70824"><ele>1479</ele></trkpt>
<trkpt lat="47.44523" lon="13.70829"><ele>1478</ele></trkpt>
<trkpt lat="47.44532" lon="13.70832"><ele>1477</ele></trkpt>
<trkpt lat="47.44541" lon="13.70828"><ele>1476</ele></trkpt>
<trkpt lat="47.4455" lon="13.70826"><ele>1473</ele></trkpt>
<trkpt lat="47.44552" lon="13.7084"><ele>1468</ele></trkpt>
<trkpt lat="47.44547" lon="13.70853"><ele>1463</ele></trkpt>
<trkpt lat="47.44544" lon="13.70867"><ele>1459</ele></trkpt>
<trkpt lat="47.44549" lon="13.70878"><ele>1457</ele></trkpt>
<trkpt lat="47.44557" lon="13.70887"><ele>1455</ele></trkpt>
<trkpt lat="47.44563" lon="13.70899"><ele>1452</ele></trkpt>
<trkpt lat="47.44569" lon="13.70909"><ele>1450</ele></trkpt>
<trkpt lat="47.44576" lon="13.70922"><ele>1446</ele></trkpt>
<trkpt lat="47.44583" lon="13.70933"><ele>1442</ele></trkpt>
<trkpt lat="47.44588" lon="13.70945"><ele>1438</ele></trkpt>
<trkpt lat="47.4459" lon="13.70959"><ele>1435</ele></trkpt>
<trkpt lat="47.4459" lon="13.70973"><ele>1433</ele></trkpt>
<trkpt lat="47.44588" lon="13.70988"><ele>1430</ele></trkpt>
<trkpt lat="47.44587" lon="13.71002"><ele>1427</ele></trkpt>
<trkpt lat="47.44597" lon="13.71006"><ele>1430</ele></trkpt>
<trkpt lat="47.44602" lon="13.71016"><ele>1433</ele></trkpt>
<trkpt lat="47.44612" lon="13.71022"><ele>1438</ele></trkpt>
<trkpt lat="47.44621" lon="13.71026"><ele>1441</ele></trkpt>
<trkpt lat="47.44629" lon="13.71036"><ele>1439</ele></trkpt>
<trkpt lat="47.44638" lon="13.71041"><ele>1436</ele></trkpt>
<trkpt lat="47.44645" lon="13.71053"><ele>1433</ele></trkpt>
<trkpt lat="47.44646" lon="13.71067"><ele>1429</ele></trkpt>
<trkpt lat="47.44651" lon="13.71079"><ele>1423</ele></trkpt>
<trkpt lat="47.44657" lon="13.7109"><ele>1418</ele></trkpt>
<trkpt lat="47.44661" lon="13.71103"><ele>1412</ele></trkpt>
<trkpt lat="47.44663" lon="13.71117"><ele>1404</ele></trkpt>
<trkpt lat="47.44659" lon="13.7113"><ele>1396</ele></trkpt>
<trkpt lat="47.44655" lon="13.71141"><ele>1389</ele></trkpt>
<trkpt lat="47.44647" lon="13.71149"><ele>1380</ele></trkpt>
<trkpt lat="47.44638" lon="13.71151"><ele>1373</ele></trkpt>
<trkpt lat="47.44629" lon="13.71158"><ele>1367</ele></trkpt>
<trkpt lat="47.44624" lon="13.7117"><ele>1361</ele></trkpt>
<trkpt lat="47.44622" lon="13.71184"><ele>1354</ele></trkpt>
<trkpt lat="47.44619" lon="13.71196"><ele>1349</ele></trkpt>
<trkpt lat="47.44617" lon="13.7121"><ele>1343</ele></trkpt>
<trkpt lat="47.44618" lon="13.71223"><ele>1337</ele></trkpt>
<trkpt lat="47.44611" lon="13.71233"><ele>1331</ele></trkpt>
<trkpt lat="47.4461" lon="13.71247"><ele>1325</ele></trkpt>
<trkpt lat="47.446" lon="13.71249"><ele>1320</ele></trkpt>
<trkpt lat="47.4459" lon="13.71249"><ele>1314</ele></trkpt>
<trkpt lat="47.4458" lon="13.7125"><ele>1308</ele></trkpt>
<trkpt lat="47.44571" lon="13.71251"><ele>1302</ele></trkpt>
<trkpt lat="47.44575" lon="13.71267"><ele>1295</ele></trkpt>
<trkpt lat="47.44572" lon="13.71282"><ele>1288</ele></trkpt>
<trkpt lat="47.44563" lon="13.71285"><ele>1283</ele></trkpt>
<trkpt lat="47.44556" lon="13.71293"><ele>1279</ele></trkpt>
<trkpt lat="47.44549" lon="13.71302"><ele>1274</ele></trkpt>
<trkpt lat="47.44539" lon="13.71306"><ele>1269</ele></trkpt>
<trkpt lat="47.44529" lon="13.71305"><ele>1266</ele></trkpt>
<trkpt lat="47.4452" lon="13.71312"><ele>1262</ele></trkpt>
<trkpt lat="47.4451" lon="13.71315"><ele>1258</ele></trkpt>
<trkpt lat="47.44501" lon="13.71312"><ele>1255</ele></trkpt>
<trkpt lat="47.44492" lon="13.71308"><ele>1254</ele></trkpt>
<trkpt lat="47.44483" lon="13.713"><ele>1252</ele></trkpt>
<trkpt lat="47.44473" lon="13.71298"><ele>1250</ele></trkpt>
<trkpt lat="47.44466" lon="13.71289"><ele>1249</ele></trkpt>
<trkpt lat="47.44457" lon="13.71283"><ele>1246</ele></trkpt>
<trkpt lat="47.44448" lon="13.71278"><ele>1244</ele></trkpt>
<trkpt lat="47.44441" lon="13.71268"><ele>1242</ele></trkpt>
<trkpt lat="47.4443" lon="13.71266"><ele>1239</ele></trkpt>
<trkpt lat="47.44422" lon="13.7126"><ele>1236</ele></trkpt>
<trkpt lat="47.44411" lon="13.71258"><ele>1233</ele></trkpt>
<trkpt lat="47.44402" lon="13.71263"><ele>1230</ele></trkpt>
<trkpt lat="47.44405" lon="13.71276"><ele>1228</ele></trkpt>
<trkpt lat="47.44394" lon="13.71279"><ele>1225</ele></trkpt>
<trkpt lat="47.44397" lon="13.71295"><ele>1222</ele></trkpt>
<trkpt lat="47.4439" lon="13.71308"><ele>1219</ele></trkpt>
<trkpt lat="47.44387" lon="13.71321"><ele>1217</ele></trkpt>
<trkpt lat="47.44391" lon="13.71335"><ele>1214</ele></trkpt>
<trkpt lat="47.44388" lon="13.71349"><ele>1211</ele></trkpt>
<trkpt lat="47.44383" lon="13.71361"><ele>1209</ele></trkpt>
<trkpt lat="47.44374" lon="13.71367"><ele>1207</ele></trkpt>
<trkpt lat="47.44365" lon="13.71373"><ele>1205</ele></trkpt>
<trkpt lat="47.44356" lon="13.71369"><ele>1203</ele></trkpt>
<trkpt lat="47.44347" lon="13.71366"><ele>1202</ele></trkpt>
<trkpt lat="47.44336" lon="13.71361"><ele>1200</ele></trkpt>
<trkpt lat="47.44325" lon="13.71367"><ele>1198</ele></trkpt>
<trkpt lat="47.44314" lon="13.71367"><ele>1196</ele></trkpt>
<trkpt lat="47.44305" lon="13.71368"><ele>1195</ele></trkpt>
<trkpt lat="47.44296" lon="13.71371"><ele>1194</ele></trkpt>
<trkpt lat="47.44283" lon="13.71369"><ele>1193</ele></trkpt>
<trkpt lat="47.44275" lon="13.71359"><ele>1192</ele></trkpt>
<trkpt lat="47.44264" lon="13.71358"><ele>1191</ele></trkpt>
<trkpt lat="47.44255" lon="13.71352"><ele>1191</ele></trkpt>
<trkpt lat="47.44245" lon="13.71348"><ele>1189</ele></trkpt>
<trkpt lat="47.44235" lon="13.71349"><ele>1188</ele></trkpt>
<trkpt lat="47.44226" lon="13.71348"><ele>1187</ele></trkpt>
<trkpt lat="47.44216" lon="13.71347"><ele>1186</ele></trkpt>
<trkpt lat="47.44206" lon="13.71353"><ele>1184</ele></trkpt>
<trkpt lat="47.44196" lon="13.71359"><ele>1182</ele></trkpt>
<trkpt lat="47.44187" lon="13.71367"><ele>1180</ele></trkpt>
<trkpt lat="47.44177" lon="13.71376"><ele>1180</ele></trkpt>
<trkpt lat="47.44166" lon="13.71381"><ele>1181</ele></trkpt>
<trkpt lat="47.44157" lon="13.71375"><ele>1182</ele></trkpt>
<trkpt lat="47.44147" lon="13.71374"><ele>1182</ele></trkpt>
<trkpt lat="47.44138" lon="13.71367"><ele>1181</ele></trkpt>
<trkpt lat="47.44129" lon="13.71359"><ele>1180</ele></trkpt>
<trkpt lat="47.44119" lon="13.71364"><ele>1179</ele></trkpt>
<trkpt lat="47.44109" lon="13.7137"><ele>1176</ele></trkpt>
<trkpt lat="47.441" lon="13.71378"><ele>1174</ele></trkpt>
<trkpt lat="47.4409" lon="13.71387"><ele>1171</ele></trkpt>
<trkpt lat="47.4408" lon="13.71394"><ele>1168</ele></trkpt>
<trkpt lat="47.44074" lon="13.71405"><ele>1166</ele></trkpt>
<trkpt lat="47.44066" lon="13.71415"><ele>1164</ele></trkpt>
<trkpt lat="47.44058" lon="13.71423"><ele>1162</ele></trkpt>
<trkpt lat="47.44048" lon="13.71429"><ele>1158</ele></trkpt>
<trkpt lat="47.4404" lon="13.71435"><ele>1156</ele></trkpt>
<trkpt lat="47.44031" lon="13.71444"><ele>1152</ele></trkpt>
<trkpt lat="47.44021" lon="13.71455"><ele>1149</ele></trkpt>
<trkpt lat="47.44011" lon="13.71458"><ele>1146</ele></trkpt>
<trkpt lat="47.44004" lon="13.71467"><ele>1143</ele></trkpt>
<trkpt lat="47.43998" lon="13.71478"><ele>1140</ele></trkpt>
<trkpt lat="47.4399" lon="13.71489"><ele>1140</ele></trkpt>
<trkpt lat="47.43981" lon="13.71495"><ele>1140</ele></trkpt>
<trkpt lat="47.43976" lon="13.71507"><ele>1140</ele></trkpt>
<trkpt lat="47.43964" lon="13.71513"><ele>1141</ele></trkpt>
<trkpt lat="47.43952" lon="13.71513"><ele>1144</ele></trkpt>
<trkpt lat="47.43942" lon="13.71505"><ele>1146</ele></trkpt>
<trkpt lat="47.43932" lon="13.71504"><ele>1148</ele></trkpt>
<trkpt lat="47.43908" lon="13.71507"><ele>1143</ele></trkpt>
<trkpt lat="47.43903" lon="13.71518"><ele>1141</ele></trkpt>
<trkpt lat="47.43891" lon="13.7152"><ele>1138</ele></trkpt>
<trkpt lat="47.43866" lon="13.71543"><ele>1132</ele></trkpt>
<trkpt lat="47.43838" lon="13.71575"><ele>1120</ele></trkpt>
<trkpt lat="47.43824" lon="13.71579"><ele>1108</ele></trkpt>
<trkpt lat="47.43819" lon="13.71592"><ele>1100</ele></trkpt>
<trkpt lat="47.43807" lon="13.71598"><ele>1090</ele></trkpt>
<trkpt lat="47.43794" lon="13.71598"><ele>1082</ele></trkpt>
<trkpt lat="47.43785" lon="13.71598"><ele>1076</ele></trkpt>
<trkpt lat="47.43772" lon="13.71597"><ele>1068</ele></trkpt>
<trkpt lat="47.43761" lon="13.71591"><ele>1061</ele></trkpt>
<trkpt lat="47.43745" lon="13.71599"><ele>1051</ele></trkpt>
<trkpt lat="47.43733" lon="13.71601"><ele>1046</ele></trkpt>
<trkpt lat="47.43723" lon="13.71599"><ele>1043</ele></trkpt>
<trkpt lat="47.43713" lon="13.71597"><ele>1041</ele></trkpt>
<trkpt lat="47.43704" lon="13.716"><ele>1038</ele></trkpt>
<trkpt lat="47.43692" lon="13.71605"><ele>1034</ele></trkpt>
<trkpt lat="47.43683" lon="13.71601"><ele>1030</ele></trkpt>
<trkpt lat="47.43673" lon="13.71606"><ele>1027</ele></trkpt>
<trkpt lat="47.43664" lon="13.71612"><ele>1024</ele></trkpt>
<trkpt lat="47.43656" lon="13.71619"><ele>1022</ele></trkpt>
<trkpt lat="47.4365" lon="13.71629"><ele>1020</ele></trkpt>
<trkpt lat="47.4364" lon="13.71628"><ele>1018</ele></trkpt>
<trkpt lat="47.4363" lon="13.71627"><ele>1016</ele></trkpt>
<trkpt lat="47.43621" lon="13.71627"><ele>1014</ele></trkpt>
<trkpt lat="47.43612" lon="13.71624"><ele>1012</ele></trkpt>
<trkpt lat="47.43608" lon="13.71611"><ele>1010</ele></trkpt>
<trkpt lat="47.43602" lon="13.71624"><ele>1008</ele></trkpt>
<trkpt lat="47.43597" lon="13.71636"><ele>1006</ele></trkpt>
<trkpt lat="47.43589" lon="13.71647"><ele>1004</ele></trkpt>
<trkpt lat="47.43578" lon="13.71655"><ele>1002</ele></trkpt>
<trkpt lat="47.43569" lon="13.71663"><ele>999</ele></trkpt>
<trkpt lat="47.43562" lon="13.71676"><ele>997</ele></trkpt>
<trkpt lat="47.43559" lon="13.7169"><ele>995</ele></trkpt>
<trkpt lat="47.43557" lon="13.71705"><ele>992</ele></trkpt>
<trkpt lat="47.43546" lon="13.7171"><ele>989</ele></trkpt>
<trkpt lat="47.43535" lon="13.71716"><ele>986</ele></trkpt>
<trkpt lat="47.43526" lon="13.71722"><ele>983</ele></trkpt>
<trkpt lat="47.43512" lon="13.71728"><ele>978</ele></trkpt>
<trkpt lat="47.43503" lon="13.71732"><ele>975</ele></trkpt>
<trkpt lat="47.43494" lon="13.71742"><ele>971</ele></trkpt>
<trkpt lat="47.43487" lon="13.71755"><ele>968</ele></trkpt>
<trkpt lat="47.43481" lon="13.71768"><ele>965</ele></trkpt>
<trkpt lat="47.43474" lon="13.71777"><ele>962</ele></trkpt>
<trkpt lat="47.43464" lon="13.71781"><ele>961</ele></trkpt>
<trkpt lat="47.43453" lon="13.71785"><ele>960</ele></trkpt>
<trkpt lat="47.43444" lon="13.7179"><ele>960</ele></trkpt>
<trkpt lat="47.43436" lon="13.71799"><ele>960</ele></trkpt>
<trkpt lat="47.43422" lon="13.71802"><ele>960</ele></trkpt>
<trkpt lat="47.43413" lon="13.71806"><ele>960</ele></trkpt>
<trkpt lat="47.43404" lon="13.71807"><ele>959</ele></trkpt>
      </trkseg></trk>
   
</gpx>
   