<?xml version="1.0" encoding="UTF-8"?>
<gpx xmlns="http://www.topografix.com/GPX/1/1" creator="MTK - http://www.toursprung.com" version="1.1"
   xmlns:xsi="http://www.w3.org/2001/XMLSchema-instance"
   xsi:schemaLocation="http://www.topografix.com/GPX/1/1 http://www.topografix.com/GPX/1/1/gpx.xsd">
   <metadata>
      <name><![CDATA[Sentiero Bocchette Alte - Bocchette Weg]]></name>
      
   </metadata>
   
      <trk><name><![CDATA[Sentiero Bocchette Alte - Bocchette Weg]]></name><trkseg>
         <trkpt lat="46.1919674" lon="10.882988"><ele>2272</ele></trkpt>
<trkpt lat="46.1915515" lon="10.8849621"><ele>2283</ele></trkpt>
<trkpt lat="46.1912544" lon="10.8867431"><ele>2297</ele></trkpt>
<trkpt lat="46.1908682" lon="10.889039"><ele>2320</ele></trkpt>
<trkpt lat="46.1905637" lon="10.8899295"><ele>2340</ele></trkpt>
<trkpt lat="46.1904969" lon="10.8901227"><ele>2344</ele></trkpt>
<trkpt lat="46.1896576" lon="10.891614"><ele>2375</ele></trkpt>
<trkpt lat="46.1892639" lon="10.8923864"><ele>2387</ele></trkpt>
<trkpt lat="46.1889594" lon="10.8927298"><ele>2387</ele></trkpt>
<trkpt lat="46.1889" lon="10.893116"><ele>2397</ele></trkpt>
<trkpt lat="46.1886326" lon="10.8933306"><ele>2405</ele></trkpt>
<trkpt lat="46.1885509" lon="10.8936417"><ele>2408</ele></trkpt>
<trkpt lat="46.1883578" lon="10.893749"><ele>2412</ele></trkpt>
<trkpt lat="46.1880013" lon="10.8949399"><ele>2442</ele></trkpt>
<trkpt lat="46.1868426" lon="10.8976436"><ele>2534</ele></trkpt>
<trkpt lat="46.1855947" lon="10.9009802"><ele>2642</ele></trkpt>
<trkpt lat="46.1851713" lon="10.9010983"><ele>2666</ele></trkpt>
<trkpt lat="46.1843097" lon="10.9015918"><ele>2720</ele></trkpt>
<trkpt lat="46.1844211" lon="10.9021711"><ele>2732</ele></trkpt>
<trkpt lat="46.18402" lon="10.9020317"><ele>2771</ele></trkpt>
<trkpt lat="46.1837971" lon="10.9026968"><ele>2825</ele></trkpt>
<trkpt lat="46.1835892" lon="10.9030616"><ele>2856</ele></trkpt>
<trkpt lat="46.1832178" lon="10.9029758"><ele>2873</ele></trkpt>
<trkpt lat="46.1828463" lon="10.9026325"><ele>2904</ele></trkpt>
<trkpt lat="46.1824452" lon="10.9025145"><ele>2924</ele></trkpt>
<trkpt lat="46.1818807" lon="10.9027612"><ele>2942</ele></trkpt>
<trkpt lat="46.1810858" lon="10.903008"><ele>2947</ele></trkpt>
<trkpt lat="46.1804767" lon="10.9030724"><ele>2957</ele></trkpt>
<trkpt lat="46.1800087" lon="10.9033191"><ele>2966</ele></trkpt>
<trkpt lat="46.1796967" lon="10.9028685"><ele>2990</ele></trkpt>
<trkpt lat="46.1793624" lon="10.9027183"><ele>2987</ele></trkpt>
<trkpt lat="46.1792881" lon="10.9025359"><ele>2969</ele></trkpt>
<trkpt lat="46.1788795" lon="10.9022677"><ele>2932</ele></trkpt>
<trkpt lat="46.1788573" lon="10.9019995"><ele>2928</ele></trkpt>
<trkpt lat="46.178523" lon="10.9018385"><ele>2953</ele></trkpt>
<trkpt lat="46.1782332" lon="10.901742"><ele>2944</ele></trkpt>
<trkpt lat="46.1779212" lon="10.9020317"><ele>2941</ele></trkpt>
<trkpt lat="46.1779955" lon="10.9015059"><ele>2996</ele></trkpt>
<trkpt lat="46.1777578" lon="10.9016562"><ele>3009</ele></trkpt>
<trkpt lat="46.1776092" lon="10.9014201"><ele>3000</ele></trkpt>
<trkpt lat="46.1771115" lon="10.9016991"><ele>2968</ele></trkpt>
<trkpt lat="46.1769332" lon="10.9015059"><ele>2963</ele></trkpt>
<trkpt lat="46.1765617" lon="10.9020209"><ele>2959</ele></trkpt>
<trkpt lat="46.1758114" lon="10.9024501"><ele>2955</ele></trkpt>
<trkpt lat="46.1754176" lon="10.9026217"><ele>2964</ele></trkpt>
<trkpt lat="46.1751873" lon="10.9023964"><ele>2981</ele></trkpt>
<trkpt lat="46.1745633" lon="10.9017956"><ele>2962</ele></trkpt>
<trkpt lat="46.1742215" lon="10.9019136"><ele>2944</ele></trkpt>
<trkpt lat="46.1739541" lon="10.902257"><ele>2928</ele></trkpt>
<trkpt lat="46.1738946" lon="10.9020638"><ele>2921</ele></trkpt>
<trkpt lat="46.1740506" lon="10.9017956"><ele>2912</ele></trkpt>
<trkpt lat="46.1739838" lon="10.9015381"><ele>2905</ele></trkpt>
<trkpt lat="46.1740581" lon="10.900991"><ele>2893</ele></trkpt>
<trkpt lat="46.1742661" lon="10.9007764"><ele>2883</ele></trkpt>
<trkpt lat="46.1745187" lon="10.9005082"><ele>2868</ele></trkpt>
<trkpt lat="46.1745261" lon="10.9001219"><ele>2843</ele></trkpt>
<trkpt lat="46.1745187" lon="10.8993495"><ele>2785</ele></trkpt>
<trkpt lat="46.174437" lon="10.8992314"><ele>2770</ele></trkpt>
<trkpt lat="46.1746004" lon="10.8988452"><ele>2728</ele></trkpt>
<trkpt lat="46.175165" lon="10.8971071"><ele>2637</ele></trkpt>
<trkpt lat="46.1758188" lon="10.8947253"><ele>2582</ele></trkpt>
<trkpt lat="46.175908" lon="10.8924079"><ele>2549</ele></trkpt>
<trkpt lat="46.175908" lon="10.8905625"><ele>2532</ele></trkpt>
<trkpt lat="46.1758931" lon="10.8891892"><ele>2514</ele></trkpt>
<trkpt lat="46.175729700373" lon="10.888545553967"><ele>2522</ele></trkpt>
<trkpt lat="46.175343340367" lon="10.888867378235"><ele>2532</ele></trkpt>
<trkpt lat="46.175387915684" lon="10.889296531677"><ele>2537</ele></trkpt>
<trkpt lat="46.17504617067" lon="10.890154838562"><ele>2560</ele></trkpt>
<trkpt lat="46.174570695815" lon="10.8904337883"><ele>2566</ele></trkpt>
<trkpt lat="46.174258663207" lon="10.890347957611"><ele>2570</ele></trkpt>
<trkpt lat="46.174199228223" lon="10.891335010529"><ele>2580</ele></trkpt>
<trkpt lat="46.173768322674" lon="10.891849994659"><ele>2583</ele></trkpt>
      </trkseg></trk>
   
</gpx>
   