<?xml version="1.0" encoding="UTF-8"?>
<gpx xmlns="http://www.topografix.com/GPX/1/1" creator="MTK - http://www.toursprung.com" version="1.1"
   xmlns:xsi="http://www.w3.org/2001/XMLSchema-instance"
   xsi:schemaLocation="http://www.topografix.com/GPX/1/1 http://www.topografix.com/GPX/1/1/gpx.xsd">
   <metadata>
      <name><![CDATA[Weichtalklamm]]></name>
      
   </metadata>
   
      <trk><name><![CDATA[Weichtalklamm]]></name><trkseg>
         <trkpt lat="47.74769" lon="15.76875"><ele>550</ele></trkpt>
<trkpt lat="47.74781" lon="15.76849"><ele>558</ele></trkpt>
<trkpt lat="47.74836" lon="15.76856"><ele>581</ele></trkpt>
<trkpt lat="47.7489" lon="15.76937"><ele>611</ele></trkpt>
<trkpt lat="47.75022" lon="15.77034"><ele>641</ele></trkpt>
<trkpt lat="47.75079" lon="15.77068"><ele>643</ele></trkpt>
<trkpt lat="47.7524" lon="15.77075"><ele>680</ele></trkpt>
<trkpt lat="47.75387" lon="15.77075"><ele>712</ele></trkpt>
<trkpt lat="47.75394" lon="15.77019"><ele>721</ele></trkpt>
<trkpt lat="47.75433" lon="15.76969"><ele>735</ele></trkpt>
<trkpt lat="47.75574" lon="15.77034"><ele>793</ele></trkpt>
<trkpt lat="47.7558" lon="15.77107"><ele>793</ele></trkpt>
<trkpt lat="47.75635" lon="15.77246"><ele>799</ele></trkpt>
<trkpt lat="47.75685" lon="15.77281"><ele>802</ele></trkpt>
<trkpt lat="47.75779" lon="15.77304"><ele>905</ele></trkpt>
<trkpt lat="47.75808" lon="15.77386"><ele>930</ele></trkpt>
<trkpt lat="47.75858" lon="15.77452"><ele>958</ele></trkpt>
<trkpt lat="47.75922" lon="15.77461"><ele>988</ele></trkpt>
<trkpt lat="47.75978" lon="15.77487"><ele>1010</ele></trkpt>
<trkpt lat="47.7605" lon="15.77583"><ele>1028</ele></trkpt>
<trkpt lat="47.76108" lon="15.77615"><ele>1038</ele></trkpt>
<trkpt lat="47.76145" lon="15.77643"><ele>1051</ele></trkpt>
<trkpt lat="47.76186" lon="15.77615"><ele>1066</ele></trkpt>
<trkpt lat="47.76225" lon="15.7765"><ele>1081</ele></trkpt>
<trkpt lat="47.76267" lon="15.77684"><ele>1089</ele></trkpt>
<trkpt lat="47.76298" lon="15.77738"><ele>1093</ele></trkpt>
<trkpt lat="47.76307" lon="15.77783"><ele>1100</ele></trkpt>
<trkpt lat="47.76339" lon="15.77819"><ele>1116</ele></trkpt>
<trkpt lat="47.76378" lon="15.77856"><ele>1138</ele></trkpt>
<trkpt lat="47.76439" lon="15.779"><ele>1165</ele></trkpt>
<trkpt lat="47.76481" lon="15.77938"><ele>1181</ele></trkpt>
<trkpt lat="47.76513" lon="15.7794"><ele>1191</ele></trkpt>
<trkpt lat="47.76545" lon="15.7794"><ele>1206</ele></trkpt>
<trkpt lat="47.76574" lon="15.77918"><ele>1222</ele></trkpt>
<trkpt lat="47.76601" lon="15.77963"><ele>1224</ele></trkpt>
<trkpt lat="47.76707" lon="15.77991"><ele>1259</ele></trkpt>
<trkpt lat="47.76748" lon="15.78034"><ele>1275</ele></trkpt>
<trkpt lat="47.76766" lon="15.78107"><ele>1281</ele></trkpt>
<trkpt lat="47.768" lon="15.78047"><ele>1287</ele></trkpt>
<trkpt lat="47.76819" lon="15.77999"><ele>1284</ele></trkpt>
<trkpt lat="47.76867" lon="15.78042"><ele>1289</ele></trkpt>
<trkpt lat="47.76893" lon="15.78111"><ele>1322</ele></trkpt>
<trkpt lat="47.76917" lon="15.78167"><ele>1367</ele></trkpt>
<trkpt lat="47.76945" lon="15.78253"><ele>1400</ele></trkpt>
<trkpt lat="47.76962" lon="15.78276"><ele>1395</ele></trkpt>
<trkpt lat="47.76883" lon="15.78109"><ele>1303</ele></trkpt>
<trkpt lat="47.76854" lon="15.78051"><ele>1286</ele></trkpt>
<trkpt lat="47.76818" lon="15.77989"><ele>1286</ele></trkpt>
<trkpt lat="47.768" lon="15.78077"><ele>1289</ele></trkpt>
<trkpt lat="47.7676" lon="15.7813"><ele>1262</ele></trkpt>
<trkpt lat="47.76735" lon="15.78059"><ele>1243</ele></trkpt>
<trkpt lat="47.76666" lon="15.78001"><ele>1216</ele></trkpt>
<trkpt lat="47.76597" lon="15.77989"><ele>1203</ele></trkpt>
<trkpt lat="47.76492" lon="15.77862"><ele>1204</ele></trkpt>
<trkpt lat="47.76412" lon="15.77733"><ele>1178</ele></trkpt>
<trkpt lat="47.76379" lon="15.77628"><ele>1181</ele></trkpt>
<trkpt lat="47.7635" lon="15.77577"><ele>1180</ele></trkpt>
<trkpt lat="47.76317" lon="15.77527"><ele>1172</ele></trkpt>
<trkpt lat="47.76264" lon="15.77459"><ele>1138</ele></trkpt>
<trkpt lat="47.76219" lon="15.77422"><ele>1121</ele></trkpt>
<trkpt lat="47.7618" lon="15.77373"><ele>1108</ele></trkpt>
<trkpt lat="47.76154" lon="15.77276"><ele>1091</ele></trkpt>
<trkpt lat="47.76125" lon="15.77313"><ele>1075</ele></trkpt>
<trkpt lat="47.76099" lon="15.77261"><ele>1058</ele></trkpt>
<trkpt lat="47.76043" lon="15.77266"><ele>1048</ele></trkpt>
<trkpt lat="47.76062" lon="15.7719"><ele>1050</ele></trkpt>
<trkpt lat="47.7604" lon="15.77109"><ele>1042</ele></trkpt>
<trkpt lat="47.75894" lon="15.7709"><ele>996</ele></trkpt>
<trkpt lat="47.75809" lon="15.77077"><ele>969</ele></trkpt>
<trkpt lat="47.75834" lon="15.77132"><ele>951</ele></trkpt>
<trkpt lat="47.75812" lon="15.77154"><ele>943</ele></trkpt>
<trkpt lat="47.75739" lon="15.77169"><ele>937</ele></trkpt>
<trkpt lat="47.75691" lon="15.76999"><ele>918</ele></trkpt>
<trkpt lat="47.75645" lon="15.76899"><ele>916</ele></trkpt>
<trkpt lat="47.7561" lon="15.76725"><ele>920</ele></trkpt>
<trkpt lat="47.75525" lon="15.7662"><ele>890</ele></trkpt>
<trkpt lat="47.75502" lon="15.76656"><ele>878</ele></trkpt>
<trkpt lat="47.75439" lon="15.76622"><ele>855</ele></trkpt>
<trkpt lat="47.75423" lon="15.76645"><ele>848</ele></trkpt>
<trkpt lat="47.75444" lon="15.76733"><ele>830</ele></trkpt>
<trkpt lat="47.75421" lon="15.76729"><ele>823</ele></trkpt>
<trkpt lat="47.75429" lon="15.76791"><ele>809</ele></trkpt>
<trkpt lat="47.75392" lon="15.76791"><ele>792</ele></trkpt>
<trkpt lat="47.754" lon="15.76841"><ele>777</ele></trkpt>
<trkpt lat="47.75356" lon="15.76875"><ele>763</ele></trkpt>
<trkpt lat="47.75329" lon="15.76907"><ele>764</ele></trkpt>
<trkpt lat="47.75293" lon="15.76918"><ele>767</ele></trkpt>
<trkpt lat="47.7525" lon="15.76903"><ele>766</ele></trkpt>
<trkpt lat="47.75221" lon="15.76894"><ele>759</ele></trkpt>
<trkpt lat="47.7512" lon="15.76873"><ele>713</ele></trkpt>
<trkpt lat="47.75127" lon="15.76899"><ele>708</ele></trkpt>
<trkpt lat="47.75118" lon="15.76899"><ele>707</ele></trkpt>
<trkpt lat="47.75104" lon="15.76884"><ele>704</ele></trkpt>
<trkpt lat="47.75088" lon="15.76851"><ele>701</ele></trkpt>
<trkpt lat="47.75077" lon="15.76862"><ele>697</ele></trkpt>
<trkpt lat="47.75053" lon="15.76826"><ele>686</ele></trkpt>
<trkpt lat="47.7504" lon="15.76813"><ele>681</ele></trkpt>
<trkpt lat="47.75016" lon="15.76802"><ele>675</ele></trkpt>
<trkpt lat="47.74991" lon="15.76804"><ele>669</ele></trkpt>
<trkpt lat="47.74976" lon="15.76776"><ele>664</ele></trkpt>
<trkpt lat="47.74958" lon="15.76787"><ele>660</ele></trkpt>
<trkpt lat="47.7495" lon="15.76772"><ele>658</ele></trkpt>
<trkpt lat="47.74895" lon="15.76658"><ele>625</ele></trkpt>
<trkpt lat="47.74882" lon="15.76682"><ele>614</ele></trkpt>
<trkpt lat="47.74862" lon="15.76658"><ele>601</ele></trkpt>
<trkpt lat="47.74854" lon="15.76669"><ele>596</ele></trkpt>
<trkpt lat="47.7484" lon="15.76648"><ele>588</ele></trkpt>
<trkpt lat="47.74831" lon="15.76673"><ele>581</ele></trkpt>
<trkpt lat="47.74814" lon="15.76725"><ele>567</ele></trkpt>
<trkpt lat="47.74808" lon="15.76772"><ele>556</ele></trkpt>
<trkpt lat="47.748" lon="15.76806"><ele>552</ele></trkpt>
<trkpt lat="47.74735" lon="15.76933"><ele>548</ele></trkpt>
      </trkseg></trk>
   
</gpx>
   