<?xml version="1.0" encoding="UTF-8"?>
<gpx xmlns="http://www.topografix.com/GPX/1/1" creator="MTK - http://www.toursprung.com" version="1.1"
   xmlns:xsi="http://www.w3.org/2001/XMLSchema-instance"
   xsi:schemaLocation="http://www.topografix.com/GPX/1/1 http://www.topografix.com/GPX/1/1/gpx.xsd">
   <metadata>
      <name><![CDATA[Via Spinelo - Placche (Parete) Zebrate ]]></name>
      
   </metadata>
   
      <trk><name><![CDATA[Via Spinelo - Placche (Parete) Zebrate ]]></name><trkseg>
         <trkpt lat="45.9953683" lon="10.9262067"><ele>220</ele></trkpt>
<trkpt lat="45.995425" lon="10.9260833"><ele>221</ele></trkpt>
<trkpt lat="45.9954667" lon="10.925955"><ele>222</ele></trkpt>
<trkpt lat="45.9955517" lon="10.925875"><ele>223</ele></trkpt>
<trkpt lat="45.99564" lon="10.9258033"><ele>224</ele></trkpt>
<trkpt lat="45.9957133" lon="10.9257217"><ele>226</ele></trkpt>
<trkpt lat="45.9957283" lon="10.9255933"><ele>227</ele></trkpt>
<trkpt lat="45.9957533" lon="10.9254633"><ele>230</ele></trkpt>
<trkpt lat="45.99575" lon="10.9253217"><ele>232</ele></trkpt>
<trkpt lat="45.9957817" lon="10.9251967"><ele>234</ele></trkpt>
<trkpt lat="45.9958267" lon="10.9250767"><ele>236</ele></trkpt>
<trkpt lat="45.995865" lon="10.9249433"><ele>237</ele></trkpt>
<trkpt lat="45.99586" lon="10.9247933"><ele>237</ele></trkpt>
<trkpt lat="45.9959133" lon="10.9246483"><ele>238</ele></trkpt>
<trkpt lat="45.9959517" lon="10.92453"><ele>239</ele></trkpt>
<trkpt lat="45.9959217" lon="10.9243983"><ele>239</ele></trkpt>
<trkpt lat="45.9959017" lon="10.9242533"><ele>240</ele></trkpt>
<trkpt lat="45.995925" lon="10.9241267"><ele>241</ele></trkpt>
<trkpt lat="45.9959783" lon="10.9240133"><ele>243</ele></trkpt>
<trkpt lat="45.9959617" lon="10.9238833"><ele>246</ele></trkpt>
<trkpt lat="45.9958983" lon="10.92377"><ele>248</ele></trkpt>
<trkpt lat="45.9958583" lon="10.9236333"><ele>251</ele></trkpt>
<trkpt lat="45.9958133" lon="10.923505"><ele>254</ele></trkpt>
<trkpt lat="45.9958017" lon="10.9233617"><ele>257</ele></trkpt>
<trkpt lat="45.995805" lon="10.9232317"><ele>260</ele></trkpt>
<trkpt lat="45.9958117" lon="10.9230917"><ele>263</ele></trkpt>
<trkpt lat="45.9958033" lon="10.9229617"><ele>266</ele></trkpt>
<trkpt lat="45.9958367" lon="10.9228133"><ele>268</ele></trkpt>
<trkpt lat="45.9958617" lon="10.9226683"><ele>270</ele></trkpt>
<trkpt lat="45.99593" lon="10.9225817"><ele>272</ele></trkpt>
<trkpt lat="45.9960033" lon="10.9224883"><ele>273</ele></trkpt>
<trkpt lat="45.996085" lon="10.922415"><ele>274</ele></trkpt>
<trkpt lat="45.996115" lon="10.922275"><ele>275</ele></trkpt>
<trkpt lat="45.9961567" lon="10.9221367"><ele>279</ele></trkpt>
<trkpt lat="45.9961733" lon="10.922"><ele>281</ele></trkpt>
<trkpt lat="45.9961567" lon="10.9218533"><ele>284</ele></trkpt>
<trkpt lat="45.996165" lon="10.9216933"><ele>287</ele></trkpt>
<trkpt lat="45.996155" lon="10.9215567"><ele>288</ele></trkpt>
<trkpt lat="45.9961467" lon="10.9214133"><ele>290</ele></trkpt>
<trkpt lat="45.99613" lon="10.92126"><ele>290</ele></trkpt>
<trkpt lat="45.9961283" lon="10.9211167"><ele>289</ele></trkpt>
<trkpt lat="45.9961333" lon="10.9209467"><ele>288</ele></trkpt>
<trkpt lat="45.9961433" lon="10.9208033"><ele>287</ele></trkpt>
<trkpt lat="45.996215" lon="10.9206867"><ele>287</ele></trkpt>
<trkpt lat="45.9962033" lon="10.92052"><ele>286</ele></trkpt>
<trkpt lat="45.9962317" lon="10.9203883"><ele>286</ele></trkpt>
<trkpt lat="45.99628" lon="10.9202333"><ele>286</ele></trkpt>
<trkpt lat="45.9963183" lon="10.9200783"><ele>286</ele></trkpt>
<trkpt lat="45.9963967" lon="10.9199783"><ele>286</ele></trkpt>
<trkpt lat="45.9965017" lon="10.9199783"><ele>285</ele></trkpt>
<trkpt lat="45.996605" lon="10.9200233"><ele>285</ele></trkpt>
<trkpt lat="45.9967017" lon="10.9200883"><ele>285</ele></trkpt>
<trkpt lat="45.9968" lon="10.9201183"><ele>286</ele></trkpt>
<trkpt lat="45.9968867" lon="10.92008"><ele>287</ele></trkpt>
<trkpt lat="45.99699" lon="10.9200833"><ele>288</ele></trkpt>
<trkpt lat="45.9970817" lon="10.9200183"><ele>289</ele></trkpt>
<trkpt lat="45.9971667" lon="10.9199433"><ele>292</ele></trkpt>
<trkpt lat="45.9972683" lon="10.9199267"><ele>293</ele></trkpt>
<trkpt lat="45.9973633" lon="10.91995"><ele>293</ele></trkpt>
<trkpt lat="45.997455" lon="10.91995"><ele>293</ele></trkpt>
<trkpt lat="45.9975433" lon="10.9199233"><ele>295</ele></trkpt>
<trkpt lat="45.9976333" lon="10.9198583"><ele>298</ele></trkpt>
<trkpt lat="45.9977167" lon="10.91977"><ele>300</ele></trkpt>
<trkpt lat="45.997805" lon="10.9197233"><ele>302</ele></trkpt>
<trkpt lat="45.9978933" lon="10.9196967"><ele>304</ele></trkpt>
<trkpt lat="45.9979783" lon="10.919625"><ele>306</ele></trkpt>
<trkpt lat="45.998085" lon="10.9195833"><ele>308</ele></trkpt>
<trkpt lat="45.9981783" lon="10.919565"><ele>308</ele></trkpt>
<trkpt lat="45.99827" lon="10.919595"><ele>307</ele></trkpt>
<trkpt lat="45.9983783" lon="10.91961"><ele>307</ele></trkpt>
<trkpt lat="45.9984683" lon="10.919635"><ele>309</ele></trkpt>
<trkpt lat="45.998575" lon="10.9196067"><ele>310</ele></trkpt>
<trkpt lat="45.99867" lon="10.919585"><ele>310</ele></trkpt>
<trkpt lat="45.998765" lon="10.91964"><ele>311</ele></trkpt>
<trkpt lat="45.9988567" lon="10.9196533"><ele>311</ele></trkpt>
<trkpt lat="45.9989517" lon="10.91969"><ele>311</ele></trkpt>
<trkpt lat="45.9990283" lon="10.9197833"><ele>311</ele></trkpt>
<trkpt lat="45.999115" lon="10.9197367"><ele>313</ele></trkpt>
<trkpt lat="45.9992017" lon="10.9196733"><ele>318</ele></trkpt>
<trkpt lat="45.9992917" lon="10.9196517"><ele>319</ele></trkpt>
<trkpt lat="45.9993867" lon="10.9196717"><ele>315</ele></trkpt>
<trkpt lat="45.9994167" lon="10.9198"><ele>313</ele></trkpt>
<trkpt lat="45.999445" lon="10.9199233"><ele>313</ele></trkpt>
<trkpt lat="45.9995483" lon="10.9199133"><ele>312</ele></trkpt>
<trkpt lat="45.99965" lon="10.9199467"><ele>309</ele></trkpt>
<trkpt lat="45.9997067" lon="10.9200817"><ele>305</ele></trkpt>
<trkpt lat="45.9997433" lon="10.9202033"><ele>301</ele></trkpt>
<trkpt lat="45.9998183" lon="10.9202867"><ele>298</ele></trkpt>
<trkpt lat="45.9999133" lon="10.9203067"><ele>295</ele></trkpt>
<trkpt lat="45.999945" lon="10.9204383"><ele>293</ele></trkpt>
<trkpt lat="46.00004" lon="10.9204733"><ele>291</ele></trkpt>
<trkpt lat="46.000095" lon="10.9205867"><ele>289</ele></trkpt>
<trkpt lat="46.0001733" lon="10.9206867"><ele>288</ele></trkpt>
<trkpt lat="46.00029" lon="10.92074"><ele>288</ele></trkpt>
<trkpt lat="46.000385" lon="10.9207417"><ele>290</ele></trkpt>
<trkpt lat="46.0003667" lon="10.9207417"><ele>290</ele></trkpt>
<trkpt lat="46.0004583" lon="10.9207617"><ele>297</ele></trkpt>
<trkpt lat="46.00049" lon="10.9206367"><ele>306</ele></trkpt>
<trkpt lat="46.0005283" lon="10.920515"><ele>315</ele></trkpt>
<trkpt lat="46.0005933" lon="10.9204067"><ele>326</ele></trkpt>
<trkpt lat="46.0006867" lon="10.92043"><ele>340</ele></trkpt>
<trkpt lat="46.0007667" lon="10.920365"><ele>357</ele></trkpt>
<trkpt lat="46.000825" lon="10.9202583"><ele>375</ele></trkpt>
<trkpt lat="46.0008067" lon="10.920075"><ele>401</ele></trkpt>
<trkpt lat="46.0008283" lon="10.9199433"><ele>416</ele></trkpt>
<trkpt lat="46.000885" lon="10.919835"><ele>430</ele></trkpt>
<trkpt lat="46.0008833" lon="10.9197017"><ele>432</ele></trkpt>
<trkpt lat="46.0009217" lon="10.91958"><ele>431</ele></trkpt>
<trkpt lat="46.0008833" lon="10.9197"><ele>423</ele></trkpt>
<trkpt lat="46.0008383" lon="10.9198167"><ele>409</ele></trkpt>
<trkpt lat="46.0008333" lon="10.9199467"><ele>393</ele></trkpt>
<trkpt lat="46.00083" lon="10.9200817"><ele>373</ele></trkpt>
<trkpt lat="46.0008367" lon="10.920215"><ele>355</ele></trkpt>
<trkpt lat="46.0008267" lon="10.9202917"><ele>345</ele></trkpt>
<trkpt lat="46.0008433" lon="10.920425"><ele>328</ele></trkpt>
<trkpt lat="46.000855" lon="10.9205617"><ele>314</ele></trkpt>
<trkpt lat="46.000795" lon="10.92066"><ele>302</ele></trkpt>
<trkpt lat="46.0007617" lon="10.9207283"><ele>298</ele></trkpt>
<trkpt lat="46.0006967" lon="10.92092"><ele>294</ele></trkpt>
<trkpt lat="46.00065" lon="10.92079"><ele>294</ele></trkpt>
<trkpt lat="46.000555" lon="10.92068"><ele>293</ele></trkpt>
<trkpt lat="46.0006" lon="10.9207983"><ele>288</ele></trkpt>
<trkpt lat="46.000595" lon="10.9209433"><ele>282</ele></trkpt>
<trkpt lat="46.0004967" lon="10.920965"><ele>279</ele></trkpt>
<trkpt lat="46.0004017" lon="10.92104"><ele>275</ele></trkpt>
<trkpt lat="46.000325" lon="10.9211133"><ele>272</ele></trkpt>
<trkpt lat="46.00024" lon="10.92117"><ele>268</ele></trkpt>
<trkpt lat="46.0001433" lon="10.9213217"><ele>262</ele></trkpt>
<trkpt lat="46.0000733" lon="10.9214217"><ele>260</ele></trkpt>
<trkpt lat="45.9999867" lon="10.9214733"><ele>258</ele></trkpt>
<trkpt lat="45.9999183" lon="10.9215817"><ele>257</ele></trkpt>
<trkpt lat="45.9998983" lon="10.9217167"><ele>255</ele></trkpt>
<trkpt lat="45.9998283" lon="10.9218217"><ele>253</ele></trkpt>
<trkpt lat="45.9997933" lon="10.92196"><ele>251</ele></trkpt>
<trkpt lat="45.999705" lon="10.9220267"><ele>250</ele></trkpt>
<trkpt lat="45.9996367" lon="10.9221617"><ele>250</ele></trkpt>
<trkpt lat="45.99964" lon="10.9223283"><ele>249</ele></trkpt>
<trkpt lat="45.999645" lon="10.9224617"><ele>249</ele></trkpt>
<trkpt lat="45.9996033" lon="10.9225917"><ele>248</ele></trkpt>
<trkpt lat="45.9995" lon="10.9225817"><ele>248</ele></trkpt>
<trkpt lat="45.9994183" lon="10.9224983"><ele>247</ele></trkpt>
<trkpt lat="45.9993367" lon="10.9224233"><ele>247</ele></trkpt>
<trkpt lat="45.9992617" lon="10.92233"><ele>247</ele></trkpt>
<trkpt lat="45.9991533" lon="10.9222917"><ele>248</ele></trkpt>
<trkpt lat="45.9990517" lon="10.9222833"><ele>249</ele></trkpt>
<trkpt lat="45.9989417" lon="10.9222583"><ele>252</ele></trkpt>
<trkpt lat="45.9988383" lon="10.9222717"><ele>255</ele></trkpt>
<trkpt lat="45.9987167" lon="10.9222983"><ele>259</ele></trkpt>
<trkpt lat="45.998615" lon="10.9223117"><ele>262</ele></trkpt>
<trkpt lat="45.998505" lon="10.9222867"><ele>264</ele></trkpt>
<trkpt lat="45.9984183" lon="10.9223283"><ele>265</ele></trkpt>
<trkpt lat="45.9983367" lon="10.9223867"><ele>266</ele></trkpt>
<trkpt lat="45.99824" lon="10.9224583"><ele>266</ele></trkpt>
<trkpt lat="45.998125" lon="10.9224583"><ele>267</ele></trkpt>
<trkpt lat="45.99802" lon="10.9224667"><ele>267</ele></trkpt>
<trkpt lat="45.9979117" lon="10.9224917"><ele>267</ele></trkpt>
<trkpt lat="45.997815" lon="10.92249"><ele>266</ele></trkpt>
<trkpt lat="45.9977" lon="10.922535"><ele>266</ele></trkpt>
<trkpt lat="45.9976017" lon="10.9225933"><ele>266</ele></trkpt>
<trkpt lat="45.9975217" lon="10.9226633"><ele>266</ele></trkpt>
<trkpt lat="45.9974483" lon="10.9227617"><ele>265</ele></trkpt>
<trkpt lat="45.9973767" lon="10.9228517"><ele>265</ele></trkpt>
<trkpt lat="45.9972967" lon="10.9229333"><ele>264</ele></trkpt>
<trkpt lat="45.9971967" lon="10.9230067"><ele>264</ele></trkpt>
<trkpt lat="45.997105" lon="10.9230633"><ele>263</ele></trkpt>
<trkpt lat="45.99704" lon="10.9231767"><ele>262</ele></trkpt>
<trkpt lat="45.9969433" lon="10.9232183"><ele>262</ele></trkpt>
<trkpt lat="45.9968817" lon="10.9233133"><ele>262</ele></trkpt>
<trkpt lat="45.9967867" lon="10.923305"><ele>262</ele></trkpt>
<trkpt lat="45.9966967" lon="10.9232683"><ele>262</ele></trkpt>
<trkpt lat="45.9965933" lon="10.9232617"><ele>263</ele></trkpt>
<trkpt lat="45.99649" lon="10.923215"><ele>263</ele></trkpt>
<trkpt lat="45.9963917" lon="10.9231867"><ele>264</ele></trkpt>
<trkpt lat="45.9963133" lon="10.9231183"><ele>265</ele></trkpt>
<trkpt lat="45.9962267" lon="10.9230483"><ele>266</ele></trkpt>
<trkpt lat="45.9961333" lon="10.9229817"><ele>266</ele></trkpt>
<trkpt lat="45.996025" lon="10.9229317"><ele>267</ele></trkpt>
<trkpt lat="45.9959317" lon="10.9228833"><ele>267</ele></trkpt>
<trkpt lat="45.99584" lon="10.9228467"><ele>265</ele></trkpt>
<trkpt lat="45.9958083" lon="10.922985"><ele>262</ele></trkpt>
<trkpt lat="45.9957417" lon="10.9231"><ele>259</ele></trkpt>
<trkpt lat="45.9957517" lon="10.9232533"><ele>256</ele></trkpt>
<trkpt lat="45.9957417" lon="10.9233983"><ele>253</ele></trkpt>
<trkpt lat="45.99576" lon="10.92355"><ele>249</ele></trkpt>
<trkpt lat="45.9958267" lon="10.923655"><ele>247</ele></trkpt>
<trkpt lat="45.9958633" lon="10.923775"><ele>245</ele></trkpt>
<trkpt lat="45.995865" lon="10.9239133"><ele>242</ele></trkpt>
<trkpt lat="45.9958933" lon="10.9240883"><ele>239</ele></trkpt>
<trkpt lat="45.995885" lon="10.9242333"><ele>239</ele></trkpt>
<trkpt lat="45.9958667" lon="10.9243683"><ele>238</ele></trkpt>
<trkpt lat="45.9958633" lon="10.92451"><ele>238</ele></trkpt>
<trkpt lat="45.995825" lon="10.9246517"><ele>238</ele></trkpt>
<trkpt lat="45.995835" lon="10.9248033"><ele>238</ele></trkpt>
<trkpt lat="45.99582" lon="10.924945"><ele>236</ele></trkpt>
<trkpt lat="45.9957367" lon="10.9250133"><ele>234</ele></trkpt>
<trkpt lat="45.9957283" lon="10.92517"><ele>231</ele></trkpt>
<trkpt lat="45.9956583" lon="10.9252867"><ele>229</ele></trkpt>
<trkpt lat="45.9956617" lon="10.925425"><ele>227</ele></trkpt>
<trkpt lat="45.995675" lon="10.9255583"><ele>225</ele></trkpt>
<trkpt lat="45.9957067" lon="10.9257"><ele>224</ele></trkpt>
<trkpt lat="45.9956183" lon="10.92579"><ele>222</ele></trkpt>
<trkpt lat="45.99557" lon="10.92593"><ele>221</ele></trkpt>
<trkpt lat="45.99545" lon="10.925995"><ele>220</ele></trkpt>
<trkpt lat="45.9953817" lon="10.9260933"><ele>220</ele></trkpt>
<trkpt lat="45.9953517" lon="10.9262167"><ele>219</ele></trkpt>
      </trkseg></trk>
   
</gpx>
   