<?xml version="1.0" encoding="UTF-8"?>
<gpx xmlns="http://www.topografix.com/GPX/1/1" creator="MTK - http://www.toursprung.com" version="1.1"
   xmlns:xsi="http://www.w3.org/2001/XMLSchema-instance"
   xsi:schemaLocation="http://www.topografix.com/GPX/1/1 http://www.topografix.com/GPX/1/1/gpx.xsd">
   <metadata>
      <name><![CDATA[Sassongher]]></name>
      
   </metadata>
   
      <trk><name><![CDATA[Sassongher]]></name><trkseg>
         <trkpt lat="46.55789" lon="11.85418"><ele>1721</ele></trkpt>
<trkpt lat="46.55785" lon="11.85405"><ele>1722</ele></trkpt>
<trkpt lat="46.55823" lon="11.85397"><ele>1727</ele></trkpt>
<trkpt lat="46.55851" lon="11.85409"><ele>1732</ele></trkpt>
<trkpt lat="46.55891" lon="11.85441"><ele>1741</ele></trkpt>
<trkpt lat="46.55947" lon="11.85425"><ele>1751</ele></trkpt>
<trkpt lat="46.5602" lon="11.85383"><ele>1768</ele></trkpt>
<trkpt lat="46.56069" lon="11.85363"><ele>1779</ele></trkpt>
<trkpt lat="46.56177" lon="11.85349"><ele>1807</ele></trkpt>
<trkpt lat="46.56193" lon="11.85313"><ele>1816</ele></trkpt>
<trkpt lat="46.5623" lon="11.85316"><ele>1820</ele></trkpt>
<trkpt lat="46.56266" lon="11.853"><ele>1824</ele></trkpt>
<trkpt lat="46.56286" lon="11.85291"><ele>1824</ele></trkpt>
<trkpt lat="46.56321" lon="11.85298"><ele>1825</ele></trkpt>
<trkpt lat="46.56348" lon="11.85234"><ele>1837</ele></trkpt>
<trkpt lat="46.56442" lon="11.85161"><ele>1857</ele></trkpt>
<trkpt lat="46.56597" lon="11.85129"><ele>1888</ele></trkpt>
<trkpt lat="46.567" lon="11.85107"><ele>1914</ele></trkpt>
<trkpt lat="46.56761" lon="11.85122"><ele>1933</ele></trkpt>
<trkpt lat="46.56821" lon="11.85161"><ele>1954</ele></trkpt>
<trkpt lat="46.56848" lon="11.85183"><ele>1965</ele></trkpt>
<trkpt lat="46.56905" lon="11.85198"><ele>1985</ele></trkpt>
<trkpt lat="46.56916" lon="11.85237"><ele>1994</ele></trkpt>
<trkpt lat="46.56936" lon="11.85226"><ele>2001</ele></trkpt>
<trkpt lat="46.56945" lon="11.85267"><ele>2010</ele></trkpt>
<trkpt lat="46.56969" lon="11.85228"><ele>2018</ele></trkpt>
<trkpt lat="46.56991" lon="11.85286"><ele>2029</ele></trkpt>
<trkpt lat="46.57012" lon="11.85233"><ele>2041</ele></trkpt>
<trkpt lat="46.57027" lon="11.85211"><ele>2049</ele></trkpt>
<trkpt lat="46.57022" lon="11.85189"><ele>2056</ele></trkpt>
<trkpt lat="46.57062" lon="11.85162"><ele>2068</ele></trkpt>
<trkpt lat="46.57099" lon="11.85088"><ele>2079</ele></trkpt>
<trkpt lat="46.57137" lon="11.85"><ele>2098</ele></trkpt>
<trkpt lat="46.57158" lon="11.84973"><ele>2109</ele></trkpt>
<trkpt lat="46.57172" lon="11.84987"><ele>2113</ele></trkpt>
<trkpt lat="46.57181" lon="11.85013"><ele>2114</ele></trkpt>
<trkpt lat="46.57172" lon="11.85044"><ele>2116</ele></trkpt>
<trkpt lat="46.57178" lon="11.85068"><ele>2119</ele></trkpt>
<trkpt lat="46.57178" lon="11.85121"><ele>2136</ele></trkpt>
<trkpt lat="46.57181" lon="11.85143"><ele>2143</ele></trkpt>
<trkpt lat="46.57202" lon="11.85128"><ele>2148</ele></trkpt>
<trkpt lat="46.57201" lon="11.85172"><ele>2154</ele></trkpt>
<trkpt lat="46.57178" lon="11.85257"><ele>2179</ele></trkpt>
<trkpt lat="46.57209" lon="11.85252"><ele>2184</ele></trkpt>
<trkpt lat="46.57237" lon="11.85289"><ele>2176</ele></trkpt>
<trkpt lat="46.57192" lon="11.8531"><ele>2190</ele></trkpt>
<trkpt lat="46.57192" lon="11.85311"><ele>2190</ele></trkpt>
<trkpt lat="46.57209" lon="11.85374"><ele>2212</ele></trkpt>
<trkpt lat="46.57176" lon="11.85429"><ele>2231</ele></trkpt>
<trkpt lat="46.57177" lon="11.85463"><ele>2237</ele></trkpt>
<trkpt lat="46.57178" lon="11.85514"><ele>2245</ele></trkpt>
<trkpt lat="46.57172" lon="11.85542"><ele>2252</ele></trkpt>
<trkpt lat="46.57178" lon="11.8562"><ele>2273</ele></trkpt>
<trkpt lat="46.57181" lon="11.85631"><ele>2276</ele></trkpt>
<trkpt lat="46.57172" lon="11.85651"><ele>2283</ele></trkpt>
<trkpt lat="46.5717" lon="11.85667"><ele>2288</ele></trkpt>
<trkpt lat="46.57176" lon="11.85701"><ele>2298</ele></trkpt>
<trkpt lat="46.57179" lon="11.85714"><ele>2300</ele></trkpt>
<trkpt lat="46.57177" lon="11.85727"><ele>2301</ele></trkpt>
<trkpt lat="46.57175" lon="11.85756"><ele>2305</ele></trkpt>
<trkpt lat="46.57148" lon="11.85771"><ele>2311</ele></trkpt>
<trkpt lat="46.57147" lon="11.85809"><ele>2319</ele></trkpt>
<trkpt lat="46.5714" lon="11.85822"><ele>2323</ele></trkpt>
<trkpt lat="46.57086" lon="11.85927"><ele>2351</ele></trkpt>
<trkpt lat="46.57136" lon="11.85913"><ele>2374</ele></trkpt>
<trkpt lat="46.57133" lon="11.85937"><ele>2381</ele></trkpt>
<trkpt lat="46.57161" lon="11.85933"><ele>2391</ele></trkpt>
<trkpt lat="46.5709" lon="11.86046"><ele>2435</ele></trkpt>
<trkpt lat="46.57092" lon="11.86059"><ele>2441</ele></trkpt>
<trkpt lat="46.57081" lon="11.86071"><ele>2448</ele></trkpt>
<trkpt lat="46.5706" lon="11.86098"><ele>2464</ele></trkpt>
<trkpt lat="46.57046" lon="11.86108"><ele>2473</ele></trkpt>
<trkpt lat="46.5704" lon="11.86122"><ele>2479</ele></trkpt>
<trkpt lat="46.57036" lon="11.86137"><ele>2485</ele></trkpt>
<trkpt lat="46.57032" lon="11.86159"><ele>2494</ele></trkpt>
<trkpt lat="46.57032" lon="11.86163"><ele>2496</ele></trkpt>
<trkpt lat="46.57032" lon="11.862"><ele>2509</ele></trkpt>
<trkpt lat="46.57002" lon="11.86182"><ele>2525</ele></trkpt>
<trkpt lat="46.56985" lon="11.86187"><ele>2533</ele></trkpt>
<trkpt lat="46.56987" lon="11.86207"><ele>2536</ele></trkpt>
<trkpt lat="46.56976" lon="11.86236"><ele>2542</ele></trkpt>
<trkpt lat="46.56952" lon="11.86283"><ele>2562</ele></trkpt>
<trkpt lat="46.5694" lon="11.86307"><ele>2579</ele></trkpt>
<trkpt lat="46.56927" lon="11.86328"><ele>2595</ele></trkpt>
<trkpt lat="46.56911" lon="11.86367"><ele>2610</ele></trkpt>
<trkpt lat="46.5691" lon="11.86383"><ele>2614</ele></trkpt>
<trkpt lat="46.56905" lon="11.86389"><ele>2617</ele></trkpt>
<trkpt lat="46.56898" lon="11.86373"><ele>2622</ele></trkpt>
<trkpt lat="46.56886" lon="11.86375"><ele>2626</ele></trkpt>
<trkpt lat="46.56866" lon="11.86307"><ele>2630</ele></trkpt>
<trkpt lat="46.56868" lon="11.8629"><ele>2631</ele></trkpt>
<trkpt lat="46.56839" lon="11.8634"><ele>2636</ele></trkpt>
<trkpt lat="46.5683" lon="11.86356"><ele>2638</ele></trkpt>
<trkpt lat="46.5683" lon="11.8637"><ele>2639</ele></trkpt>
<trkpt lat="46.5682" lon="11.86387"><ele>2639</ele></trkpt>
<trkpt lat="46.56792" lon="11.86434"><ele>2641</ele></trkpt>
<trkpt lat="46.56859" lon="11.86288"><ele>2629</ele></trkpt>
<trkpt lat="46.56877" lon="11.86337"><ele>2612</ele></trkpt>
<trkpt lat="46.569" lon="11.86398"><ele>2583</ele></trkpt>
<trkpt lat="46.56926" lon="11.8634"><ele>2547</ele></trkpt>
<trkpt lat="46.56971" lon="11.8626"><ele>2539</ele></trkpt>
<trkpt lat="46.5698" lon="11.86206"><ele>2518</ele></trkpt>
<trkpt lat="46.56995" lon="11.86177"><ele>2505</ele></trkpt>
<trkpt lat="46.57029" lon="11.86205"><ele>2489</ele></trkpt>
<trkpt lat="46.57033" lon="11.86141"><ele>2462</ele></trkpt>
<trkpt lat="46.57051" lon="11.86095"><ele>2432</ele></trkpt>
<trkpt lat="46.5707" lon="11.86076"><ele>2421</ele></trkpt>
<trkpt lat="46.57086" lon="11.86043"><ele>2410</ele></trkpt>
<trkpt lat="46.57159" lon="11.85944"><ele>2375</ele></trkpt>
<trkpt lat="46.57132" lon="11.85942"><ele>2362</ele></trkpt>
<trkpt lat="46.57145" lon="11.85902"><ele>2350</ele></trkpt>
<trkpt lat="46.5708" lon="11.85927"><ele>2335</ele></trkpt>
<trkpt lat="46.5713" lon="11.85854"><ele>2319</ele></trkpt>
<trkpt lat="46.57152" lon="11.85781"><ele>2299</ele></trkpt>
<trkpt lat="46.57156" lon="11.8576"><ele>2292</ele></trkpt>
<trkpt lat="46.5718" lon="11.85747"><ele>2280</ele></trkpt>
<trkpt lat="46.57167" lon="11.8568"><ele>2263</ele></trkpt>
<trkpt lat="46.57171" lon="11.85633"><ele>2253</ele></trkpt>
<trkpt lat="46.57173" lon="11.85601"><ele>2246</ele></trkpt>
<trkpt lat="46.5717" lon="11.85563"><ele>2239</ele></trkpt>
<trkpt lat="46.5717" lon="11.85515"><ele>2227</ele></trkpt>
<trkpt lat="46.57171" lon="11.85481"><ele>2218</ele></trkpt>
<trkpt lat="46.5717" lon="11.85452"><ele>2210</ele></trkpt>
<trkpt lat="46.57172" lon="11.85436"><ele>2202</ele></trkpt>
<trkpt lat="46.57209" lon="11.85387"><ele>2167</ele></trkpt>
<trkpt lat="46.57184" lon="11.85315"><ele>2198</ele></trkpt>
<trkpt lat="46.57237" lon="11.85298"><ele>2176</ele></trkpt>
<trkpt lat="46.57206" lon="11.85261"><ele>2154</ele></trkpt>
<trkpt lat="46.57175" lon="11.85264"><ele>2141</ele></trkpt>
<trkpt lat="46.57161" lon="11.85239"><ele>2137</ele></trkpt>
<trkpt lat="46.57184" lon="11.85186"><ele>2147</ele></trkpt>
<trkpt lat="46.57212" lon="11.8514"><ele>2133</ele></trkpt>
<trkpt lat="46.57176" lon="11.8514"><ele>2112</ele></trkpt>
<trkpt lat="46.57172" lon="11.8507"><ele>2109</ele></trkpt>
<trkpt lat="46.57177" lon="11.85006"><ele>2097</ele></trkpt>
<trkpt lat="46.57158" lon="11.84984"><ele>2086</ele></trkpt>
<trkpt lat="46.57114" lon="11.8504"><ele>2076</ele></trkpt>
<trkpt lat="46.57082" lon="11.85118"><ele>2063</ele></trkpt>
<trkpt lat="46.57054" lon="11.85166"><ele>2050</ele></trkpt>
<trkpt lat="46.57032" lon="11.85161"><ele>2042</ele></trkpt>
<trkpt lat="46.57029" lon="11.85167"><ele>2040</ele></trkpt>
<trkpt lat="46.57006" lon="11.85265"><ele>2020</ele></trkpt>
<trkpt lat="46.56981" lon="11.85285"><ele>2011</ele></trkpt>
<trkpt lat="46.5697" lon="11.85247"><ele>2001</ele></trkpt>
<trkpt lat="46.56937" lon="11.85271"><ele>1988</ele></trkpt>
<trkpt lat="46.56915" lon="11.85219"><ele>1973</ele></trkpt>
<trkpt lat="46.56815" lon="11.85171"><ele>1936</ele></trkpt>
<trkpt lat="46.56751" lon="11.85128"><ele>1914</ele></trkpt>
<trkpt lat="46.56706" lon="11.85122"><ele>1902</ele></trkpt>
<trkpt lat="46.56659" lon="11.85107"><ele>1891</ele></trkpt>
<trkpt lat="46.56502" lon="11.85143"><ele>1856</ele></trkpt>
<trkpt lat="46.56363" lon="11.85211"><ele>1828</ele></trkpt>
<trkpt lat="46.56341" lon="11.85259"><ele>1826</ele></trkpt>
<trkpt lat="46.56312" lon="11.85313"><ele>1824</ele></trkpt>
<trkpt lat="46.56187" lon="11.85321"><ele>1798</ele></trkpt>
<trkpt lat="46.56166" lon="11.85354"><ele>1790</ele></trkpt>
<trkpt lat="46.56115" lon="11.85351"><ele>1779</ele></trkpt>
<trkpt lat="46.56063" lon="11.85353"><ele>1767</ele></trkpt>
<trkpt lat="46.56012" lon="11.85393"><ele>1754</ele></trkpt>
<trkpt lat="46.55983" lon="11.85407"><ele>1748</ele></trkpt>
<trkpt lat="46.5596" lon="11.85409"><ele>1744</ele></trkpt>
<trkpt lat="46.5593" lon="11.85432"><ele>1737</ele></trkpt>
<trkpt lat="46.55881" lon="11.8544"><ele>1728</ele></trkpt>
<trkpt lat="46.55866" lon="11.85427"><ele>1726</ele></trkpt>
<trkpt lat="46.55786" lon="11.85388"><ele>1721</ele></trkpt>
      </trkseg></trk>
   
</gpx>
   