<?xml version="1.0" encoding="UTF-8"?>
<gpx xmlns="http://www.topografix.com/GPX/1/1" creator="MTK - http://www.toursprung.com" version="1.1"
   xmlns:xsi="http://www.w3.org/2001/XMLSchema-instance"
   xsi:schemaLocation="http://www.topografix.com/GPX/1/1 http://www.topografix.com/GPX/1/1/gpx.xsd">
   <metadata>
      <name><![CDATA[Narrenturm]]></name>
      
   </metadata>
   
      <trk><name><![CDATA[Narrenturm]]></name><trkseg>
         <trkpt lat="48.379934118359" lon="15.460274219513"><ele>202</ele></trkpt>
<trkpt lat="48.37971321297" lon="15.460209846497"><ele>202</ele></trkpt>
<trkpt lat="48.379513684697" lon="15.460016727448"><ele>202</ele></trkpt>
<trkpt lat="48.379356911935" lon="15.459952354431"><ele>207</ele></trkpt>
<trkpt lat="48.379093247563" lon="15.460081100464"><ele>221</ele></trkpt>
<trkpt lat="48.378879464638" lon="15.460338592529"><ele>221</ele></trkpt>
<trkpt lat="48.378758320582" lon="15.460724830627"><ele>236</ele></trkpt>
<trkpt lat="48.378729816056" lon="15.460960865021"><ele>248</ele></trkpt>
<trkpt lat="48.378459022266" lon="15.460681915283"><ele>249</ele></trkpt>
<trkpt lat="48.378230984273" lon="15.460295677185"><ele>261</ele></trkpt>
<trkpt lat="48.378102712453" lon="15.459973812103"><ele>261</ele></trkpt>
<trkpt lat="48.377988692786" lon="15.460939407349"><ele>269</ele></trkpt>
<trkpt lat="48.377874672864" lon="15.461282730103"><ele>269</ele></trkpt>
<trkpt lat="48.377461348505" lon="15.461990833282"><ele>313</ele></trkpt>
<trkpt lat="48.377318822086" lon="15.462312698364"><ele>311</ele></trkpt>
<trkpt lat="48.376876987651" lon="15.462656021118"><ele>323</ele></trkpt>
<trkpt lat="48.376777218055" lon="15.462806224823"><ele>334</ele></trkpt>
<trkpt lat="48.376905493214" lon="15.463449954987"><ele>338</ele></trkpt>
<trkpt lat="48.376891240435" lon="15.46409368515"><ele>360</ele></trkpt>
<trkpt lat="48.377147789857" lon="15.464673042297"><ele>368</ele></trkpt>
<trkpt lat="48.377301006256" lon="15.464635491371"><ele>368</ele></trkpt>
<trkpt lat="48.377479164279" lon="15.464587211609"><ele>367</ele></trkpt>
<trkpt lat="48.377632379681" lon="15.464603304863"><ele>367</ele></trkpt>
<trkpt lat="48.377760652686" lon="15.464678406715"><ele>369</ele></trkpt>
<trkpt lat="48.377860420356" lon="15.464839339256"><ele>383</ele></trkpt>
<trkpt lat="48.377896051619" lon="15.464951992035"><ele>395</ele></trkpt>
<trkpt lat="48.37797087719" lon="15.46556353569"><ele>400</ele></trkpt>
<trkpt lat="48.377988692786" lon="15.465311408043"><ele>400</ele></trkpt>
<trkpt lat="48.377942372224" lon="15.46510219574"><ele>400</ele></trkpt>
<trkpt lat="48.377792720887" lon="15.46485543251"><ele>384</ele></trkpt>
<trkpt lat="48.377418590621" lon="15.464769601822"><ele>371</ele></trkpt>
<trkpt lat="48.3772261797" lon="15.464758872986"><ele>369</ele></trkpt>
<trkpt lat="48.376955377911" lon="15.464458465576"><ele>368</ele></trkpt>
<trkpt lat="48.376819976477" lon="15.463256835938"><ele>342</ele></trkpt>
<trkpt lat="48.376713080354" lon="15.462784767151"><ele>345</ele></trkpt>
<trkpt lat="48.377062273526" lon="15.462344884872"><ele>311</ele></trkpt>
<trkpt lat="48.377361580054" lon="15.462130308151"><ele>313</ele></trkpt>
<trkpt lat="48.377846167844" lon="15.461175441742"><ele>269</ele></trkpt>
<trkpt lat="48.377945935345" lon="15.460821390152"><ele>266</ele></trkpt>
<trkpt lat="48.378017197727" lon="15.46003818512"><ele>261</ele></trkpt>
<trkpt lat="48.378266615277" lon="15.460456609726"><ele>261</ele></trkpt>
<trkpt lat="48.378744068321" lon="15.460478067398"><ele>221</ele></trkpt>
<trkpt lat="48.378972104016" lon="15.460134744644"><ele>221</ele></trkpt>
<trkpt lat="48.379898488522" lon="15.460360050201"><ele>202</ele></trkpt>
      </trkseg></trk>
   
</gpx>
   