<?xml version="1.0" encoding="UTF-8"?>
<gpx xmlns="http://www.topografix.com/GPX/1/1" creator="MTK - http://www.toursprung.com" version="1.1"
   xmlns:xsi="http://www.w3.org/2001/XMLSchema-instance"
   xsi:schemaLocation="http://www.topografix.com/GPX/1/1 http://www.topografix.com/GPX/1/1/gpx.xsd">
   <metadata>
      <name><![CDATA[Steingrubenkogel Klettersteig]]></name>
      
   </metadata>
   
      <trk><name><![CDATA[Steingrubenkogel Klettersteig]]></name><trkseg>
         <trkpt lat="47.177385688082" lon="11.265123803169"><ele>1653</ele></trkpt>
<trkpt lat="47.177237491571" lon="11.265169269571"><ele>1655</ele></trkpt>
<trkpt lat="47.17698765805" lon="11.265547718101"><ele>1661</ele></trkpt>
<trkpt lat="47.176974865943" lon="11.265790873385"><ele>1664</ele></trkpt>
<trkpt lat="47.176968878181" lon="11.266026469524"><ele>1666</ele></trkpt>
<trkpt lat="47.176840600223" lon="11.266082330758"><ele>1669</ele></trkpt>
<trkpt lat="47.176700529915" lon="11.266050236295"><ele>1671</ele></trkpt>
<trkpt lat="47.17658498738" lon="11.266427551044"><ele>1676</ele></trkpt>
<trkpt lat="47.176326148798" lon="11.267128937213"><ele>1688</ele></trkpt>
<trkpt lat="47.175962983815" lon="11.267971027173"><ele>1703</ele></trkpt>
<trkpt lat="47.175969838176" lon="11.26818081256"><ele>1706</ele></trkpt>
<trkpt lat="47.176057316165" lon="11.268394829706"><ele>1710</ele></trkpt>
<trkpt lat="47.176072694545" lon="11.26860749244"><ele>1713</ele></trkpt>
<trkpt lat="47.175963928745" lon="11.268764558561"><ele>1716</ele></trkpt>
<trkpt lat="47.175875408786" lon="11.268934194533"><ele>1720</ele></trkpt>
<trkpt lat="47.175860644484" lon="11.269206641273"><ele>1724</ele></trkpt>
<trkpt lat="47.175547573073" lon="11.269622308399"><ele>1732</ele></trkpt>
<trkpt lat="47.175102200003" lon="11.270493164372"><ele>1745</ele></trkpt>
<trkpt lat="47.174796779584" lon="11.270985725286"><ele>1749</ele></trkpt>
<trkpt lat="47.174592317049" lon="11.271356954692"><ele>1753</ele></trkpt>
<trkpt lat="47.174023201597" lon="11.271856717908"><ele>1759</ele></trkpt>
<trkpt lat="47.173782769925" lon="11.271818469236"><ele>1761</ele></trkpt>
<trkpt lat="47.173447220878" lon="11.272045289557"><ele>1762</ele></trkpt>
<trkpt lat="47.173146283965" lon="11.272103022205"><ele>1763</ele></trkpt>
<trkpt lat="47.170733025105" lon="11.271713569646"><ele>1813</ele></trkpt>
<trkpt lat="47.170606887711" lon="11.271652773754"><ele>1815</ele></trkpt>
<trkpt lat="47.170368233378" lon="11.271755474934"><ele>1818</ele></trkpt>
<trkpt lat="47.170298736148" lon="11.271355137196"><ele>1822</ele></trkpt>
<trkpt lat="47.170005389794" lon="11.271558437529"><ele>1830</ele></trkpt>
<trkpt lat="47.169972916127" lon="11.271411449367"><ele>1833</ele></trkpt>
<trkpt lat="47.170035598824" lon="11.271151850576"><ele>1838</ele></trkpt>
<trkpt lat="47.170006656023" lon="11.270904785657"><ele>1843</ele></trkpt>
<trkpt lat="47.16990572506" lon="11.270752459447"><ele>1846</ele></trkpt>
<trkpt lat="47.169758163583" lon="11.270878067383"><ele>1849</ele></trkpt>
<trkpt lat="47.169362420036" lon="11.2715607344"><ele>1860</ele></trkpt>
<trkpt lat="47.169232052754" lon="11.271590959323"><ele>1864</ele></trkpt>
<trkpt lat="47.169165560392" lon="11.2712709211"><ele>1870</ele></trkpt>
<trkpt lat="47.169088759223" lon="11.271171729106"><ele>1872</ele></trkpt>
<trkpt lat="47.168706012632" lon="11.270992042099"><ele>1881</ele></trkpt>
<trkpt lat="47.168404706955" lon="11.270777642314"><ele>1888</ele></trkpt>
<trkpt lat="47.168313540872" lon="11.27058137647"><ele>1891</ele></trkpt>
<trkpt lat="47.168316278215" lon="11.270347237587"><ele>1894</ele></trkpt>
<trkpt lat="47.168317288149" lon="11.27029474882"><ele>1895</ele></trkpt>
<trkpt lat="47.167893897735" lon="11.269591172449"><ele>1909</ele></trkpt>
<trkpt lat="47.16789322648" lon="11.269590854645"><ele>1910</ele></trkpt>
<trkpt lat="47.167895849327" lon="11.269436494994"><ele>1912</ele></trkpt>
<trkpt lat="47.167693952301" lon="11.268972397426"><ele>1921</ele></trkpt>
<trkpt lat="47.167725564836" lon="11.268636926523"><ele>1927</ele></trkpt>
<trkpt lat="47.16762630899" lon="11.268332998809"><ele>1932</ele></trkpt>
<trkpt lat="47.167705809147" lon="11.267840633521"><ele>1940</ele></trkpt>
<trkpt lat="47.167671779435" lon="11.267718458176"><ele>1942</ele></trkpt>
<trkpt lat="47.167341390226" lon="11.267787295727"><ele>1949</ele></trkpt>
<trkpt lat="47.167374925764" lon="11.267497466044"><ele>1952</ele></trkpt>
<trkpt lat="47.167294271477" lon="11.267294058433"><ele>1954</ele></trkpt>
<trkpt lat="47.167025492582" lon="11.267154099448"><ele>1958</ele></trkpt>
<trkpt lat="47.166969682157" lon="11.26727922184"><ele>1959</ele></trkpt>
<trkpt lat="47.167015094957" lon="11.267405021935"><ele>1961</ele></trkpt>
<trkpt lat="47.166994764025" lon="11.268098975473"><ele>1967</ele></trkpt>
<trkpt lat="47.166831935315" lon="11.268228292465"><ele>1970</ele></trkpt>
<trkpt lat="47.166580986232" lon="11.2680936791"><ele>1976</ele></trkpt>
<trkpt lat="47.166550643742" lon="11.268092086539"><ele>1976</ele></trkpt>
<trkpt lat="47.166521809995" lon="11.268028719351"><ele>1977</ele></trkpt>
<trkpt lat="47.166491718963" lon="11.268076244742"><ele>1978</ele></trkpt>
<trkpt lat="47.166473865509" lon="11.268109353259"><ele>1979</ele></trkpt>
<trkpt lat="47.166362889111" lon="11.268125278875"><ele>1981</ele></trkpt>
<trkpt lat="47.166255349293" lon="11.268118908629"><ele>1983</ele></trkpt>
<trkpt lat="47.166166752577" lon="11.268204990774"><ele>1985</ele></trkpt>
<trkpt lat="47.166074467823" lon="11.268322085962"><ele>1987</ele></trkpt>
<trkpt lat="47.166071115062" lon="11.268453933299"><ele>1988</ele></trkpt>
<trkpt lat="47.166004059836" lon="11.268510008231"><ele>1989</ele></trkpt>
<trkpt lat="47.165980422869" lon="11.268529538065"><ele>1989</ele></trkpt>
<trkpt lat="47.165923425928" lon="11.268530962989"><ele>1990</ele></trkpt>
<trkpt lat="47.165895765647" lon="11.268553510308"><ele>1991</ele></trkpt>
<trkpt lat="47.165795015171" lon="11.268570860848"><ele>1992</ele></trkpt>
<trkpt lat="47.165719745681" lon="11.268592402339"><ele>1993</ele></trkpt>
<trkpt lat="47.165705244988" lon="11.268610171974"><ele>1993</ele></trkpt>
<trkpt lat="47.165717314929" lon="11.268767332658"><ele>1994</ele></trkpt>
<trkpt lat="47.165687475353" lon="11.268747886643"><ele>1995</ele></trkpt>
<trkpt lat="47.16561505571" lon="11.26872994937"><ele>1996</ele></trkpt>
<trkpt lat="47.165520759299" lon="11.268795412034"><ele>1996</ele></trkpt>
<trkpt lat="47.165485471487" lon="11.26891954802"><ele>1997</ele></trkpt>
<trkpt lat="47.165502989665" lon="11.26910042949"><ele>1997</ele></trkpt>
<trkpt lat="47.165491087362" lon="11.269213752821"><ele>1998</ele></trkpt>
<trkpt lat="47.165480945259" lon="11.269234456122"><ele>1998</ele></trkpt>
<trkpt lat="47.165432916954" lon="11.26931341365"><ele>1998</ele></trkpt>
<trkpt lat="47.165384385735" lon="11.269402764738"><ele>1999</ele></trkpt>
<trkpt lat="47.165335603058" lon="11.269429000095"><ele>1999</ele></trkpt>
<trkpt lat="47.165278689936" lon="11.269480884075"><ele>1999</ele></trkpt>
<trkpt lat="47.165237367153" lon="11.269481470808"><ele>1999</ele></trkpt>
<trkpt lat="47.165211131796" lon="11.26950209029"><ele>1999</ele></trkpt>
<trkpt lat="47.165202414617" lon="11.269524218515"><ele>2000</ele></trkpt>
<trkpt lat="47.165190763772" lon="11.269623711705"><ele>2001</ele></trkpt>
<trkpt lat="47.165157571435" lon="11.269722115248"><ele>2002</ele></trkpt>
<trkpt lat="47.16515371576" lon="11.269822614267"><ele>2003</ele></trkpt>
<trkpt lat="47.165125636384" lon="11.269868128002"><ele>2004</ele></trkpt>
<trkpt lat="47.165093701333" lon="11.269973488525"><ele>2005</ele></trkpt>
<trkpt lat="47.165059586987" lon="11.270038196817"><ele>2006</ele></trkpt>
<trkpt lat="47.165014827624" lon="11.270079771057"><ele>2006</ele></trkpt>
<trkpt lat="47.164988508448" lon="11.270072059706"><ele>2007</ele></trkpt>
<trkpt lat="47.164971577004" lon="11.270111454651"><ele>2007</ele></trkpt>
<trkpt lat="47.164942240342" lon="11.27015738748"><ele>2008</ele></trkpt>
<trkpt lat="47.164884656668" lon="11.270217737183"><ele>2009</ele></trkpt>
<trkpt lat="47.164869401604" lon="11.270218743011"><ele>2009</ele></trkpt>
<trkpt lat="47.164797317237" lon="11.27027599141"><ele>2011</ele></trkpt>
<trkpt lat="47.164749037474" lon="11.270329467952"><ele>2011</ele></trkpt>
<trkpt lat="47.164706205949" lon="11.27038420178"><ele>2013</ele></trkpt>
<trkpt lat="47.164683407173" lon="11.270475229248"><ele>2015</ele></trkpt>
<trkpt lat="47.16463688761" lon="11.270532310009"><ele>2017</ele></trkpt>
<trkpt lat="47.164616351947" lon="11.270581260324"><ele>2018</ele></trkpt>
<trkpt lat="47.16458064504" lon="11.270608669147"><ele>2019</ele></trkpt>
<trkpt lat="47.164563126862" lon="11.270668515936"><ele>2020</ele></trkpt>
<trkpt lat="47.164518870413" lon="11.27068804577"><ele>2022</ele></trkpt>
<trkpt lat="47.164517529309" lon="11.270753173158"><ele>2023</ele></trkpt>
<trkpt lat="47.164522390813" lon="11.270840177312"><ele>2025</ele></trkpt>
<trkpt lat="47.164528174326" lon="11.270899688825"><ele>2026</ele></trkpt>
<trkpt lat="47.16453387402" lon="11.270974036306"><ele>2028</ele></trkpt>
<trkpt lat="47.164562791586" lon="11.271055676043"><ele>2029</ele></trkpt>
<trkpt lat="47.164546782151" lon="11.271101273596"><ele>2030</ele></trkpt>
<trkpt lat="47.164504202083" lon="11.2711581029"><ele>2032</ele></trkpt>
<trkpt lat="47.164454832673" lon="11.271196659654"><ele>2034</ele></trkpt>
<trkpt lat="47.164419544861" lon="11.271218284965"><ele>2035</ele></trkpt>
<trkpt lat="47.164357770234" lon="11.271266648546"><ele>2036</ele></trkpt>
<trkpt lat="47.164300018921" lon="11.271313587204"><ele>2037</ele></trkpt>
<trkpt lat="47.164247715846" lon="11.271355580539"><ele>2038</ele></trkpt>
<trkpt lat="47.164217708632" lon="11.271423641592"><ele>2040</ele></trkpt>
<trkpt lat="47.164187030867" lon="11.271435627714"><ele>2040</ele></trkpt>
<trkpt lat="47.164153335616" lon="11.271527996287"><ele>2041</ele></trkpt>
<trkpt lat="47.164132883772" lon="11.271564876661"><ele>2042</ele></trkpt>
<trkpt lat="47.164114108309" lon="11.271605445072"><ele>2043</ele></trkpt>
<trkpt lat="47.164128189906" lon="11.271622460335"><ele>2043</ele></trkpt>
<trkpt lat="47.164110504091" lon="11.271714912727"><ele>2044</ele></trkpt>
<trkpt lat="47.164105894044" lon="11.271790936589"><ele>2045</ele></trkpt>
<trkpt lat="47.164033893496" lon="11.271910378709"><ele>2047</ele></trkpt>
<trkpt lat="47.164022997022" lon="11.271938458085"><ele>2048</ele></trkpt>
<trkpt lat="47.163976728916" lon="11.271974835545"><ele>2049</ele></trkpt>
<trkpt lat="47.163853179663" lon="11.272075166926"><ele>2053</ele></trkpt>
<trkpt lat="47.163810012862" lon="11.272200560197"><ele>2055</ele></trkpt>
<trkpt lat="47.163787130266" lon="11.272231070325"><ele>2056</ele></trkpt>
<trkpt lat="47.163735497743" lon="11.272311704233"><ele>2059</ele></trkpt>
<trkpt lat="47.16367598623" lon="11.272394685075"><ele>2061</ele></trkpt>
<trkpt lat="47.16362058185" lon="11.272436343133"><ele>2063</ele></trkpt>
<trkpt lat="47.163594178855" lon="11.272444976494"><ele>2064</ele></trkpt>
<trkpt lat="47.163553191349" lon="11.272499542683"><ele>2065</ele></trkpt>
<trkpt lat="47.163487141952" lon="11.272559808567"><ele>2067</ele></trkpt>
<trkpt lat="47.163434755057" lon="11.272611273453"><ele>2069</ele></trkpt>
<trkpt lat="47.163407430053" lon="11.272645974532"><ele>2070</ele></trkpt>
<trkpt lat="47.163380691782" lon="11.272741947323"><ele>2072</ele></trkpt>
<trkpt lat="47.163371220231" lon="11.27276642248"><ele>2073</ele></trkpt>
<trkpt lat="47.163347499445" lon="11.272781509906"><ele>2073</ele></trkpt>
<trkpt lat="47.163311038166" lon="11.272825682536"><ele>2074</ele></trkpt>
<trkpt lat="47.163304081187" lon="11.272867927328"><ele>2075</ele></trkpt>
<trkpt lat="47.163271475583" lon="11.27294478938"><ele>2076</ele></trkpt>
<trkpt lat="47.163294441998" lon="11.273020477965"><ele>2077</ele></trkpt>
<trkpt lat="47.163268961012" lon="11.273090383038"><ele>2078</ele></trkpt>
<trkpt lat="47.163252113387" lon="11.273115025833"><ele>2079</ele></trkpt>
<trkpt lat="47.163241887465" lon="11.273169340566"><ele>2080</ele></trkpt>
<trkpt lat="47.163252951577" lon="11.273226505145"><ele>2081</ele></trkpt>
<trkpt lat="47.163235601038" lon="11.273300433531"><ele>2082</ele></trkpt>
<trkpt lat="47.163235181943" lon="11.273373523727"><ele>2083</ele></trkpt>
<trkpt lat="47.163222692907" lon="11.273447284475"><ele>2084</ele></trkpt>
<trkpt lat="47.163197379559" lon="11.273553734645"><ele>2085</ele></trkpt>
<trkpt lat="47.163183549419" lon="11.27363990061"><ele>2086</ele></trkpt>
<trkpt lat="47.163180951029" lon="11.273667393252"><ele>2087</ele></trkpt>
<trkpt lat="47.163163684309" lon="11.273688515648"><ele>2087</ele></trkpt>
<trkpt lat="47.163152620196" lon="11.273714248091"><ele>2088</ele></trkpt>
<trkpt lat="47.163139460608" lon="11.273771664128"><ele>2089</ele></trkpt>
<trkpt lat="47.163153039292" lon="11.273839809"><ele>2090</ele></trkpt>
<trkpt lat="47.16317131184" lon="11.273901918903"><ele>2091</ele></trkpt>
<trkpt lat="47.163208778948" lon="11.273998729885"><ele>2093</ele></trkpt>
<trkpt lat="47.163176424801" lon="11.274055726826"><ele>2095</ele></trkpt>
<trkpt lat="47.163161672652" lon="11.274127392098"><ele>2096</ele></trkpt>
<trkpt lat="47.16315228492" lon="11.274195117876"><ele>2097</ele></trkpt>
<trkpt lat="47.163130324334" lon="11.274256557226"><ele>2098</ele></trkpt>
<trkpt lat="47.163110878319" lon="11.274318331853"><ele>2100</ele></trkpt>
<trkpt lat="47.163101071492" lon="11.27439728938"><ele>2101</ele></trkpt>
<trkpt lat="47.16309344396" lon="11.274459734559"><ele>2102</ele></trkpt>
<trkpt lat="47.16309688054" lon="11.274576075375"><ele>2104</ele></trkpt>
<trkpt lat="47.163101825863" lon="11.27463365905"><ele>2105</ele></trkpt>
<trkpt lat="47.163134599105" lon="11.274702558294"><ele>2107</ele></trkpt>
<trkpt lat="47.163154631853" lon="11.274783108383"><ele>2109</ele></trkpt>
<trkpt lat="47.163185393438" lon="11.274868687615"><ele>2110</ele></trkpt>
<trkpt lat="47.163223531097" lon="11.274960301816"><ele>2113</ele></trkpt>
<trkpt lat="47.163187572733" lon="11.27497907728"><ele>2114</ele></trkpt>
<trkpt lat="47.163143064827" lon="11.274988297373"><ele>2115</ele></trkpt>
<trkpt lat="47.163117164746" lon="11.27498938702"><ele>2116</ele></trkpt>
<trkpt lat="47.16312982142" lon="11.275060633197"><ele>2118</ele></trkpt>
<trkpt lat="47.163126720116" lon="11.275132130831"><ele>2119</ele></trkpt>
<trkpt lat="47.163137448952" lon="11.275209747255"><ele>2121</ele></trkpt>
<trkpt lat="47.163100568578" lon="11.275187451392"><ele>2122</ele></trkpt>
<trkpt lat="47.163081625476" lon="11.275187116116"><ele>2122</ele></trkpt>
<trkpt lat="47.16303720139" lon="11.275191809982"><ele>2124</ele></trkpt>
<trkpt lat="47.162981461734" lon="11.275190552697"><ele>2126</ele></trkpt>
<trkpt lat="47.162992442027" lon="11.27525517717"><ele>2127</ele></trkpt>
<trkpt lat="47.163017168641" lon="11.275338996202"><ele>2129</ele></trkpt>
<trkpt lat="47.162982802838" lon="11.275333464146"><ele>2130</ele></trkpt>
<trkpt lat="47.162918178365" lon="11.275341343135"><ele>2132</ele></trkpt>
<trkpt lat="47.162926644087" lon="11.275410493836"><ele>2133</ele></trkpt>
<trkpt lat="47.162933014333" lon="11.275497497991"><ele>2136</ele></trkpt>
<trkpt lat="47.162878531963" lon="11.275487355888"><ele>2138</ele></trkpt>
<trkpt lat="47.162828324363" lon="11.275494815782"><ele>2140</ele></trkpt>
<trkpt lat="47.162808291614" lon="11.27552960068"><ele>2141</ele></trkpt>
<trkpt lat="47.162845339626" lon="11.275607636198"><ele>2143</ele></trkpt>
<trkpt lat="47.16284584254" lon="11.275656335056"><ele>2145</ele></trkpt>
<trkpt lat="47.16287962161" lon="11.275741243735"><ele>2147</ele></trkpt>
<trkpt lat="47.162943407893" lon="11.275807879865"><ele>2150</ele></trkpt>
<trkpt lat="47.162931086496" lon="11.275829253718"><ele>2151</ele></trkpt>
<trkpt lat="47.162924716249" lon="11.27587929368"><ele>2152</ele></trkpt>
<trkpt lat="47.16292379424" lon="11.275915922597"><ele>2153</ele></trkpt>
<trkpt lat="47.162929410115" lon="11.276020277292"><ele>2156</ele></trkpt>
<trkpt lat="47.162943491712" lon="11.276121865958"><ele>2159</ele></trkpt>
<trkpt lat="47.162954136729" lon="11.276192609221"><ele>2160</ele></trkpt>
<trkpt lat="47.162976935506" lon="11.276262514293"><ele>2162</ele></trkpt>
<trkpt lat="47.162980623543" lon="11.276326635852"><ele>2164</ele></trkpt>
<trkpt lat="47.163007361814" lon="11.276379274204"><ele>2164</ele></trkpt>
<trkpt lat="47.162998393178" lon="11.276420680806"><ele>2165</ele></trkpt>
<trkpt lat="47.162955729291" lon="11.276455381885"><ele>2165</ele></trkpt>
<trkpt lat="47.16292027384" lon="11.276397043839"><ele>2166</ele></trkpt>
<trkpt lat="47.162858918309" lon="11.276358989999"><ele>2166</ele></trkpt>
<trkpt lat="47.162805944681" lon="11.276310961694"><ele>2167</ele></trkpt>
<trkpt lat="47.162781553343" lon="11.276288665831"><ele>2168</ele></trkpt>
<trkpt lat="47.162756659091" lon="11.276271063834"><ele>2168</ele></trkpt>
<trkpt lat="47.162700919434" lon="11.276213396341"><ele>2169</ele></trkpt>
<trkpt lat="47.162650711834" lon="11.27617190592"><ele>2169</ele></trkpt>
<trkpt lat="47.162576280534" lon="11.276114992797"><ele>2170</ele></trkpt>
<trkpt lat="47.162524396554" lon="11.276109041646"><ele>2171</ele></trkpt>
<trkpt lat="47.162477541715" lon="11.276082973927"><ele>2171</ele></trkpt>
<trkpt lat="47.16240696609" lon="11.27604466863"><ele>2172</ele></trkpt>
<trkpt lat="47.162349801511" lon="11.276012146845"><ele>2174</ele></trkpt>
<trkpt lat="47.162300180644" lon="11.276006363332"><ele>2175</ele></trkpt>
<trkpt lat="47.162272939458" lon="11.276039220393"><ele>2177</ele></trkpt>
<trkpt lat="47.162298168987" lon="11.276080291718"><ele>2178</ele></trkpt>
<trkpt lat="47.162321135402" lon="11.276144748554"><ele>2179</ele></trkpt>
<trkpt lat="47.162333875895" lon="11.276177018881"><ele>2180</ele></trkpt>
<trkpt lat="47.162367487326" lon="11.276250863448"><ele>2182</ele></trkpt>
<trkpt lat="47.162433704361" lon="11.276302076876"><ele>2184</ele></trkpt>
<trkpt lat="47.162473686039" lon="11.276388494298"><ele>2187</ele></trkpt>
<trkpt lat="47.162439739332" lon="11.276380615309"><ele>2188</ele></trkpt>
<trkpt lat="47.162378719077" lon="11.276369551197"><ele>2190</ele></trkpt>
<trkpt lat="47.162334630266" lon="11.276379274204"><ele>2191</ele></trkpt>
<trkpt lat="47.162294648588" lon="11.276382459328"><ele>2192</ele></trkpt>
<trkpt lat="47.162231700495" lon="11.276365360245"><ele>2194</ele></trkpt>
<trkpt lat="47.162162382156" lon="11.276364438236"><ele>2197</ele></trkpt>
<trkpt lat="47.162110833451" lon="11.276358067989"><ele>2199</ele></trkpt>
<trkpt lat="47.162073533982" lon="11.276357648894"><ele>2200</ele></trkpt>
<trkpt lat="47.162046292797" lon="11.276383046061"><ele>2202</ele></trkpt>
<trkpt lat="47.162006897852" lon="11.276384554803"><ele>2203</ele></trkpt>
<trkpt lat="47.161979237571" lon="11.276414813474"><ele>2205</ele></trkpt>
<trkpt lat="47.161987619475" lon="11.276459405199"><ele>2206</ele></trkpt>
<trkpt lat="47.161985523999" lon="11.276486730203"><ele>2207</ele></trkpt>
<trkpt lat="47.161957109347" lon="11.276487736031"><ele>2208</ele></trkpt>
<trkpt lat="47.161930957809" lon="11.276500057429"><ele>2209</ele></trkpt>
<trkpt lat="47.161900531501" lon="11.27648522146"><ele>2210</ele></trkpt>
<trkpt lat="47.161857783794" lon="11.276482036337"><ele>2212</ele></trkpt>
<trkpt lat="47.16183045879" lon="11.276464853436"><ele>2214</ele></trkpt>
<trkpt lat="47.161789722741" lon="11.2764541246"><ele>2215</ele></trkpt>
<trkpt lat="47.161758374423" lon="11.276505086571"><ele>2217</ele></trkpt>
<trkpt lat="47.161754686385" lon="11.276484215632"><ele>2218</ele></trkpt>
<trkpt lat="47.161714620888" lon="11.276516737416"><ele>2220</ele></trkpt>
<trkpt lat="47.161678327248" lon="11.276541044936"><ele>2221</ele></trkpt>
<trkpt lat="47.16169626452" lon="11.276581529528"><ele>2223</ele></trkpt>
<trkpt lat="47.161663910374" lon="11.27660818398"><ele>2224</ele></trkpt>
<trkpt lat="47.161642787978" lon="11.276648333296"><ele>2226</ele></trkpt>
<trkpt lat="47.161677991971" lon="11.276670042425"><ele>2227</ele></trkpt>
<trkpt lat="47.161627700552" lon="11.276687728241"><ele>2230</ele></trkpt>
<trkpt lat="47.161610517651" lon="11.276731733233"><ele>2231</ele></trkpt>
<trkpt lat="47.161581432447" lon="11.276740701869"><ele>2232</ele></trkpt>
<trkpt lat="47.161559136584" lon="11.276787975803"><ele>2234</ele></trkpt>
<trkpt lat="47.16153005138" lon="11.276812953874"><ele>2236</ele></trkpt>
<trkpt lat="47.161501972005" lon="11.276868944988"><ele>2238</ele></trkpt>
<trkpt lat="47.161458553746" lon="11.276910770684"><ele>2240</ele></trkpt>
<trkpt lat="47.161426786333" lon="11.276924852282"><ele>2241</ele></trkpt>
<trkpt lat="47.161361742765" lon="11.27692761831"><ele>2244</ele></trkpt>
<trkpt lat="47.161326287314" lon="11.276938682422"><ele>2246</ele></trkpt>
<trkpt lat="47.161286724731" lon="11.276962654665"><ele>2248</ele></trkpt>
<trkpt lat="47.16131622903" lon="11.277005570009"><ele>2249</ele></trkpt>
<trkpt lat="47.161310026422" lon="11.277039516717"><ele>2250</ele></trkpt>
<trkpt lat="47.161284629256" lon="11.277051838115"><ele>2252</ele></trkpt>
<trkpt lat="47.161243306473" lon="11.277069440112"><ele>2253</ele></trkpt>
<trkpt lat="47.161191506311" lon="11.277088299394"><ele>2256</ele></trkpt>
<trkpt lat="47.161182621494" lon="11.277110176161"><ele>2256</ele></trkpt>
<trkpt lat="47.161213383079" lon="11.277128029615"><ele>2258</ele></trkpt>
<trkpt lat="47.161236265674" lon="11.277150996029"><ele>2259</ele></trkpt>
<trkpt lat="47.161208018661" lon="11.277174213901"><ele>2261</ele></trkpt>
<trkpt lat="47.161178262904" lon="11.277208998799"><ele>2262</ele></trkpt>
<trkpt lat="47.161214808002" lon="11.277262559161"><ele>2264</ele></trkpt>
<trkpt lat="47.161236265674" lon="11.277289129794"><ele>2265</ele></trkpt>
<trkpt lat="47.16124531813" lon="11.277326429263"><ele>2266</ele></trkpt>
<trkpt lat="47.161219250411" lon="11.277336403728"><ele>2267</ele></trkpt>
<trkpt lat="47.161193098873" lon="11.277382336557"><ele>2269</ele></trkpt>
<trkpt lat="47.161162588745" lon="11.277398597449"><ele>2270</ele></trkpt>
<trkpt lat="47.161115985364" lon="11.277428185567"><ele>2272</ele></trkpt>
<trkpt lat="47.16109033674" lon="11.277454337105"><ele>2273</ele></trkpt>
<trkpt lat="47.161057982594" lon="11.277495827526"><ele>2274</ele></trkpt>
<trkpt lat="47.161085307598" lon="11.277509825304"><ele>2275</ele></trkpt>
<trkpt lat="47.161118751392" lon="11.27755089663"><ele>2277</ele></trkpt>
<trkpt lat="47.161135096103" lon="11.277577802539"><ele>2278</ele></trkpt>
<trkpt lat="47.16110156849" lon="11.277587777004"><ele>2279</ele></trkpt>
<trkpt lat="47.161064688116" lon="11.277623986825"><ele>2281</ele></trkpt>
<trkpt lat="47.161098215729" lon="11.27766078338"><ele>2282</ele></trkpt>
<trkpt lat="47.161139873788" lon="11.27770235762"><ele>2284</ele></trkpt>
<trkpt lat="47.161106346175" lon="11.277732700109"><ele>2285</ele></trkpt>
<trkpt lat="47.161077596247" lon="11.277756420895"><ele>2287</ele></trkpt>
<trkpt lat="47.161115063354" lon="11.277785589918"><ele>2288</ele></trkpt>
<trkpt lat="47.161255879328" lon="11.277889944613"><ele>2294</ele></trkpt>
<trkpt lat="47.161230985075" lon="11.277939733118"><ele>2297</ele></trkpt>
<trkpt lat="47.161190416664" lon="11.277957083657"><ele>2299</ele></trkpt>
<trkpt lat="47.161179855466" lon="11.277979547158"><ele>2300</ele></trkpt>
<trkpt lat="47.161167031154" lon="11.278006788343"><ele>2301</ele></trkpt>
<trkpt lat="47.161140125245" lon="11.278033694252"><ele>2303</ele></trkpt>
<trkpt lat="47.161119170487" lon="11.2780572474"><ele>2304</ele></trkpt>
<trkpt lat="47.161081954837" lon="11.278079543263"><ele>2306</ele></trkpt>
<trkpt lat="47.161068962887" lon="11.278109382838"><ele>2308</ele></trkpt>
<trkpt lat="47.161052953452" lon="11.278113406152"><ele>2308</ele></trkpt>
<trkpt lat="47.161072315648" lon="11.27815598622"><ele>2310</ele></trkpt>
<trkpt lat="47.161045745015" lon="11.278177527711"><ele>2312</ele></trkpt>
<trkpt lat="47.161069130525" lon="11.278212815523"><ele>2314</ele></trkpt>
<trkpt lat="47.161093102768" lon="11.278240643442"><ele>2315</ele></trkpt>
<trkpt lat="47.16111196205" lon="11.278251959011"><ele>2316</ele></trkpt>
<trkpt lat="47.161144735292" lon="11.278279116377"><ele>2319</ele></trkpt>
<trkpt lat="47.161153452471" lon="11.278314236552"><ele>2320</ele></trkpt>
<trkpt lat="47.161124367267" lon="11.278327060863"><ele>2321</ele></trkpt>
<trkpt lat="47.161122187972" lon="11.278378190473"><ele>2323</ele></trkpt>
<trkpt lat="47.161100143567" lon="11.278370898217"><ele>2325</ele></trkpt>
<trkpt lat="47.161076422781" lon="11.278368970379"><ele>2326</ele></trkpt>
<trkpt lat="47.161062508821" lon="11.278402414173"><ele>2327</ele></trkpt>
<trkpt lat="47.161039123312" lon="11.278437869623"><ele>2329</ele></trkpt>
<trkpt lat="47.161020012572" lon="11.278472319245"><ele>2331</ele></trkpt>
<trkpt lat="47.161032166332" lon="11.278493441641"><ele>2332</ele></trkpt>
<trkpt lat="47.16105915606" lon="11.278545074165"><ele>2334</ele></trkpt>
<trkpt lat="47.161064939573" lon="11.278599975631"><ele>2336</ele></trkpt>
<trkpt lat="47.161068292335" lon="11.278640544042"><ele>2337</ele></trkpt>
<trkpt lat="47.161088827997" lon="11.27866233699"><ele>2338</ele></trkpt>
<trkpt lat="47.161077177152" lon="11.278689075261"><ele>2339</ele></trkpt>
<trkpt lat="47.161087822169" lon="11.278724530712"><ele>2340</ele></trkpt>
<trkpt lat="47.161107352003" lon="11.278756801039"><ele>2342</ele></trkpt>
<trkpt lat="47.161156469956" lon="11.278794938698"><ele>2344</ele></trkpt>
<trkpt lat="47.1611734014" lon="11.278828131035"><ele>2345</ele></trkpt>
<trkpt lat="47.161187482998" lon="11.278855288401"><ele>2346</ele></trkpt>
<trkpt lat="47.161200810224" lon="11.278886217624"><ele>2348</ele></trkpt>
<trkpt lat="47.161166025326" lon="11.278884122148"><ele>2349</ele></trkpt>
<trkpt lat="47.161148255691" lon="11.278903484344"><ele>2350</ele></trkpt>
<trkpt lat="47.161134174094" lon="11.278912452981"><ele>2351</ele></trkpt>
<trkpt lat="47.16111632064" lon="11.27894371748"><ele>2352</ele></trkpt>
<trkpt lat="47.161137694493" lon="11.278960229829"><ele>2353</ele></trkpt>
<trkpt lat="47.161164265126" lon="11.278993170708"><ele>2355</ele></trkpt>
<trkpt lat="47.161213047802" lon="11.279049832374"><ele>2357</ele></trkpt>
<trkpt lat="47.161229560152" lon="11.279055783525"><ele>2358</ele></trkpt>
<trkpt lat="47.161208689213" lon="11.279057459906"><ele>2359</ele></trkpt>
<trkpt lat="47.161191841587" lon="11.279068943113"><ele>2360</ele></trkpt>
<trkpt lat="47.161178095266" lon="11.279070368037"><ele>2361</ele></trkpt>
<trkpt lat="47.161124367267" lon="11.279075397179"><ele>2363</ele></trkpt>
<trkpt lat="47.161109531298" lon="11.279074558988"><ele>2364</ele></trkpt>
<trkpt lat="47.161069381982" lon="11.279080929235"><ele>2365</ele></trkpt>
<trkpt lat="47.161013977602" lon="11.279097944498"><ele>2368</ele></trkpt>
<trkpt lat="47.160969553515" lon="11.279116971418"><ele>2370</ele></trkpt>
<trkpt lat="47.160957148299" lon="11.279150247574"><ele>2371</ele></trkpt>
<trkpt lat="47.160941390321" lon="11.279187966138"><ele>2373</ele></trkpt>
<trkpt lat="47.160958573222" lon="11.279206909239"><ele>2374</ele></trkpt>
<trkpt lat="47.160930074751" lon="11.27920162864"><ele>2375</ele></trkpt>
<trkpt lat="47.160938121378" lon="11.279224678874"><ele>2376</ele></trkpt>
<trkpt lat="47.161000650376" lon="11.279270360246"><ele>2379</ele></trkpt>
<trkpt lat="47.16105915606" lon="11.27935837023"><ele>2383</ele></trkpt>
<trkpt lat="47.161104585975" lon="11.279422324151"><ele>2386</ele></trkpt>
<trkpt lat="47.161067286506" lon="11.279447972775"><ele>2388</ele></trkpt>
<trkpt lat="47.16107994318" lon="11.279501114041"><ele>2390</ele></trkpt>
<trkpt lat="47.16104616411" lon="11.279524080455"><ele>2392</ele></trkpt>
<trkpt lat="47.161011127755" lon="11.279525337741"><ele>2393</ele></trkpt>
<trkpt lat="47.160990005359" lon="11.279541095719"><ele>2394</ele></trkpt>
<trkpt lat="47.160981120542" lon="11.279557943344"><ele>2395</ele></trkpt>
<trkpt lat="47.160947844386" lon="11.279569761828"><ele>2397</ele></trkpt>
<trkpt lat="47.16093108058" lon="11.279597925022"><ele>2398</ele></trkpt>
<trkpt lat="47.16093367897" lon="11.279633212835"><ele>2399</ele></trkpt>
<trkpt lat="47.16089906171" lon="11.279616197571"><ele>2401</ele></trkpt>
<trkpt lat="47.16086528264" lon="11.279604043812"><ele>2402</ele></trkpt>
<trkpt lat="47.160833179951" lon="11.279595578089"><ele>2404</ele></trkpt>
<trkpt lat="47.160810967907" lon="11.279614521191"><ele>2405</ele></trkpt>
<trkpt lat="47.160825887695" lon="11.279660118744"><ele>2407</ele></trkpt>
<trkpt lat="47.160796383396" lon="11.279659280553"><ele>2408</ele></trkpt>
<trkpt lat="47.160776183009" lon="11.279673110694"><ele>2409</ele></trkpt>
<trkpt lat="47.160784061998" lon="11.279720468447"><ele>2411</ele></trkpt>
<trkpt lat="47.160774255171" lon="11.279770173132"><ele>2412</ele></trkpt>
<trkpt lat="47.160758161917" lon="11.279822057113"><ele>2414</ele></trkpt>
<trkpt lat="47.160745505244" lon="11.279870001599"><ele>2415</ele></trkpt>
<trkpt lat="47.160736620426" lon="11.279885927215"><ele>2416</ele></trkpt>
<trkpt lat="47.160735866055" lon="11.279910402372"><ele>2417</ele></trkpt>
<trkpt lat="47.160723712295" lon="11.279922472313"><ele>2417</ele></trkpt>
<trkpt lat="47.160721868277" lon="11.279945774004"><ele>2418</ele></trkpt>
<trkpt lat="47.160714408383" lon="11.279978714883"><ele>2419</ele></trkpt>
<trkpt lat="47.16069471091" lon="11.279947031289"><ele>2420</ele></trkpt>
<trkpt lat="47.160667553544" lon="11.279921382666"><ele>2422</ele></trkpt>
<trkpt lat="47.160664116964" lon="11.27998156473"><ele>2424</ele></trkpt>
<trkpt lat="47.160664200783" lon="11.280043590814"><ele>2426</ele></trkpt>
<trkpt lat="47.160682138056" lon="11.280114250258"><ele>2428</ele></trkpt>
<trkpt lat="47.160684736446" lon="11.280159763992"><ele>2429</ele></trkpt>
<trkpt lat="47.16065229848" lon="11.280151968822"><ele>2431</ele></trkpt>
<trkpt lat="47.160597480834" lon="11.28012615256"><ele>2433</ele></trkpt>
<trkpt lat="47.160532437265" lon="11.28011232242"><ele>2436</ele></trkpt>
<trkpt lat="47.160517517477" lon="11.28011148423"><ele>2437</ele></trkpt>
<trkpt lat="47.16051902622" lon="11.280148867518"><ele>2438</ele></trkpt>
<trkpt lat="47.160516763106" lon="11.280205277726"><ele>2440</ele></trkpt>
<trkpt lat="47.160473763943" lon="11.280226651579"><ele>2442</ele></trkpt>
<trkpt lat="47.160421125591" lon="11.280253473669"><ele>2442</ele></trkpt>
<trkpt lat="47.160418275744" lon="11.28030879423"><ele>2443</ele></trkpt>
<trkpt lat="47.16038743034" lon="11.280326228589"><ele>2443</ele></trkpt>
<trkpt lat="47.160355998203" lon="11.280317008495"><ele>2444</ele></trkpt>
<trkpt lat="47.160323057324" lon="11.280259592459"><ele>2445</ele></trkpt>
<trkpt lat="47.160309227183" lon="11.280299238861"><ele>2445</ele></trkpt>
<trkpt lat="47.16030084528" lon="11.280327402055"><ele>2445</ele></trkpt>
<trkpt lat="47.160299001262" lon="11.280420944095"><ele>2446</ele></trkpt>
<trkpt lat="47.160309813917" lon="11.280517084524"><ele>2447</ele></trkpt>
<trkpt lat="47.160281650722" lon="11.280512558296"><ele>2447</ele></trkpt>
<trkpt lat="47.160233454779" lon="11.280454806983"><ele>2448</ele></trkpt>
<trkpt lat="47.160202274099" lon="11.280461680144"><ele>2449</ele></trkpt>
<trkpt lat="47.160181738436" lon="11.280521107838"><ele>2449</ele></trkpt>
<trkpt lat="47.160164387897" lon="11.280578272417"><ele>2450</ele></trkpt>
<trkpt lat="47.160135805607" lon="11.280646836385"><ele>2451</ele></trkpt>
<trkpt lat="47.160119209439" lon="11.280703917146"><ele>2451</ele></trkpt>
<trkpt lat="47.160128178075" lon="11.280760914087"><ele>2452</ele></trkpt>
<trkpt lat="47.160144690424" lon="11.2807926815"><ele>2452</ele></trkpt>
<trkpt lat="47.160167489201" lon="11.28085068427"><ele>2454</ele></trkpt>
<trkpt lat="47.160197999328" lon="11.28085764125"><ele>2455</ele></trkpt>
<trkpt lat="47.160234628245" lon="11.2808706332"><ele>2457</ele></trkpt>
<trkpt lat="47.16027662158" lon="11.280880942941"><ele>2458</ele></trkpt>
<trkpt lat="47.160299336538" lon="11.280887397006"><ele>2459</ele></trkpt>
<trkpt lat="47.160360440612" lon="11.280872896314"><ele>2462</ele></trkpt>
<trkpt lat="47.160434452817" lon="11.280881529674"><ele>2465</ele></trkpt>
<trkpt lat="47.160475356504" lon="11.280903574079"><ele>2466</ele></trkpt>
<trkpt lat="47.160507962108" lon="11.280923355371"><ele>2468</ele></trkpt>
<trkpt lat="47.160545764491" lon="11.280946321785"><ele>2469</ele></trkpt>
<trkpt lat="47.160574514419" lon="11.280968952924"><ele>2471</ele></trkpt>
<trkpt lat="47.160617178306" lon="11.28097708337"><ele>2472</ele></trkpt>
<trkpt lat="47.160648358986" lon="11.280985968187"><ele>2473</ele></trkpt>
<trkpt lat="47.160692950711" lon="11.280993847176"><ele>2475</ele></trkpt>
<trkpt lat="47.160707786679" lon="11.280990829691"><ele>2476</ele></trkpt>
<trkpt lat="47.160728070885" lon="11.280990242958"><ele>2477</ele></trkpt>
<trkpt lat="47.160740392283" lon="11.281004324555"><ele>2477</ele></trkpt>
<trkpt lat="47.160758161917" lon="11.281027374789"><ele>2478</ele></trkpt>
<trkpt lat="47.160775763914" lon="11.281014382839"><ele>2479</ele></trkpt>
<trkpt lat="47.160796131939" lon="11.281022261828"><ele>2480</ele></trkpt>
<trkpt lat="47.160819517449" lon="11.281003821641"><ele>2481</ele></trkpt>
<trkpt lat="47.160856397822" lon="11.281002480537"><ele>2482</ele></trkpt>
<trkpt lat="47.160885818303" lon="11.281073056161"><ele>2485</ele></trkpt>
<trkpt lat="47.16093015857" lon="11.281138267368"><ele>2489</ele></trkpt>
<trkpt lat="47.160949101672" lon="11.281170705333"><ele>2490</ele></trkpt>
<trkpt lat="47.160988748074" lon="11.281206831336"><ele>2493</ele></trkpt>
<trkpt lat="47.161016156897" lon="11.281234575436"><ele>2495</ele></trkpt>
<trkpt lat="47.161044320092" lon="11.28126625903"><ele>2497</ele></trkpt>
<trkpt lat="47.1610522829" lon="11.281289309263"><ele>2498</ele></trkpt>
<trkpt lat="47.161068795249" lon="11.281317975372"><ele>2500</ele></trkpt>
<trkpt lat="47.161080949008" lon="11.281352508813"><ele>2501</ele></trkpt>
<trkpt lat="47.161088995636" lon="11.281372960657"><ele>2502</ele></trkpt>
<trkpt lat="47.161118499935" lon="11.281371032819"><ele>2504</ele></trkpt>
<trkpt lat="47.161125624552" lon="11.2813969329"><ele>2505</ele></trkpt>
<trkpt lat="47.161112045869" lon="11.281424006447"><ele>2506</ele></trkpt>
<trkpt lat="47.161084888503" lon="11.281455354765"><ele>2508</ele></trkpt>
<trkpt lat="47.161097377539" lon="11.28148611635"><ele>2510</ele></trkpt>
<trkpt lat="47.161104250699" lon="11.281506232917"><ele>2511</ele></trkpt>
<trkpt lat="47.161114057526" lon="11.28154495731"><ele>2512</ele></trkpt>
<trkpt lat="47.161118499935" lon="11.281577646732"><ele>2514</ele></trkpt>
<trkpt lat="47.161143729463" lon="11.28158217296"><ele>2515</ele></trkpt>
<trkpt lat="47.161160577089" lon="11.281616454944"><ele>2517</ele></trkpt>
<trkpt lat="47.161176418886" lon="11.28163673915"><ele>2518</ele></trkpt>
<trkpt lat="47.161197541282" lon="11.281651323661"><ele>2520</ele></trkpt>
<trkpt lat="47.161212628707" lon="11.2815735396"><ele>2523</ele></trkpt>
<trkpt lat="47.161225201562" lon="11.281509334221"><ele>2525</ele></trkpt>
<trkpt lat="47.161236768588" lon="11.281465077773"><ele>2527</ele></trkpt>
<trkpt lat="47.161273313686" lon="11.281435154378"><ele>2530</ele></trkpt>
<trkpt lat="47.161287562922" lon="11.28143758513"><ele>2530</ele></trkpt>
<trkpt lat="47.161300638691" lon="11.281451331452"><ele>2530</ele></trkpt>
<trkpt lat="47.161281947047" lon="11.28146097064"><ele>2530</ele></trkpt>
<trkpt lat="47.161254286766" lon="11.281470023096"><ele>2530</ele></trkpt>
<trkpt lat="47.161265434697" lon="11.281504724175"><ele>2530</ele></trkpt>
<trkpt lat="47.161278342828" lon="11.281554764137"><ele>2530</ele></trkpt>
<trkpt lat="47.161297956482" lon="11.281571695581"><ele>2530</ele></trkpt>
<trkpt lat="47.161322264001" lon="11.281600445509"><ele>2530</ele></trkpt>
<trkpt lat="47.161351265386" lon="11.281632296741"><ele>2530</ele></trkpt>
<trkpt lat="47.161379931495" lon="11.281660376117"><ele>2530</ele></trkpt>
<trkpt lat="47.16138035059" lon="11.281627351418"><ele>2530</ele></trkpt>
<trkpt lat="47.161374818534" lon="11.281593572348"><ele>2530</ele></trkpt>
<trkpt lat="47.16137859039" lon="11.28156398423"><ele>2530</ele></trkpt>
<trkpt lat="47.161379596218" lon="11.281542191282"><ele>2530</ele></trkpt>
<trkpt lat="47.161385882646" lon="11.281516794115"><ele>2530</ele></trkpt>
<trkpt lat="47.161411615089" lon="11.281506149098"><ele>2530</ele></trkpt>
<trkpt lat="47.161431647837" lon="11.281507322565"><ele>2530</ele></trkpt>
<trkpt lat="47.161432821304" lon="11.281482260674"><ele>2530</ele></trkpt>
<trkpt lat="47.161445897073" lon="11.28149391152"><ele>2530</ele></trkpt>
<trkpt lat="47.161484286189" lon="11.281471028924"><ele>2530</ele></trkpt>
<trkpt lat="47.161512365565" lon="11.28143758513"><ele>2530</ele></trkpt>
<trkpt lat="47.161523262039" lon="11.281351167709"><ele>2530</ele></trkpt>
<trkpt lat="47.161533823237" lon="11.281300708652"><ele>2530</ele></trkpt>
<trkpt lat="47.161535415798" lon="11.281247651204"><ele>2530</ele></trkpt>
<trkpt lat="47.161561315879" lon="11.281233401969"><ele>2530</ele></trkpt>
<trkpt lat="47.161580091342" lon="11.281228624284"><ele>2530</ele></trkpt>
<trkpt lat="47.161619067192" lon="11.281206412241"><ele>2530</ele></trkpt>
<trkpt lat="47.161655360833" lon="11.28119694069"><ele>2530</ele></trkpt>
<trkpt lat="47.161710932851" lon="11.281262068078"><ele>2530</ele></trkpt>
<trkpt lat="47.161719482392" lon="11.281302385032"><ele>2531</ele></trkpt>
<trkpt lat="47.161739934236" lon="11.281301463023"><ele>2531</ele></trkpt>
<trkpt lat="47.161770276725" lon="11.281237006187"><ele>2531</ele></trkpt>
<trkpt lat="47.161813275889" lon="11.281150840223"><ele>2532</ele></trkpt>
<trkpt lat="47.161841019988" lon="11.281138435006"><ele>2533</ele></trkpt>
<trkpt lat="47.161869267002" lon="11.281143212691"><ele>2533</ele></trkpt>
<trkpt lat="47.16188242659" lon="11.28116492182"><ele>2533</ele></trkpt>
<trkpt lat="47.161898268387" lon="11.281193671748"><ele>2534</ele></trkpt>
<trkpt lat="47.161916960031" lon="11.28120909445"><ele>2534</ele></trkpt>
<trkpt lat="47.161945458502" lon="11.281206244603"><ele>2534</ele></trkpt>
<trkpt lat="47.161969430745" lon="11.28122116439"><ele>2534</ele></trkpt>
<trkpt lat="47.161990469322" lon="11.281262319535"><ele>2535</ele></trkpt>
<trkpt lat="47.162003964186" lon="11.28126969561"><ele>2535</ele></trkpt>
<trkpt lat="47.162028774619" lon="11.281270198524"><ele>2535</ele></trkpt>
<trkpt lat="47.162022320554" lon="11.281345468014"><ele>2536</ele></trkpt>
<trkpt lat="47.162007819861" lon="11.281392993405"><ele>2536</ele></trkpt>
<trkpt lat="47.162013771012" lon="11.281437752768"><ele>2537</ele></trkpt>
<trkpt lat="47.161997929215" lon="11.281445296481"><ele>2537</ele></trkpt>
<trkpt lat="47.162001952529" lon="11.281477818266"><ele>2537</ele></trkpt>
<trkpt lat="47.161997677758" lon="11.281502628699"><ele>2537</ele></trkpt>
<trkpt lat="47.161986529827" lon="11.28153112717"><ele>2537</ele></trkpt>
<trkpt lat="47.16201050207" lon="11.281579071656"><ele>2538</ele></trkpt>
<trkpt lat="47.161986697465" lon="11.281610336155"><ele>2538</ele></trkpt>
<trkpt lat="47.161967586726" lon="11.281629279256"><ele>2538</ele></trkpt>
<trkpt lat="47.161965407431" lon="11.281658615917"><ele>2537</ele></trkpt>
<trkpt lat="47.161951996386" lon="11.281674541533"><ele>2536</ele></trkpt>
<trkpt lat="47.16198191978" lon="11.281713433564"><ele>2535</ele></trkpt>
<trkpt lat="47.161992564797" lon="11.281745284796"><ele>2533</ele></trkpt>
<trkpt lat="47.16199231334" lon="11.281781494617"><ele>2532</ele></trkpt>
<trkpt lat="47.162002623081" lon="11.281821308658"><ele>2531</ele></trkpt>
<trkpt lat="47.162015363574" lon="11.281859865412"><ele>2529</ele></trkpt>
<trkpt lat="47.162041766569" lon="11.281851148233"><ele>2528</ele></trkpt>
<trkpt lat="47.162064565346" lon="11.281855842099"><ele>2527</ele></trkpt>
<trkpt lat="47.162080826238" lon="11.281854249537"><ele>2526</ele></trkpt>
<trkpt lat="47.16210572049" lon="11.28181502223"><ele>2525</ele></trkpt>
<trkpt lat="47.162118460983" lon="11.281739585102"><ele>2522</ele></trkpt>
<trkpt lat="47.162148971111" lon="11.28169122152"><ele>2520</ele></trkpt>
<trkpt lat="47.162178307772" lon="11.281668925658"><ele>2518</ele></trkpt>
<trkpt lat="47.162200268358" lon="11.281659286469"><ele>2517</ele></trkpt>
<trkpt lat="47.16224427335" lon="11.281623495743"><ele>2515</ele></trkpt>
<trkpt lat="47.162281153724" lon="11.281648138538"><ele>2513</ele></trkpt>
<trkpt lat="47.162319961935" lon="11.281682085246"><ele>2511</ele></trkpt>
<trkpt lat="47.162346867844" lon="11.281684683636"><ele>2510</ele></trkpt>
<trkpt lat="47.16236455366" lon="11.281681917608"><ele>2509</ele></trkpt>
<trkpt lat="47.162378048524" lon="11.281682252884"><ele>2508</ele></trkpt>
<trkpt lat="47.162405624986" lon="11.281668841839"><ele>2507</ele></trkpt>
<trkpt lat="47.162436470389" lon="11.281673870981"><ele>2505</ele></trkpt>
<trkpt lat="47.162458011881" lon="11.281646965072"><ele>2504</ele></trkpt>
<trkpt lat="47.162462705746" lon="11.281619304791"><ele>2503</ele></trkpt>
<trkpt lat="47.162491036579" lon="11.28163321875"><ele>2502</ele></trkpt>
<trkpt lat="47.162519032136" lon="11.281600864604"><ele>2505</ele></trkpt>
<trkpt lat="47.162568317726" lon="11.2815977633"><ele>2509</ele></trkpt>
<trkpt lat="47.162597905844" lon="11.281579323113"><ele>2512</ele></trkpt>
<trkpt lat="47.162621710449" lon="11.281578987837"><ele>2515</ele></trkpt>
<trkpt lat="47.162640821189" lon="11.281589046121"><ele>2517</ele></trkpt>
<trkpt lat="47.162689268589" lon="11.281587705016"><ele>2521</ele></trkpt>
<trkpt lat="47.162714079022" lon="11.281574210152"><ele>2524</ele></trkpt>
<trkpt lat="47.162751629949" lon="11.281580077484"><ele>2528</ele></trkpt>
<trkpt lat="47.162790270522" lon="11.281588124111"><ele>2531</ele></trkpt>
<trkpt lat="47.162797143683" lon="11.281630871817"><ele>2534</ele></trkpt>
<trkpt lat="47.162796892226" lon="11.281652078032"><ele>2536</ele></trkpt>
<trkpt lat="47.162782978266" lon="11.281672110781"><ele>2538</ele></trkpt>
<trkpt lat="47.162766885012" lon="11.281710667536"><ele>2541</ele></trkpt>
<trkpt lat="47.162724053487" lon="11.281689796597"><ele>2545</ele></trkpt>
<trkpt lat="47.162721538916" lon="11.281721312553"><ele>2547</ele></trkpt>
<trkpt lat="47.162693794817" lon="11.281721647829"><ele>2550</ele></trkpt>
<trkpt lat="47.162672672421" lon="11.281733550131"><ele>2552</ele></trkpt>
<trkpt lat="47.162629924715" lon="11.281729107723"><ele>2556</ele></trkpt>
<trkpt lat="47.162608215585" lon="11.281754756346"><ele>2559</ele></trkpt>
<trkpt lat="47.162592960522" lon="11.281770430505"><ele>2561</ele></trkpt>
<trkpt lat="47.162579465657" lon="11.281790379435"><ele>2562</ele></trkpt>
<trkpt lat="47.162591116503" lon="11.281817285344"><ele>2565</ele></trkpt>
<trkpt lat="47.162575107068" lon="11.281815106049"><ele>2566</ele></trkpt>
<trkpt lat="47.162545267493" lon="11.281815273687"><ele>2569</ele></trkpt>
<trkpt lat="47.162578878924" lon="11.281833546236"><ele>2572</ele></trkpt>
<trkpt lat="47.162573598325" lon="11.281867073849"><ele>2575</ele></trkpt>
<trkpt lat="47.162583824247" lon="11.281938655302"><ele>2578</ele></trkpt>
<trkpt lat="47.162575442344" lon="11.281964974478"><ele>2578</ele></trkpt>
<trkpt lat="47.162591284141" lon="11.281998502091"><ele>2578</ele></trkpt>
<trkpt lat="47.162592876703" lon="11.282034628093"><ele>2578</ele></trkpt>
<trkpt lat="47.162599666044" lon="11.282072262838"><ele>2578</ele></trkpt>
<trkpt lat="47.162631936371" lon="11.282082153484"><ele>2579</ele></trkpt>
<trkpt lat="47.162620453164" lon="11.282102940604"><ele>2579</ele></trkpt>
<trkpt lat="47.162640988827" lon="11.282126493752"><ele>2579</ele></trkpt>
<trkpt lat="47.162655238062" lon="11.282085841522"><ele>2579</ele></trkpt>
<trkpt lat="47.162665547803" lon="11.282072346658"><ele>2579</ele></trkpt>
<trkpt lat="47.162716425955" lon="11.282057175413"><ele>2580</ele></trkpt>
<trkpt lat="47.162745846435" lon="11.282023815438"><ele>2580</ele></trkpt>
<trkpt lat="47.162762945518" lon="11.282044686377"><ele>2580</ele></trkpt>
<trkpt lat="47.162784487009" lon="11.282037394121"><ele>2580</ele></trkpt>
<trkpt lat="47.162800077349" lon="11.282048542053"><ele>2581</ele></trkpt>
<trkpt lat="47.162819942459" lon="11.282071508467"><ele>2581</ele></trkpt>
<trkpt lat="47.162844501436" lon="11.28208424896"><ele>2581</ele></trkpt>
<trkpt lat="47.16285455972" lon="11.282067149878"><ele>2581</ele></trkpt>
<trkpt lat="47.16286486946" lon="11.282043261454"><ele>2581</ele></trkpt>
<trkpt lat="47.162882806733" lon="11.282020630315"><ele>2581</ele></trkpt>
<trkpt lat="47.162901330739" lon="11.282017193735"><ele>2581</ele></trkpt>
<trkpt lat="47.162922201678" lon="11.282024653628"><ele>2582</ele></trkpt>
<trkpt lat="47.162940055132" lon="11.282024066895"><ele>2582</ele></trkpt>
<trkpt lat="47.162953969091" lon="11.282021719962"><ele>2582</ele></trkpt>
<trkpt lat="47.162999315187" lon="11.281996741891"><ele>2582</ele></trkpt>
<trkpt lat="47.163016917184" lon="11.282003615052"><ele>2582</ele></trkpt>
<trkpt lat="47.163062179461" lon="11.28202448599"><ele>2583</ele></trkpt>
<trkpt lat="47.16308221221" lon="11.282071843743"><ele>2583</ele></trkpt>
<trkpt lat="47.163118841127" lon="11.282132444903"><ele>2583</ele></trkpt>
<trkpt lat="47.16314541176" lon="11.28214568831"><ele>2584</ele></trkpt>
<trkpt lat="47.163168881088" lon="11.282126409933"><ele>2584</ele></trkpt>
<trkpt lat="47.163204923272" lon="11.28211023286"><ele>2584</ele></trkpt>
<trkpt lat="47.163228308782" lon="11.282095899805"><ele>2584</ele></trkpt>
<trkpt lat="47.163233757019" lon="11.282072681934"><ele>2584</ele></trkpt>
<trkpt lat="47.163255382329" lon="11.28204359673"><ele>2584</ele></trkpt>
<trkpt lat="47.163285892457" lon="11.282024905086"><ele>2584</ele></trkpt>
<trkpt lat="47.163307517767" lon="11.282012499869"><ele>2584</ele></trkpt>
<trkpt lat="47.163346661255" lon="11.281995568424"><ele>2584</ele></trkpt>
<trkpt lat="47.163377171382" lon="11.281990371644"><ele>2585</ele></trkpt>
<trkpt lat="47.163384715095" lon="11.282002776861"><ele>2585</ele></trkpt>
<trkpt lat="47.163410615176" lon="11.282032700256"><ele>2585</ele></trkpt>
<trkpt lat="47.16344313696" lon="11.282048961148"><ele>2585</ele></trkpt>
<trkpt lat="47.163461241871" lon="11.282061114907"><ele>2585</ele></trkpt>
<trkpt lat="47.16346132569" lon="11.282091708854"><ele>2585</ele></trkpt>
<trkpt lat="47.163446741179" lon="11.282078297809"><ele>2585</ele></trkpt>
<trkpt lat="47.16342151165" lon="11.282061617821"><ele>2585</ele></trkpt>
<trkpt lat="47.163373986259" lon="11.282030437142"><ele>2585</ele></trkpt>
<trkpt lat="47.163345655426" lon="11.282021971419"><ele>2586</ele></trkpt>
<trkpt lat="47.163318078965" lon="11.282023061067"><ele>2586</ele></trkpt>
<trkpt lat="47.163298130035" lon="11.282046027482"><ele>2586</ele></trkpt>
<trkpt lat="47.163274073973" lon="11.282053738832"><ele>2586</ele></trkpt>
<trkpt lat="47.163250185549" lon="11.282071927562"><ele>2586</ele></trkpt>
<trkpt lat="47.163223195821" lon="11.282104868442"><ele>2586</ele></trkpt>
<trkpt lat="47.163184890524" lon="11.282110987231"><ele>2586</ele></trkpt>
<trkpt lat="47.163161421195" lon="11.282125655562"><ele>2586</ele></trkpt>
<trkpt lat="47.163132084534" lon="11.282124146819"><ele>2586</ele></trkpt>
<trkpt lat="47.163112889975" lon="11.282098582014"><ele>2586</ele></trkpt>
<trkpt lat="47.163046756759" lon="11.28202021122"><ele>2578</ele></trkpt>
<trkpt lat="47.16299219057" lon="11.282008728012"><ele>2573</ele></trkpt>
<trkpt lat="47.162961261347" lon="11.282035633922"><ele>2570</ele></trkpt>
<trkpt lat="47.162931254134" lon="11.282014595345"><ele>2566</ele></trkpt>
<trkpt lat="47.162911975756" lon="11.282000681385"><ele>2564</ele></trkpt>
<trkpt lat="47.162891859189" lon="11.282011996955"><ele>2562</ele></trkpt>
<trkpt lat="47.162877945229" lon="11.282033706084"><ele>2561</ele></trkpt>
<trkpt lat="47.162853134796" lon="11.282075867057"><ele>2557</ele></trkpt>
<trkpt lat="47.162820026278" lon="11.282084919512"><ele>2554</ele></trkpt>
<trkpt lat="47.162803765386" lon="11.282056421041"><ele>2552</ele></trkpt>
<trkpt lat="47.162793623284" lon="11.28204099834"><ele>2550</ele></trkpt>
<trkpt lat="47.162765124813" lon="11.28205306828"><ele>2548</ele></trkpt>
<trkpt lat="47.16275498271" lon="11.28203144297"><ele>2546</ele></trkpt>
<trkpt lat="47.162735369056" lon="11.282049128786"><ele>2544</ele></trkpt>
<trkpt lat="47.162722377107" lon="11.282076537609"><ele>2542</ele></trkpt>
<trkpt lat="47.16267535463" lon="11.282085254788"><ele>2537</ele></trkpt>
<trkpt lat="47.16265020892" lon="11.282123476267"><ele>2534</ele></trkpt>
<trkpt lat="47.162632774562" lon="11.282165218145"><ele>2531</ele></trkpt>
<trkpt lat="47.162616346031" lon="11.28212062642"><ele>2528</ele></trkpt>
<trkpt lat="47.162600588053" lon="11.282068490982"><ele>2524</ele></trkpt>
<trkpt lat="47.162596145645" lon="11.28203228116"><ele>2522</ele></trkpt>
<trkpt lat="47.162600588053" lon="11.281986851245"><ele>2519</ele></trkpt>
<trkpt lat="47.16259220615" lon="11.281955167651"><ele>2517</ele></trkpt>
<trkpt lat="47.162575526163" lon="11.281884424388"><ele>2515</ele></trkpt>
<trkpt lat="47.162582566962" lon="11.281867073849"><ele>2516</ele></trkpt>
<trkpt lat="47.162589859217" lon="11.281834552065"><ele>2516</ele></trkpt>
<trkpt lat="47.162575526163" lon="11.281842933968"><ele>2517</ele></trkpt>
<trkpt lat="47.162542585284" lon="11.28183497116"><ele>2518</ele></trkpt>
<trkpt lat="47.162580806762" lon="11.281786859035"><ele>2519</ele></trkpt>
<trkpt lat="47.162586003542" lon="11.281760372221"><ele>2519</ele></trkpt>
<trkpt lat="47.162607125938" lon="11.281790630892"><ele>2520</ele></trkpt>
<trkpt lat="47.162617016584" lon="11.281762467697"><ele>2521</ele></trkpt>
<trkpt lat="47.162652555853" lon="11.281733298674"><ele>2522</ele></trkpt>
<trkpt lat="47.162676276639" lon="11.281727850437"><ele>2523</ele></trkpt>
<trkpt lat="47.162709049881" lon="11.281693568453"><ele>2524</ele></trkpt>
<trkpt lat="47.162723634392" lon="11.281712092459"><ele>2524</ele></trkpt>
<trkpt lat="47.16273595579" lon="11.281697759405"><ele>2525</ele></trkpt>
<trkpt lat="47.162745930254" lon="11.281666494906"><ele>2526</ele></trkpt>
<trkpt lat="47.162750959396" lon="11.281661046669"><ele>2526</ele></trkpt>
<trkpt lat="47.162779541686" lon="11.281641684473"><ele>2527</ele></trkpt>
<trkpt lat="47.162806447595" lon="11.281626848504"><ele>2527</ele></trkpt>
<trkpt lat="47.162779374048" lon="11.281569851562"><ele>2529</ele></trkpt>
<trkpt lat="47.16274115257" lon="11.28158133477"><ele>2530</ele></trkpt>
<trkpt lat="47.162720281631" lon="11.281585944816"><ele>2530</ele></trkpt>
<trkpt lat="47.162659680471" lon="11.281605223194"><ele>2532</ele></trkpt>
<trkpt lat="47.162606203929" lon="11.281621316448"><ele>2534</ele></trkpt>
<trkpt lat="47.162586674094" lon="11.281615784392"><ele>2534</ele></trkpt>
<trkpt lat="47.162516266108" lon="11.2816497311"><ele>2536</ele></trkpt>
<trkpt lat="47.162469830364" lon="11.281685438007"><ele>2536</ele></trkpt>
<trkpt lat="47.162448624149" lon="11.281677056104"><ele>2536</ele></trkpt>
<trkpt lat="47.162431105971" lon="11.281676050276"><ele>2536</ele></trkpt>
<trkpt lat="47.162408893928" lon="11.281651491299"><ele>2536</ele></trkpt>
<trkpt lat="47.162384921685" lon="11.281673619524"><ele>2536</ele></trkpt>
<trkpt lat="47.162327421829" lon="11.281662303954"><ele>2536</ele></trkpt>
<trkpt lat="47.162301270291" lon="11.281658783555"><ele>2536</ele></trkpt>
<trkpt lat="47.162316357717" lon="11.281650234014"><ele>2536</ele></trkpt>
<trkpt lat="47.162285679951" lon="11.281655682251"><ele>2535</ele></trkpt>
<trkpt lat="47.162271263078" lon="11.281649982557"><ele>2535</ele></trkpt>
<trkpt lat="47.162246368825" lon="11.281635649502"><ele>2535</ele></trkpt>
<trkpt lat="47.162235388532" lon="11.281616538763"><ele>2535</ele></trkpt>
<trkpt lat="47.162208147347" lon="11.281611928716"><ele>2535</ele></trkpt>
<trkpt lat="47.162181828171" lon="11.281608911231"><ele>2535</ele></trkpt>
<trkpt lat="47.162159867585" lon="11.281619472429"><ele>2535</ele></trkpt>
<trkpt lat="47.162127597257" lon="11.281684767455"><ele>2535</ele></trkpt>
<trkpt lat="47.16208585538" lon="11.281745620072"><ele>2535</ele></trkpt>
<trkpt lat="47.162084514275" lon="11.281779063866"><ele>2534</ele></trkpt>
<trkpt lat="47.162085184827" lon="11.281844610348"><ele>2534</ele></trkpt>
<trkpt lat="47.162063978612" lon="11.281861038879"><ele>2534</ele></trkpt>
<trkpt lat="47.162051489577" lon="11.281876545399"><ele>2534</ele></trkpt>
<trkpt lat="47.162026008591" lon="11.281826589257"><ele>2534</ele></trkpt>
<trkpt lat="47.162012849003" lon="11.281373295933"><ele>2533</ele></trkpt>
<trkpt lat="47.162020560354" lon="11.281353598461"><ele>2532</ele></trkpt>
<trkpt lat="47.162028523162" lon="11.281305318698"><ele>2532</ele></trkpt>
<trkpt lat="47.162038413808" lon="11.28126533702"><ele>2532</ele></trkpt>
<trkpt lat="47.161998515949" lon="11.281236335635"><ele>2532</ele></trkpt>
<trkpt lat="47.161957528442" lon="11.281223343685"><ele>2532</ele></trkpt>
<trkpt lat="47.161939088255" lon="11.281263325363"><ele>2531</ele></trkpt>
<trkpt lat="47.161926683038" lon="11.281214710325"><ele>2531</ele></trkpt>
<trkpt lat="47.161865662783" lon="11.281161149964"><ele>2531</ele></trkpt>
<trkpt lat="47.161848898977" lon="11.281175650656"><ele>2531</ele></trkpt>
<trkpt lat="47.16180883348" lon="11.281196186319"><ele>2531</ele></trkpt>
<trkpt lat="47.16180623509" lon="11.28124547191"><ele>2530</ele></trkpt>
<trkpt lat="47.161783603951" lon="11.28130950965"><ele>2530</ele></trkpt>
<trkpt lat="47.161765918136" lon="11.281314874068"><ele>2530</ele></trkpt>
<trkpt lat="47.161704227328" lon="11.281256200746"><ele>2530</ele></trkpt>
<trkpt lat="47.161586629227" lon="11.281230552122"><ele>2526</ele></trkpt>
<trkpt lat="47.16155779548" lon="11.28123155795"><ele>2524</ele></trkpt>
<trkpt lat="47.161539942026" lon="11.281271623448"><ele>2523</ele></trkpt>
<trkpt lat="47.161537930369" lon="11.281332559884"><ele>2521</ele></trkpt>
<trkpt lat="47.161540864035" lon="11.281410176307"><ele>2518</ele></trkpt>
<trkpt lat="47.161520663649" lon="11.281459964812"><ele>2516</ele></trkpt>
<trkpt lat="47.161479759961" lon="11.281487289816"><ele>2514</ele></trkpt>
<trkpt lat="47.161431731656" lon="11.281520398334"><ele>2511</ele></trkpt>
<trkpt lat="47.16142016463" lon="11.28154235892"><ele>2510</ele></trkpt>
<trkpt lat="47.161408513784" lon="11.281607151031"><ele>2508</ele></trkpt>
<trkpt lat="47.161394096911" lon="11.281681079417"><ele>2505</ele></trkpt>
<trkpt lat="47.161364424974" lon="11.281649144366"><ele>2503</ele></trkpt>
<trkpt lat="47.161338943988" lon="11.281592817977"><ele>2501</ele></trkpt>
<trkpt lat="47.16132234782" lon="11.281604049727"><ele>2500</ele></trkpt>
<trkpt lat="47.161294436082" lon="11.281530037522"><ele>2497</ele></trkpt>
<trkpt lat="47.161271721125" lon="11.281519308686"><ele>2496</ele></trkpt>
<trkpt lat="47.161262333393" lon="11.281476225704"><ele>2494</ele></trkpt>
<trkpt lat="47.161263255402" lon="11.281456109136"><ele>2493</ele></trkpt>
<trkpt lat="47.161260405555" lon="11.281431382522"><ele>2493</ele></trkpt>
<trkpt lat="47.161243641749" lon="11.281470442191"><ele>2491</ele></trkpt>
<trkpt lat="47.161226961762" lon="11.281541269273"><ele>2488</ele></trkpt>
<trkpt lat="47.161200474948" lon="11.281650317833"><ele>2483</ele></trkpt>
<trkpt lat="47.161159319803" lon="11.281630033627"><ele>2481</ele></trkpt>
<trkpt lat="47.161112632602" lon="11.281589297578"><ele>2477</ele></trkpt>
<trkpt lat="47.161117661744" lon="11.281539928168"><ele>2475</ele></trkpt>
<trkpt lat="47.161090755835" lon="11.281500365585"><ele>2473</ele></trkpt>
<trkpt lat="47.161108860746" lon="11.281441692263"><ele>2470</ele></trkpt>
<trkpt lat="47.161117661744" lon="11.281418725848"><ele>2469</ele></trkpt>
<trkpt lat="47.161139370874" lon="11.281348066404"><ele>2466</ele></trkpt>
<trkpt lat="47.161125121638" lon="11.28133633174"><ele>2465</ele></trkpt>
<trkpt lat="47.161146244034" lon="11.281310096383"><ele>2463</ele></trkpt>
<trkpt lat="47.161127803847" lon="11.281282519922"><ele>2462</ele></trkpt>
<trkpt lat="47.161135012284" lon="11.281242119148"><ele>2460</ele></trkpt>
<trkpt lat="47.161113889888" lon="11.281175650656"><ele>2457</ele></trkpt>
<trkpt lat="47.161103915423" lon="11.281100632623"><ele>2454</ele></trkpt>
<trkpt lat="47.161096455529" lon="11.281071966514"><ele>2452</ele></trkpt>
<trkpt lat="47.161002578214" lon="11.281021004543"><ele>2446</ele></trkpt>
<trkpt lat="47.160868551582" lon="11.280922600999"><ele>2440</ele></trkpt>
<trkpt lat="47.160857068375" lon="11.28087490797"><ele>2439</ele></trkpt>
<trkpt lat="47.160827228799" lon="11.280837524682"><ele>2438</ele></trkpt>
<trkpt lat="47.160803927109" lon="11.280751610175"><ele>2437</ele></trkpt>
<trkpt lat="47.160789426416" lon="11.28074859269"><ele>2437</ele></trkpt>
<trkpt lat="47.160733519122" lon="11.280727135018"><ele>2435</ele></trkpt>
<trkpt lat="47.160689262673" lon="11.280696876347"><ele>2434</ele></trkpt>
<trkpt lat="47.160640563816" lon="11.28067407757"><ele>2433</ele></trkpt>
<trkpt lat="47.160598905757" lon="11.280683884397"><ele>2432</ele></trkpt>
<trkpt lat="47.160514751449" lon="11.280653122813"><ele>2430</ele></trkpt>
<trkpt lat="47.160406205803" lon="11.280610626563"><ele>2428</ele></trkpt>
<trkpt lat="47.160319285467" lon="11.280548265204"><ele>2426</ele></trkpt>
<trkpt lat="47.160299001262" lon="11.280418345705"><ele>2423</ele></trkpt>
<trkpt lat="47.160303778946" lon="11.280303681269"><ele>2419</ele></trkpt>
<trkpt lat="47.160312747583" lon="11.28027157858"><ele>2418</ele></trkpt>
<trkpt lat="47.160335797817" lon="11.280302088708"><ele>2417</ele></trkpt>
<trkpt lat="47.160423723981" lon="11.280305944383"><ele>2413</ele></trkpt>
<trkpt lat="47.160439230502" lon="11.280277278274"><ele>2411</ele></trkpt>
<trkpt lat="47.160482732579" lon="11.280221873894"><ele>2409</ele></trkpt>
<trkpt lat="47.160524223" lon="11.280210306868"><ele>2406</ele></trkpt>
<trkpt lat="47.16053369455" lon="11.280156159773"><ele>2405</ele></trkpt>
<trkpt lat="47.160544758663" lon="11.28011919558"><ele>2403</ele></trkpt>
<trkpt lat="47.16061860323" lon="11.280147107318"><ele>2400</ele></trkpt>
<trkpt lat="47.160705691203" lon="11.280150962994"><ele>2395</ele></trkpt>
<trkpt lat="47.160702841356" lon="11.28012791276"><ele>2395</ele></trkpt>
<trkpt lat="47.160693118349" lon="11.280100671574"><ele>2394</ele></trkpt>
<trkpt lat="47.160671157762" lon="11.280026994646"><ele>2391</ele></trkpt>
<trkpt lat="47.160677695647" lon="11.279930938035"><ele>2388</ele></trkpt>
<trkpt lat="47.160693118349" lon="11.27993571572"><ele>2387</ele></trkpt>
<trkpt lat="47.160729579628" lon="11.279978631064"><ele>2385</ele></trkpt>
<trkpt lat="47.160732345656" lon="11.27993747592"><ele>2383</ele></trkpt>
<trkpt lat="47.160738212988" lon="11.27990109846"><ele>2382</ele></trkpt>
<trkpt lat="47.160738632083" lon="11.279867738485"><ele>2381</ele></trkpt>
<trkpt lat="47.160759922117" lon="11.279823230579"><ele>2379</ele></trkpt>
<trkpt lat="47.160763191059" lon="11.279775705189"><ele>2378</ele></trkpt>
<trkpt lat="47.160770734772" lon="11.279711164534"><ele>2376</ele></trkpt>
<trkpt lat="47.160775093362" lon="11.279644444585"><ele>2373</ele></trkpt>
<trkpt lat="47.160802586004" lon="11.279621813446"><ele>2372</ele></trkpt>
<trkpt lat="47.160798395053" lon="11.279593147337"><ele>2371</ele></trkpt>
<trkpt lat="47.160848015919" lon="11.279587447643"><ele>2368</ele></trkpt>
<trkpt lat="47.160863857716" lon="11.279594991356"><ele>2368</ele></trkpt>
<trkpt lat="47.160881878808" lon="11.279600271955"><ele>2367</ele></trkpt>
<trkpt lat="47.160929823294" lon="11.279599936679"><ele>2364</ele></trkpt>
<trkpt lat="47.16092672199" lon="11.279573198408"><ele>2363</ele></trkpt>
<trkpt lat="47.160916160792" lon="11.279550399631"><ele>2363</ele></trkpt>
<trkpt lat="47.160972990096" lon="11.279499940574"><ele>2359</ele></trkpt>
<trkpt lat="47.161003500223" lon="11.279461970553"><ele>2357</ele></trkpt>
<trkpt lat="47.161055216566" lon="11.279451157898"><ele>2355</ele></trkpt>
<trkpt lat="47.161065945402" lon="11.27939642407"><ele>2353</ele></trkpt>
<trkpt lat="47.161127384752" lon="11.279367590323"><ele>2350</ele></trkpt>
<trkpt lat="47.161108274013" lon="11.279324758798"><ele>2348</ele></trkpt>
<trkpt lat="47.161087989807" lon="11.279308665544"><ele>2347</ele></trkpt>
<trkpt lat="47.161047421396" lon="11.279258541763"><ele>2344</ele></trkpt>
<trkpt lat="47.161081954837" lon="11.27922073938"><ele>2342</ele></trkpt>
<trkpt lat="47.161097042263" lon="11.279189810157"><ele>2340</ele></trkpt>
<trkpt lat="47.161066029221" lon="11.279157036915"><ele>2338</ele></trkpt>
<trkpt lat="47.161055468023" lon="11.27911680378"><ele>2337</ele></trkpt>
<trkpt lat="47.161041302606" lon="11.279067685828"><ele>2335</ele></trkpt>
<trkpt lat="47.161081032827" lon="11.279070368037"><ele>2332</ele></trkpt>
<trkpt lat="47.161133671179" lon="11.279088892043"><ele>2329</ele></trkpt>
<trkpt lat="47.161153703928" lon="11.279060980305"><ele>2328</ele></trkpt>
<trkpt lat="47.161170383915" lon="11.279061902314"><ele>2327</ele></trkpt>
<trkpt lat="47.16118899174" lon="11.279057627544"><ele>2326</ele></trkpt>
<trkpt lat="47.161151943728" lon="11.278996691108"><ele>2323</ele></trkpt>
<trkpt lat="47.161123780534" lon="11.278966767713"><ele>2321</ele></trkpt>
<trkpt lat="47.16116133146" lon="11.278930222616"><ele>2318</ele></trkpt>
<trkpt lat="47.16118899174" lon="11.278895018622"><ele>2316</ele></trkpt>
<trkpt lat="47.161177424714" lon="11.278850343078"><ele>2315</ele></trkpt>
<trkpt lat="47.161158900708" lon="11.278823940083"><ele>2313</ele></trkpt>
<trkpt lat="47.161141131073" lon="11.27880432643"><ele>2312</ele></trkpt>
<trkpt lat="47.161112800241" lon="11.278768451884"><ele>2310</ele></trkpt>
<trkpt lat="47.161087989807" lon="11.27869527787"><ele>2307</ele></trkpt>
<trkpt lat="47.161093689501" lon="11.278664600104"><ele>2306</ele></trkpt>
<trkpt lat="47.161086481065" lon="11.278643477708"><ele>2305</ele></trkpt>
<trkpt lat="47.16107047163" lon="11.278550270945"><ele>2302</ele></trkpt>
<trkpt lat="47.16106007807" lon="11.278508109972"><ele>2301</ele></trkpt>
<trkpt lat="47.161018252373" lon="11.278461841866"><ele>2298</ele></trkpt>
<trkpt lat="47.160998973995" lon="11.278420351446"><ele>2297</ele></trkpt>
<trkpt lat="47.161019425839" lon="11.2784087006"><ele>2296</ele></trkpt>
<trkpt lat="47.16104012914" lon="11.278391350061"><ele>2295</ele></trkpt>
<trkpt lat="47.161054546013" lon="11.278377017006"><ele>2294</ele></trkpt>
<trkpt lat="47.161070974544" lon="11.278395289555"><ele>2293</ele></trkpt>
<trkpt lat="47.161070303991" lon="11.278351703659"><ele>2291</ele></trkpt>
<trkpt lat="47.161093102768" lon="11.278303842992"><ele>2290</ele></trkpt>
<trkpt lat="47.161080613732" lon="11.278282050043"><ele>2289</ele></trkpt>
<trkpt lat="47.161044739187" lon="11.2782356143"><ele>2287</ele></trkpt>
<trkpt lat="47.161013055593" lon="11.2781854067"><ele>2284</ele></trkpt>
<trkpt lat="47.161045745015" lon="11.278147688136"><ele>2282</ele></trkpt>
<trkpt lat="47.161053204909" lon="11.278098067269"><ele>2281</ele></trkpt>
<trkpt lat="47.161086816341" lon="11.27805984579"><ele>2279</ele></trkpt>
<trkpt lat="47.161121768877" lon="11.278008883819"><ele>2277</ele></trkpt>
<trkpt lat="47.161176670343" lon="11.277990275994"><ele>2274</ele></trkpt>
<trkpt lat="47.161197373644" lon="11.277958424762"><ele>2273</ele></trkpt>
<trkpt lat="47.161236684769" lon="11.277900086716"><ele>2270</ele></trkpt>
<trkpt lat="47.161268284544" lon="11.277845436707"><ele>2268</ele></trkpt>
<trkpt lat="47.161243977025" lon="11.277835126966"><ele>2267</ele></trkpt>
<trkpt lat="47.161189997569" lon="11.277832360938"><ele>2265</ele></trkpt>
<trkpt lat="47.161154290661" lon="11.2778062094"><ele>2263</ele></trkpt>
<trkpt lat="47.161097545177" lon="11.277741920203"><ele>2260</ele></trkpt>
<trkpt lat="47.16111715883" lon="11.277701435611"><ele>2259</ele></trkpt>
<trkpt lat="47.161090755835" lon="11.277675284073"><ele>2258</ele></trkpt>
<trkpt lat="47.161148590967" lon="11.277612755075"><ele>2255</ele></trkpt>
<trkpt lat="47.161116907373" lon="11.277593979612"><ele>2253</ele></trkpt>
<trkpt lat="47.161084385589" lon="11.277548801154"><ele>2251</ele></trkpt>
<trkpt lat="47.161158649251" lon="11.277488032356"><ele>2248</ele></trkpt>
<trkpt lat="47.161084217951" lon="11.277437405661"><ele>2245</ele></trkpt>
<trkpt lat="47.161086313426" lon="11.277379821986"><ele>2243</ele></trkpt>
<trkpt lat="47.16110936366" lon="11.277347635478"><ele>2242</ele></trkpt>
<trkpt lat="47.161140376702" lon="11.277313185856"><ele>2240</ele></trkpt>
<trkpt lat="47.161167869344" lon="11.277276389301"><ele>2239</ele></trkpt>
<trkpt lat="47.161198211834" lon="11.27726172097"><ele>2237</ele></trkpt>
<trkpt lat="47.16124271974" lon="11.277231881395"><ele>2235</ele></trkpt>
<trkpt lat="47.161269290373" lon="11.277208328247"><ele>2233</ele></trkpt>
<trkpt lat="47.161236517131" lon="11.277171196416"><ele>2231</ele></trkpt>
<trkpt lat="47.161209192127" lon="11.277124760672"><ele>2228</ele></trkpt>
<trkpt lat="47.161230733618" lon="11.277078827843"><ele>2226</ele></trkpt>
<trkpt lat="47.161272224039" lon="11.277034152299"><ele>2223</ele></trkpt>
<trkpt lat="47.16118295677" lon="11.276958296075"><ele>2218</ele></trkpt>
<trkpt lat="47.161187482998" lon="11.27692585811"><ele>2217</ele></trkpt>
<trkpt lat="47.161217071116" lon="11.276913369074"><ele>2215</ele></trkpt>
<trkpt lat="47.161254622042" lon="11.276890905574"><ele>2213</ele></trkpt>
<trkpt lat="47.161312624812" lon="11.276858886704"><ele>2209</ele></trkpt>
<trkpt lat="47.161315726116" lon="11.276831394061"><ele>2208</ele></trkpt>
<trkpt lat="47.161287479103" lon="11.276781102642"><ele>2206</ele></trkpt>
<trkpt lat="47.161302566528" lon="11.276765931398"><ele>2205</ele></trkpt>
<trkpt lat="47.161391330883" lon="11.276727709919"><ele>2200</ele></trkpt>
<trkpt lat="47.161474898458" lon="11.276696948335"><ele>2195</ele></trkpt>
<trkpt lat="47.161483867094" lon="11.276676161215"><ele>2194</ele></trkpt>
<trkpt lat="47.161526195705" lon="11.276567699388"><ele>2191</ele></trkpt>
<trkpt lat="47.161530470476" lon="11.276536183432"><ele>2191</ele></trkpt>
<trkpt lat="47.161584114656" lon="11.276456555352"><ele>2188</ele></trkpt>
<trkpt lat="47.161600040272" lon="11.27643073909"><ele>2187</ele></trkpt>
<trkpt lat="47.16161403805" lon="11.276435097679"><ele>2187</ele></trkpt>
<trkpt lat="47.161629879847" lon="11.276416741312"><ele>2186</ele></trkpt>
<trkpt lat="47.161656953394" lon="11.276362258941"><ele>2185</ele></trkpt>
<trkpt lat="47.161707747728" lon="11.276315655559"><ele>2183</ele></trkpt>
<trkpt lat="47.161724930629" lon="11.276308530942"><ele>2182</ele></trkpt>
<trkpt lat="47.161740856245" lon="11.27626972273"><ele>2181</ele></trkpt>
<trkpt lat="47.161778826267" lon="11.276262514293"><ele>2180</ele></trkpt>
<trkpt lat="47.161817215383" lon="11.276296461001"><ele>2178</ele></trkpt>
<trkpt lat="47.161878990009" lon="11.27629654482"><ele>2176</ele></trkpt>
<trkpt lat="47.161950906739" lon="11.276279697195"><ele>2174</ele></trkpt>
<trkpt lat="47.161977058277" lon="11.276266956702"><ele>2173</ele></trkpt>
<trkpt lat="47.161964401603" lon="11.276242313907"><ele>2172</ele></trkpt>
<trkpt lat="47.161994241178" lon="11.27621867694"><ele>2171</ele></trkpt>
<trkpt lat="47.162060877308" lon="11.276182131842"><ele>2169</ele></trkpt>
<trkpt lat="47.16208493337" lon="11.276189088821"><ele>2168</ele></trkpt>
<trkpt lat="47.162183420733" lon="11.27615631558"><ele>2166</ele></trkpt>
<trkpt lat="47.162201777101" lon="11.27616067417"><ele>2166</ele></trkpt>
<trkpt lat="47.162269502878" lon="11.27618405968"><ele>2164</ele></trkpt>
<trkpt lat="47.162291128188" lon="11.276211049408"><ele>2164</ele></trkpt>
<trkpt lat="47.162368325517" lon="11.276200991124"><ele>2162</ele></trkpt>
<trkpt lat="47.162450635806" lon="11.276199901477"><ele>2160</ele></trkpt>
<trkpt lat="47.162476535887" lon="11.276196381077"><ele>2160</ele></trkpt>
<trkpt lat="47.162460526451" lon="11.276180455461"><ele>2160</ele></trkpt>
<trkpt lat="47.162350891158" lon="11.276118597016"><ele>2157</ele></trkpt>
<trkpt lat="47.162325913087" lon="11.276090182364"><ele>2157</ele></trkpt>
<trkpt lat="47.162271430716" lon="11.2759745121"><ele>2155</ele></trkpt>
<trkpt lat="47.162264641374" lon="11.275925310329"><ele>2154</ele></trkpt>
<trkpt lat="47.162314681336" lon="11.275882311165"><ele>2153</ele></trkpt>
<trkpt lat="47.162449797615" lon="11.275895973668"><ele>2151</ele></trkpt>
<trkpt lat="47.162562869489" lon="11.275921287015"><ele>2150</ele></trkpt>
<trkpt lat="47.16258617118" lon="11.275925142691"><ele>2150</ele></trkpt>
<trkpt lat="47.162640318274" lon="11.275933356956"><ele>2150</ele></trkpt>
<trkpt lat="47.16274458915" lon="11.276004351676"><ele>2149</ele></trkpt>
<trkpt lat="47.162822708488" lon="11.276060342789"><ele>2148</ele></trkpt>
<trkpt lat="47.162842238322" lon="11.276066880673"><ele>2148</ele></trkpt>
<trkpt lat="47.162860846147" lon="11.276114992797"><ele>2147</ele></trkpt>
<trkpt lat="47.162852883339" lon="11.2762030866"><ele>2147</ele></trkpt>
<trkpt lat="47.162881130353" lon="11.276343232021"><ele>2146</ele></trkpt>
<trkpt lat="47.162888925523" lon="11.276365024969"><ele>2146</ele></trkpt>
<trkpt lat="47.162924883887" lon="11.276356810704"><ele>2145</ele></trkpt>
<trkpt lat="47.162987077609" lon="11.276418836787"><ele>2143</ele></trkpt>
<trkpt lat="47.162993280217" lon="11.276384470984"><ele>2142</ele></trkpt>
<trkpt lat="47.163009122014" lon="11.276374915615"><ele>2141</ele></trkpt>
<trkpt lat="47.16302680783" lon="11.276352703571"><ele>2140</ele></trkpt>
<trkpt lat="47.163032172248" lon="11.276322025806"><ele>2140</ele></trkpt>
<trkpt lat="47.163005098701" lon="11.276284223422"><ele>2138</ele></trkpt>
<trkpt lat="47.162997052073" lon="11.27625497058"><ele>2138</ele></trkpt>
<trkpt lat="47.162990178913" lon="11.276229489595"><ele>2137</ele></trkpt>
<trkpt lat="47.162977019325" lon="11.276209708303"><ele>2136</ele></trkpt>
<trkpt lat="47.162948939949" lon="11.276125302538"><ele>2134</ele></trkpt>
<trkpt lat="47.162935109809" lon="11.276015415788"><ele>2132</ele></trkpt>
<trkpt lat="47.162922117859" lon="11.275893040001"><ele>2129</ele></trkpt>
<trkpt lat="47.162902336568" lon="11.275809304789"><ele>2127</ele></trkpt>
<trkpt lat="47.162882471457" lon="11.275722468272"><ele>2124</ele></trkpt>
<trkpt lat="47.16284676455" lon="11.275595733896"><ele>2121</ele></trkpt>
<trkpt lat="47.162821702659" lon="11.275559188798"><ele>2120</ele></trkpt>
<trkpt lat="47.162811476737" lon="11.275477716699"><ele>2118</ele></trkpt>
<trkpt lat="47.162913987413" lon="11.275460449979"><ele>2116</ele></trkpt>
<trkpt lat="47.162950532511" lon="11.275468580425"><ele>2115</ele></trkpt>
<trkpt lat="47.162924464792" lon="11.275379480794"><ele>2113</ele></trkpt>
<trkpt lat="47.16291340068" lon="11.275348216295"><ele>2113</ele></trkpt>
<trkpt lat="47.162993699312" lon="11.275317370892"><ele>2111</ele></trkpt>
<trkpt lat="47.16302328743" lon="11.275324244052"><ele>2110</ele></trkpt>
<trkpt lat="47.162997219712" lon="11.275262217969"><ele>2109</ele></trkpt>
<trkpt lat="47.16297484003" lon="11.275201700628"><ele>2108</ele></trkpt>
<trkpt lat="47.163066202775" lon="11.275188624859"><ele>2105</ele></trkpt>
<trkpt lat="47.163142645732" lon="11.27520932816"><ele>2103</ele></trkpt>
<trkpt lat="47.16315840371" lon="11.275171944872"><ele>2103</ele></trkpt>
<trkpt lat="47.163135688752" lon="11.275094747543"><ele>2101</ele></trkpt>
<trkpt lat="47.163141556084" lon="11.275033056736"><ele>2100</ele></trkpt>
<trkpt lat="47.163131246343" lon="11.274986118078"><ele>2099</ele></trkpt>
<trkpt lat="47.163205510005" lon="11.274964744225"><ele>2098</ele></trkpt>
<trkpt lat="47.163224453107" lon="11.274948650971"><ele>2097</ele></trkpt>
<trkpt lat="47.163166534156" lon="11.274835830554"><ele>2095</ele></trkpt>
<trkpt lat="47.163124876097" lon="11.274689482525"><ele>2092</ele></trkpt>
<trkpt lat="47.163097215816" lon="11.27458261326"><ele>2090</ele></trkpt>
<trkpt lat="47.163092186674" lon="11.274527041242"><ele>2089</ele></trkpt>
<trkpt lat="47.163098221645" lon="11.274382118136"><ele>2086</ele></trkpt>
<trkpt lat="47.163109537214" lon="11.274289749563"><ele>2085</ele></trkpt>
<trkpt lat="47.163138035685" lon="11.27420601435"><ele>2083</ele></trkpt>
<trkpt lat="47.163164690137" lon="11.274197800085"><ele>2082</ele></trkpt>
<trkpt lat="47.163182040676" lon="11.274145497009"><ele>2081</ele></trkpt>
<trkpt lat="47.163161337376" lon="11.274117166176"><ele>2081</ele></trkpt>
<trkpt lat="47.163176843897" lon="11.274033011869"><ele>2079</ele></trkpt>
<trkpt lat="47.163192937151" lon="11.273983307183"><ele>2078</ele></trkpt>
<trkpt lat="47.163164857775" lon="11.273905271664"><ele>2076</ele></trkpt>
<trkpt lat="47.163144992664" lon="11.27384592779"><ele>2075</ele></trkpt>
<trkpt lat="47.163133006543" lon="11.273822961375"><ele>2075</ele></trkpt>
<trkpt lat="47.163147255778" lon="11.273709721863"><ele>2072</ele></trkpt>
<trkpt lat="47.163192015141" lon="11.273554321378"><ele>2069</ele></trkpt>
<trkpt lat="47.163202576339" lon="11.273505119607"><ele>2068</ele></trkpt>
<trkpt lat="47.163211964071" lon="11.273370841518"><ele>2066</ele></trkpt>
<trkpt lat="47.163254041225" lon="11.273221978918"><ele>2063</ele></trkpt>
<trkpt lat="47.163256807253" lon="11.273193061352"><ele>2062</ele></trkpt>
<trkpt lat="47.163270972669" lon="11.273090885952"><ele>2060</ele></trkpt>
<trkpt lat="47.163272229955" lon="11.273056268692"><ele>2059</ele></trkpt>
<trkpt lat="47.163270469755" lon="11.272918051109"><ele>2057</ele></trkpt>
<trkpt lat="47.16330902651" lon="11.272842278704"><ele>2056</ele></trkpt>
<trkpt lat="47.16335403733" lon="11.272761644796"><ele>2054</ele></trkpt>
<trkpt lat="47.163402233273" lon="11.272694170475"><ele>2053</ele></trkpt>
<trkpt lat="47.163433246315" lon="11.272632060573"><ele>2052</ele></trkpt>
<trkpt lat="47.163498373702" lon="11.272540781647"><ele>2050</ele></trkpt>
<trkpt lat="47.163516143337" lon="11.27252577804"><ele>2049</ele></trkpt>
<trkpt lat="47.163596693426" lon="11.272436091676"><ele>2047</ele></trkpt>
<trkpt lat="47.1636855416" lon="11.272343890741"><ele>2045</ele></trkpt>
<trkpt lat="47.163773467764" lon="11.272218916565"><ele>2043</ele></trkpt>
<trkpt lat="47.16385778971" lon="11.272077010944"><ele>2039</ele></trkpt>
<trkpt lat="47.163949320093" lon="11.271983552724"><ele>2036</ele></trkpt>
<trkpt lat="47.164056105539" lon="11.271879030392"><ele>2032</ele></trkpt>
<trkpt lat="47.164121484384" lon="11.271746093407"><ele>2029</ele></trkpt>
<trkpt lat="47.16412265785" lon="11.271624723449"><ele>2026</ele></trkpt>
<trkpt lat="47.164132129401" lon="11.271552303806"><ele>2025</ele></trkpt>
<trkpt lat="47.164170350879" lon="11.271447278559"><ele>2022</ele></trkpt>
<trkpt lat="47.164184264839" lon="11.271414756775"><ele>2021</ele></trkpt>
<trkpt lat="47.164225839078" lon="11.271393215284"><ele>2020</ele></trkpt>
<trkpt lat="47.164262719452" lon="11.271328087896"><ele>2018</ele></trkpt>
<trkpt lat="47.164298929274" lon="11.271286429837"><ele>2017</ele></trkpt>
<trkpt lat="47.164338659495" lon="11.271259104833"><ele>2016</ele></trkpt>
<trkpt lat="47.164443684742" lon="11.271186182275"><ele>2013</ele></trkpt>
<trkpt lat="47.164479140192" lon="11.271161707118"><ele>2013</ele></trkpt>
<trkpt lat="47.164566898718" lon="11.271077888086"><ele>2010</ele></trkpt>
<trkpt lat="47.164572514594" lon="11.27105332911"><ele>2010</ele></trkpt>
<trkpt lat="47.164531107992" lon="11.270914524794"><ele>2008</ele></trkpt>
<trkpt lat="47.164528258145" lon="11.270883511752"><ele>2007</ele></trkpt>
<trkpt lat="47.164528341964" lon="11.270833974704"><ele>2007</ele></trkpt>
<trkpt lat="47.164523312822" lon="11.270789634436"><ele>2006</ele></trkpt>
<trkpt lat="47.164524486288" lon="11.270759459585"><ele>2005</ele></trkpt>
<trkpt lat="47.164525492117" lon="11.270669940859"><ele>2004</ele></trkpt>
<trkpt lat="47.164545860142" lon="11.270660720766"><ele>2004</ele></trkpt>
<trkpt lat="47.164587685838" lon="11.270619146526"><ele>2003</ele></trkpt>
<trkpt lat="47.164623392746" lon="11.27054002136"><ele>2001</ele></trkpt>
<trkpt lat="47.16468189843" lon="11.270438935608"><ele>2000</ele></trkpt>
<trkpt lat="47.164708888158" lon="11.270402222872"><ele>2000</ele></trkpt>
<trkpt lat="47.164752390236" lon="11.270319325849"><ele>1999</ele></trkpt>
<trkpt lat="47.16483252123" lon="11.270233411342"><ele>1998</ele></trkpt>
<trkpt lat="47.164878286421" lon="11.270201224834"><ele>1998</ele></trkpt>
<trkpt lat="47.164949532598" lon="11.270133247599"><ele>1997</ele></trkpt>
<trkpt lat="47.165009211749" lon="11.270059738308"><ele>1997</ele></trkpt>
<trkpt lat="47.165030837059" lon="11.270059151575"><ele>1997</ele></trkpt>
<trkpt lat="47.165105687454" lon="11.269948594272"><ele>1996</ele></trkpt>
<trkpt lat="47.165159583092" lon="11.269826469943"><ele>1995</ele></trkpt>
<trkpt lat="47.165160924196" lon="11.269705686718"><ele>1994</ele></trkpt>
<trkpt lat="47.165169389918" lon="11.269677104428"><ele>1994</ele></trkpt>
<trkpt lat="47.165219932795" lon="11.269556488842"><ele>1994</ele></trkpt>
<trkpt lat="47.165288664401" lon="11.269475519657"><ele>1993</ele></trkpt>
<trkpt lat="47.165355300531" lon="11.269415840507"><ele>1992</ele></trkpt>
<trkpt lat="47.165413890034" lon="11.269376864657"><ele>1992</ele></trkpt>
<trkpt lat="47.165450854227" lon="11.269307211041"><ele>1991</ele></trkpt>
<trkpt lat="47.165470132604" lon="11.269252644852"><ele>1991</ele></trkpt>
<trkpt lat="47.165482705459" lon="11.269229929894"><ele>1991</ele></trkpt>
<trkpt lat="47.165504917502" lon="11.269183410332"><ele>1991</ele></trkpt>
<trkpt lat="47.165511287749" lon="11.269124820828"><ele>1990</ele></trkpt>
<trkpt lat="47.165517909452" lon="11.269098669291"><ele>1990</ele></trkpt>
<trkpt lat="47.165514389053" lon="11.269030105323"><ele>1990</ele></trkpt>
<trkpt lat="47.165492679924" lon="11.268874788657"><ele>1989</ele></trkpt>
<trkpt lat="47.165498966351" lon="11.268811672926"><ele>1989</ele></trkpt>
<trkpt lat="47.165590412915" lon="11.268755262718"><ele>1987</ele></trkpt>
<trkpt lat="47.165617318824" lon="11.268787616864"><ele>1987</ele></trkpt>
<trkpt lat="47.165665095672" lon="11.268735565245"><ele>1986</ele></trkpt>
<trkpt lat="47.165664760396" lon="11.268671359867"><ele>1985</ele></trkpt>
<trkpt lat="47.165677919984" lon="11.268620984629"><ele>1985</ele></trkpt>
<trkpt lat="47.165762409568" lon="11.268564909697"><ele>1983</ele></trkpt>
<trkpt lat="47.165841367096" lon="11.268546804786"><ele>1982</ele></trkpt>
<trkpt lat="47.165925018489" lon="11.268529705703"><ele>1981</ele></trkpt>
<trkpt lat="47.165989978239" lon="11.268510846421"><ele>1980</ele></trkpt>
<trkpt lat="47.166070612147" lon="11.268450748175"><ele>1978</ele></trkpt>
<trkpt lat="47.166085364297" lon="11.268307920545"><ele>1977</ele></trkpt>
<trkpt lat="47.166156694293" lon="11.268200045452"><ele>1974</ele></trkpt>
<trkpt lat="47.166240429506" lon="11.268137097359"><ele>1972</ele></trkpt>
<trkpt lat="47.166303461418" lon="11.268107341602"><ele>1970</ele></trkpt>
<trkpt lat="47.16632919386" lon="11.268127290532"><ele>1970</ele></trkpt>
<trkpt lat="47.166449390352" lon="11.268099462613"><ele>1967</ele></trkpt>
<trkpt lat="47.166509907693" lon="11.268093511462"><ele>1965</ele></trkpt>
<trkpt lat="47.166540166363" lon="11.268064761534"><ele>1964</ele></trkpt>
<trkpt lat="47.16661577113" lon="11.268031988293"><ele>1963</ele></trkpt>
<trkpt lat="47.166707570394" lon="11.26803131774"><ele>1960</ele></trkpt>
<trkpt lat="47.166666649282" lon="11.268018241972"><ele>1959</ele></trkpt>
<trkpt lat="47.166741092162" lon="11.268106587231"><ele>1958</ele></trkpt>
<trkpt lat="47.166883620933" lon="11.268253605813"><ele>1958</ele></trkpt>
<trkpt lat="47.166855169763" lon="11.268275550179"><ele>1958</ele></trkpt>
<trkpt lat="47.16701793633" lon="11.268163919449"><ele>1958</ele></trkpt>
<trkpt lat="47.167039818759" lon="11.267498731613"><ele>1956</ele></trkpt>
<trkpt lat="47.166937700678" lon="11.267284154892"><ele>1951</ele></trkpt>
<trkpt lat="47.167003348039" lon="11.267123222351"><ele>1948</ele></trkpt>
<trkpt lat="47.167280524889" lon="11.267337799072"><ele>1940</ele></trkpt>
<trkpt lat="47.167353465925" lon="11.267520189285"><ele>1936</ele></trkpt>
<trkpt lat="47.167331583625" lon="11.267863512039"><ele>1932</ele></trkpt>
<trkpt lat="47.167667111239" lon="11.267766952515"><ele>1925</ele></trkpt>
<trkpt lat="47.167688993401" lon="11.267863512039"><ele>1924</ele></trkpt>
<trkpt lat="47.167637935009" lon="11.268346309662"><ele>1917</ele></trkpt>
<trkpt lat="47.167681699348" lon="11.268646717072"><ele>1912</ele></trkpt>
<trkpt lat="47.167667111239" lon="11.268968582153"><ele>1907</ele></trkpt>
<trkpt lat="47.167834874252" lon="11.269472837448"><ele>1899</ele></trkpt>
<trkpt lat="47.167842168284" lon="11.269601583481"><ele>1897</ele></trkpt>
<trkpt lat="47.16827980837" lon="11.270309686661"><ele>1883</ele></trkpt>
<trkpt lat="47.168287102341" lon="11.270588636398"><ele>1878</ele></trkpt>
<trkpt lat="47.168381923872" lon="11.27080321312"><ele>1875</ele></trkpt>
<trkpt lat="47.168710150939" lon="11.270985603333"><ele>1867</ele></trkpt>
<trkpt lat="47.16906755144" lon="11.271167993546"><ele>1858</ele></trkpt>
<trkpt lat="47.169162371577" lon="11.271307468414"><ele>1855</ele></trkpt>
<trkpt lat="47.169228016188" lon="11.271597146988"><ele>1850</ele></trkpt>
<trkpt lat="47.169352011344" lon="11.271597146988"><ele>1847</ele></trkpt>
<trkpt lat="47.169738582617" lon="11.270846128464"><ele>1833</ele></trkpt>
<trkpt lat="47.169913632834" lon="11.270717382431"><ele>1829</ele></trkpt>
<trkpt lat="47.170008451461" lon="11.270921230316"><ele>1826</ele></trkpt>
<trkpt lat="47.170037626389" lon="11.271167993546"><ele>1822</ele></trkpt>
<trkpt lat="47.169964689039" lon="11.271436214447"><ele>1818</ele></trkpt>
<trkpt lat="47.169993863991" lon="11.271575689316"><ele>1817</ele></trkpt>
<trkpt lat="47.17030020002" lon="11.271328926086"><ele>1812</ele></trkpt>
<trkpt lat="47.170380430593" lon="11.271768808365"><ele>1809</ele></trkpt>
<trkpt lat="47.170606534282" lon="11.27167224884"><ele>1804</ele></trkpt>
<trkpt lat="47.173108197956" lon="11.272112131119"><ele>1762</ele></trkpt>
<trkpt lat="47.173429102553" lon="11.272079944611"><ele>1761</ele></trkpt>
<trkpt lat="47.173786471299" lon="11.271811723709"><ele>1756</ele></trkpt>
<trkpt lat="47.174005267303" lon="11.271865367889"><ele>1753</ele></trkpt>
<trkpt lat="47.17455954648" lon="11.271361112595"><ele>1745</ele></trkpt>
<trkpt lat="47.175529521118" lon="11.269633769989"><ele>1719</ele></trkpt>
<trkpt lat="47.175850411083" lon="11.269226074219"><ele>1709</ele></trkpt>
<trkpt lat="47.175850411083" lon="11.268957853317"><ele>1705</ele></trkpt>
<trkpt lat="47.176061905682" lon="11.268582344055"><ele>1699</ele></trkpt>
<trkpt lat="47.176061905682" lon="11.268399953842"><ele>1696</ele></trkpt>
<trkpt lat="47.175945219111" lon="11.268217563629"><ele>1692</ele></trkpt>
<trkpt lat="47.175959804946" lon="11.2679708004"><ele>1688</ele></trkpt>
<trkpt lat="47.176696384423" lon="11.266061067581"><ele>1661</ele></trkpt>
<trkpt lat="47.17697351069" lon="11.266061067581"><ele>1657</ele></trkpt>
<trkpt lat="47.176988096243" lon="11.265535354614"><ele>1653</ele></trkpt>
<trkpt lat="47.17723605003" lon="11.265170574188"><ele>1652</ele></trkpt>
<trkpt lat="47.177666320029" lon="11.265320777893"><ele>1652</ele></trkpt>
      </trkseg></trk>
   
</gpx>
   