<?xml version="1.0" encoding="UTF-8"?>
<gpx xmlns="http://www.topografix.com/GPX/1/1" creator="MTK - http://www.toursprung.com" version="1.1"
   xmlns:xsi="http://www.w3.org/2001/XMLSchema-instance"
   xsi:schemaLocation="http://www.topografix.com/GPX/1/1 http://www.topografix.com/GPX/1/1/gpx.xsd">
   <metadata>
      <name><![CDATA[Stügerweg]]></name>
      
   </metadata>
   
      <trk><name><![CDATA[Stügerweg]]></name><trkseg>
         <trkpt lat="47.62902" lon="13.7971"><ele>960</ele></trkpt>
<trkpt lat="47.62903" lon="13.79711"><ele>960</ele></trkpt>
<trkpt lat="47.62912" lon="13.7971"><ele>960</ele></trkpt>
<trkpt lat="47.62925" lon="13.79723"><ele>960</ele></trkpt>
<trkpt lat="47.6293" lon="13.79724"><ele>960</ele></trkpt>
<trkpt lat="47.62953" lon="13.79718"><ele>960</ele></trkpt>
<trkpt lat="47.6298" lon="13.79751"><ele>962</ele></trkpt>
<trkpt lat="47.62989" lon="13.79769"><ele>963</ele></trkpt>
<trkpt lat="47.63028" lon="13.79791"><ele>966</ele></trkpt>
<trkpt lat="47.63033" lon="13.79793"><ele>967</ele></trkpt>
<trkpt lat="47.63063" lon="13.79778"><ele>969</ele></trkpt>
<trkpt lat="47.6309" lon="13.79769"><ele>969</ele></trkpt>
<trkpt lat="47.63116" lon="13.7976"><ele>969</ele></trkpt>
<trkpt lat="47.63123" lon="13.79745"><ele>969</ele></trkpt>
<trkpt lat="47.63134" lon="13.7973"><ele>969</ele></trkpt>
<trkpt lat="47.63123" lon="13.79767"><ele>971</ele></trkpt>
<trkpt lat="47.6312" lon="13.79778"><ele>971</ele></trkpt>
<trkpt lat="47.63085" lon="13.79868"><ele>984</ele></trkpt>
<trkpt lat="47.63118" lon="13.79925"><ele>987</ele></trkpt>
<trkpt lat="47.63125" lon="13.79934"><ele>987</ele></trkpt>
<trkpt lat="47.63151" lon="13.79982"><ele>994</ele></trkpt>
<trkpt lat="47.63166" lon="13.80024"><ele>999</ele></trkpt>
<trkpt lat="47.63176" lon="13.80038"><ele>1000</ele></trkpt>
<trkpt lat="47.63244" lon="13.8021"><ele>1004</ele></trkpt>
<trkpt lat="47.63245" lon="13.80214"><ele>1004</ele></trkpt>
<trkpt lat="47.63331" lon="13.80477"><ele>1021</ele></trkpt>
<trkpt lat="47.6334" lon="13.80472"><ele>1024</ele></trkpt>
<trkpt lat="47.63371" lon="13.80461"><ele>1026</ele></trkpt>
<trkpt lat="47.63406" lon="13.80479"><ele>1031</ele></trkpt>
<trkpt lat="47.63403" lon="13.80476"><ele>1032</ele></trkpt>
<trkpt lat="47.63407" lon="13.80472"><ele>1033</ele></trkpt>
<trkpt lat="47.63433" lon="13.80482"><ele>1040</ele></trkpt>
<trkpt lat="47.63526" lon="13.80535"><ele>1059</ele></trkpt>
<trkpt lat="47.63536" lon="13.80513"><ele>1055</ele></trkpt>
<trkpt lat="47.63549" lon="13.80496"><ele>1051</ele></trkpt>
<trkpt lat="47.63554" lon="13.80492"><ele>1050</ele></trkpt>
<trkpt lat="47.63565" lon="13.80488"><ele>1050</ele></trkpt>
<trkpt lat="47.63568" lon="13.80487"><ele>1050</ele></trkpt>
<trkpt lat="47.63586" lon="13.80479"><ele>1050</ele></trkpt>
<trkpt lat="47.63593" lon="13.80478"><ele>1050</ele></trkpt>
<trkpt lat="47.63699" lon="13.80505"><ele>1069</ele></trkpt>
<trkpt lat="47.637" lon="13.80505"><ele>1069</ele></trkpt>
<trkpt lat="47.63708" lon="13.80503"><ele>1069</ele></trkpt>
<trkpt lat="47.63741" lon="13.80521"><ele>1072</ele></trkpt>
<trkpt lat="47.63752" lon="13.80539"><ele>1073</ele></trkpt>
<trkpt lat="47.63774" lon="13.80565"><ele>1075</ele></trkpt>
<trkpt lat="47.63776" lon="13.80558"><ele>1075</ele></trkpt>
<trkpt lat="47.63776" lon="13.80556"><ele>1075</ele></trkpt>
<trkpt lat="47.63782" lon="13.80556"><ele>1075</ele></trkpt>
<trkpt lat="47.63786" lon="13.80555"><ele>1075</ele></trkpt>
<trkpt lat="47.63796" lon="13.80566"><ele>1075</ele></trkpt>
<trkpt lat="47.63805" lon="13.80572"><ele>1074</ele></trkpt>
<trkpt lat="47.63811" lon="13.80574"><ele>1074</ele></trkpt>
<trkpt lat="47.6386" lon="13.80607"><ele>1073</ele></trkpt>
<trkpt lat="47.6388" lon="13.80625"><ele>1073</ele></trkpt>
<trkpt lat="47.63897" lon="13.80652"><ele>1073</ele></trkpt>
<trkpt lat="47.63899" lon="13.80653"><ele>1072</ele></trkpt>
<trkpt lat="47.63916" lon="13.80668"><ele>1071</ele></trkpt>
<trkpt lat="47.63933" lon="13.80687"><ele>1070</ele></trkpt>
<trkpt lat="47.63946" lon="13.80698"><ele>1069</ele></trkpt>
<trkpt lat="47.63948" lon="13.80698"><ele>1069</ele></trkpt>
<trkpt lat="47.64006" lon="13.80731"><ele>1072</ele></trkpt>
<trkpt lat="47.64014" lon="13.80831"><ele>1098</ele></trkpt>
<trkpt lat="47.64067" lon="13.80917"><ele>1130</ele></trkpt>
<trkpt lat="47.64079" lon="13.80966"><ele>1141</ele></trkpt>
<trkpt lat="47.64086" lon="13.8097"><ele>1140</ele></trkpt>
<trkpt lat="47.64091" lon="13.80971"><ele>1139</ele></trkpt>
<trkpt lat="47.64095" lon="13.80968"><ele>1138</ele></trkpt>
<trkpt lat="47.64096" lon="13.80966"><ele>1138</ele></trkpt>
<trkpt lat="47.64104" lon="13.80959"><ele>1136</ele></trkpt>
<trkpt lat="47.64105" lon="13.80954"><ele>1135</ele></trkpt>
<trkpt lat="47.64109" lon="13.80952"><ele>1134</ele></trkpt>
<trkpt lat="47.64111" lon="13.8095"><ele>1134</ele></trkpt>
<trkpt lat="47.64115" lon="13.80934"><ele>1132</ele></trkpt>
<trkpt lat="47.64118" lon="13.80918"><ele>1134</ele></trkpt>
<trkpt lat="47.64118" lon="13.80916"><ele>1135</ele></trkpt>
<trkpt lat="47.64123" lon="13.80894"><ele>1138</ele></trkpt>
<trkpt lat="47.64136" lon="13.80901"><ele>1142</ele></trkpt>
<trkpt lat="47.64139" lon="13.80899"><ele>1143</ele></trkpt>
<trkpt lat="47.64165" lon="13.80872"><ele>1152</ele></trkpt>
<trkpt lat="47.64171" lon="13.80867"><ele>1154</ele></trkpt>
<trkpt lat="47.64176" lon="13.80874"><ele>1156</ele></trkpt>
<trkpt lat="47.64193" lon="13.8087"><ele>1162</ele></trkpt>
<trkpt lat="47.64214" lon="13.80883"><ele>1168</ele></trkpt>
<trkpt lat="47.64208" lon="13.80949"><ele>1176</ele></trkpt>
<trkpt lat="47.64216" lon="13.8102"><ele>1187</ele></trkpt>
<trkpt lat="47.6422" lon="13.81072"><ele>1193</ele></trkpt>
<trkpt lat="47.6425" lon="13.81096"><ele>1195</ele></trkpt>
<trkpt lat="47.64275" lon="13.81115"><ele>1204</ele></trkpt>
<trkpt lat="47.64328" lon="13.81157"><ele>1232</ele></trkpt>
<trkpt lat="47.64346" lon="13.8118"><ele>1238</ele></trkpt>
<trkpt lat="47.64373" lon="13.8117"><ele>1248</ele></trkpt>
<trkpt lat="47.64391" lon="13.8122"><ele>1294</ele></trkpt>
<trkpt lat="47.6442" lon="13.81229"><ele>1332</ele></trkpt>
<trkpt lat="47.6443" lon="13.81235"><ele>1347</ele></trkpt>
<trkpt lat="47.6443" lon="13.81236"><ele>1348</ele></trkpt>
<trkpt lat="47.6443" lon="13.81234"><ele>1350</ele></trkpt>
<trkpt lat="47.64455" lon="13.81261"><ele>1393</ele></trkpt>
<trkpt lat="47.64453" lon="13.81262"><ele>1396</ele></trkpt>
<trkpt lat="47.6446" lon="13.81281"><ele>1418</ele></trkpt>
<trkpt lat="47.64449" lon="13.81315"><ele>1459</ele></trkpt>
<trkpt lat="47.64449" lon="13.81317"><ele>1461</ele></trkpt>
<trkpt lat="47.64452" lon="13.81318"><ele>1466</ele></trkpt>
<trkpt lat="47.64484" lon="13.81329"><ele>1508</ele></trkpt>
<trkpt lat="47.64494" lon="13.81347"><ele>1516</ele></trkpt>
<trkpt lat="47.64486" lon="13.81362"><ele>1523</ele></trkpt>
<trkpt lat="47.64486" lon="13.81362"><ele>1523</ele></trkpt>
<trkpt lat="47.64495" lon="13.81403"><ele>1542</ele></trkpt>
<trkpt lat="47.64527" lon="13.81412"><ele>1575</ele></trkpt>
<trkpt lat="47.64528" lon="13.81377"><ele>1599</ele></trkpt>
<trkpt lat="47.64545" lon="13.8136"><ele>1616</ele></trkpt>
<trkpt lat="47.64573" lon="13.81295"><ele>1629</ele></trkpt>
<trkpt lat="47.6456" lon="13.81187"><ele>1573</ele></trkpt>
<trkpt lat="47.64565" lon="13.81202"><ele>1587</ele></trkpt>
<trkpt lat="47.64578" lon="13.81225"><ele>1613</ele></trkpt>
<trkpt lat="47.64589" lon="13.81239"><ele>1627</ele></trkpt>
<trkpt lat="47.64601" lon="13.81253"><ele>1639</ele></trkpt>
<trkpt lat="47.64601" lon="13.81254"><ele>1640</ele></trkpt>
<trkpt lat="47.64599" lon="13.81255"><ele>1641</ele></trkpt>
<trkpt lat="47.64596" lon="13.81256"><ele>1644</ele></trkpt>
<trkpt lat="47.64586" lon="13.81266"><ele>1653</ele></trkpt>
<trkpt lat="47.64589" lon="13.81263"><ele>1656</ele></trkpt>
<trkpt lat="47.64589" lon="13.8126"><ele>1658</ele></trkpt>
<trkpt lat="47.6459" lon="13.8127"><ele>1663</ele></trkpt>
<trkpt lat="47.64594" lon="13.81274"><ele>1667</ele></trkpt>
<trkpt lat="47.64603" lon="13.81285"><ele>1677</ele></trkpt>
<trkpt lat="47.646" lon="13.81285"><ele>1679</ele></trkpt>
<trkpt lat="47.64613" lon="13.81295"><ele>1691</ele></trkpt>
<trkpt lat="47.64624" lon="13.81296"><ele>1700</ele></trkpt>
<trkpt lat="47.64617" lon="13.81293"><ele>1706</ele></trkpt>
<trkpt lat="47.64614" lon="13.8129"><ele>1709</ele></trkpt>
<trkpt lat="47.64618" lon="13.81301"><ele>1716</ele></trkpt>
<trkpt lat="47.64616" lon="13.81302"><ele>1717</ele></trkpt>
<trkpt lat="47.64621" lon="13.81308"><ele>1720</ele></trkpt>
<trkpt lat="47.64618" lon="13.8131"><ele>1721</ele></trkpt>
<trkpt lat="47.64608" lon="13.81338"><ele>1726</ele></trkpt>
<trkpt lat="47.64607" lon="13.81338"><ele>1726</ele></trkpt>
<trkpt lat="47.64607" lon="13.81338"><ele>1726</ele></trkpt>
<trkpt lat="47.64607" lon="13.81338"><ele>1726</ele></trkpt>
<trkpt lat="47.64607" lon="13.81338"><ele>1726</ele></trkpt>
<trkpt lat="47.64606" lon="13.81335"><ele>1727</ele></trkpt>
<trkpt lat="47.64606" lon="13.81335"><ele>1727</ele></trkpt>
<trkpt lat="47.64606" lon="13.81335"><ele>1727</ele></trkpt>
<trkpt lat="47.64606" lon="13.81335"><ele>1727</ele></trkpt>
<trkpt lat="47.64606" lon="13.81335"><ele>1727</ele></trkpt>
<trkpt lat="47.64607" lon="13.81335"><ele>1727</ele></trkpt>
<trkpt lat="47.64607" lon="13.81335"><ele>1727</ele></trkpt>
<trkpt lat="47.64608" lon="13.81336"><ele>1727</ele></trkpt>
<trkpt lat="47.64608" lon="13.81336"><ele>1727</ele></trkpt>
<trkpt lat="47.64609" lon="13.81336"><ele>1727</ele></trkpt>
<trkpt lat="47.6461" lon="13.81341"><ele>1728</ele></trkpt>
<trkpt lat="47.64613" lon="13.81351"><ele>1730</ele></trkpt>
<trkpt lat="47.64609" lon="13.81356"><ele>1731</ele></trkpt>
<trkpt lat="47.64607" lon="13.81363"><ele>1733</ele></trkpt>
<trkpt lat="47.64597" lon="13.81445"><ele>1734</ele></trkpt>
<trkpt lat="47.6459" lon="13.81469"><ele>1731</ele></trkpt>
<trkpt lat="47.64589" lon="13.81473"><ele>1731</ele></trkpt>
<trkpt lat="47.64587" lon="13.81473"><ele>1730</ele></trkpt>
<trkpt lat="47.64583" lon="13.81481"><ele>1729</ele></trkpt>
<trkpt lat="47.64567" lon="13.81514"><ele>1722</ele></trkpt>
<trkpt lat="47.64566" lon="13.81524"><ele>1720</ele></trkpt>
<trkpt lat="47.64559" lon="13.81544"><ele>1718</ele></trkpt>
<trkpt lat="47.64557" lon="13.81548"><ele>1717</ele></trkpt>
<trkpt lat="47.64548" lon="13.81556"><ele>1716</ele></trkpt>
<trkpt lat="47.64527" lon="13.81616"><ele>1712</ele></trkpt>
<trkpt lat="47.64521" lon="13.81624"><ele>1711</ele></trkpt>
<trkpt lat="47.64521" lon="13.81646"><ele>1710</ele></trkpt>
<trkpt lat="47.64512" lon="13.81669"><ele>1708</ele></trkpt>
<trkpt lat="47.64506" lon="13.81681"><ele>1707</ele></trkpt>
<trkpt lat="47.645" lon="13.81688"><ele>1706</ele></trkpt>
<trkpt lat="47.64481" lon="13.81729"><ele>1699</ele></trkpt>
<trkpt lat="47.6448" lon="13.81731"><ele>1698</ele></trkpt>
<trkpt lat="47.64477" lon="13.81738"><ele>1697</ele></trkpt>
<trkpt lat="47.64479" lon="13.81767"><ele>1693</ele></trkpt>
<trkpt lat="47.64479" lon="13.81775"><ele>1693</ele></trkpt>
<trkpt lat="47.64475" lon="13.81782"><ele>1693</ele></trkpt>
<trkpt lat="47.64472" lon="13.81787"><ele>1692</ele></trkpt>
<trkpt lat="47.64469" lon="13.81816"><ele>1691</ele></trkpt>
<trkpt lat="47.64455" lon="13.81839"><ele>1690</ele></trkpt>
<trkpt lat="47.64449" lon="13.81841"><ele>1689</ele></trkpt>
<trkpt lat="47.64401" lon="13.81832"><ele>1682</ele></trkpt>
<trkpt lat="47.64391" lon="13.81839"><ele>1681</ele></trkpt>
<trkpt lat="47.64369" lon="13.81825"><ele>1684</ele></trkpt>
<trkpt lat="47.64352" lon="13.81806"><ele>1687</ele></trkpt>
<trkpt lat="47.64336" lon="13.81789"><ele>1688</ele></trkpt>
<trkpt lat="47.64301" lon="13.81815"><ele>1688</ele></trkpt>
<trkpt lat="47.6429" lon="13.81824"><ele>1688</ele></trkpt>
<trkpt lat="47.64275" lon="13.81835"><ele>1688</ele></trkpt>
<trkpt lat="47.64263" lon="13.81838"><ele>1688</ele></trkpt>
<trkpt lat="47.64239" lon="13.81871"><ele>1688</ele></trkpt>
<trkpt lat="47.64237" lon="13.8187"><ele>1688</ele></trkpt>
<trkpt lat="47.64181" lon="13.81835"><ele>1682</ele></trkpt>
<trkpt lat="47.64175" lon="13.81832"><ele>1680</ele></trkpt>
<trkpt lat="47.64147" lon="13.81795"><ele>1658</ele></trkpt>
<trkpt lat="47.64139" lon="13.8178"><ele>1650</ele></trkpt>
<trkpt lat="47.64125" lon="13.81769"><ele>1647</ele></trkpt>
<trkpt lat="47.64117" lon="13.81764"><ele>1649</ele></trkpt>
<trkpt lat="47.64115" lon="13.81765"><ele>1649</ele></trkpt>
<trkpt lat="47.64111" lon="13.8176"><ele>1650</ele></trkpt>
<trkpt lat="47.64107" lon="13.81758"><ele>1651</ele></trkpt>
<trkpt lat="47.64105" lon="13.81759"><ele>1651</ele></trkpt>
<trkpt lat="47.64099" lon="13.81759"><ele>1653</ele></trkpt>
<trkpt lat="47.64094" lon="13.8176"><ele>1654</ele></trkpt>
<trkpt lat="47.64084" lon="13.81751"><ele>1656</ele></trkpt>
<trkpt lat="47.64072" lon="13.81751"><ele>1657</ele></trkpt>
<trkpt lat="47.64072" lon="13.8175"><ele>1657</ele></trkpt>
<trkpt lat="47.64066" lon="13.81746"><ele>1657</ele></trkpt>
<trkpt lat="47.64059" lon="13.8175"><ele>1657</ele></trkpt>
<trkpt lat="47.64045" lon="13.81755"><ele>1656</ele></trkpt>
<trkpt lat="47.64035" lon="13.81748"><ele>1655</ele></trkpt>
<trkpt lat="47.64032" lon="13.81744"><ele>1655</ele></trkpt>
<trkpt lat="47.64026" lon="13.81736"><ele>1655</ele></trkpt>
<trkpt lat="47.64017" lon="13.8173"><ele>1656</ele></trkpt>
<trkpt lat="47.64011" lon="13.81727"><ele>1657</ele></trkpt>
<trkpt lat="47.64005" lon="13.81725"><ele>1659</ele></trkpt>
<trkpt lat="47.63999" lon="13.81727"><ele>1661</ele></trkpt>
<trkpt lat="47.63997" lon="13.81729"><ele>1661</ele></trkpt>
<trkpt lat="47.63978" lon="13.81688"><ele>1670</ele></trkpt>
<trkpt lat="47.63973" lon="13.81678"><ele>1671</ele></trkpt>
<trkpt lat="47.63965" lon="13.81663"><ele>1671</ele></trkpt>
<trkpt lat="47.63963" lon="13.8166"><ele>1672</ele></trkpt>
<trkpt lat="47.63955" lon="13.81649"><ele>1672</ele></trkpt>
<trkpt lat="47.6391" lon="13.81572"><ele>1651</ele></trkpt>
<trkpt lat="47.63906" lon="13.81562"><ele>1647</ele></trkpt>
<trkpt lat="47.63894" lon="13.81545"><ele>1638</ele></trkpt>
<trkpt lat="47.63887" lon="13.81537"><ele>1632</ele></trkpt>
<trkpt lat="47.63886" lon="13.81536"><ele>1631</ele></trkpt>
<trkpt lat="47.63885" lon="13.81532"><ele>1629</ele></trkpt>
<trkpt lat="47.63877" lon="13.8153"><ele>1624</ele></trkpt>
<trkpt lat="47.63868" lon="13.81508"><ele>1613</ele></trkpt>
<trkpt lat="47.63869" lon="13.81503"><ele>1610</ele></trkpt>
<trkpt lat="47.63866" lon="13.81494"><ele>1606</ele></trkpt>
<trkpt lat="47.63862" lon="13.81487"><ele>1602</ele></trkpt>
<trkpt lat="47.6386" lon="13.81487"><ele>1601</ele></trkpt>
<trkpt lat="47.63856" lon="13.81489"><ele>1599</ele></trkpt>
<trkpt lat="47.63848" lon="13.81491"><ele>1598</ele></trkpt>
<trkpt lat="47.63835" lon="13.81497"><ele>1596</ele></trkpt>
<trkpt lat="47.63832" lon="13.81496"><ele>1595</ele></trkpt>
<trkpt lat="47.63828" lon="13.81496"><ele>1595</ele></trkpt>
<trkpt lat="47.63826" lon="13.81497"><ele>1595</ele></trkpt>
<trkpt lat="47.63814" lon="13.81511"><ele>1592</ele></trkpt>
<trkpt lat="47.63801" lon="13.81523"><ele>1589</ele></trkpt>
<trkpt lat="47.63789" lon="13.81542"><ele>1582</ele></trkpt>
<trkpt lat="47.63781" lon="13.81541"><ele>1578</ele></trkpt>
<trkpt lat="47.63771" lon="13.8153"><ele>1573</ele></trkpt>
<trkpt lat="47.63763" lon="13.81525"><ele>1569</ele></trkpt>
<trkpt lat="47.63756" lon="13.81521"><ele>1565</ele></trkpt>
<trkpt lat="47.63739" lon="13.81501"><ele>1557</ele></trkpt>
<trkpt lat="47.63724" lon="13.81486"><ele>1551</ele></trkpt>
<trkpt lat="47.6372" lon="13.81473"><ele>1547</ele></trkpt>
<trkpt lat="47.63699" lon="13.8146"><ele>1539</ele></trkpt>
<trkpt lat="47.63692" lon="13.81456"><ele>1536</ele></trkpt>
<trkpt lat="47.63683" lon="13.8144"><ele>1530</ele></trkpt>
<trkpt lat="47.63677" lon="13.81442"><ele>1528</ele></trkpt>
<trkpt lat="47.63679" lon="13.81426"><ele>1523</ele></trkpt>
<trkpt lat="47.6367" lon="13.81423"><ele>1519</ele></trkpt>
<trkpt lat="47.63669" lon="13.81415"><ele>1517</ele></trkpt>
<trkpt lat="47.63668" lon="13.814"><ele>1517</ele></trkpt>
<trkpt lat="47.63662" lon="13.81375"><ele>1518</ele></trkpt>
<trkpt lat="47.63661" lon="13.81369"><ele>1518</ele></trkpt>
<trkpt lat="47.63654" lon="13.81368"><ele>1518</ele></trkpt>
<trkpt lat="47.63648" lon="13.81364"><ele>1519</ele></trkpt>
<trkpt lat="47.63639" lon="13.81349"><ele>1519</ele></trkpt>
<trkpt lat="47.63634" lon="13.81358"><ele>1518</ele></trkpt>
<trkpt lat="47.63634" lon="13.8136"><ele>1518</ele></trkpt>
<trkpt lat="47.63631" lon="13.81365"><ele>1517</ele></trkpt>
<trkpt lat="47.63629" lon="13.81377"><ele>1514</ele></trkpt>
<trkpt lat="47.63623" lon="13.81407"><ele>1509</ele></trkpt>
<trkpt lat="47.63621" lon="13.81416"><ele>1507</ele></trkpt>
<trkpt lat="47.63621" lon="13.81418"><ele>1506</ele></trkpt>
<trkpt lat="47.63621" lon="13.81425"><ele>1505</ele></trkpt>
<trkpt lat="47.6362" lon="13.81453"><ele>1496</ele></trkpt>
<trkpt lat="47.63613" lon="13.8144"><ele>1488</ele></trkpt>
<trkpt lat="47.63595" lon="13.8142"><ele>1472</ele></trkpt>
<trkpt lat="47.63589" lon="13.81402"><ele>1463</ele></trkpt>
<trkpt lat="47.63588" lon="13.81402"><ele>1462</ele></trkpt>
<trkpt lat="47.63579" lon="13.81391"><ele>1458</ele></trkpt>
<trkpt lat="47.63553" lon="13.81349"><ele>1448</ele></trkpt>
<trkpt lat="47.63544" lon="13.81313"><ele>1441</ele></trkpt>
<trkpt lat="47.63535" lon="13.81305"><ele>1437</ele></trkpt>
<trkpt lat="47.63533" lon="13.81291"><ele>1433</ele></trkpt>
<trkpt lat="47.63533" lon="13.81288"><ele>1432</ele></trkpt>
<trkpt lat="47.63531" lon="13.81267"><ele>1427</ele></trkpt>
<trkpt lat="47.63532" lon="13.81259"><ele>1425</ele></trkpt>
<trkpt lat="47.63534" lon="13.81244"><ele>1421</ele></trkpt>
<trkpt lat="47.6354" lon="13.81239"><ele>1418</ele></trkpt>
<trkpt lat="47.63539" lon="13.81231"><ele>1416</ele></trkpt>
<trkpt lat="47.63543" lon="13.81226"><ele>1414</ele></trkpt>
<trkpt lat="47.63543" lon="13.81225"><ele>1413</ele></trkpt>
<trkpt lat="47.63544" lon="13.81223"><ele>1413</ele></trkpt>
<trkpt lat="47.63537" lon="13.81215"><ele>1409</ele></trkpt>
<trkpt lat="47.63527" lon="13.81214"><ele>1405</ele></trkpt>
<trkpt lat="47.63517" lon="13.81215"><ele>1401</ele></trkpt>
<trkpt lat="47.6351" lon="13.81206"><ele>1397</ele></trkpt>
<trkpt lat="47.63496" lon="13.81226"><ele>1388</ele></trkpt>
<trkpt lat="47.63491" lon="13.81214"><ele>1383</ele></trkpt>
<trkpt lat="47.6349" lon="13.81201"><ele>1379</ele></trkpt>
<trkpt lat="47.63492" lon="13.81188"><ele>1375</ele></trkpt>
<trkpt lat="47.635" lon="13.81174"><ele>1369</ele></trkpt>
<trkpt lat="47.63504" lon="13.81166"><ele>1366</ele></trkpt>
<trkpt lat="47.63497" lon="13.81162"><ele>1363</ele></trkpt>
<trkpt lat="47.63495" lon="13.8116"><ele>1362</ele></trkpt>
<trkpt lat="47.63484" lon="13.81153"><ele>1357</ele></trkpt>
<trkpt lat="47.6347" lon="13.81146"><ele>1351</ele></trkpt>
<trkpt lat="47.63458" lon="13.81138"><ele>1346</ele></trkpt>
<trkpt lat="47.63456" lon="13.81134"><ele>1345</ele></trkpt>
<trkpt lat="47.63458" lon="13.81123"><ele>1342</ele></trkpt>
<trkpt lat="47.63449" lon="13.81109"><ele>1336</ele></trkpt>
<trkpt lat="47.63445" lon="13.8111"><ele>1335</ele></trkpt>
<trkpt lat="47.63465" lon="13.81097"><ele>1326</ele></trkpt>
<trkpt lat="47.63468" lon="13.81096"><ele>1325</ele></trkpt>
<trkpt lat="47.63477" lon="13.81093"><ele>1321</ele></trkpt>
<trkpt lat="47.63485" lon="13.81091"><ele>1318</ele></trkpt>
<trkpt lat="47.63484" lon="13.81085"><ele>1316</ele></trkpt>
<trkpt lat="47.63469" lon="13.81069"><ele>1307</ele></trkpt>
<trkpt lat="47.63462" lon="13.81062"><ele>1302</ele></trkpt>
<trkpt lat="47.6346" lon="13.81061"><ele>1301</ele></trkpt>
<trkpt lat="47.63456" lon="13.81054"><ele>1298</ele></trkpt>
<trkpt lat="47.63446" lon="13.81046"><ele>1293</ele></trkpt>
<trkpt lat="47.63435" lon="13.81036"><ele>1287</ele></trkpt>
<trkpt lat="47.63424" lon="13.81025"><ele>1285</ele></trkpt>
<trkpt lat="47.63415" lon="13.81016"><ele>1284</ele></trkpt>
<trkpt lat="47.63408" lon="13.81017"><ele>1283</ele></trkpt>
<trkpt lat="47.6337" lon="13.81011"><ele>1274</ele></trkpt>
<trkpt lat="47.63352" lon="13.81024"><ele>1265</ele></trkpt>
<trkpt lat="47.63343" lon="13.81015"><ele>1260</ele></trkpt>
<trkpt lat="47.63333" lon="13.81014"><ele>1255</ele></trkpt>
<trkpt lat="47.63317" lon="13.81033"><ele>1245</ele></trkpt>
<trkpt lat="47.63311" lon="13.80993"><ele>1230</ele></trkpt>
<trkpt lat="47.63306" lon="13.80845"><ele>1190</ele></trkpt>
<trkpt lat="47.63301" lon="13.80835"><ele>1186</ele></trkpt>
<trkpt lat="47.6325" lon="13.80674"><ele>1145</ele></trkpt>
<trkpt lat="47.63241" lon="13.80688"><ele>1144</ele></trkpt>
<trkpt lat="47.63238" lon="13.80693"><ele>1144</ele></trkpt>
<trkpt lat="47.63235" lon="13.80679"><ele>1143</ele></trkpt>
<trkpt lat="47.63228" lon="13.80675"><ele>1143</ele></trkpt>
<trkpt lat="47.63226" lon="13.80675"><ele>1143</ele></trkpt>
<trkpt lat="47.63219" lon="13.80674"><ele>1142</ele></trkpt>
<trkpt lat="47.63205" lon="13.80677"><ele>1139</ele></trkpt>
<trkpt lat="47.63158" lon="13.80698"><ele>1130</ele></trkpt>
<trkpt lat="47.63164" lon="13.80652"><ele>1123</ele></trkpt>
<trkpt lat="47.63169" lon="13.80615"><ele>1117</ele></trkpt>
<trkpt lat="47.63163" lon="13.80566"><ele>1110</ele></trkpt>
<trkpt lat="47.63163" lon="13.80535"><ele>1105</ele></trkpt>
<trkpt lat="47.63164" lon="13.80511"><ele>1102</ele></trkpt>
<trkpt lat="47.63169" lon="13.80463"><ele>1095</ele></trkpt>
<trkpt lat="47.63168" lon="13.80444"><ele>1093</ele></trkpt>
<trkpt lat="47.6317" lon="13.80429"><ele>1091</ele></trkpt>
<trkpt lat="47.63168" lon="13.80426"><ele>1090</ele></trkpt>
<trkpt lat="47.63171" lon="13.80409"><ele>1088</ele></trkpt>
<trkpt lat="47.63162" lon="13.80364"><ele>1083</ele></trkpt>
<trkpt lat="47.63158" lon="13.80356"><ele>1082</ele></trkpt>
<trkpt lat="47.63159" lon="13.80352"><ele>1082</ele></trkpt>
<trkpt lat="47.63157" lon="13.80347"><ele>1081</ele></trkpt>
<trkpt lat="47.63149" lon="13.80326"><ele>1075</ele></trkpt>
<trkpt lat="47.63145" lon="13.80316"><ele>1072</ele></trkpt>
<trkpt lat="47.63138" lon="13.803"><ele>1067</ele></trkpt>
<trkpt lat="47.63124" lon="13.80272"><ele>1059</ele></trkpt>
<trkpt lat="47.63117" lon="13.80254"><ele>1051</ele></trkpt>
<trkpt lat="47.63113" lon="13.80241"><ele>1045</ele></trkpt>
<trkpt lat="47.63106" lon="13.80234"><ele>1041</ele></trkpt>
<trkpt lat="47.63095" lon="13.80207"><ele>1028</ele></trkpt>
<trkpt lat="47.63093" lon="13.80205"><ele>1027</ele></trkpt>
<trkpt lat="47.63083" lon="13.80187"><ele>1021</ele></trkpt>
<trkpt lat="47.63049" lon="13.80175"><ele>1009</ele></trkpt>
<trkpt lat="47.63032" lon="13.80159"><ele>1003</ele></trkpt>
<trkpt lat="47.62983" lon="13.80084"><ele>989</ele></trkpt>
<trkpt lat="47.62989" lon="13.80054"><ele>985</ele></trkpt>
<trkpt lat="47.63003" lon="13.80004"><ele>978</ele></trkpt>
<trkpt lat="47.63" lon="13.79971"><ele>974</ele></trkpt>
<trkpt lat="47.63008" lon="13.79879"><ele>965</ele></trkpt>
<trkpt lat="47.62996" lon="13.79812"><ele>962</ele></trkpt>
<trkpt lat="47.62998" lon="13.79783"><ele>961</ele></trkpt>
<trkpt lat="47.62992" lon="13.79749"><ele>959</ele></trkpt>
<trkpt lat="47.62965" lon="13.79727"><ele>959</ele></trkpt>
<trkpt lat="47.62874" lon="13.79719"><ele>959</ele></trkpt>
      </trkseg></trk>
   
</gpx>
   