<?xml version="1.0" encoding="UTF-8"?>
<gpx xmlns="http://www.topografix.com/GPX/1/1" creator="MTK - http://www.toursprung.com" version="1.1"
   xmlns:xsi="http://www.w3.org/2001/XMLSchema-instance"
   xsi:schemaLocation="http://www.topografix.com/GPX/1/1 http://www.topografix.com/GPX/1/1/gpx.xsd">
   <metadata>
      <name><![CDATA[Lukas Max - Klettersteig]]></name>
      
   </metadata>
   
      <trk><name><![CDATA[Lukas Max - Klettersteig]]></name><trkseg>
         <trkpt lat="47.094888288804" lon="14.573493003845"><ele>1755</ele></trkpt>
<trkpt lat="47.094888288804" lon="14.573063850403"><ele>1758</ele></trkpt>
<trkpt lat="47.094289353848" lon="14.572978019714"><ele>1765</ele></trkpt>
<trkpt lat="47.093821887738" lon="14.572784900665"><ele>1772</ele></trkpt>
<trkpt lat="47.093588153145" lon="14.5725274086"><ele>1776</ele></trkpt>
<trkpt lat="47.093617370025" lon="14.571690559387"><ele>1777</ele></trkpt>
<trkpt lat="47.093617370025" lon="14.571475982666"><ele>1775</ele></trkpt>
<trkpt lat="47.093033029373" lon="14.571454524994"><ele>1769</ele></trkpt>
<trkpt lat="47.093047637968" lon="14.570596218109"><ele>1774</ele></trkpt>
<trkpt lat="47.092740856643" lon="14.569931030273"><ele>1782</ele></trkpt>
<trkpt lat="47.092521726044" lon="14.569330215454"><ele>1790</ele></trkpt>
<trkpt lat="47.092141897535" lon="14.567892551422"><ele>1808</ele></trkpt>
<trkpt lat="47.091776675261" lon="14.566841125488"><ele>1835</ele></trkpt>
<trkpt lat="47.091499104657" lon="14.566583633423"><ele>1841</ele></trkpt>
<trkpt lat="47.091513713672" lon="14.565768241882"><ele>1844</ele></trkpt>
<trkpt lat="47.091279968948" lon="14.56463098526"><ele>1848</ele></trkpt>
<trkpt lat="47.090856304021" lon="14.563322067261"><ele>1855</ele></trkpt>
<trkpt lat="47.090344979793" lon="14.562184810638"><ele>1860</ele></trkpt>
<trkpt lat="47.090198886255" lon="14.561519622803"><ele>1861</ele></trkpt>
<trkpt lat="47.090052792316" lon="14.561133384705"><ele>1864</ele></trkpt>
<trkpt lat="47.0898044317" lon="14.560253620148"><ele>1884</ele></trkpt>
<trkpt lat="47.089073952588" lon="14.559459686279"><ele>1905</ele></trkpt>
<trkpt lat="47.08869409949" lon="14.559438228607"><ele>1914</ele></trkpt>
<trkpt lat="47.08762757439" lon="14.558665752411"><ele>1948</ele></trkpt>
<trkpt lat="47.087452253151" lon="14.558000564575"><ele>1996</ele></trkpt>
<trkpt lat="47.087145439596" lon="14.557614326477"><ele>2020</ele></trkpt>
<trkpt lat="47.087233100792" lon="14.556949138641"><ele>2046</ele></trkpt>
<trkpt lat="47.087612964309" lon="14.556391239166"><ele>2096</ele></trkpt>
<trkpt lat="47.087379202465" lon="14.555554389954"><ele>2163</ele></trkpt>
<trkpt lat="47.086955506509" lon="14.555189609528"><ele>2200</ele></trkpt>
<trkpt lat="47.086692521117" lon="14.555296897888"><ele>2209</ele></trkpt>
<trkpt lat="47.086707131451" lon="14.554889202118"><ele>2227</ele></trkpt>
<trkpt lat="47.086619469389" lon="14.55461025238"><ele>2240</ele></trkpt>
<trkpt lat="47.087086998718" lon="14.552507400513"><ele>2298</ele></trkpt>
<trkpt lat="47.087028557776" lon="14.551520347595"><ele>2297</ele></trkpt>
<trkpt lat="47.087218490603" lon="14.552657604218"><ele>2275</ele></trkpt>
<trkpt lat="47.08790516517" lon="14.553022384644"><ele>2237</ele></trkpt>
<trkpt lat="47.08869409949" lon="14.553923606873"><ele>2180</ele></trkpt>
<trkpt lat="47.089190829919" lon="14.554352760315"><ele>2149</ele></trkpt>
<trkpt lat="47.089570679474" lon="14.554760456085"><ele>2122</ele></trkpt>
<trkpt lat="47.090257323718" lon="14.555683135986"><ele>2074</ele></trkpt>
<trkpt lat="47.090914740763" lon="14.556691646576"><ele>2031</ele></trkpt>
<trkpt lat="47.091031614055" lon="14.557077884674"><ele>2019</ele></trkpt>
<trkpt lat="47.091981200043" lon="14.558086395264"><ele>1977</ele></trkpt>
<trkpt lat="47.092857725928" lon="14.558944702148"><ele>1950</ele></trkpt>
<trkpt lat="47.093529719336" lon="14.560103416443"><ele>1921</ele></trkpt>
<trkpt lat="47.093982579677" lon="14.561369419098"><ele>1913</ele></trkpt>
<trkpt lat="47.093807279356" lon="14.561455249786"><ele>1915</ele></trkpt>
<trkpt lat="47.093179115138" lon="14.560961723328"><ele>1906</ele></trkpt>
<trkpt lat="47.092843117281" lon="14.561047554016"><ele>1889</ele></trkpt>
<trkpt lat="47.092770073988" lon="14.561905860901"><ele>1868</ele></trkpt>
<trkpt lat="47.092813899976" lon="14.56250667572"><ele>1862</ele></trkpt>
<trkpt lat="47.092054244418" lon="14.563686847687"><ele>1846</ele></trkpt>
<trkpt lat="47.092229550508" lon="14.564545154572"><ele>1840</ele></trkpt>
<trkpt lat="47.093222940789" lon="14.566519260406"><ele>1814</ele></trkpt>
<trkpt lat="47.093500502408" lon="14.567077159882"><ele>1807</ele></trkpt>
<trkpt lat="47.093617370025" lon="14.56746339798"><ele>1805</ele></trkpt>
<trkpt lat="47.094450044376" lon="14.568321704865"><ele>1801</ele></trkpt>
<trkpt lat="47.094990545319" lon="14.569673538208"><ele>1790</ele></trkpt>
<trkpt lat="47.09501976143" lon="14.570274353027"><ele>1783</ele></trkpt>
<trkpt lat="47.094362395057" lon="14.571561813354"><ele>1776</ele></trkpt>
<trkpt lat="47.094245529075" lon="14.571776390076"><ele>1772</ele></trkpt>
<trkpt lat="47.095326529626" lon="14.573042392731"><ele>1754</ele></trkpt>
      </trkseg></trk>
   
</gpx>
   