<?xml version="1.0" encoding="UTF-8"?>
<gpx xmlns="http://www.topografix.com/GPX/1/1" creator="MTK - http://www.toursprung.com" version="1.1"
   xmlns:xsi="http://www.w3.org/2001/XMLSchema-instance"
   xsi:schemaLocation="http://www.topografix.com/GPX/1/1 http://www.topografix.com/GPX/1/1/gpx.xsd">
   <metadata>
      <name><![CDATA[Via Angelika]]></name>
      
   </metadata>
   
      <trk><name><![CDATA[Via Angelika]]></name><trkseg>
         <trkpt lat="47.827821734227" lon="16.050231456757"><ele>619</ele></trkpt>
<trkpt lat="47.827764110836" lon="16.049652099609"><ele>624</ele></trkpt>
<trkpt lat="47.827994604016" lon="16.048986911774"><ele>681</ele></trkpt>
<trkpt lat="47.828109850221" lon="16.048557758331"><ele>705</ele></trkpt>
<trkpt lat="47.828131458856" lon="16.048353910446"><ele>706</ele></trkpt>
<trkpt lat="47.8281746761" lon="16.048128604889"><ele>755</ele></trkpt>
<trkpt lat="47.828325936167" lon="16.04788184166"><ele>771</ele></trkpt>
<trkpt lat="47.828585238115" lon="16.047946214676"><ele>773</ele></trkpt>
<trkpt lat="47.82876530815" lon="16.048128604889"><ele>803</ele></trkpt>
<trkpt lat="47.828909363728" lon="16.048278808594"><ele>830</ele></trkpt>
<trkpt lat="47.82894537756" lon="16.048493385315"><ele>832</ele></trkpt>
<trkpt lat="47.829183068225" lon="16.048461198807"><ele>832</ele></trkpt>
<trkpt lat="47.829341528063" lon="16.048268079758"><ele>834</ele></trkpt>
<trkpt lat="47.82944236589" lon="16.048128604889"><ele>843</ele></trkpt>
<trkpt lat="47.829644040957" lon="16.047978401184"><ele>878</ele></trkpt>
<trkpt lat="47.829852917878" lon="16.047785282135"><ele>889</ele></trkpt>
<trkpt lat="47.829989767818" lon="16.047645807266"><ele>888</ele></trkpt>
<trkpt lat="47.830054591349" lon="16.047248840332"><ele>887</ele></trkpt>
<trkpt lat="47.829968159957" lon="16.046916246414"><ele>887</ele></trkpt>
<trkpt lat="47.829795296742" lon="16.046658754349"><ele>887</ele></trkpt>
<trkpt lat="47.82944236589" lon="16.046401262283"><ele>866</ele></trkpt>
<trkpt lat="47.828938174796" lon="16.045736074448"><ele>865</ele></trkpt>
<trkpt lat="47.828873349871" lon="16.045832633972"><ele>854</ele></trkpt>
<trkpt lat="47.828772510938" lon="16.045939922333"><ele>835</ele></trkpt>
<trkpt lat="47.828736496986" lon="16.046025753021"><ele>824</ele></trkpt>
<trkpt lat="47.828592440929" lon="16.045843362808"><ele>805</ele></trkpt>
<trkpt lat="47.828361950404" lon="16.045886278152"><ele>805</ele></trkpt>
<trkpt lat="47.828340341865" lon="16.046090126038"><ele>805</ele></trkpt>
<trkpt lat="47.828217893307" lon="16.04621887207"><ele>805</ele></trkpt>
<trkpt lat="47.828189081839" lon="16.046379804611"><ele>802</ele></trkpt>
<trkpt lat="47.828131458856" lon="16.046444177628"><ele>797</ele></trkpt>
<trkpt lat="47.828196284708" lon="16.04657292366"><ele>787</ele></trkpt>
<trkpt lat="47.82828271905" lon="16.046969890594"><ele>787</ele></trkpt>
<trkpt lat="47.828253907619" lon="16.047120094299"><ele>785</ele></trkpt>
<trkpt lat="47.828239501897" lon="16.047345399857"><ele>775</ele></trkpt>
<trkpt lat="47.828318733317" lon="16.047763824463"><ele>771</ele></trkpt>
<trkpt lat="47.828088241577" lon="16.048793792725"><ele>700</ele></trkpt>
<trkpt lat="47.827893763376" lon="16.049394607544"><ele>642</ele></trkpt>
<trkpt lat="47.827843342982" lon="16.049855947495"><ele>625</ele></trkpt>
<trkpt lat="47.827864951728" lon="16.050531864166"><ele>626</ele></trkpt>
      </trkseg></trk>
   
</gpx>
   