<?xml version="1.0" encoding="UTF-8"?>
<gpx xmlns="http://www.topografix.com/GPX/1/1" creator="MTK - http://www.toursprung.com" version="1.1"
   xmlns:xsi="http://www.w3.org/2001/XMLSchema-instance"
   xsi:schemaLocation="http://www.topografix.com/GPX/1/1 http://www.topografix.com/GPX/1/1/gpx.xsd">
   <metadata>
      <name><![CDATA[Blodigrinne-Klettersteig]]></name>
      
   </metadata>
   
      <trk><name><![CDATA[Blodigrinne-Klettersteig]]></name><trkseg>
         <trkpt lat="47.07271" lon="9.87454"><ele>1006</ele></trkpt>
<trkpt lat="47.07299" lon="9.87594"><ele>1004</ele></trkpt>
<trkpt lat="47.07223" lon="9.87549"><ele>1015</ele></trkpt>
<trkpt lat="47.07129" lon="9.87581"><ele>1024</ele></trkpt>
<trkpt lat="47.06865" lon="9.87559"><ele>1046</ele></trkpt>
<trkpt lat="47.06646" lon="9.8728"><ele>1101</ele></trkpt>
<trkpt lat="47.06512" lon="9.87107"><ele>1121</ele></trkpt>
<trkpt lat="47.06447" lon="9.86907"><ele>1163</ele></trkpt>
<trkpt lat="47.06276" lon="9.86658"><ele>1182</ele></trkpt>
<trkpt lat="47.05844" lon="9.86289"><ele>1241</ele></trkpt>
<trkpt lat="47.05704" lon="9.86111"><ele>1268</ele></trkpt>
<trkpt lat="47.05593" lon="9.85971"><ele>1288</ele></trkpt>
<trkpt lat="47.05147" lon="9.85508"><ele>1318</ele></trkpt>
<trkpt lat="47.05087" lon="9.85435"><ele>1318</ele></trkpt>
<trkpt lat="47.05071" lon="9.85566"><ele>1322</ele></trkpt>
<trkpt lat="47.0507" lon="9.85609"><ele>1325</ele></trkpt>
<trkpt lat="47.0504" lon="9.85557"><ele>1329</ele></trkpt>
<trkpt lat="47.04907" lon="9.85474"><ele>1345</ele></trkpt>
<trkpt lat="47.04556" lon="9.85173"><ele>1398</ele></trkpt>
<trkpt lat="47.04502" lon="9.85068"><ele>1418</ele></trkpt>
<trkpt lat="47.04365" lon="9.85079"><ele>1447</ele></trkpt>
<trkpt lat="47.04289" lon="9.85083"><ele>1463</ele></trkpt>
<trkpt lat="47.04175" lon="9.84993"><ele>1488</ele></trkpt>
<trkpt lat="47.04132" lon="9.84919"><ele>1497</ele></trkpt>
<trkpt lat="47.04045" lon="9.84793"><ele>1515</ele></trkpt>
<trkpt lat="47.04004" lon="9.84827"><ele>1518</ele></trkpt>
<trkpt lat="47.03982" lon="9.8496"><ele>1527</ele></trkpt>
<trkpt lat="47.03904" lon="9.84981"><ele>1539</ele></trkpt>
<trkpt lat="47.03799" lon="9.85009"><ele>1558</ele></trkpt>
<trkpt lat="47.0379" lon="9.84989"><ele>1561</ele></trkpt>
<trkpt lat="47.03789" lon="9.84896"><ele>1572</ele></trkpt>
<trkpt lat="47.03732" lon="9.84566"><ele>1620</ele></trkpt>
<trkpt lat="47.03718" lon="9.84354"><ele>1647</ele></trkpt>
<trkpt lat="47.03609" lon="9.83967"><ele>1702</ele></trkpt>
<trkpt lat="47.0356" lon="9.83879"><ele>1711</ele></trkpt>
<trkpt lat="47.03509" lon="9.83738"><ele>1718</ele></trkpt>
<trkpt lat="47.03482" lon="9.83588"><ele>1733</ele></trkpt>
<trkpt lat="47.0349" lon="9.83255"><ele>1740</ele></trkpt>
<trkpt lat="47.03498" lon="9.82924"><ele>1756</ele></trkpt>
<trkpt lat="47.0352" lon="9.82745"><ele>1765</ele></trkpt>
<trkpt lat="47.03562" lon="9.82409"><ele>1780</ele></trkpt>
<trkpt lat="47.03597" lon="9.81903"><ele>1824</ele></trkpt>
<trkpt lat="47.03609" lon="9.81646"><ele>1842</ele></trkpt>
<trkpt lat="47.03696" lon="9.81448"><ele>1882</ele></trkpt>
<trkpt lat="47.03726" lon="9.81199"><ele>1963</ele></trkpt>
<trkpt lat="47.03732" lon="9.80633"><ele>2059</ele></trkpt>
<trkpt lat="47.03702" lon="9.80401"><ele>2099</ele></trkpt>
<trkpt lat="47.03562" lon="9.80367"><ele>2140</ele></trkpt>
<trkpt lat="47.03527" lon="9.80435"><ele>2155</ele></trkpt>
<trkpt lat="47.03491" lon="9.80453"><ele>2180</ele></trkpt>
<trkpt lat="47.03468" lon="9.80465"><ele>2196</ele></trkpt>
<trkpt lat="47.03451" lon="9.80477"><ele>2209</ele></trkpt>
<trkpt lat="47.03434" lon="9.80486"><ele>2227</ele></trkpt>
<trkpt lat="47.03419" lon="9.805"><ele>2245</ele></trkpt>
<trkpt lat="47.034" lon="9.80495"><ele>2265</ele></trkpt>
<trkpt lat="47.03349" lon="9.80456"><ele>2337</ele></trkpt>
<trkpt lat="47.03326" lon="9.80445"><ele>2376</ele></trkpt>
<trkpt lat="47.03296" lon="9.80444"><ele>2423</ele></trkpt>
<trkpt lat="47.03268" lon="9.80447"><ele>2446</ele></trkpt>
<trkpt lat="47.03253" lon="9.8047"><ele>2456</ele></trkpt>
<trkpt lat="47.03195" lon="9.80468"><ele>2484</ele></trkpt>
<trkpt lat="47.0312" lon="9.80459"><ele>2531</ele></trkpt>
<trkpt lat="47.03073" lon="9.80482"><ele>2573</ele></trkpt>
<trkpt lat="47.03031" lon="9.80495"><ele>2611</ele></trkpt>
<trkpt lat="47.03" lon="9.80501"><ele>2617</ele></trkpt>
<trkpt lat="47.0293" lon="9.8049"><ele>2637</ele></trkpt>
<trkpt lat="47.02916" lon="9.80355"><ele>2734</ele></trkpt>
<trkpt lat="47.02906" lon="9.80298"><ele>2770</ele></trkpt>
<trkpt lat="47.02886" lon="9.80157"><ele>2785</ele></trkpt>
<trkpt lat="47.02874" lon="9.80109"><ele>2778</ele></trkpt>
<trkpt lat="47.02862" lon="9.80085"><ele>2780</ele></trkpt>
<trkpt lat="47.02904" lon="9.8022"><ele>2748</ele></trkpt>
<trkpt lat="47.02924" lon="9.80323"><ele>2685</ele></trkpt>
<trkpt lat="47.02932" lon="9.80412"><ele>2640</ele></trkpt>
<trkpt lat="47.02934" lon="9.80436"><ele>2631</ele></trkpt>
<trkpt lat="47.02951" lon="9.80479"><ele>2615</ele></trkpt>
<trkpt lat="47.02978" lon="9.80509"><ele>2599</ele></trkpt>
<trkpt lat="47.03027" lon="9.80514"><ele>2555</ele></trkpt>
<trkpt lat="47.0307" lon="9.80504"><ele>2511</ele></trkpt>
<trkpt lat="47.03111" lon="9.8048"><ele>2495</ele></trkpt>
<trkpt lat="47.03163" lon="9.80477"><ele>2481</ele></trkpt>
<trkpt lat="47.03234" lon="9.80458"><ele>2406</ele></trkpt>
<trkpt lat="47.03264" lon="9.80426"><ele>2364</ele></trkpt>
<trkpt lat="47.03303" lon="9.804"><ele>2314</ele></trkpt>
<trkpt lat="47.03332" lon="9.80403"><ele>2279</ele></trkpt>
<trkpt lat="47.03384" lon="9.80472"><ele>2199</ele></trkpt>
<trkpt lat="47.03443" lon="9.805"><ele>2158</ele></trkpt>
<trkpt lat="47.03515" lon="9.80461"><ele>2130</ele></trkpt>
<trkpt lat="47.03552" lon="9.80407"><ele>2121</ele></trkpt>
<trkpt lat="47.03573" lon="9.80385"><ele>2117</ele></trkpt>
<trkpt lat="47.03685" lon="9.80365"><ele>2090</ele></trkpt>
<trkpt lat="47.03698" lon="9.80444"><ele>2071</ele></trkpt>
<trkpt lat="47.03736" lon="9.80875"><ele>2003</ele></trkpt>
<trkpt lat="47.03725" lon="9.80977"><ele>1981</ele></trkpt>
<trkpt lat="47.03707" lon="9.81138"><ele>1942</ele></trkpt>
<trkpt lat="47.03721" lon="9.81215"><ele>1921</ele></trkpt>
<trkpt lat="47.03699" lon="9.81231"><ele>1913</ele></trkpt>
<trkpt lat="47.03729" lon="9.81347"><ele>1889</ele></trkpt>
<trkpt lat="47.03726" lon="9.81433"><ele>1871</ele></trkpt>
<trkpt lat="47.03688" lon="9.8152"><ele>1851</ele></trkpt>
<trkpt lat="47.03597" lon="9.81734"><ele>1828</ele></trkpt>
<trkpt lat="47.03585" lon="9.81788"><ele>1823</ele></trkpt>
<trkpt lat="47.03595" lon="9.81852"><ele>1817</ele></trkpt>
<trkpt lat="47.03588" lon="9.8192"><ele>1810</ele></trkpt>
<trkpt lat="47.03577" lon="9.82033"><ele>1800</ele></trkpt>
<trkpt lat="47.0359" lon="9.82251"><ele>1786</ele></trkpt>
<trkpt lat="47.03569" lon="9.82449"><ele>1770</ele></trkpt>
<trkpt lat="47.03504" lon="9.828"><ele>1756</ele></trkpt>
<trkpt lat="47.03493" lon="9.82953"><ele>1754</ele></trkpt>
<trkpt lat="47.03505" lon="9.83008"><ele>1747</ele></trkpt>
<trkpt lat="47.03499" lon="9.83421"><ele>1736</ele></trkpt>
<trkpt lat="47.03487" lon="9.83513"><ele>1730</ele></trkpt>
<trkpt lat="47.03495" lon="9.83734"><ele>1712</ele></trkpt>
<trkpt lat="47.03571" lon="9.83916"><ele>1696</ele></trkpt>
<trkpt lat="47.03601" lon="9.83991"><ele>1687</ele></trkpt>
<trkpt lat="47.03733" lon="9.84413"><ele>1623</ele></trkpt>
<trkpt lat="47.03735" lon="9.84509"><ele>1610</ele></trkpt>
<trkpt lat="47.03786" lon="9.8502"><ele>1547</ele></trkpt>
<trkpt lat="47.03837" lon="9.85014"><ele>1537</ele></trkpt>
<trkpt lat="47.03947" lon="9.84951"><ele>1520</ele></trkpt>
<trkpt lat="47.03995" lon="9.84924"><ele>1517</ele></trkpt>
<trkpt lat="47.04004" lon="9.848"><ele>1509</ele></trkpt>
<trkpt lat="47.0405" lon="9.84814"><ele>1502</ele></trkpt>
<trkpt lat="47.04109" lon="9.84861"><ele>1491</ele></trkpt>
<trkpt lat="47.04152" lon="9.84983"><ele>1477</ele></trkpt>
<trkpt lat="47.04268" lon="9.85088"><ele>1452</ele></trkpt>
<trkpt lat="47.04333" lon="9.85099"><ele>1440</ele></trkpt>
<trkpt lat="47.04528" lon="9.85098"><ele>1392</ele></trkpt>
<trkpt lat="47.04646" lon="9.85286"><ele>1364</ele></trkpt>
<trkpt lat="47.04722" lon="9.85331"><ele>1355</ele></trkpt>
<trkpt lat="47.05022" lon="9.85565"><ele>1324</ele></trkpt>
<trkpt lat="47.05082" lon="9.85638"><ele>1319</ele></trkpt>
<trkpt lat="47.05089" lon="9.85463"><ele>1319</ele></trkpt>
<trkpt lat="47.05203" lon="9.85544"><ele>1317</ele></trkpt>
<trkpt lat="47.05267" lon="9.85606"><ele>1314</ele></trkpt>
<trkpt lat="47.05339" lon="9.85679"><ele>1313</ele></trkpt>
<trkpt lat="47.05424" lon="9.8577"><ele>1304</ele></trkpt>
<trkpt lat="47.05497" lon="9.85848"><ele>1296</ele></trkpt>
<trkpt lat="47.05553" lon="9.85906"><ele>1283</ele></trkpt>
<trkpt lat="47.05587" lon="9.86017"><ele>1271</ele></trkpt>
<trkpt lat="47.05882" lon="9.86353"><ele>1223</ele></trkpt>
<trkpt lat="47.06005" lon="9.864"><ele>1208</ele></trkpt>
<trkpt lat="47.064" lon="9.86815"><ele>1160</ele></trkpt>
<trkpt lat="47.06547" lon="9.87138"><ele>1107</ele></trkpt>
<trkpt lat="47.0669" lon="9.87329"><ele>1086</ele></trkpt>
<trkpt lat="47.06848" lon="9.87506"><ele>1043</ele></trkpt>
<trkpt lat="47.06914" lon="9.87585"><ele>1040</ele></trkpt>
<trkpt lat="47.0697" lon="9.87587"><ele>1031</ele></trkpt>
<trkpt lat="47.07023" lon="9.87589"><ele>1025</ele></trkpt>
<trkpt lat="47.07161" lon="9.87588"><ele>1013</ele></trkpt>
<trkpt lat="47.07196" lon="9.87569"><ele>1009</ele></trkpt>
<trkpt lat="47.07234" lon="9.87572"><ele>1006</ele></trkpt>
<trkpt lat="47.07293" lon="9.8761"><ele>1005</ele></trkpt>
<trkpt lat="47.07285" lon="9.87539"><ele>1005</ele></trkpt>
      </trkseg></trk>
   
</gpx>
   