<?xml version="1.0" encoding="UTF-8"?>
<gpx xmlns="http://www.topografix.com/GPX/1/1" creator="MTK - http://www.toursprung.com" version="1.1"
   xmlns:xsi="http://www.w3.org/2001/XMLSchema-instance"
   xsi:schemaLocation="http://www.topografix.com/GPX/1/1 http://www.topografix.com/GPX/1/1/gpx.xsd">
   <metadata>
      <name><![CDATA[Stadtkinder]]></name>
      
   </metadata>
   
      <trk><name><![CDATA[Stadtkinder]]></name><trkseg>
         <trkpt lat="47.5802131" lon="15.1132371"><ele>885</ele></trkpt>
<trkpt lat="47.5803329" lon="15.1130259"><ele>885</ele></trkpt>
<trkpt lat="47.580396" lon="15.1127694"><ele>886</ele></trkpt>
<trkpt lat="47.5805219" lon="15.1125745"><ele>887</ele></trkpt>
<trkpt lat="47.5806712" lon="15.1123989"><ele>888</ele></trkpt>
<trkpt lat="47.5808202" lon="15.1122217"><ele>889</ele></trkpt>
<trkpt lat="47.5809608" lon="15.1120436"><ele>890</ele></trkpt>
<trkpt lat="47.5810984" lon="15.1118526"><ele>891</ele></trkpt>
<trkpt lat="47.5812356" lon="15.1116753"><ele>892</ele></trkpt>
<trkpt lat="47.5813844" lon="15.1114981"><ele>893</ele></trkpt>
<trkpt lat="47.5815269" lon="15.111314"><ele>893</ele></trkpt>
<trkpt lat="47.5816737" lon="15.1111315"><ele>893</ele></trkpt>
<trkpt lat="47.5817603" lon="15.110859"><ele>893</ele></trkpt>
<trkpt lat="47.581888" lon="15.1106655"><ele>893</ele></trkpt>
<trkpt lat="47.5820223" lon="15.1104611"><ele>892</ele></trkpt>
<trkpt lat="47.5821606" lon="15.1102615"><ele>892</ele></trkpt>
<trkpt lat="47.5823446" lon="15.1101714"><ele>891</ele></trkpt>
<trkpt lat="47.58253" lon="15.1101304"><ele>891</ele></trkpt>
<trkpt lat="47.5826938" lon="15.1099745"><ele>891</ele></trkpt>
<trkpt lat="47.582882" lon="15.1099347"><ele>891</ele></trkpt>
<trkpt lat="47.5830641" lon="15.1099558"><ele>891</ele></trkpt>
<trkpt lat="47.5832438" lon="15.1100021"><ele>891</ele></trkpt>
<trkpt lat="47.5834295" lon="15.1100042"><ele>891</ele></trkpt>
<trkpt lat="47.5836244" lon="15.110069"><ele>892</ele></trkpt>
<trkpt lat="47.5838038" lon="15.1100953"><ele>893</ele></trkpt>
<trkpt lat="47.5839872" lon="15.1101256"><ele>894</ele></trkpt>
<trkpt lat="47.5841755" lon="15.110076"><ele>896</ele></trkpt>
<trkpt lat="47.5843513" lon="15.1099965"><ele>897</ele></trkpt>
<trkpt lat="47.5845255" lon="15.1099107"><ele>898</ele></trkpt>
<trkpt lat="47.584698" lon="15.1098303"><ele>900</ele></trkpt>
<trkpt lat="47.5848745" lon="15.1097599"><ele>901</ele></trkpt>
<trkpt lat="47.5850528" lon="15.1096918"><ele>902</ele></trkpt>
<trkpt lat="47.5852379" lon="15.1097212"><ele>903</ele></trkpt>
<trkpt lat="47.5854307" lon="15.1097547"><ele>904</ele></trkpt>
<trkpt lat="47.5856293" lon="15.10973"><ele>905</ele></trkpt>
<trkpt lat="47.5858418" lon="15.1095089"><ele>906</ele></trkpt>
<trkpt lat="47.5859791" lon="15.1096957"><ele>908</ele></trkpt>
<trkpt lat="47.5861245" lon="15.1098567"><ele>910</ele></trkpt>
<trkpt lat="47.5862836" lon="15.1099884"><ele>911</ele></trkpt>
<trkpt lat="47.5864746" lon="15.1100348"><ele>913</ele></trkpt>
<trkpt lat="47.5866447" lon="15.110122"><ele>915</ele></trkpt>
<trkpt lat="47.5868131" lon="15.1102309"><ele>917</ele></trkpt>
<trkpt lat="47.5869731" lon="15.1103701"><ele>919</ele></trkpt>
<trkpt lat="47.5871335" lon="15.1105182"><ele>920</ele></trkpt>
<trkpt lat="47.5873009" lon="15.1106419"><ele>922</ele></trkpt>
<trkpt lat="47.5874896" lon="15.1107168"><ele>924</ele></trkpt>
<trkpt lat="47.5876432" lon="15.1108631"><ele>926</ele></trkpt>
<trkpt lat="47.5878056" lon="15.1109902"><ele>928</ele></trkpt>
<trkpt lat="47.5879653" lon="15.111143"><ele>930</ele></trkpt>
<trkpt lat="47.5880908" lon="15.1113348"><ele>932</ele></trkpt>
<trkpt lat="47.5882162" lon="15.1115336"><ele>933</ele></trkpt>
<trkpt lat="47.5883664" lon="15.1117203"><ele>935</ele></trkpt>
<trkpt lat="47.5885358" lon="15.1118622"><ele>936</ele></trkpt>
<trkpt lat="47.5886763" lon="15.1120454"><ele>937</ele></trkpt>
<trkpt lat="47.5888008" lon="15.1122588"><ele>940</ele></trkpt>
<trkpt lat="47.5889619" lon="15.1123939"><ele>943</ele></trkpt>
<trkpt lat="47.5891323" lon="15.1124878"><ele>945</ele></trkpt>
<trkpt lat="47.5893129" lon="15.112515"><ele>948</ele></trkpt>
<trkpt lat="47.5894883" lon="15.1126193"><ele>951</ele></trkpt>
<trkpt lat="47.5896438" lon="15.1127718"><ele>954</ele></trkpt>
<trkpt lat="47.5897761" lon="15.1129566"><ele>957</ele></trkpt>
<trkpt lat="47.5898816" lon="15.1131765"><ele>960</ele></trkpt>
<trkpt lat="47.5900259" lon="15.1134019"><ele>964</ele></trkpt>
<trkpt lat="47.5901984" lon="15.1135148"><ele>966</ele></trkpt>
<trkpt lat="47.5903746" lon="15.1135844"><ele>969</ele></trkpt>
<trkpt lat="47.5905618" lon="15.1136909"><ele>972</ele></trkpt>
<trkpt lat="47.5907447" lon="15.113719"><ele>974</ele></trkpt>
<trkpt lat="47.5909275" lon="15.1137868"><ele>976</ele></trkpt>
<trkpt lat="47.5910906" lon="15.1138992"><ele>977</ele></trkpt>
<trkpt lat="47.591265" lon="15.1139765"><ele>978</ele></trkpt>
<trkpt lat="47.5914429" lon="15.1140623"><ele>979</ele></trkpt>
<trkpt lat="47.5915908" lon="15.1142145"><ele>980</ele></trkpt>
<trkpt lat="47.5917093" lon="15.1144221"><ele>983</ele></trkpt>
<trkpt lat="47.5917756" lon="15.1146826"><ele>986</ele></trkpt>
<trkpt lat="47.5918201" lon="15.1149571"><ele>989</ele></trkpt>
<trkpt lat="47.5918597" lon="15.1152309"><ele>992</ele></trkpt>
<trkpt lat="47.5920249" lon="15.1153462"><ele>997</ele></trkpt>
<trkpt lat="47.5921731" lon="15.1155093"><ele>1004</ele></trkpt>
<trkpt lat="47.5923345" lon="15.1156349"><ele>1010</ele></trkpt>
<trkpt lat="47.5925035" lon="15.115729"><ele>1017</ele></trkpt>
<trkpt lat="47.5926745" lon="15.1158409"><ele>1023</ele></trkpt>
<trkpt lat="47.5928589" lon="15.1158596"><ele>1032</ele></trkpt>
<trkpt lat="47.5930228" lon="15.1159912"><ele>1040</ele></trkpt>
<trkpt lat="47.5931771" lon="15.1158527"><ele>1048</ele></trkpt>
<trkpt lat="47.5933457" lon="15.1157248"><ele>1057</ele></trkpt>
<trkpt lat="47.5935203" lon="15.1156378"><ele>1060</ele></trkpt>
<trkpt lat="47.5937081" lon="15.1156621"><ele>1056</ele></trkpt>
<trkpt lat="47.5937734" lon="15.1159295"><ele>1051</ele></trkpt>
<trkpt lat="47.5935949" lon="15.115999"><ele>1048</ele></trkpt>
<trkpt lat="47.593429" lon="15.1161035"><ele>1044</ele></trkpt>
<trkpt lat="47.5934032" lon="15.1163758"><ele>1049</ele></trkpt>
<trkpt lat="47.5934504" lon="15.1166422"><ele>1055</ele></trkpt>
<trkpt lat="47.5933517" lon="15.1168729"><ele>1061</ele></trkpt>
<trkpt lat="47.5933427" lon="15.1171539"><ele>1067</ele></trkpt>
<trkpt lat="47.5933085" lon="15.1174262"><ele>1073</ele></trkpt>
<trkpt lat="47.5931417" lon="15.1175558"><ele>1078</ele></trkpt>
<trkpt lat="47.5929569" lon="15.1176302"><ele>1084</ele></trkpt>
<trkpt lat="47.5927879" lon="15.1177651"><ele>1089</ele></trkpt>
<trkpt lat="47.592851" lon="15.1180209"><ele>1095</ele></trkpt>
<trkpt lat="47.5930002" lon="15.1181733"><ele>1106</ele></trkpt>
<trkpt lat="47.5931351" lon="15.118365"><ele>1117</ele></trkpt>
<trkpt lat="47.5932309" lon="15.1185964"><ele>1129</ele></trkpt>
<trkpt lat="47.5933787" lon="15.1187523"><ele>1140</ele></trkpt>
<trkpt lat="47.593468" lon="15.1190097"><ele>1145</ele></trkpt>
<trkpt lat="47.5935061" lon="15.1192721"><ele>1143</ele></trkpt>
<trkpt lat="47.593446" lon="15.1195431"><ele>1142</ele></trkpt>
<trkpt lat="47.5935231" lon="15.1197881"><ele>1141</ele></trkpt>
<trkpt lat="47.5936304" lon="15.1200058"><ele>1140</ele></trkpt>
<trkpt lat="47.5938031" lon="15.1200936"><ele>1144</ele></trkpt>
<trkpt lat="47.5939616" lon="15.1202245"><ele>1149</ele></trkpt>
<trkpt lat="47.5941282" lon="15.1203401"><ele>1154</ele></trkpt>
<trkpt lat="47.5943129" lon="15.1203576"><ele>1159</ele></trkpt>
<trkpt lat="47.5944793" lon="15.1204762"><ele>1165</ele></trkpt>
<trkpt lat="47.5946408" lon="15.120602"><ele>1173</ele></trkpt>
<trkpt lat="47.5947969" lon="15.1207463"><ele>1181</ele></trkpt>
<trkpt lat="47.5949642" lon="15.1208562"><ele>1189</ele></trkpt>
<trkpt lat="47.5951707" lon="15.1208713"><ele>1197</ele></trkpt>
<trkpt lat="47.5953502" lon="15.1208002"><ele>1188</ele></trkpt>
<trkpt lat="47.5950014" lon="15.120722"><ele>1171</ele></trkpt>
<trkpt lat="47.5948199" lon="15.1207468"><ele>1162</ele></trkpt>
<trkpt lat="47.5946402" lon="15.1207992"><ele>1158</ele></trkpt>
<trkpt lat="47.5946016" lon="15.1210646"><ele>1162</ele></trkpt>
<trkpt lat="47.5946711" lon="15.1213361"><ele>1166</ele></trkpt>
<trkpt lat="47.5948202" lon="15.1215054"><ele>1169</ele></trkpt>
<trkpt lat="47.5949023" lon="15.1217485"><ele>1173</ele></trkpt>
<trkpt lat="47.5950496" lon="15.121945"><ele>1183</ele></trkpt>
<trkpt lat="47.5951636" lon="15.1221702"><ele>1192</ele></trkpt>
<trkpt lat="47.5953164" lon="15.1223181"><ele>1201</ele></trkpt>
<trkpt lat="47.5954991" lon="15.1224275"><ele>1211</ele></trkpt>
<trkpt lat="47.5956789" lon="15.1224543"><ele>1219</ele></trkpt>
<trkpt lat="47.595865" lon="15.1224104"><ele>1224</ele></trkpt>
<trkpt lat="47.5960358" lon="15.1222875"><ele>1230</ele></trkpt>
<trkpt lat="47.5961186" lon="15.1220471"><ele>1236</ele></trkpt>
<trkpt lat="47.5961295" lon="15.1217801"><ele>1242</ele></trkpt>
<trkpt lat="47.5961563" lon="15.1215091"><ele>1250</ele></trkpt>
<trkpt lat="47.5962444" lon="15.1212747"><ele>1259</ele></trkpt>
<trkpt lat="47.596369" lon="15.1210696"><ele>1268</ele></trkpt>
<trkpt lat="47.5965566" lon="15.1210324"><ele>1277</ele></trkpt>
<trkpt lat="47.596744" lon="15.1209605"><ele>1287</ele></trkpt>
<trkpt lat="47.5969284" lon="15.120877"><ele>1297</ele></trkpt>
<trkpt lat="47.5969556" lon="15.1206063"><ele>1307</ele></trkpt>
<trkpt lat="47.5971022" lon="15.1204005"><ele>1317</ele></trkpt>
<trkpt lat="47.5971922" lon="15.1201694"><ele>1326</ele></trkpt>
<trkpt lat="47.5972908" lon="15.119941"><ele>1333</ele></trkpt>
<trkpt lat="47.5974613" lon="15.119853"><ele>1339</ele></trkpt>
<trkpt lat="47.5976477" lon="15.1197377"><ele>1347</ele></trkpt>
<trkpt lat="47.5978335" lon="15.1197346"><ele>1353</ele></trkpt>
<trkpt lat="47.5980008" lon="15.119564"><ele>1365</ele></trkpt>
<trkpt lat="47.5981247" lon="15.1193637"><ele>1378</ele></trkpt>
<trkpt lat="47.5982876" lon="15.1192438"><ele>1390</ele></trkpt>
<trkpt lat="47.5984596" lon="15.1191492"><ele>1402</ele></trkpt>
<trkpt lat="47.5986369" lon="15.1190859"><ele>1415</ele></trkpt>
<trkpt lat="47.5988177" lon="15.1190652"><ele>1428</ele></trkpt>
<trkpt lat="47.5989986" lon="15.1190554"><ele>1440</ele></trkpt>
<trkpt lat="47.5991714" lon="15.1191386"><ele>1453</ele></trkpt>
<trkpt lat="47.5993483" lon="15.1190798"><ele>1465</ele></trkpt>
<trkpt lat="47.5995193" lon="15.1189747"><ele>1476</ele></trkpt>
<trkpt lat="47.5997041" lon="15.1189974"><ele>1485</ele></trkpt>
<trkpt lat="47.5998321" lon="15.11881"><ele>1494</ele></trkpt>
<trkpt lat="47.6000166" lon="15.1187613"><ele>1503</ele></trkpt>
<trkpt lat="47.6001981" lon="15.1187249"><ele>1512</ele></trkpt>
<trkpt lat="47.6003272" lon="15.1185262"><ele>1521</ele></trkpt>
<trkpt lat="47.6004303" lon="15.1182946"><ele>1530</ele></trkpt>
<trkpt lat="47.6005535" lon="15.1180964"><ele>1539</ele></trkpt>
<trkpt lat="47.6007151" lon="15.1179769"><ele>1548</ele></trkpt>
<trkpt lat="47.6008539" lon="15.1178067"><ele>1556</ele></trkpt>
<trkpt lat="47.6010385" lon="15.1177963"><ele>1564</ele></trkpt>
<trkpt lat="47.601176" lon="15.1176172"><ele>1572</ele></trkpt>
<trkpt lat="47.6012782" lon="15.117394"><ele>1579</ele></trkpt>
<trkpt lat="47.601435" lon="15.1172557"><ele>1587</ele></trkpt>
<trkpt lat="47.6016004" lon="15.1171466"><ele>1600</ele></trkpt>
<trkpt lat="47.6017809" lon="15.1171233"><ele>1613</ele></trkpt>
<trkpt lat="47.6019657" lon="15.1170902"><ele>1627</ele></trkpt>
<trkpt lat="47.6020893" lon="15.1172912"><ele>1641</ele></trkpt>
<trkpt lat="47.6022252" lon="15.1174733"><ele>1654</ele></trkpt>
<trkpt lat="47.6024059" lon="15.1174918"><ele>1666</ele></trkpt>
<trkpt lat="47.6024997" lon="15.1177216"><ele>1679</ele></trkpt>
<trkpt lat="47.6026747" lon="15.1177915"><ele>1692</ele></trkpt>
<trkpt lat="47.6028522" lon="15.1178622"><ele>1704</ele></trkpt>
<trkpt lat="47.6030328" lon="15.1178946"><ele>1715</ele></trkpt>
<trkpt lat="47.6032017" lon="15.1177906"><ele>1726</ele></trkpt>
<trkpt lat="47.6033792" lon="15.1177397"><ele>1737</ele></trkpt>
<trkpt lat="47.6034828" lon="15.117958"><ele>1747</ele></trkpt>
<trkpt lat="47.6036595" lon="15.1180183"><ele>1759</ele></trkpt>
<trkpt lat="47.6038394" lon="15.1179957"><ele>1779</ele></trkpt>
<trkpt lat="47.6040177" lon="15.1179398"><ele>1798</ele></trkpt>
<trkpt lat="47.6041553" lon="15.118126"><ele>1818</ele></trkpt>
<trkpt lat="47.6043305" lon="15.1181875"><ele>1838</ele></trkpt>
<trkpt lat="47.6044956" lon="15.1180703"><ele>1869</ele></trkpt>
<trkpt lat="47.6045929" lon="15.1178452"><ele>1909</ele></trkpt>
<trkpt lat="47.6046502" lon="15.1177567"><ele>1927</ele></trkpt>
<trkpt lat="47.6048276" lon="15.1178058"><ele>1968</ele></trkpt>
<trkpt lat="47.6049703" lon="15.117634"><ele>2008</ele></trkpt>
<trkpt lat="47.605135" lon="15.117517"><ele>2036</ele></trkpt>
<trkpt lat="47.6052972" lon="15.1173374"><ele>2045</ele></trkpt>
<trkpt lat="47.6054677" lon="15.11725"><ele>2053</ele></trkpt>
<trkpt lat="47.6056463" lon="15.1174535"><ele>2063</ele></trkpt>
<trkpt lat="47.6057973" lon="15.1176152"><ele>2071</ele></trkpt>
<trkpt lat="47.6057479" lon="15.1176358"><ele>2073</ele></trkpt>
<trkpt lat="47.6055836" lon="15.1177477"><ele>2079</ele></trkpt>
<trkpt lat="47.6054254" lon="15.1176199"><ele>2086</ele></trkpt>
<trkpt lat="47.6053437" lon="15.1176932"><ele>2090</ele></trkpt>
<trkpt lat="47.6054496" lon="15.1179094"><ele>2096</ele></trkpt>
<trkpt lat="47.605443" lon="15.1181817"><ele>2101</ele></trkpt>
<trkpt lat="47.6054456" lon="15.1184641"><ele>2101</ele></trkpt>
<trkpt lat="47.6055151" lon="15.1187125"><ele>2101</ele></trkpt>
<trkpt lat="47.6056574" lon="15.1188955"><ele>2101</ele></trkpt>
<trkpt lat="47.6058329" lon="15.1189859"><ele>2101</ele></trkpt>
<trkpt lat="47.6060136" lon="15.1190539"><ele>2104</ele></trkpt>
<trkpt lat="47.6062029" lon="15.1190584"><ele>2108</ele></trkpt>
<trkpt lat="47.6063831" lon="15.1190549"><ele>2112</ele></trkpt>
<trkpt lat="47.6065734" lon="15.1190961"><ele>2116</ele></trkpt>
<trkpt lat="47.606746" lon="15.1189912"><ele>2120</ele></trkpt>
<trkpt lat="47.6069056" lon="15.1188389"><ele>2123</ele></trkpt>
<trkpt lat="47.6070717" lon="15.1187252"><ele>2127</ele></trkpt>
<trkpt lat="47.607192" lon="15.118517"><ele>2130</ele></trkpt>
<trkpt lat="47.6073794" lon="15.1184883"><ele>2133</ele></trkpt>
<trkpt lat="47.6075619" lon="15.1184933"><ele>2130</ele></trkpt>
<trkpt lat="47.6077424" lon="15.11846"><ele>2126</ele></trkpt>
<trkpt lat="47.6078851" lon="15.1182854"><ele>2123</ele></trkpt>
<trkpt lat="47.6079366" lon="15.1180263"><ele>2119</ele></trkpt>
<trkpt lat="47.6080398" lon="15.1177974"><ele>2111</ele></trkpt>
<trkpt lat="47.6081907" lon="15.1176315"><ele>2097</ele></trkpt>
<trkpt lat="47.6082833" lon="15.1175255"><ele>2089</ele></trkpt>
<trkpt lat="47.6084214" lon="15.1173543"><ele>2075</ele></trkpt>
<trkpt lat="47.6085638" lon="15.1171767"><ele>2061</ele></trkpt>
<trkpt lat="47.6086254" lon="15.1169203"><ele>2051</ele></trkpt>
<trkpt lat="47.6087359" lon="15.1166876"><ele>2045</ele></trkpt>
<trkpt lat="47.6088776" lon="15.1165057"><ele>2039</ele></trkpt>
<trkpt lat="47.6087763" lon="15.1162722"><ele>2033</ele></trkpt>
<trkpt lat="47.6087538" lon="15.1160007"><ele>2028</ele></trkpt>
<trkpt lat="47.6088149" lon="15.1157435"><ele>2026</ele></trkpt>
<trkpt lat="47.6088679" lon="15.1154554"><ele>2025</ele></trkpt>
<trkpt lat="47.6088668" lon="15.1151828"><ele>2024</ele></trkpt>
<trkpt lat="47.6089232" lon="15.1149269"><ele>2023</ele></trkpt>
<trkpt lat="47.6087852" lon="15.1147406"><ele>2020</ele></trkpt>
<trkpt lat="47.6087849" lon="15.114466"><ele>2016</ele></trkpt>
<trkpt lat="47.6086851" lon="15.1142206"><ele>2012</ele></trkpt>
<trkpt lat="47.6086245" lon="15.113969"><ele>2008</ele></trkpt>
<trkpt lat="47.6085327" lon="15.11373"><ele>2004</ele></trkpt>
<trkpt lat="47.6083869" lon="15.113559"><ele>1998</ele></trkpt>
<trkpt lat="47.6082484" lon="15.1133791"><ele>1992</ele></trkpt>
<trkpt lat="47.6081426" lon="15.1131632"><ele>1986</ele></trkpt>
<trkpt lat="47.6079862" lon="15.1129825"><ele>1979</ele></trkpt>
<trkpt lat="47.6078495" lon="15.1127979"><ele>1974</ele></trkpt>
<trkpt lat="47.6076713" lon="15.1127543"><ele>1971</ele></trkpt>
<trkpt lat="47.6074876" lon="15.1127493"><ele>1967</ele></trkpt>
<trkpt lat="47.6072979" lon="15.1127763"><ele>1963</ele></trkpt>
<trkpt lat="47.6070807" lon="15.1130631"><ele>1955</ele></trkpt>
<trkpt lat="47.6071369" lon="15.112798"><ele>1947</ele></trkpt>
<trkpt lat="47.6069656" lon="15.1127106"><ele>1939</ele></trkpt>
<trkpt lat="47.6068312" lon="15.1128942"><ele>1931</ele></trkpt>
<trkpt lat="47.6066782" lon="15.1130451"><ele>1923</ele></trkpt>
<trkpt lat="47.6064822" lon="15.1130272"><ele>1914</ele></trkpt>
<trkpt lat="47.6063214" lon="15.1131641"><ele>1906</ele></trkpt>
<trkpt lat="47.6061788" lon="15.1133365"><ele>1897</ele></trkpt>
<trkpt lat="47.6061299" lon="15.1136016"><ele>1889</ele></trkpt>
<trkpt lat="47.6059861" lon="15.1137731"><ele>1879</ele></trkpt>
<trkpt lat="47.6058112" lon="15.1136844"><ele>1868</ele></trkpt>
<trkpt lat="47.6056994" lon="15.1139029"><ele>1857</ele></trkpt>
<trkpt lat="47.6054931" lon="15.1137755"><ele>1843</ele></trkpt>
<trkpt lat="47.605317" lon="15.1138389"><ele>1832</ele></trkpt>
<trkpt lat="47.6052506" lon="15.1140882"><ele>1818</ele></trkpt>
<trkpt lat="47.6050851" lon="15.1142134"><ele>1803</ele></trkpt>
<trkpt lat="47.6049111" lon="15.1143162"><ele>1789</ele></trkpt>
<trkpt lat="47.6047314" lon="15.1143562"><ele>1774</ele></trkpt>
<trkpt lat="47.6045425" lon="15.1143924"><ele>1764</ele></trkpt>
<trkpt lat="47.6045303" lon="15.1143505"><ele>1763</ele></trkpt>
<trkpt lat="47.6043512" lon="15.114381"><ele>1754</ele></trkpt>
<trkpt lat="47.6041758" lon="15.1144502"><ele>1746</ele></trkpt>
<trkpt lat="47.6040347" lon="15.1146227"><ele>1737</ele></trkpt>
<trkpt lat="47.6038942" lon="15.1148065"><ele>1727</ele></trkpt>
<trkpt lat="47.6037776" lon="15.1150226"><ele>1714</ele></trkpt>
<trkpt lat="47.6037632" lon="15.1152885"><ele>1701</ele></trkpt>
<trkpt lat="47.6035934" lon="15.1153875"><ele>1689</ele></trkpt>
<trkpt lat="47.6034257" lon="15.1155182"><ele>1676</ele></trkpt>
<trkpt lat="47.6032565" lon="15.1156142"><ele>1664</ele></trkpt>
<trkpt lat="47.6030752" lon="15.1155444"><ele>1653</ele></trkpt>
<trkpt lat="47.6028852" lon="15.1155535"><ele>1641</ele></trkpt>
<trkpt lat="47.6027202" lon="15.1156882"><ele>1630</ele></trkpt>
<trkpt lat="47.602582" lon="15.1158844"><ele>1620</ele></trkpt>
<trkpt lat="47.6024443" lon="15.1160754"><ele>1612</ele></trkpt>
<trkpt lat="47.6022776" lon="15.1161838"><ele>1605</ele></trkpt>
<trkpt lat="47.6022204" lon="15.1164549"><ele>1598</ele></trkpt>
<trkpt lat="47.6022545" lon="15.1167202"><ele>1590</ele></trkpt>
<trkpt lat="47.6021414" lon="15.11694"><ele>1582</ele></trkpt>
<trkpt lat="47.6015057" lon="15.1170317"><ele>1554</ele></trkpt>
<trkpt lat="47.6013255" lon="15.1171167"><ele>1546</ele></trkpt>
<trkpt lat="47.6011944" lon="15.1172999"><ele>1538</ele></trkpt>
<trkpt lat="47.6010579" lon="15.117488"><ele>1531</ele></trkpt>
<trkpt lat="47.6008869" lon="15.1175782"><ele>1523</ele></trkpt>
<trkpt lat="47.6007023" lon="15.1175746"><ele>1515</ele></trkpt>
<trkpt lat="47.6005362" lon="15.1176829"><ele>1506</ele></trkpt>
<trkpt lat="47.6004186" lon="15.1178998"><ele>1497</ele></trkpt>
<trkpt lat="47.6002622" lon="15.1180389"><ele>1489</ele></trkpt>
<trkpt lat="47.6002314" lon="15.1183059"><ele>1480</ele></trkpt>
<trkpt lat="47.6001051" lon="15.1185087"><ele>1468</ele></trkpt>
<trkpt lat="47.5999196" lon="15.1185377"><ele>1456</ele></trkpt>
<trkpt lat="47.5997506" lon="15.1186568"><ele>1444</ele></trkpt>
<trkpt lat="47.5996457" lon="15.1188838"><ele>1432</ele></trkpt>
<trkpt lat="47.599472" lon="15.1189604"><ele>1420</ele></trkpt>
<trkpt lat="47.5993167" lon="15.1191055"><ele>1407</ele></trkpt>
<trkpt lat="47.5991389" lon="15.119175"><ele>1394</ele></trkpt>
<trkpt lat="47.5989645" lon="15.1190995"><ele>1381</ele></trkpt>
<trkpt lat="47.5987812" lon="15.1191433"><ele>1368</ele></trkpt>
<trkpt lat="47.5985908" lon="15.119115"><ele>1359</ele></trkpt>
<trkpt lat="47.5984216" lon="15.1192174"><ele>1352</ele></trkpt>
<trkpt lat="47.5982482" lon="15.1193149"><ele>1345</ele></trkpt>
<trkpt lat="47.5980866" lon="15.11944"><ele>1338</ele></trkpt>
<trkpt lat="47.5979301" lon="15.1195844"><ele>1331</ele></trkpt>
<trkpt lat="47.5977747" lon="15.119733"><ele>1321</ele></trkpt>
<trkpt lat="47.5975888" lon="15.1197395"><ele>1310</ele></trkpt>
<trkpt lat="47.597447" lon="15.1199058"><ele>1300</ele></trkpt>
<trkpt lat="47.5972687" lon="15.1199447"><ele>1291</ele></trkpt>
<trkpt lat="47.5972572" lon="15.1202204"><ele>1281</ele></trkpt>
<trkpt lat="47.5971066" lon="15.120371"><ele>1272</ele></trkpt>
<trkpt lat="47.5969484" lon="15.1205198"><ele>1263</ele></trkpt>
<trkpt lat="47.5968662" lon="15.1207652"><ele>1254</ele></trkpt>
<trkpt lat="47.5967482" lon="15.1209685"><ele>1245</ele></trkpt>
<trkpt lat="47.5965765" lon="15.1210553"><ele>1241</ele></trkpt>
<trkpt lat="47.596394" lon="15.1210194"><ele>1237</ele></trkpt>
<trkpt lat="47.5962626" lon="15.1212071"><ele>1233</ele></trkpt>
<trkpt lat="47.5961211" lon="15.1213975"><ele>1228</ele></trkpt>
<trkpt lat="47.5961219" lon="15.1216655"><ele>1221</ele></trkpt>
<trkpt lat="47.5961006" lon="15.1219421"><ele>1211</ele></trkpt>
<trkpt lat="47.5960411" lon="15.122195"><ele>1202</ele></trkpt>
<trkpt lat="47.5958948" lon="15.122352"><ele>1192</ele></trkpt>
<trkpt lat="47.5956964" lon="15.1223869"><ele>1181</ele></trkpt>
<trkpt lat="47.5955134" lon="15.1223994"><ele>1177</ele></trkpt>
<trkpt lat="47.595374" lon="15.1222277"><ele>1173</ele></trkpt>
<trkpt lat="47.5952056" lon="15.1221304"><ele>1168</ele></trkpt>
<trkpt lat="47.5950996" lon="15.1219143"><ele>1164</ele></trkpt>
<trkpt lat="47.5950127" lon="15.121666"><ele>1161</ele></trkpt>
<trkpt lat="47.5948582" lon="15.121509"><ele>1159</ele></trkpt>
<trkpt lat="47.594762" lon="15.1212609"><ele>1156</ele></trkpt>
<trkpt lat="47.5947366" lon="15.1209897"><ele>1155</ele></trkpt>
<trkpt lat="47.5948203" lon="15.1207406"><ele>1152</ele></trkpt>
<trkpt lat="47.5946507" lon="15.1206203"><ele>1149</ele></trkpt>
<trkpt lat="47.5945036" lon="15.1204634"><ele>1145</ele></trkpt>
<trkpt lat="47.5943681" lon="15.1202846"><ele>1142</ele></trkpt>
<trkpt lat="47.5941793" lon="15.120254"><ele>1138</ele></trkpt>
<trkpt lat="47.5939923" lon="15.1202281"><ele>1137</ele></trkpt>
<trkpt lat="47.5938162" lon="15.120127"><ele>1138</ele></trkpt>
<trkpt lat="47.5936509" lon="15.1200121"><ele>1138</ele></trkpt>
<trkpt lat="47.5935146" lon="15.1198254"><ele>1139</ele></trkpt>
<trkpt lat="47.5934718" lon="15.1195525"><ele>1139</ele></trkpt>
<trkpt lat="47.5935211" lon="15.1192675"><ele>1125</ele></trkpt>
<trkpt lat="47.5935522" lon="15.1189977"><ele>1112</ele></trkpt>
<trkpt lat="47.5934287" lon="15.1187902"><ele>1099</ele></trkpt>
<trkpt lat="47.5933126" lon="15.1185781"><ele>1086</ele></trkpt>
<trkpt lat="47.593197" lon="15.118353"><ele>1081</ele></trkpt>
<trkpt lat="47.5930736" lon="15.1181419"><ele>1082</ele></trkpt>
<trkpt lat="47.5928931" lon="15.1180673"><ele>1083</ele></trkpt>
<trkpt lat="47.5927627" lon="15.1178812"><ele>1084</ele></trkpt>
<trkpt lat="47.5928752" lon="15.1176603"><ele>1084</ele></trkpt>
<trkpt lat="47.5930568" lon="15.1176933"><ele>1082</ele></trkpt>
<trkpt lat="47.5932443" lon="15.1176655"><ele>1079</ele></trkpt>
<trkpt lat="47.5933687" lon="15.1174532"><ele>1076</ele></trkpt>
<trkpt lat="47.5934557" lon="15.1171906"><ele>1073</ele></trkpt>
<trkpt lat="47.5935472" lon="15.1169436"><ele>1070</ele></trkpt>
<trkpt lat="47.5936628" lon="15.1167367"><ele>1067</ele></trkpt>
<trkpt lat="47.5936766" lon="15.1164489"><ele>1063</ele></trkpt>
<trkpt lat="47.5936592" lon="15.1161826"><ele>1060</ele></trkpt>
<trkpt lat="47.5936874" lon="15.115919"><ele>1056</ele></trkpt>
<trkpt lat="47.5938306" lon="15.1156274"><ele>1048</ele></trkpt>
<trkpt lat="47.5937326" lon="15.1153957"><ele>1042</ele></trkpt>
<trkpt lat="47.593534" lon="15.11541"><ele>1036</ele></trkpt>
<trkpt lat="47.5933478" lon="15.115509"><ele>1029</ele></trkpt>
<trkpt lat="47.5932139" lon="15.1157189"><ele>1022</ele></trkpt>
<trkpt lat="47.5932414" lon="15.1159826"><ele>1015</ele></trkpt>
<trkpt lat="47.5930808" lon="15.1161043"><ele>1009</ele></trkpt>
<trkpt lat="47.5929302" lon="15.1159498"><ele>1002</ele></trkpt>
<trkpt lat="47.5927766" lon="15.1158097"><ele>997</ele></trkpt>
<trkpt lat="47.5926026" lon="15.1157023"><ele>993</ele></trkpt>
<trkpt lat="47.5924204" lon="15.1156467"><ele>989</ele></trkpt>
<trkpt lat="47.5922566" lon="15.1155044"><ele>985</ele></trkpt>
<trkpt lat="47.5920926" lon="15.1153512"><ele>981</ele></trkpt>
<trkpt lat="47.5919277" lon="15.1152045"><ele>980</ele></trkpt>
<trkpt lat="47.591884" lon="15.114924"><ele>980</ele></trkpt>
<trkpt lat="47.5918726" lon="15.1146364"><ele>979</ele></trkpt>
<trkpt lat="47.5918433" lon="15.1143525"><ele>978</ele></trkpt>
<trkpt lat="47.5917654" lon="15.1140931"><ele>976</ele></trkpt>
<trkpt lat="47.5916169" lon="15.1139299"><ele>974</ele></trkpt>
<trkpt lat="47.5914343" lon="15.1139182"><ele>973</ele></trkpt>
<trkpt lat="47.591257" lon="15.1138717"><ele>971</ele></trkpt>
<trkpt lat="47.5910806" lon="15.1138142"><ele>969</ele></trkpt>
<trkpt lat="47.5908902" lon="15.1137324"><ele>965</ele></trkpt>
<trkpt lat="47.5907264" lon="15.1135825"><ele>962</ele></trkpt>
<trkpt lat="47.5905464" lon="15.113591"><ele>958</ele></trkpt>
<trkpt lat="47.5903632" lon="15.1135182"><ele>955</ele></trkpt>
<trkpt lat="47.5901757" lon="15.1134787"><ele>952</ele></trkpt>
<trkpt lat="47.5900039" lon="15.1133099"><ele>949</ele></trkpt>
<trkpt lat="47.5898938" lon="15.1130909"><ele>946</ele></trkpt>
<trkpt lat="47.5897742" lon="15.1128889"><ele>943</ele></trkpt>
<trkpt lat="47.5896585" lon="15.1126708"><ele>941</ele></trkpt>
<trkpt lat="47.5894798" lon="15.1125626"><ele>939</ele></trkpt>
<trkpt lat="47.5893275" lon="15.1124159"><ele>937</ele></trkpt>
<trkpt lat="47.5891532" lon="15.1123246"><ele>935</ele></trkpt>
<trkpt lat="47.5889818" lon="15.1121733"><ele>933</ele></trkpt>
<trkpt lat="47.5888187" lon="15.1120406"><ele>932</ele></trkpt>
<trkpt lat="47.5886691" lon="15.1118905"><ele>930</ele></trkpt>
<trkpt lat="47.5885166" lon="15.1117406"><ele>928</ele></trkpt>
<trkpt lat="47.588372" lon="15.1115721"><ele>926</ele></trkpt>
<trkpt lat="47.5882234" lon="15.1114084"><ele>925</ele></trkpt>
<trkpt lat="47.5880766" lon="15.1112451"><ele>923</ele></trkpt>
<trkpt lat="47.5879261" lon="15.1110739"><ele>921</ele></trkpt>
<trkpt lat="47.5878052" lon="15.1108698"><ele>919</ele></trkpt>
<trkpt lat="47.5876408" lon="15.1107462"><ele>917</ele></trkpt>
<trkpt lat="47.5874622" lon="15.1106395"><ele>915</ele></trkpt>
<trkpt lat="47.5872943" lon="15.1105178"><ele>913</ele></trkpt>
<trkpt lat="47.5871177" lon="15.1103683"><ele>912</ele></trkpt>
<trkpt lat="47.586934" lon="15.1102463"><ele>910</ele></trkpt>
<trkpt lat="47.5867637" lon="15.1101279"><ele>909</ele></trkpt>
<trkpt lat="47.5866009" lon="15.1100101"><ele>907</ele></trkpt>
<trkpt lat="47.5864308" lon="15.1099181"><ele>906</ele></trkpt>
<trkpt lat="47.5862436" lon="15.1097974"><ele>905</ele></trkpt>
<trkpt lat="47.5860619" lon="15.1097923"><ele>903</ele></trkpt>
<trkpt lat="47.5858884" lon="15.1097191"><ele>902</ele></trkpt>
<trkpt lat="47.5857007" lon="15.1096639"><ele>901</ele></trkpt>
<trkpt lat="47.5855233" lon="15.1096091"><ele>900</ele></trkpt>
<trkpt lat="47.5853333" lon="15.1096502"><ele>899</ele></trkpt>
<trkpt lat="47.5851413" lon="15.1096694"><ele>897</ele></trkpt>
<trkpt lat="47.58496" lon="15.1097434"><ele>896</ele></trkpt>
<trkpt lat="47.5847826" lon="15.1098153"><ele>895</ele></trkpt>
<trkpt lat="47.5845992" lon="15.1098603"><ele>893</ele></trkpt>
<trkpt lat="47.5844189" lon="15.1099088"><ele>892</ele></trkpt>
<trkpt lat="47.5842328" lon="15.1099758"><ele>892</ele></trkpt>
<trkpt lat="47.5840485" lon="15.1100313"><ele>891</ele></trkpt>
<trkpt lat="47.5838598" lon="15.1099863"><ele>890</ele></trkpt>
<trkpt lat="47.5836791" lon="15.1099548"><ele>890</ele></trkpt>
<trkpt lat="47.5834962" lon="15.1099094"><ele>890</ele></trkpt>
<trkpt lat="47.5833103" lon="15.1098807"><ele>891</ele></trkpt>
<trkpt lat="47.5831135" lon="15.1099047"><ele>891</ele></trkpt>
<trkpt lat="47.5829336" lon="15.1098702"><ele>892</ele></trkpt>
<trkpt lat="47.5827424" lon="15.1098653"><ele>893</ele></trkpt>
<trkpt lat="47.5825658" lon="15.1099605"><ele>893</ele></trkpt>
<trkpt lat="47.5823847" lon="15.110056"><ele>893</ele></trkpt>
<trkpt lat="47.5822128" lon="15.1101356"><ele>893</ele></trkpt>
<trkpt lat="47.5820516" lon="15.1103183"><ele>893</ele></trkpt>
<trkpt lat="47.5819249" lon="15.1105264"><ele>892</ele></trkpt>
<trkpt lat="47.5818065" lon="15.1107456"><ele>891</ele></trkpt>
<trkpt lat="47.5816914" lon="15.1109517"><ele>891</ele></trkpt>
<trkpt lat="47.5815616" lon="15.1111405"><ele>890</ele></trkpt>
<trkpt lat="47.5814533" lon="15.1113681"><ele>889</ele></trkpt>
<trkpt lat="47.581305" lon="15.1115487"><ele>888</ele></trkpt>
<trkpt lat="47.5811668" lon="15.1117287"><ele>887</ele></trkpt>
<trkpt lat="47.581026" lon="15.1118978"><ele>886</ele></trkpt>
<trkpt lat="47.5808829" lon="15.112083"><ele>886</ele></trkpt>
<trkpt lat="47.5807376" lon="15.112273"><ele>886</ele></trkpt>
<trkpt lat="47.5806012" lon="15.1124617"><ele>886</ele></trkpt>
<trkpt lat="47.5804485" lon="15.1126311"><ele>886</ele></trkpt>
<trkpt lat="47.5803366" lon="15.1128531"><ele>886</ele></trkpt>
<trkpt lat="47.5802249" lon="15.113078"><ele>886</ele></trkpt>
<trkpt lat="47.5801216" lon="15.113305"><ele>886</ele></trkpt>
<trkpt lat="47.5802474" lon="15.1134969"><ele>886</ele></trkpt>
<trkpt lat="47.5801959" lon="15.1132407"><ele>886</ele></trkpt>
<trkpt lat="47.5802371" lon="15.112976"><ele>886</ele></trkpt>
      </trkseg></trk>
   
</gpx>
   