<?xml version="1.0" encoding="UTF-8"?>
<gpx
  version="1.0"
  creator="GPSBabel - http://www.gpsbabel.org"
  xmlns:xsi="http://www.w3.org/2001/XMLSchema-instance"
  xmlns="http://www.topografix.com/GPX/1/0"
  xsi:schemaLocation="http://www.topografix.com/GPX/1/0 http://www.topografix.com/GPX/1/0/gpx.xsd">
<time>2013-09-04T16:08:23Z</time>
<bounds minlat="47.543420000" minlon="12.628720000" maxlat="47.563870000" maxlon="12.672140000"/>
<trk>
  <name>Klettersteig Nackter Hund</name>
<trkseg>
<trkpt lat="47.563870000" lon="12.672050000">
  <ele>798.000000</ele>
</trkpt>
<trkpt lat="47.563690000" lon="12.671280000">
  <ele>806.000000</ele>
</trkpt>
<trkpt lat="47.563500000" lon="12.670610000">
  <ele>817.000000</ele>
</trkpt>
<trkpt lat="47.563500000" lon="12.669460000">
  <ele>841.000000</ele>
</trkpt>
<trkpt lat="47.562690000" lon="12.668910000">
  <ele>836.000000</ele>
</trkpt>
<trkpt lat="47.561580000" lon="12.668370000">
  <ele>859.000000</ele>
</trkpt>
<trkpt lat="47.561240000" lon="12.668350000">
  <ele>866.000000</ele>
</trkpt>
<trkpt lat="47.561110000" lon="12.668470000">
  <ele>869.000000</ele>
</trkpt>
<trkpt lat="47.561110000" lon="12.668640000">
  <ele>871.000000</ele>
</trkpt>
<trkpt lat="47.560900000" lon="12.668720000">
  <ele>879.000000</ele>
</trkpt>
<trkpt lat="47.560940000" lon="12.669450000">
  <ele>895.000000</ele>
</trkpt>
<trkpt lat="47.560800000" lon="12.669400000">
  <ele>900.000000</ele>
</trkpt>
<trkpt lat="47.560900000" lon="12.670060000">
  <ele>903.000000</ele>
</trkpt>
<trkpt lat="47.560670000" lon="12.670810000">
  <ele>911.000000</ele>
</trkpt>
<trkpt lat="47.560340000" lon="12.670610000">
  <ele>929.000000</ele>
</trkpt>
<trkpt lat="47.559750000" lon="12.669440000">
  <ele>957.000000</ele>
</trkpt>
<trkpt lat="47.559830000" lon="12.669090000">
  <ele>960.000000</ele>
</trkpt>
<trkpt lat="47.559770000" lon="12.669000000">
  <ele>961.000000</ele>
</trkpt>
<trkpt lat="47.559610000" lon="12.669210000">
  <ele>973.000000</ele>
</trkpt>
<trkpt lat="47.559540000" lon="12.668750000">
  <ele>991.000000</ele>
</trkpt>
<trkpt lat="47.559430000" lon="12.668610000">
  <ele>1000.000000</ele>
</trkpt>
<trkpt lat="47.559300000" lon="12.668790000">
  <ele>1010.000000</ele>
</trkpt>
<trkpt lat="47.558870000" lon="12.668400000">
  <ele>1027.000000</ele>
</trkpt>
<trkpt lat="47.558610000" lon="12.667730000">
  <ele>1040.000000</ele>
</trkpt>
<trkpt lat="47.558330000" lon="12.666280000">
  <ele>1051.000000</ele>
</trkpt>
<trkpt lat="47.557980000" lon="12.666440000">
  <ele>1076.000000</ele>
</trkpt>
<trkpt lat="47.557860000" lon="12.666000000">
  <ele>1097.000000</ele>
</trkpt>
<trkpt lat="47.557930000" lon="12.665310000">
  <ele>1119.000000</ele>
</trkpt>
<trkpt lat="47.557810000" lon="12.665070000">
  <ele>1128.000000</ele>
</trkpt>
<trkpt lat="47.557780000" lon="12.664560000">
  <ele>1145.000000</ele>
</trkpt>
<trkpt lat="47.557620000" lon="12.664550000">
  <ele>1153.000000</ele>
</trkpt>
<trkpt lat="47.557600000" lon="12.664240000">
  <ele>1164.000000</ele>
</trkpt>
<trkpt lat="47.557440000" lon="12.664390000">
  <ele>1174.000000</ele>
</trkpt>
<trkpt lat="47.557390000" lon="12.663950000">
  <ele>1190.000000</ele>
</trkpt>
<trkpt lat="47.557230000" lon="12.663950000">
  <ele>1198.000000</ele>
</trkpt>
<trkpt lat="47.557230000" lon="12.663730000">
  <ele>1206.000000</ele>
</trkpt>
<trkpt lat="47.557020000" lon="12.663760000">
  <ele>1216.000000</ele>
</trkpt>
<trkpt lat="47.556990000" lon="12.663510000">
  <ele>1225.000000</ele>
</trkpt>
<trkpt lat="47.556830000" lon="12.663520000">
  <ele>1231.000000</ele>
</trkpt>
<trkpt lat="47.556680000" lon="12.663720000">
  <ele>1236.000000</ele>
</trkpt>
<trkpt lat="47.556580000" lon="12.663820000">
  <ele>1239.000000</ele>
</trkpt>
<trkpt lat="47.556520000" lon="12.663250000">
  <ele>1248.000000</ele>
</trkpt>
<trkpt lat="47.556810000" lon="12.662820000">
  <ele>1257.000000</ele>
</trkpt>
<trkpt lat="47.556880000" lon="12.662460000">
  <ele>1262.000000</ele>
</trkpt>
<trkpt lat="47.556980000" lon="12.662250000">
  <ele>1266.000000</ele>
</trkpt>
<trkpt lat="47.557020000" lon="12.662000000">
  <ele>1270.000000</ele>
</trkpt>
<trkpt lat="47.556950000" lon="12.661710000">
  <ele>1280.000000</ele>
</trkpt>
<trkpt lat="47.556340000" lon="12.661750000">
  <ele>1308.000000</ele>
</trkpt>
<trkpt lat="47.556680000" lon="12.660760000">
  <ele>1326.000000</ele>
</trkpt>
<trkpt lat="47.556240000" lon="12.659770000">
  <ele>1349.000000</ele>
</trkpt>
<trkpt lat="47.556020000" lon="12.659990000">
  <ele>1357.000000</ele>
</trkpt>
<trkpt lat="47.555910000" lon="12.659360000">
  <ele>1372.000000</ele>
</trkpt>
<trkpt lat="47.556350000" lon="12.658010000">
  <ele>1402.000000</ele>
</trkpt>
<trkpt lat="47.556280000" lon="12.657960000">
  <ele>1404.000000</ele>
</trkpt>
<trkpt lat="47.556640000" lon="12.657430000">
  <ele>1417.000000</ele>
</trkpt>
<trkpt lat="47.556880000" lon="12.657410000">
  <ele>1424.000000</ele>
</trkpt>
<trkpt lat="47.556720000" lon="12.657080000">
  <ele>1431.000000</ele>
</trkpt>
<trkpt lat="47.556650000" lon="12.656870000">
  <ele>1436.000000</ele>
</trkpt>
<trkpt lat="47.556310000" lon="12.656870000">
  <ele>1455.000000</ele>
</trkpt>
<trkpt lat="47.556090000" lon="12.656590000">
  <ele>1470.000000</ele>
</trkpt>
<trkpt lat="47.556210000" lon="12.656230000">
  <ele>1484.000000</ele>
</trkpt>
<trkpt lat="47.555830000" lon="12.656150000">
  <ele>1495.000000</ele>
</trkpt>
<trkpt lat="47.556070000" lon="12.655490000">
  <ele>1509.000000</ele>
</trkpt>
<trkpt lat="47.555470000" lon="12.655510000">
  <ele>1535.000000</ele>
</trkpt>
<trkpt lat="47.555100000" lon="12.655170000">
  <ele>1552.000000</ele>
</trkpt>
<trkpt lat="47.555220000" lon="12.654890000">
  <ele>1559.000000</ele>
</trkpt>
<trkpt lat="47.555120000" lon="12.654720000">
  <ele>1564.000000</ele>
</trkpt>
<trkpt lat="47.555360000" lon="12.654340000">
  <ele>1575.000000</ele>
</trkpt>
<trkpt lat="47.555180000" lon="12.653910000">
  <ele>1589.000000</ele>
</trkpt>
<trkpt lat="47.555160000" lon="12.652930000">
  <ele>1617.000000</ele>
</trkpt>
<trkpt lat="47.555030000" lon="12.652900000">
  <ele>1622.000000</ele>
</trkpt>
<trkpt lat="47.555030000" lon="12.652690000">
  <ele>1629.000000</ele>
</trkpt>
<trkpt lat="47.554730000" lon="12.652560000">
  <ele>1642.000000</ele>
</trkpt>
<trkpt lat="47.554580000" lon="12.652400000">
  <ele>1650.000000</ele>
</trkpt>
<trkpt lat="47.553940000" lon="12.652450000">
  <ele>1671.000000</ele>
</trkpt>
<trkpt lat="47.553830000" lon="12.652110000">
  <ele>1680.000000</ele>
</trkpt>
<trkpt lat="47.553920000" lon="12.651850000">
  <ele>1688.000000</ele>
</trkpt>
<trkpt lat="47.553900000" lon="12.651380000">
  <ele>1701.000000</ele>
</trkpt>
<trkpt lat="47.553740000" lon="12.651510000">
  <ele>1708.000000</ele>
</trkpt>
<trkpt lat="47.553730000" lon="12.651260000">
  <ele>1715.000000</ele>
</trkpt>
<trkpt lat="47.553530000" lon="12.651230000">
  <ele>1724.000000</ele>
</trkpt>
<trkpt lat="47.553470000" lon="12.651010000">
  <ele>1731.000000</ele>
</trkpt>
<trkpt lat="47.553300000" lon="12.651130000">
  <ele>1740.000000</ele>
</trkpt>
<trkpt lat="47.552460000" lon="12.650840000">
  <ele>1782.000000</ele>
</trkpt>
<trkpt lat="47.552560000" lon="12.650650000">
  <ele>1790.000000</ele>
</trkpt>
<trkpt lat="47.552000000" lon="12.650310000">
  <ele>1814.000000</ele>
</trkpt>
<trkpt lat="47.551870000" lon="12.650120000">
  <ele>1819.000000</ele>
</trkpt>
<trkpt lat="47.551650000" lon="12.650120000">
  <ele>1826.000000</ele>
</trkpt>
<trkpt lat="47.551600000" lon="12.649810000">
  <ele>1835.000000</ele>
</trkpt>
<trkpt lat="47.551510000" lon="12.649560000">
  <ele>1845.000000</ele>
</trkpt>
<trkpt lat="47.551220000" lon="12.649470000">
  <ele>1861.000000</ele>
</trkpt>
<trkpt lat="47.551080000" lon="12.649220000">
  <ele>1873.000000</ele>
</trkpt>
<trkpt lat="47.550990000" lon="12.649100000">
  <ele>1878.000000</ele>
</trkpt>
<trkpt lat="47.550870000" lon="12.649050000">
  <ele>1883.000000</ele>
</trkpt>
<trkpt lat="47.550700000" lon="12.648870000">
  <ele>1891.000000</ele>
</trkpt>
<trkpt lat="47.550460000" lon="12.648570000">
  <ele>1903.000000</ele>
</trkpt>
<trkpt lat="47.550340000" lon="12.648240000">
  <ele>1911.000000</ele>
</trkpt>
<trkpt lat="47.550280000" lon="12.647820000">
  <ele>1913.000000</ele>
</trkpt>
<trkpt lat="47.550280000" lon="12.647520000">
  <ele>1914.000000</ele>
</trkpt>
<trkpt lat="47.550330000" lon="12.647370000">
  <ele>1915.000000</ele>
</trkpt>
<trkpt lat="47.550500000" lon="12.647310000">
  <ele>1916.000000</ele>
</trkpt>
<trkpt lat="47.550590000" lon="12.647090000">
  <ele>1917.000000</ele>
</trkpt>
<trkpt lat="47.550610000" lon="12.646850000">
  <ele>1918.000000</ele>
</trkpt>
<trkpt lat="47.550440000" lon="12.646540000">
  <ele>1919.000000</ele>
</trkpt>
<trkpt lat="47.550630000" lon="12.646140000">
  <ele>1920.000000</ele>
</trkpt>
<trkpt lat="47.550770000" lon="12.646270000">
  <ele>1925.000000</ele>
</trkpt>
<trkpt lat="47.550850000" lon="12.646130000">
  <ele>1928.000000</ele>
</trkpt>
<trkpt lat="47.550830000" lon="12.645910000">
  <ele>1932.000000</ele>
</trkpt>
<trkpt lat="47.550700000" lon="12.645370000">
  <ele>1942.000000</ele>
</trkpt>
<trkpt lat="47.550640000" lon="12.645130000">
  <ele>1945.000000</ele>
</trkpt>
<trkpt lat="47.550700000" lon="12.644870000">
  <ele>1947.000000</ele>
</trkpt>
<trkpt lat="47.550520000" lon="12.644130000">
  <ele>1954.000000</ele>
</trkpt>
<trkpt lat="47.550110000" lon="12.643200000">
  <ele>1956.000000</ele>
</trkpt>
<trkpt lat="47.549630000" lon="12.642760000">
  <ele>1965.000000</ele>
</trkpt>
<trkpt lat="47.549460000" lon="12.642100000">
  <ele>1977.000000</ele>
</trkpt>
<trkpt lat="47.548960000" lon="12.641370000">
  <ele>1968.000000</ele>
</trkpt>
<trkpt lat="47.548700000" lon="12.640920000">
  <ele>1965.000000</ele>
</trkpt>
<trkpt lat="47.548640000" lon="12.640600000">
  <ele>1966.000000</ele>
</trkpt>
<trkpt lat="47.547280000" lon="12.638890000">
  <ele>2004.000000</ele>
</trkpt>
<trkpt lat="47.547220000" lon="12.638720000">
  <ele>2007.000000</ele>
</trkpt>
<trkpt lat="47.547080000" lon="12.638600000">
  <ele>2010.000000</ele>
</trkpt>
<trkpt lat="47.546750000" lon="12.638630000">
  <ele>2015.000000</ele>
</trkpt>
<trkpt lat="47.546530000" lon="12.638450000">
  <ele>2016.000000</ele>
</trkpt>
<trkpt lat="47.545680000" lon="12.638870000">
  <ele>2033.000000</ele>
</trkpt>
<trkpt lat="47.545300000" lon="12.638570000">
  <ele>2049.000000</ele>
</trkpt>
<trkpt lat="47.544930000" lon="12.638550000">
  <ele>2071.000000</ele>
</trkpt>
<trkpt lat="47.544680000" lon="12.637240000">
  <ele>2129.000000</ele>
</trkpt>
<trkpt lat="47.544570000" lon="12.637120000">
  <ele>2138.000000</ele>
</trkpt>
<trkpt lat="47.543750000" lon="12.637020000">
  <ele>2197.000000</ele>
</trkpt>
<trkpt lat="47.543520000" lon="12.636800000">
  <ele>2219.000000</ele>
</trkpt>
<trkpt lat="47.543420000" lon="12.636230000">
  <ele>2244.000000</ele>
</trkpt>
<trkpt lat="47.543700000" lon="12.636020000">
  <ele>2254.000000</ele>
</trkpt>
<trkpt lat="47.543860000" lon="12.635830000">
  <ele>2260.000000</ele>
</trkpt>
<trkpt lat="47.544030000" lon="12.635510000">
  <ele>2267.000000</ele>
</trkpt>
<trkpt lat="47.545230000" lon="12.635120000">
  <ele>2272.000000</ele>
</trkpt>
<trkpt lat="47.546290000" lon="12.633870000">
  <ele>2258.000000</ele>
</trkpt>
<trkpt lat="47.546590000" lon="12.633710000">
  <ele>2253.000000</ele>
</trkpt>
<trkpt lat="47.546700000" lon="12.633310000">
  <ele>2249.000000</ele>
</trkpt>
<trkpt lat="47.547520000" lon="12.632320000">
  <ele>2298.000000</ele>
</trkpt>
<trkpt lat="47.547660000" lon="12.631840000">
  <ele>2324.000000</ele>
</trkpt>
<trkpt lat="47.547630000" lon="12.631600000">
  <ele>2337.000000</ele>
</trkpt>
<trkpt lat="47.549000000" lon="12.629650000">
  <ele>2457.000000</ele>
</trkpt>
<trkpt lat="47.549060000" lon="12.629430000">
  <ele>2464.000000</ele>
</trkpt>
<trkpt lat="47.549020000" lon="12.629320000">
  <ele>2468.000000</ele>
</trkpt>
<trkpt lat="47.549460000" lon="12.628920000">
  <ele>2467.000000</ele>
</trkpt>
<trkpt lat="47.549550000" lon="12.628720000">
  <ele>2463.000000</ele>
</trkpt>
<trkpt lat="47.549700000" lon="12.629040000">
  <ele>2457.000000</ele>
</trkpt>
<trkpt lat="47.549930000" lon="12.629300000">
  <ele>2448.000000</ele>
</trkpt>
<trkpt lat="47.549580000" lon="12.629480000">
  <ele>2434.000000</ele>
</trkpt>
<trkpt lat="47.549670000" lon="12.629610000">
  <ele>2430.000000</ele>
</trkpt>
<trkpt lat="47.549590000" lon="12.629760000">
  <ele>2425.000000</ele>
</trkpt>
<trkpt lat="47.549720000" lon="12.630060000">
  <ele>2415.000000</ele>
</trkpt>
<trkpt lat="47.549680000" lon="12.630280000">
  <ele>2408.000000</ele>
</trkpt>
<trkpt lat="47.550240000" lon="12.630660000">
  <ele>2378.000000</ele>
</trkpt>
<trkpt lat="47.550710000" lon="12.631480000">
  <ele>2325.000000</ele>
</trkpt>
<trkpt lat="47.551250000" lon="12.632220000">
  <ele>2311.000000</ele>
</trkpt>
<trkpt lat="47.551700000" lon="12.632650000">
  <ele>2298.000000</ele>
</trkpt>
<trkpt lat="47.551690000" lon="12.633570000">
  <ele>2268.000000</ele>
</trkpt>
<trkpt lat="47.551850000" lon="12.634260000">
  <ele>2280.000000</ele>
</trkpt>
<trkpt lat="47.551740000" lon="12.634610000">
  <ele>2288.000000</ele>
</trkpt>
<trkpt lat="47.551540000" lon="12.635460000">
  <ele>2312.000000</ele>
</trkpt>
<trkpt lat="47.551540000" lon="12.636040000">
  <ele>2330.000000</ele>
</trkpt>
<trkpt lat="47.551650000" lon="12.636700000">
  <ele>2328.000000</ele>
</trkpt>
<trkpt lat="47.551680000" lon="12.637120000">
  <ele>2326.000000</ele>
</trkpt>
<trkpt lat="47.552090000" lon="12.637990000">
  <ele>2305.000000</ele>
</trkpt>
<trkpt lat="47.552650000" lon="12.639790000">
  <ele>2319.000000</ele>
</trkpt>
<trkpt lat="47.552820000" lon="12.640190000">
  <ele>2306.000000</ele>
</trkpt>
<trkpt lat="47.553070000" lon="12.640460000">
  <ele>2294.000000</ele>
</trkpt>
<trkpt lat="47.553130000" lon="12.640820000">
  <ele>2283.000000</ele>
</trkpt>
<trkpt lat="47.553060000" lon="12.641290000">
  <ele>2261.000000</ele>
</trkpt>
<trkpt lat="47.553190000" lon="12.642610000">
  <ele>2198.000000</ele>
</trkpt>
<trkpt lat="47.553460000" lon="12.643240000">
  <ele>2161.000000</ele>
</trkpt>
<trkpt lat="47.553370000" lon="12.643440000">
  <ele>2151.000000</ele>
</trkpt>
<trkpt lat="47.553020000" lon="12.643290000">
  <ele>2129.000000</ele>
</trkpt>
<trkpt lat="47.552490000" lon="12.642680000">
  <ele>2086.000000</ele>
</trkpt>
<trkpt lat="47.552380000" lon="12.642720000">
  <ele>2078.000000</ele>
</trkpt>
<trkpt lat="47.552340000" lon="12.642920000">
  <ele>2069.000000</ele>
</trkpt>
<trkpt lat="47.551790000" lon="12.643270000">
  <ele>2038.000000</ele>
</trkpt>
<trkpt lat="47.551720000" lon="12.643090000">
  <ele>2033.000000</ele>
</trkpt>
<trkpt lat="47.551300000" lon="12.642760000">
  <ele>2018.000000</ele>
</trkpt>
<trkpt lat="47.551330000" lon="12.643650000">
  <ele>1997.000000</ele>
</trkpt>
<trkpt lat="47.551450000" lon="12.644020000">
  <ele>1987.000000</ele>
</trkpt>
<trkpt lat="47.551420000" lon="12.645640000">
  <ele>1908.000000</ele>
</trkpt>
<trkpt lat="47.551300000" lon="12.645890000">
  <ele>1899.000000</ele>
</trkpt>
<trkpt lat="47.551550000" lon="12.646520000">
  <ele>1877.000000</ele>
</trkpt>
<trkpt lat="47.551630000" lon="12.646670000">
  <ele>1871.000000</ele>
</trkpt>
<trkpt lat="47.551630000" lon="12.647020000">
  <ele>1861.000000</ele>
</trkpt>
<trkpt lat="47.551560000" lon="12.647240000">
  <ele>1854.000000</ele>
</trkpt>
<trkpt lat="47.551710000" lon="12.647460000">
  <ele>1845.000000</ele>
</trkpt>
<trkpt lat="47.551650000" lon="12.648040000">
  <ele>1835.000000</ele>
</trkpt>
<trkpt lat="47.551660000" lon="12.648580000">
  <ele>1830.000000</ele>
</trkpt>
<trkpt lat="47.551590000" lon="12.649390000">
  <ele>1814.000000</ele>
</trkpt>
<trkpt lat="47.551510000" lon="12.649790000">
  <ele>1803.000000</ele>
</trkpt>
<trkpt lat="47.551730000" lon="12.650020000">
  <ele>1792.000000</ele>
</trkpt>
<trkpt lat="47.552450000" lon="12.650640000">
  <ele>1747.000000</ele>
</trkpt>
<trkpt lat="47.552430000" lon="12.650930000">
  <ele>1736.000000</ele>
</trkpt>
<trkpt lat="47.553380000" lon="12.651250000">
  <ele>1687.000000</ele>
</trkpt>
<trkpt lat="47.553700000" lon="12.651310000">
  <ele>1678.000000</ele>
</trkpt>
<trkpt lat="47.553980000" lon="12.651650000">
  <ele>1669.000000</ele>
</trkpt>
<trkpt lat="47.553790000" lon="12.652180000">
  <ele>1653.000000</ele>
</trkpt>
<trkpt lat="47.553910000" lon="12.652550000">
  <ele>1641.000000</ele>
</trkpt>
<trkpt lat="47.554840000" lon="12.652430000">
  <ele>1604.000000</ele>
</trkpt>
<trkpt lat="47.555240000" lon="12.653080000">
  <ele>1578.000000</ele>
</trkpt>
<trkpt lat="47.555180000" lon="12.654040000">
  <ele>1549.000000</ele>
</trkpt>
<trkpt lat="47.555410000" lon="12.654460000">
  <ele>1537.000000</ele>
</trkpt>
<trkpt lat="47.555050000" lon="12.655220000">
  <ele>1519.000000</ele>
</trkpt>
<trkpt lat="47.555450000" lon="12.655570000">
  <ele>1507.000000</ele>
</trkpt>
<trkpt lat="47.556050000" lon="12.655460000">
  <ele>1484.000000</ele>
</trkpt>
<trkpt lat="47.555800000" lon="12.656190000">
  <ele>1458.000000</ele>
</trkpt>
<trkpt lat="47.556290000" lon="12.656330000">
  <ele>1433.000000</ele>
</trkpt>
<trkpt lat="47.556080000" lon="12.656710000">
  <ele>1416.000000</ele>
</trkpt>
<trkpt lat="47.556600000" lon="12.656970000">
  <ele>1409.000000</ele>
</trkpt>
<trkpt lat="47.556920000" lon="12.657490000">
  <ele>1400.000000</ele>
</trkpt>
<trkpt lat="47.556290000" lon="12.658050000">
  <ele>1374.000000</ele>
</trkpt>
<trkpt lat="47.555970000" lon="12.659440000">
  <ele>1345.000000</ele>
</trkpt>
<trkpt lat="47.556020000" lon="12.660100000">
  <ele>1330.000000</ele>
</trkpt>
<trkpt lat="47.556310000" lon="12.659840000">
  <ele>1318.000000</ele>
</trkpt>
<trkpt lat="47.556600000" lon="12.660800000">
  <ele>1304.000000</ele>
</trkpt>
<trkpt lat="47.556300000" lon="12.661830000">
  <ele>1272.000000</ele>
</trkpt>
<trkpt lat="47.557020000" lon="12.661840000">
  <ele>1253.000000</ele>
</trkpt>
<trkpt lat="47.556870000" lon="12.662890000">
  <ele>1243.000000</ele>
</trkpt>
<trkpt lat="47.556490000" lon="12.663350000">
  <ele>1229.000000</ele>
</trkpt>
<trkpt lat="47.556590000" lon="12.663950000">
  <ele>1207.000000</ele>
</trkpt>
<trkpt lat="47.556910000" lon="12.663430000">
  <ele>1174.000000</ele>
</trkpt>
<trkpt lat="47.557310000" lon="12.663840000">
  <ele>1141.000000</ele>
</trkpt>
<trkpt lat="47.557480000" lon="12.664260000">
  <ele>1119.000000</ele>
</trkpt>
<trkpt lat="47.557830000" lon="12.664880000">
  <ele>1088.000000</ele>
</trkpt>
<trkpt lat="47.557960000" lon="12.665430000">
  <ele>1069.000000</ele>
</trkpt>
<trkpt lat="47.557830000" lon="12.666070000">
  <ele>1055.000000</ele>
</trkpt>
<trkpt lat="47.557960000" lon="12.666500000">
  <ele>1048.000000</ele>
</trkpt>
<trkpt lat="47.558330000" lon="12.666380000">
  <ele>1041.000000</ele>
</trkpt>
<trkpt lat="47.558650000" lon="12.667920000">
  <ele>1021.000000</ele>
</trkpt>
<trkpt lat="47.558810000" lon="12.668430000">
  <ele>998.000000</ele>
</trkpt>
<trkpt lat="47.559300000" lon="12.668870000">
  <ele>975.000000</ele>
</trkpt>
<trkpt lat="47.559440000" lon="12.668520000">
  <ele>969.000000</ele>
</trkpt>
<trkpt lat="47.559600000" lon="12.668970000">
  <ele>960.000000</ele>
</trkpt>
<trkpt lat="47.559840000" lon="12.669250000">
  <ele>945.000000</ele>
</trkpt>
<trkpt lat="47.559740000" lon="12.669520000">
  <ele>934.000000</ele>
</trkpt>
<trkpt lat="47.560170000" lon="12.670360000">
  <ele>910.000000</ele>
</trkpt>
<trkpt lat="47.560640000" lon="12.670830000">
  <ele>899.000000</ele>
</trkpt>
<trkpt lat="47.560830000" lon="12.670060000">
  <ele>880.000000</ele>
</trkpt>
<trkpt lat="47.560870000" lon="12.669670000">
  <ele>870.000000</ele>
</trkpt>
<trkpt lat="47.560880000" lon="12.669300000">
  <ele>865.000000</ele>
</trkpt>
<trkpt lat="47.560950000" lon="12.668820000">
  <ele>859.000000</ele>
</trkpt>
<trkpt lat="47.561220000" lon="12.668260000">
  <ele>850.000000</ele>
</trkpt>
<trkpt lat="47.561870000" lon="12.668410000">
  <ele>837.000000</ele>
</trkpt>
<trkpt lat="47.563050000" lon="12.669070000">
  <ele>831.000000</ele>
</trkpt>
<trkpt lat="47.563560000" lon="12.669600000">
  <ele>811.000000</ele>
</trkpt>
<trkpt lat="47.563480000" lon="12.670720000">
  <ele>798.000000</ele>
</trkpt>
<trkpt lat="47.563840000" lon="12.672140000">
  <ele>795.000000</ele>
</trkpt>
</trkseg>
</trk>
</gpx>
