<?xml version="1.0" encoding="UTF-8"?>
<gpx xmlns="http://www.topografix.com/GPX/1/1" creator="MTK - http://www.toursprung.com" version="1.1"
   xmlns:xsi="http://www.w3.org/2001/XMLSchema-instance"
   xsi:schemaLocation="http://www.topografix.com/GPX/1/1 http://www.topografix.com/GPX/1/1/gpx.xsd">
   <metadata>
      <name><![CDATA[Cesare Piazzetta]]></name>
      
   </metadata>
   
      <trk><name><![CDATA[Cesare Piazzetta]]></name><trkseg>
         <trkpt lat="46.489721035181" lon="11.822801828384"><ele>2193</ele></trkpt>
<trkpt lat="46.489913087468" lon="11.823177337646"><ele>2193</ele></trkpt>
<trkpt lat="46.489920474081" lon="11.823649406433"><ele>2194</ele></trkpt>
<trkpt lat="46.490430147946" lon="11.825859546661"><ele>2194</ele></trkpt>
<trkpt lat="46.491257434488" lon="11.827865839005"><ele>2199</ele></trkpt>
<trkpt lat="46.491412549314" lon="11.828413009644"><ele>2201</ele></trkpt>
<trkpt lat="46.491966527222" lon="11.828745603561"><ele>2215</ele></trkpt>
<trkpt lat="46.491996072552" lon="11.828917264938"><ele>2217</ele></trkpt>
<trkpt lat="46.492247207209" lon="11.829035282135"><ele>2221</ele></trkpt>
<trkpt lat="46.492638679508" lon="11.830590963364"><ele>2229</ele></trkpt>
<trkpt lat="46.493022762799" lon="11.830805540085"><ele>2231</ele></trkpt>
<trkpt lat="46.493606268761" lon="11.829829216003"><ele>2252</ele></trkpt>
<trkpt lat="46.493894326359" lon="11.829689741135"><ele>2262</ele></trkpt>
<trkpt lat="46.494293172821" lon="11.829475164413"><ele>2276</ele></trkpt>
<trkpt lat="46.494381804971" lon="11.82918548584"><ele>2285</ele></trkpt>
<trkpt lat="46.4945738408" lon="11.828949451447"><ele>2295</ele></trkpt>
<trkpt lat="46.494714174246" lon="11.828670501709"><ele>2304</ele></trkpt>
<trkpt lat="46.494943138566" lon="11.828209161758"><ele>2317</ele></trkpt>
<trkpt lat="46.495785128094" lon="11.82746887207"><ele>2362</ele></trkpt>
<trkpt lat="46.49622827524" lon="11.828134059906"><ele>2363</ele></trkpt>
<trkpt lat="46.497513381545" lon="11.828917264938"><ele>2410</ele></trkpt>
<trkpt lat="46.498141152318" lon="11.829078197479"><ele>2441</ele></trkpt>
<trkpt lat="46.498274091081" lon="11.82888507843"><ele>2450</ele></trkpt>
<trkpt lat="46.498606436567" lon="11.829088926315"><ele>2463</ele></trkpt>
<trkpt lat="46.498850155299" lon="11.828863620758"><ele>2474</ele></trkpt>
<trkpt lat="46.499071716835" lon="11.82888507843"><ele>2484</ele></trkpt>
<trkpt lat="46.499359745482" lon="11.828488111496"><ele>2503</ele></trkpt>
<trkpt lat="46.499285892128" lon="11.828209161758"><ele>2510</ele></trkpt>
<trkpt lat="46.499367130812" lon="11.828037500381"><ele>2515</ele></trkpt>
<trkpt lat="46.500024421151" lon="11.82842373848"><ele>2541</ele></trkpt>
<trkpt lat="46.500364141134" lon="11.82853102684"><ele>2554</ele></trkpt>
<trkpt lat="46.50079986583" lon="11.828037500381"><ele>2568</ele></trkpt>
<trkpt lat="46.501486679023" lon="11.828380823135"><ele>2594</ele></trkpt>
<trkpt lat="46.501944549666" lon="11.828681230545"><ele>2614</ele></trkpt>
<trkpt lat="46.501929779705" lon="11.829164028168"><ele>2627</ele></trkpt>
<trkpt lat="46.50214394374" lon="11.829507350922"><ele>2632</ele></trkpt>
<trkpt lat="46.502121788879" lon="11.829700469971"><ele>2635</ele></trkpt>
<trkpt lat="46.50225471791" lon="11.829957962036"><ele>2638</ele></trkpt>
<trkpt lat="46.502291642583" lon="11.83024764061"><ele>2653</ele></trkpt>
<trkpt lat="46.502343337083" lon="11.830558776855"><ele>2670</ele></trkpt>
<trkpt lat="46.502587039065" lon="11.830204725266"><ele>2699</ele></trkpt>
<trkpt lat="46.503406755896" lon="11.82959318161"><ele>2802</ele></trkpt>
<trkpt lat="46.503768608944" lon="11.829882860184"><ele>2826</ele></trkpt>
<trkpt lat="46.503783378405" lon="11.830537319183"><ele>2857</ele></trkpt>
<trkpt lat="46.503997535138" lon="11.831105947495"><ele>2887</ele></trkpt>
<trkpt lat="46.504196921683" lon="11.831384897232"><ele>2907</ele></trkpt>
<trkpt lat="46.504617846432" lon="11.831449270248"><ele>2934</ele></trkpt>
<trkpt lat="46.505459686153" lon="11.830666065216"><ele>2973</ele></trkpt>
<trkpt lat="46.50627935967" lon="11.830698251724"><ele>3011</ele></trkpt>
<trkpt lat="46.506619040569" lon="11.830515861511"><ele>3027</ele></trkpt>
<trkpt lat="46.507099020829" lon="11.830065250397"><ele>3052</ele></trkpt>
<trkpt lat="46.507106405107" lon="11.829700469971"><ele>3063</ele></trkpt>
<trkpt lat="46.507453465069" lon="11.829442977905"><ele>3080</ele></trkpt>
<trkpt lat="46.507519923107" lon="11.829174757004"><ele>3089</ele></trkpt>
<trkpt lat="46.508767842284" lon="11.828348636627"><ele>3131</ele></trkpt>
<trkpt lat="46.508428174813" lon="11.828166246414"><ele>3127</ele></trkpt>
<trkpt lat="46.50802943203" lon="11.82817697525"><ele>3106</ele></trkpt>
<trkpt lat="46.507874364603" lon="11.827930212021"><ele>3093</ele></trkpt>
<trkpt lat="46.507549459986" lon="11.8270611763"><ele>3047</ele></trkpt>
<trkpt lat="46.507254090468" lon="11.826771497726"><ele>3026</ele></trkpt>
<trkpt lat="46.507091636549" lon="11.826331615448"><ele>3008</ele></trkpt>
<trkpt lat="46.507039946564" lon="11.825730800629"><ele>2991</ele></trkpt>
<trkpt lat="46.506353203525" lon="11.825172901154"><ele>2964</ele></trkpt>
<trkpt lat="46.506109518425" lon="11.824593544006"><ele>2947</ele></trkpt>
<trkpt lat="46.505622144949" lon="11.823949813843"><ele>2926</ele></trkpt>
<trkpt lat="46.505297226871" lon="11.823316812515"><ele>2923</ele></trkpt>
<trkpt lat="46.504566154095" lon="11.822222471237"><ele>2908</ele></trkpt>
<trkpt lat="46.503908918661" lon="11.822415590286"><ele>2898</ele></trkpt>
<trkpt lat="46.503569220828" lon="11.822243928909"><ele>2895</ele></trkpt>
<trkpt lat="46.503081824577" lon="11.821568012238"><ele>2893</ele></trkpt>
<trkpt lat="46.502815970235" lon="11.821310520172"><ele>2892</ele></trkpt>
<trkpt lat="46.502594423957" lon="11.820677518845"><ele>2891</ele></trkpt>
<trkpt lat="46.502395031534" lon="11.820387840271"><ele>2888</ele></trkpt>
<trkpt lat="46.501405443507" lon="11.81992650032"><ele>2868</ele></trkpt>
<trkpt lat="46.501272512399" lon="11.819593906403"><ele>2861</ele></trkpt>
<trkpt lat="46.501235587034" lon="11.819025278091"><ele>2849</ele></trkpt>
<trkpt lat="46.501412828559" lon="11.81769490242"><ele>2842</ele></trkpt>
<trkpt lat="46.501508834143" lon="11.816664934158"><ele>2843</ele></trkpt>
<trkpt lat="46.501686074777" lon="11.815506219864"><ele>2844</ele></trkpt>
<trkpt lat="46.501671304746" lon="11.814851760864"><ele>2848</ele></trkpt>
<trkpt lat="46.501686074777" lon="11.814594268799"><ele>2848</ele></trkpt>
<trkpt lat="46.502040554311" lon="11.813725233078"><ele>2850</ele></trkpt>
<trkpt lat="46.502018399408" lon="11.813263893127"><ele>2850</ele></trkpt>
<trkpt lat="46.50178946488" lon="11.812298297882"><ele>2847</ele></trkpt>
<trkpt lat="46.501405443507" lon="11.812094449997"><ele>2822</ele></trkpt>
<trkpt lat="46.501279897469" lon="11.811804771423"><ele>2798</ele></trkpt>
<trkpt lat="46.501006649209" lon="11.811954975128"><ele>2769</ele></trkpt>
<trkpt lat="46.500888487374" lon="11.811536550522"><ele>2744</ele></trkpt>
<trkpt lat="46.500718629287" lon="11.811321973801"><ele>2726</ele></trkpt>
<trkpt lat="46.500482304108" lon="11.811429262161"><ele>2717</ele></trkpt>
<trkpt lat="46.50020905184" lon="11.810292005539"><ele>2695</ele></trkpt>
<trkpt lat="46.499987494939" lon="11.8103992939"><ele>2680</ele></trkpt>
<trkpt lat="46.499736396026" lon="11.810173988342"><ele>2663</ele></trkpt>
<trkpt lat="46.499536993122" lon="11.81020617485"><ele>2655</ele></trkpt>
<trkpt lat="46.499226809373" lon="11.81015253067"><ele>2641</ele></trkpt>
<trkpt lat="46.499226809373" lon="11.810463666916"><ele>2632</ele></trkpt>
<trkpt lat="46.49887969689" lon="11.8103992939"><ele>2618</ele></trkpt>
<trkpt lat="46.498599051134" lon="11.810871362686"><ele>2602</ele></trkpt>
<trkpt lat="46.498355331276" lon="11.810603141785"><ele>2591</ele></trkpt>
<trkpt lat="46.49793435804" lon="11.810549497604"><ele>2578</ele></trkpt>
<trkpt lat="46.49738782652" lon="11.810678243637"><ele>2561</ele></trkpt>
<trkpt lat="46.497328741703" lon="11.81045293808"><ele>2555</ele></trkpt>
<trkpt lat="46.496885603524" lon="11.810613870621"><ele>2538</ele></trkpt>
<trkpt lat="46.496339061463" lon="11.810538768768"><ele>2532</ele></trkpt>
<trkpt lat="46.496176574926" lon="11.810635328293"><ele>2529</ele></trkpt>
<trkpt lat="46.496398147356" lon="11.81086063385"><ele>2523</ele></trkpt>
<trkpt lat="46.496523704665" lon="11.811311244965"><ele>2516</ele></trkpt>
<trkpt lat="46.496442461734" lon="11.812030076981"><ele>2506</ele></trkpt>
<trkpt lat="46.496316904237" lon="11.81227684021"><ele>2502</ele></trkpt>
<trkpt lat="46.496102717249" lon="11.811493635178"><ele>2477</ele></trkpt>
<trkpt lat="46.495755584822" lon="11.811772584915"><ele>2462</ele></trkpt>
<trkpt lat="46.495474922942" lon="11.811525821686"><ele>2449</ele></trkpt>
<trkpt lat="46.495135172413" lon="11.81186914444"><ele>2436</ele></trkpt>
<trkpt lat="46.494610770689" lon="11.811118125916"><ele>2412</ele></trkpt>
<trkpt lat="46.493916484572" lon="11.813113689423"><ele>2362</ele></trkpt>
<trkpt lat="46.493185258759" lon="11.813263893127"><ele>2347</ele></trkpt>
<trkpt lat="46.492409705487" lon="11.813424825668"><ele>2342</ele></trkpt>
<trkpt lat="46.491833573039" lon="11.813317537308"><ele>2339</ele></trkpt>
<trkpt lat="46.490747768375" lon="11.812427043915"><ele>2318</ele></trkpt>
<trkpt lat="46.490341509356" lon="11.812341213226"><ele>2305</ele></trkpt>
<trkpt lat="46.490142072001" lon="11.811708211899"><ele>2293</ele></trkpt>
<trkpt lat="46.490060819535" lon="11.811611652374"><ele>2291</ele></trkpt>
<trkpt lat="46.489639782087" lon="11.8119764328"><ele>2277</ele></trkpt>
<trkpt lat="46.489440342158" lon="11.811826229095"><ele>2271</ele></trkpt>
<trkpt lat="46.48892327227" lon="11.812051534653"><ele>2255</ele></trkpt>
<trkpt lat="46.488251074067" lon="11.811633110046"><ele>2240</ele></trkpt>
<trkpt lat="46.487881730859" lon="11.811579465866"><ele>2237</ele></trkpt>
<trkpt lat="46.487453289596" lon="11.812545061111"><ele>2236</ele></trkpt>
<trkpt lat="46.487512385143" lon="11.812716722488"><ele>2236</ele></trkpt>
<trkpt lat="46.487866957078" lon="11.813306808472"><ele>2235</ele></trkpt>
<trkpt lat="46.488103337085" lon="11.814250946045"><ele>2231</ele></trkpt>
<trkpt lat="46.488760763576" lon="11.817244291306"><ele>2217</ele></trkpt>
<trkpt lat="46.489019299906" lon="11.818445920944"><ele>2208</ele></trkpt>
<trkpt lat="46.489167034401" lon="11.81957244873"><ele>2198</ele></trkpt>
<trkpt lat="46.489314768494" lon="11.820505857468"><ele>2196</ele></trkpt>
<trkpt lat="46.489359088644" lon="11.820774078369"><ele>2196</ele></trkpt>
<trkpt lat="46.489425568801" lon="11.821449995041"><ele>2196</ele></trkpt>
<trkpt lat="46.489743195095" lon="11.822619438171"><ele>2195</ele></trkpt>
      </trkseg></trk>
   
</gpx>
   