<?xml version="1.0" encoding="UTF-8" standalone="yes"?>
<gpx xmlns="http://www.topografix.com/GPX/1/1" creator="alpenkarte.eu">
    <metadata>
        <name>Starke Stiege</name>
        <link href="alpenkarte.eu">
            <text>Route von alpenkarte.eu</text>
        </link>
        <bounds minlat="50.8914299999999997226041159592568874359130859375" minlon="14.227047999999999916553861112333834171295166015625" maxlat="50.90892999999999801730155013501644134521484375" maxlon="14.2402099999999993684696164564229547977447509765625"/>
    </metadata>
    <trk>
        <name>Starke Stiege</name>
        <trkseg>
            <trkpt lat="50.89150699999999716283127781935036182403564453125" lon="14.231987000000000165300662047229707241058349609375">
                <ele>142.5588676800151688439655117690563201904296875</ele>
            </trkpt>
            <trkpt lat="50.89149499999999903820935287512838840484619140625" lon="14.2319040000000001100488589145243167877197265625">
                <ele>140.86656960000408389532822184264659881591796875</ele>
            </trkpt>
            <trkpt lat="50.8915530000000018162609194405376911163330078125" lon="14.2319650000000006428990673157386481761932373046875">
                <ele>141.932930400005574256283580325543880462646484375</ele>
            </trkpt>
            <trkpt lat="50.891661999999996623955667018890380859375" lon="14.2319429999999993441406331839971244335174560546875">
                <ele>141.15716831999935720887151546776294708251953125</ele>
            </trkpt>
            <trkpt lat="50.89172700000000304498826153576374053955078125" lon="14.2320200000000003370814738445915281772613525390625">
                <ele>144.45914560010515970134292729198932647705078125</ele>
            </trkpt>
            <trkpt lat="50.89176400000000199952410184778273105621337890625" lon="14.231984000000000634145180811174213886260986328125">
                <ele>145.190928640075895827976637519896030426025390625</ele>
            </trkpt>
            <trkpt lat="50.89179399999999731107891420833766460418701171875" lon="14.2319469999999999032525010989047586917877197265625">
                <ele>145.73376351990106059020035900175571441650390625</ele>
            </trkpt>
            <trkpt lat="50.89180999999999954752638586796820163726806640625" lon="14.231977000000000543877831660211086273193359375">
                <ele>146.68859679998922729282639920711517333984375</ele>
            </trkpt>
            <trkpt lat="50.89186699999999774490788695402443408966064453125" lon="14.2321509999999999962483343551866710186004638671875">
                <ele>150.636510879930625605993554927408695220947265625</ele>
            </trkpt>
            <trkpt lat="50.89189900000000221780283027328550815582275390625" lon="14.2321519999999992478478816337883472442626953125">
                <ele>151.605310720056735362959443591535091400146484375</ele>
            </trkpt>
            <trkpt lat="50.89197999999999666442818124778568744659423828125" lon="14.2322720000000000339923644787631928920745849609375">
                <ele>155.016198399909882255087723024189472198486328125</ele>
            </trkpt>
            <trkpt lat="50.8920820000000020399966160766780376434326171875" lon="14.232338999999999629153535352088510990142822265625">
                <ele>158.097526720047198978136293590068817138671875</ele>
            </trkpt>
            <trkpt lat="50.89215899999999948022377793677151203155517578125" lon="14.2325339999999993523260854999534785747528076171875">
                <ele>160.897956159982328472324297763407230377197265625</ele>
            </trkpt>
            <trkpt lat="50.89219899999999796591509948484599590301513671875" lon="14.232547000000000281261236523278057575225830078125">
                <ele>161.765522079964142676544724963605403900146484375</ele>
            </trkpt>
            <trkpt lat="50.89231500000000352201823261566460132598876953125" lon="14.2324789999999996581436789711005985736846923828125">
                <ele>163.7457064000731179476133547723293304443359375</ele>
            </trkpt>
            <trkpt lat="50.8924099999999981491782818920910358428955078125" lon="14.2328379999999992122639014269225299358367919921875">
                <ele>165.399548799990526504188892431557178497314453125</ele>
            </trkpt>
            <trkpt lat="50.892505999999997357008396647870540618896484375" lon="14.2333580000000008425331543548963963985443115234375">
                <ele>163.853445759825518734942306764423847198486328125</ele>
            </trkpt>
            <trkpt lat="50.8927029999999973597368807531893253326416015625" lon="14.2339110000000008682263796799816191196441650390625">
                <ele>171.40188495987734995651408098638057708740234375</ele>
            </trkpt>
            <trkpt lat="50.89298900000000003274180926382541656494140625" lon="14.234427000000000163026925292797386646270751953125">
                <ele>179.241812479999765628235763870179653167724609375</ele>
            </trkpt>
            <trkpt lat="50.89312100000000071986505645327270030975341796875" lon="14.234595999999999804686012794263660907745361328125">
                <ele>181.163826560007322541423491202294826507568359375</ele>
            </trkpt>
            <trkpt lat="50.89325699999999841338649275712668895721435546875" lon="14.23470400000000068985173129476606845855712890625">
                <ele>181.41549247998551663840771652758121490478515625</ele>
            </trkpt>
            <trkpt lat="50.89316900000000032378011383116245269775390625" lon="14.23487899999999939382178126834332942962646484375">
                <ele>179.986396160002556143808760680258274078369140625</ele>
            </trkpt>
            <trkpt lat="50.89299299999999703913999837823212146759033203125" lon="14.234930999999999556848706561140716075897216796875">
                <ele>180.951841280020374824744067154824733734130859375</ele>
            </trkpt>
            <trkpt lat="50.8929660000000012587406672537326812744140625" lon="14.23493500000000011596057447604835033416748046875">
                <ele>181.1654335999916156652034260332584381103515625</ele>
            </trkpt>
            <trkpt lat="50.8929660000000012587406672537326812744140625" lon="14.23493500000000011596057447604835033416748046875">
                <ele>181.1654335999916156652034260332584381103515625</ele>
            </trkpt>
            <trkpt lat="50.89316900000000032378011383116245269775390625" lon="14.23487899999999939382178126834332942962646484375">
                <ele>179.986396160002556143808760680258274078369140625</ele>
            </trkpt>
            <trkpt lat="50.89322299999999899000613368116319179534912109375" lon="14.234761999999999915189619059674441814422607421875">
                <ele>180.75751615999928390010609291493892669677734375</ele>
            </trkpt>
            <trkpt lat="50.89325699999999841338649275712668895721435546875" lon="14.23470400000000068985173129476606845855712890625">
                <ele>181.41549247998551663840771652758121490478515625</ele>
            </trkpt>
            <trkpt lat="50.89363999999999776946424390189349651336669921875" lon="14.2349680000000002877413862734101712703704833984375">
                <ele>191.4348991998923565915902145206928253173828125</ele>
            </trkpt>
            <trkpt lat="50.89397600000000210229700314812362194061279296875" lon="14.23533499999999918372850515879690647125244140625">
                <ele>207.334304000042948246118612587451934814453125</ele>
            </trkpt>
            <trkpt lat="50.89429700000000167392499861307442188262939453125" lon="14.235578000000000287172952084802091121673583984375">
                <ele>213.835707840034530136108514852821826934814453125</ele>
            </trkpt>
            <trkpt lat="50.89473699999999922738425084389746189117431640625" lon="14.2360249999999997072563928668387234210968017578125">
                <ele>219.44827599999115363971213810145854949951171875</ele>
            </trkpt>
            <trkpt lat="50.8949759999999997717168298549950122833251953125" lon="14.2360939999999995819734976976178586483001708984375">
                <ele>221.0520332799975449233897961676120758056640625</ele>
            </trkpt>
            <trkpt lat="50.89574900000000212685336009599268436431884765625" lon="14.2364909999999991185859471443109214305877685546875">
                <ele>223.360807840021578840605798177421092987060546875</ele>
            </trkpt>
            <trkpt lat="50.8960459999999983438101480714976787567138671875" lon="14.2367620000000005830997906741686165332794189453125">
                <ele>230.17938431994042502992670051753520965576171875</ele>
            </trkpt>
            <trkpt lat="50.89611500000000177124093170277774333953857421875" lon="14.2368469999999991415506883640773594379425048828125">
                <ele>233.700844800052465188855421729385852813720703125</ele>
            </trkpt>
            <trkpt lat="50.89611500000000177124093170277774333953857421875" lon="14.2368469999999991415506883640773594379425048828125">
                <ele>233.700844800052465188855421729385852813720703125</ele>
            </trkpt>
            <trkpt lat="50.89677100000000109503162093460559844970703125" lon="14.2377120000000001454054654459469020366668701171875">
                <ele>246.1187244800363487229333259165287017822265625</ele>
            </trkpt>
            <trkpt lat="50.8970130000000011705196811817586421966552734375" lon="14.238110999999999961573848850093781948089599609375">
                <ele>252.490380320019966120526078157126903533935546875</ele>
            </trkpt>
            <trkpt lat="50.8971930000000014615579857490956783294677734375" lon="14.238281000000000631189323030412197113037109375">
                <ele>253.569069920007251539573189802467823028564453125</ele>
            </trkpt>
            <trkpt lat="50.89758199999999987994669936597347259521484375" lon="14.238519000000000147565515362657606601715087890625">
                <ele>259.0566531199974633636884391307830810546875</ele>
            </trkpt>
            <trkpt lat="50.8983080000000001064108801074326038360595703125" lon="14.2387770000000006831442078691907227039337158203125">
                <ele>269.87551423999269673004164360463619232177734375</ele>
            </trkpt>
            <trkpt lat="50.89905499999999705096342950128018856048583984375" lon="14.23896500000000031604940886609256267547607421875">
                <ele>267.836863999992829121765680611133575439453125</ele>
            </trkpt>
            <trkpt lat="50.89959999999999951114659779705107212066650390625" lon="14.239036999999999721921994932927191257476806640625">
                <ele>263.27681600000931894101086072623729705810546875</ele>
            </trkpt>
            <trkpt lat="50.9000199999999978217601892538368701934814453125" lon="14.2390460000000000917452780413441359996795654296875">
                <ele>260.9725951999654398605343885719776153564453125</ele>
            </trkpt>
            <trkpt lat="50.900114000000002079104888252913951873779296875" lon="14.23930599999999913052306510508060455322265625">
                <ele>262.285091840030872845090925693511962890625</ele>
            </trkpt>
            <trkpt lat="50.900114000000002079104888252913951873779296875" lon="14.23930599999999913052306510508060455322265625">
                <ele>262.285091840030872845090925693511962890625</ele>
            </trkpt>
            <trkpt lat="50.9000199999999978217601892538368701934814453125" lon="14.2390460000000000917452780413441359996795654296875">
                <ele>260.9725951999654398605343885719776153564453125</ele>
            </trkpt>
            <trkpt lat="50.90029899999999685178408981300890445709228515625" lon="14.239084999999999325837052310816943645477294921875">
                <ele>264.86690239995328965960652567446231842041015625</ele>
            </trkpt>
            <trkpt lat="50.90047799999999966757968650199472904205322265625" lon="14.2388899999999996026645021629519760608673095703125">
                <ele>268.087155199997141608037054538726806640625</ele>
            </trkpt>
            <trkpt lat="50.900700000000000500222085975110530853271484375" lon="14.238690999999999320380084100179374217987060546875">
                <ele>268.99467199999708100222051143646240234375</ele>
            </trkpt>
            <trkpt lat="50.900947000000002162778400816023349761962890625" lon="14.2383690000000004971525413566268980503082275390625">
                <ele>266.89837920002497639870853163301944732666015625</ele>
            </trkpt>
            <trkpt lat="50.901600000000001955413608811795711517333984375" lon="14.237707000000000334694050252437591552734375">
                <ele>270.40673599999610132726957090198993682861328125</ele>
            </trkpt>
            <trkpt lat="50.90167100000000033332980819977819919586181640625" lon="14.237650999999999612555257044732570648193359375">
                <ele>270.12920864000398069038055837154388427734375</ele>
            </trkpt>
            <trkpt lat="50.9017640000000000100044417195022106170654296875" lon="14.2373600000000006815525921410880982875823974609375">
                <ele>273.0828223999924375675618648529052734375</ele>
            </trkpt>
            <trkpt lat="50.901780999999999721694621257483959197998046875" lon="14.2372739999999993187884683720767498016357421875">
                <ele>274.313608639999074512161314487457275390625</ele>
            </trkpt>
            <trkpt lat="50.901780999999999721694621257483959197998046875" lon="14.2372739999999993187884683720767498016357421875">
                <ele>274.313608639999074512161314487457275390625</ele>
            </trkpt>
            <trkpt lat="50.90184500000000156205715029500424861907958984375" lon="14.2369380000000003150262273265980184078216552734375">
                <ele>279.1055216000326026914990507066249847412109375</ele>
            </trkpt>
            <trkpt lat="50.901938000000001238731783814728260040283203125" lon="14.2362629999999992236325851990841329097747802734375">
                <ele>285.352431680021936699631623923778533935546875</ele>
            </trkpt>
            <trkpt lat="50.9020679999999998699422576464712619781494140625" lon="14.235611999999999710553311160765588283538818359375">
                <ele>288.28426111999914382977294735610485076904296875</ele>
            </trkpt>
            <trkpt lat="50.9020689999999973451849655248224735260009765625" lon="14.23553199999999918645698926411569118499755859375">
                <ele>288.44065855998229608303518034517765045166015625</ele>
            </trkpt>
            <trkpt lat="50.902051000000000158252078108489513397216796875" lon="14.2354889999999993932533470797352492809295654296875">
                <ele>288.396296480001865347730927169322967529296875</ele>
            </trkpt>
            <trkpt lat="50.90208299999999752571966382674872875213623046875" lon="14.2354389999999995097823557443916797637939453125">
                <ele>288.70756783998393757428857497870922088623046875</ele>
            </trkpt>
            <trkpt lat="50.90208299999999752571966382674872875213623046875" lon="14.2354389999999995097823557443916797637939453125">
                <ele>288.70756783998393757428857497870922088623046875</ele>
            </trkpt>
            <trkpt lat="50.902051000000000158252078108489513397216796875" lon="14.2354889999999993932533470797352492809295654296875">
                <ele>288.396296480001865347730927169322967529296875</ele>
            </trkpt>
            <trkpt lat="50.9020009999999984984242473728954792022705078125" lon="14.2354169999999999873807610129006206989288330078125">
                <ele>288.20588143998975283466279506683349609375</ele>
            </trkpt>
            <trkpt lat="50.90196399999999954388840706087648868560791015625" lon="14.235414999999999707824827055446803569793701171875">
                <ele>287.96625919999729603659943677484989166259765625</ele>
            </trkpt>
            <trkpt lat="50.90161400000000213594830711372196674346923828125" lon="14.2346319999999995076223058276809751987457275390625">
                <ele>291.93236351996898747529485262930393218994140625</ele>
            </trkpt>
            <trkpt lat="50.90160800000000307363734464161098003387451171875" lon="14.23457499999999953388396534137427806854248046875">
                <ele>292.5627839999536945470026694238185882568359375</ele>
            </trkpt>
            <trkpt lat="50.90160800000000307363734464161098003387451171875" lon="14.23457499999999953388396534137427806854248046875">
                <ele>292.5627839999536945470026694238185882568359375</ele>
            </trkpt>
            <trkpt lat="50.9015950000000003683453542180359363555908203125" lon="14.2344360000000005328502084012143313884735107421875">
                <ele>294.057580799990091691142879426479339599609375</ele>
            </trkpt>
            <trkpt lat="50.90164299999999997226041159592568874359130859375" lon="14.2340630000000007981952876434661448001861572265625">
                <ele>296.82893407999335977365262806415557861328125</ele>
            </trkpt>
            <trkpt lat="50.90183400000000091267793322913348674774169921875" lon="14.2331559999999992527364156558178365230560302734375">
                <ele>306.16869760001054601161740720272064208984375</ele>
            </trkpt>
            <trkpt lat="50.901915999999999939973349682986736297607421875" lon="14.232687999999999561850927420891821384429931640625">
                <ele>308.99739520000213133243960328400135040283203125</ele>
            </trkpt>
            <trkpt lat="50.90198000000000178033587872050702571868896484375" lon="14.2325549999999996231281329528428614139556884765625">
                <ele>309.53415999999879204551689326763153076171875</ele>
            </trkpt>
            <trkpt lat="50.9022020000000026129782781936228275299072265625" lon="14.2323070000000004853291102335788309574127197265625">
                <ele>310.5403225599793586297892034053802490234375</ele>
            </trkpt>
            <trkpt lat="50.9022020000000026129782781936228275299072265625" lon="14.2323070000000004853291102335788309574127197265625">
                <ele>310.5403225599793586297892034053802490234375</ele>
            </trkpt>
            <trkpt lat="50.902455000000003337845555506646633148193359375" lon="14.232023999999999119836502359248697757720947265625">
                <ele>309.10151679995715312543325126171112060546875</ele>
            </trkpt>
            <trkpt lat="50.902906000000001540684024803340435028076171875" lon="14.2312619999999991904360285843722522258758544921875">
                <ele>315.93994496000550498138181865215301513671875</ele>
            </trkpt>
            <trkpt lat="50.903289999999998372004483826458454132080078125" lon="14.230563000000000073441697168163955211639404296875">
                <ele>316.1420256000277504426776431500911712646484375</ele>
            </trkpt>
            <trkpt lat="50.90378100000000216596163227222859859466552734375" lon="14.2298559999999998382236299221403896808624267578125">
                <ele>320.272293119983487486024387180805206298828125</ele>
            </trkpt>
            <trkpt lat="50.90378100000000216596163227222859859466552734375" lon="14.2298559999999998382236299221403896808624267578125">
                <ele>320.272293119983487486024387180805206298828125</ele>
            </trkpt>
            <trkpt lat="50.9041849999999982401277520693838596343994140625" lon="14.229243000000000307636582874692976474761962890625">
                <ele>314.76908880000172530344570986926555633544921875</ele>
            </trkpt>
            <trkpt lat="50.90447400000000044428816181607544422149658203125" lon="14.2289919999999998623252395191229879856109619140625">
                <ele>316.13339520000005222755135037004947662353515625</ele>
            </trkpt>
            <trkpt lat="50.90455299999999994042809703387320041656494140625" lon="14.22890399999999999636202119290828704833984375">
                <ele>316.83953280000076802025432698428630828857421875</ele>
            </trkpt>
            <trkpt lat="50.90455299999999994042809703387320041656494140625" lon="14.22890399999999999636202119290828704833984375">
                <ele>316.83953280000076802025432698428630828857421875</ele>
            </trkpt>
            <trkpt lat="50.90481199999999972760633681900799274444580078125" lon="14.2286809999999999121200744411908090114593505859375">
                <ele>317.17999680000360740450560115277767181396484375</ele>
            </trkpt>
            <trkpt lat="50.90529099999999829151420271955430507659912109375" lon="14.228218999999999283545548678375780582427978515625">
                <ele>328.60872591998935376977897249162197113037109375</ele>
            </trkpt>
            <trkpt lat="50.90548600000000334375727106817066669464111328125" lon="14.2280689999999996331325746723450720310211181640625">
                <ele>337.43835232006989599540247581899166107177734375</ele>
            </trkpt>
            <trkpt lat="50.905630000000002155502443201839923858642578125" lon="14.2279070000000000817408363218419253826141357421875">
                <ele>344.462516800026833152514882385730743408203125</ele>
            </trkpt>
            <trkpt lat="50.9057370000000020127117750234901905059814453125" lon="14.2278749999999991615595718030817806720733642578125">
                <ele>346.7188600000466749406768940389156341552734375</ele>
            </trkpt>
            <trkpt lat="50.9057370000000020127117750234901905059814453125" lon="14.2278749999999991615595718030817806720733642578125">
                <ele>346.7188600000466749406768940389156341552734375</ele>
            </trkpt>
            <trkpt lat="50.9058509999999984074747771956026554107666015625" lon="14.2278400000000004865796654485166072845458984375">
                <ele>349.4604895999233349357382394373416900634765625</ele>
            </trkpt>
            <trkpt lat="50.906125000000002955857780762016773223876953125" lon="14.227695000000000646878106635995209217071533203125">
                <ele>362.233400000093979542725719511508941650390625</ele>
            </trkpt>
            <trkpt lat="50.906125000000002955857780762016773223876953125" lon="14.227695000000000646878106635995209217071533203125">
                <ele>362.233400000093979542725719511508941650390625</ele>
            </trkpt>
            <trkpt lat="50.906125000000002955857780762016773223876953125" lon="14.227695000000000646878106635995209217071533203125">
                <ele>362.233400000093979542725719511508941650390625</ele>
            </trkpt>
            <trkpt lat="50.906239999999996825863490812480449676513671875" lon="14.227451999999999543433659709990024566650390625">
                <ele>368.891206399927568782004527747631072998046875</ele>
            </trkpt>
            <trkpt lat="50.90624799999999794408722664229571819305419921875" lon="14.2272750000000005599076757789589464664459228515625">
                <ele>373.35905599994390513529651798307895660400390625</ele>
            </trkpt>
            <trkpt lat="50.906328999999999496139935217797756195068359375" lon="14.2273340000000008132019502227194607257843017578125">
                <ele>373.74894847997057922839303500950336456298828125</ele>
            </trkpt>
            <trkpt lat="50.90636599999999845067577552981674671173095703125" lon="14.227214000000000027057467377744615077972412109375">
                <ele>377.01458431997019715709029696881771087646484375</ele>
            </trkpt>
            <trkpt lat="50.90638100000000321188053931109607219696044921875" lon="14.22721800000000058616933529265224933624267578125">
                <ele>377.2132774400478183451923541724681854248046875</ele>
            </trkpt>
            <trkpt lat="50.90638100000000321188053931109607219696044921875" lon="14.22721800000000058616933529265224933624267578125">
                <ele>377.2132774400478183451923541724681854248046875</ele>
            </trkpt>
            <trkpt lat="50.90644499999999794681571074761450290679931640625" lon="14.2272370000000005774154487880878150463104248046875">
                <ele>378.0692911999495890995603986084461212158203125</ele>
            </trkpt>
            <trkpt lat="50.90650600000000025602275854907929897308349609375" lon="14.2270780000000005571791916736401617527008056640625">
                <ele>381.77114623999437981183291412889957427978515625</ele>
            </trkpt>
            <trkpt lat="50.9066049999999989950083545409142971038818359375" lon="14.227047999999999916553861112333834171295166015625">
                <ele>383.5626271999873324602958746254444122314453125</ele>
            </trkpt>
            <trkpt lat="50.90670000000000072759576141834259033203125" lon="14.22708300000000036789060686714947223663330078125">
                <ele>384.92337600001474129385314881801605224609375</ele>
            </trkpt>
            <trkpt lat="50.90673799999999715737430960871279239654541015625" lon="14.2270839999999996194901541457511484622955322265625">
                <ele>385.9625587199234360014088451862335205078125</ele>
            </trkpt>
            <trkpt lat="50.90673799999999715737430960871279239654541015625" lon="14.2270839999999996194901541457511484622955322265625">
                <ele>385.9625587199234360014088451862335205078125</ele>
            </trkpt>
            <trkpt lat="50.90695000000000192130755749531090259552001953125" lon="14.2271160000000005396714186645112931728363037109375">
                <ele>391.65379200004980475569027476012706756591796875</ele>
            </trkpt>
            <trkpt lat="50.9069539999999989277057466097176074981689453125" lon="14.2271260000000001610942490515299141407012939453125">
                <ele>391.716752639966898641432635486125946044921875</ele>
            </trkpt>
            <trkpt lat="50.9069539999999989277057466097176074981689453125" lon="14.2271260000000001610942490515299141407012939453125">
                <ele>391.716752639966898641432635486125946044921875</ele>
            </trkpt>
            <trkpt lat="50.90699599999999946930984151549637317657470703125" lon="14.227230999999999738747646915726363658905029296875">
                <ele>392.47521215998295929239247925579547882080078125</ele>
            </trkpt>
            <trkpt lat="50.907026000000001886292011477053165435791015625" lon="14.227575999999999112333171069622039794921875">
                <ele>392.9957491200585764090646989643573760986328125</ele>
            </trkpt>
            <trkpt lat="50.9070439999999990732248988933861255645751953125" lon="14.2275130000000000762838681112043559551239013671875">
                <ele>393.1790726399648292499477975070476531982421875</ele>
            </trkpt>
            <trkpt lat="50.9070439999999990732248988933861255645751953125" lon="14.2275130000000000762838681112043559551239013671875">
                <ele>393.1790726399648292499477975070476531982421875</ele>
            </trkpt>
            <trkpt lat="50.907026000000001886292011477053165435791015625" lon="14.227575999999999112333171069622039794921875">
                <ele>392.9957491200585764090646989643573760986328125</ele>
            </trkpt>
            <trkpt lat="50.90696899999999658348315278999507427215576171875" lon="14.2276039999999994734025676734745502471923828125">
                <ele>391.16704511987171599685098044574260711669921875</ele>
            </trkpt>
            <trkpt lat="50.90690599999999932379068923182785511016845703125" lon="14.227596999999999383135218522511422634124755859375">
                <ele>388.86393983996873657815740443766117095947265625</ele>
            </trkpt>
            <trkpt lat="50.9068189999999987094270181842148303985595703125" lon="14.227709000000000827412804937921464443206787109375">
                <ele>386.64790751995855089262477122247219085693359375</ele>
            </trkpt>
            <trkpt lat="50.906802999999996472979546524584293365478515625" lon="14.2277649999999997731947587453760206699371337890625">
                <ele>386.52995039987155223570880480110645294189453125</ele>
            </trkpt>
            <trkpt lat="50.906802999999996472979546524584293365478515625" lon="14.2277649999999997731947587453760206699371337890625">
                <ele>386.52995039987155223570880480110645294189453125</ele>
            </trkpt>
            <trkpt lat="50.90678700000000134195943246595561504364013671875" lon="14.227816000000000684622136759571731090545654296875">
                <ele>386.3768870400502919437712989747524261474609375</ele>
            </trkpt>
            <trkpt lat="50.9069410000000033278411137871444225311279296875" lon="14.2281530000000007163407644839026033878326416015625">
                <ele>394.34527776011674404799123294651508331298828125</ele>
            </trkpt>
            <trkpt lat="50.90695099999999939655026537366211414337158203125" lon="14.228474999999999539568307227455079555511474609375">
                <ele>398.19355999997156914105289615690708160400390625</ele>
            </trkpt>
            <trkpt lat="50.90694700000000239015207625925540924072265625" lon="14.228486000000000188947524293325841426849365234375">
                <ele>398.2341152000755073459004051983356475830078125</ele>
            </trkpt>
            <trkpt lat="50.90694700000000239015207625925540924072265625" lon="14.228486000000000188947524293325841426849365234375">
                <ele>398.2341152000755073459004051983356475830078125</ele>
            </trkpt>
            <trkpt lat="50.906756999999998924977262504398822784423828125" lon="14.2290440000000000253521648119203746318817138671875">
                <ele>402.25556479997334236031747423112392425537109375</ele>
            </trkpt>
            <trkpt lat="50.90654500000000126647137221880257129669189453125" lon="14.22914300000000054069460020400583744049072265625">
                <ele>394.89160000008160977813531644642353057861328125</ele>
            </trkpt>
            <trkpt lat="50.90636299999999891952029429376125335693359375" lon="14.2293719999999996872475094278343021869659423828125">
                <ele>390.78350527992648721919977106153964996337890625</ele>
            </trkpt>
            <trkpt lat="50.9061209999999988440322340466082096099853515625" lon="14.2295829999999998705106918350793421268463134765625">
                <ele>384.0231046399302385907503776252269744873046875</ele>
            </trkpt>
            <trkpt lat="50.9059299999999979036147124134004116058349609375" lon="14.2299629999999996954329617437906563282012939453125">
                <ele>386.96520319988240999009576626121997833251953125</ele>
            </trkpt>
            <trkpt lat="50.90585899999999952569851302541792392730712890625" lon="14.230180000000000717363946023397147655487060546875">
                <ele>391.46191040000502425755257718265056610107421875</ele>
            </trkpt>
            <trkpt lat="50.90585899999999952569851302541792392730712890625" lon="14.230180000000000717363946023397147655487060546875">
                <ele>391.46191040000502425755257718265056610107421875</ele>
            </trkpt>
            <trkpt lat="50.90581900000000104000719147734344005584716796875" lon="14.230672999999999461806510225869715213775634765625">
                <ele>408.58374432003256515599787235260009765625</ele>
            </trkpt>
            <trkpt lat="50.9057490000000001373336999677121639251708984375" lon="14.230928999999999717829268774949014186859130859375">
                <ele>411.5652617600040912293479777872562408447265625</ele>
            </trkpt>
            <trkpt lat="50.9057490000000001373336999677121639251708984375" lon="14.230928999999999717829268774949014186859130859375">
                <ele>411.5652617600040912293479777872562408447265625</ele>
            </trkpt>
            <trkpt lat="50.9057490000000001373336999677121639251708984375" lon="14.230928999999999717829268774949014186859130859375">
                <ele>411.5652617600040912293479777872562408447265625</ele>
            </trkpt>
            <trkpt lat="50.9056700000000006411937647499144077301025390625" lon="14.2309699999999992314769770018756389617919921875">
                <ele>408.0717440000229316865443252027034759521484375</ele>
            </trkpt>
            <trkpt lat="50.9054229999999989786374499090015888214111328125" lon="14.231213000000000334921423927880823612213134765625">
                <ele>400.61517343996632689595571719110012054443359375</ele>
            </trkpt>
            <trkpt lat="50.9054229999999989786374499090015888214111328125" lon="14.231213000000000334921423927880823612213134765625">
                <ele>400.61517343996632689595571719110012054443359375</ele>
            </trkpt>
            <trkpt lat="50.905316999999996596670825965702533721923828125" lon="14.231258000000000407681000069715082645416259765625">
                <ele>397.57625215988588252002955414354801177978515625</ele>
            </trkpt>
            <trkpt lat="50.9052190000000024383552954532206058502197265625" lon="14.2311110000000002884235072997398674488067626953125">
                <ele>390.52011104010631470373482443392276763916015625</ele>
            </trkpt>
            <trkpt lat="50.9051060000000035188350011594593524932861328125" lon="14.2310859999999994585095919319428503513336181640625">
                <ele>385.15325696013172773746191523969173431396484375</ele>
            </trkpt>
            <trkpt lat="50.90505399999999980309439706616103649139404296875" lon="14.2310409999999993857500157901085913181304931640625">
                <ele>381.5949478399714962506550364196300506591796875</ele>
            </trkpt>
            <trkpt lat="50.90495700000000312002157443203032016754150390625" lon="14.23105100000000078352968557737767696380615234375">
                <ele>377.6678441601616214029490947723388671875</ele>
            </trkpt>
            <trkpt lat="50.90488500000000016143530956469476222991943359375" lon="14.231151000000000550471668248064815998077392578125">
                <ele>377.71918880002436935683363117277622222900390625</ele>
            </trkpt>
            <trkpt lat="50.90487999999999857436705497093498706817626953125" lon="14.231154000000000081627149484120309352874755859375">
                <ele>377.594777599939334322698414325714111328125</ele>
            </trkpt>
            <trkpt lat="50.90487999999999857436705497093498706817626953125" lon="14.231154000000000081627149484120309352874755859375">
                <ele>377.594777599939334322698414325714111328125</ele>
            </trkpt>
            <trkpt lat="50.9048140000000017835191101767122745513916015625" lon="14.2311910000000008125198291963897645473480224609375">
                <ele>375.8616051201044001572881825268268585205078125</ele>
            </trkpt>
            <trkpt lat="50.9047020000000003392415237613022327423095703125" lon="14.231303000000000480440576211549341678619384765625">
                <ele>374.4405132800299043083214201033115386962890625</ele>
            </trkpt>
            <trkpt lat="50.904572999999999183273757807910442352294921875" lon="14.231472000000000122099663713015615940093994140625">
                <ele>373.96099327996665806495002470910549163818359375</ele>
            </trkpt>
            <trkpt lat="50.90449799999999669353201170451939105987548828125" lon="14.231635000000000701447788742370903491973876953125">
                <ele>375.6285823998708792714751325547695159912109375</ele>
            </trkpt>
            <trkpt lat="50.90450299999999828060026629827916622161865234375" lon="14.2318149999999992161292539094574749469757080078125">
                <ele>376.09048159992454429811914451420307159423828125</ele>
            </trkpt>
            <trkpt lat="50.904449999999997089616954326629638671875" lon="14.23183900000000079444362199865281581878662109375">
                <ele>373.5266239998614992146030999720096588134765625</ele>
            </trkpt>
            <trkpt lat="50.904449999999997089616954326629638671875" lon="14.23183900000000079444362199865281581878662109375">
                <ele>373.5266239998614992146030999720096588134765625</ele>
            </trkpt>
            <trkpt lat="50.90450299999999828060026629827916622161865234375" lon="14.2318149999999992161292539094574749469757080078125">
                <ele>376.09048159992454429811914451420307159423828125</ele>
            </trkpt>
            <trkpt lat="50.904528999999996585756889544427394866943359375" lon="14.2319720000000007331664164667017757892608642578125">
                <ele>376.50902143983745418154285289347171783447265625</ele>
            </trkpt>
            <trkpt lat="50.9047460000000029367583920247852802276611328125" lon="14.232352999999999809688233654014766216278076171875">
                <ele>384.94473344014028270976268686354160308837890625</ele>
            </trkpt>
            <trkpt lat="50.90514600000000200452632270753383636474609375" lon="14.232817000000000717818693374283611774444580078125">
                <ele>379.18713727999175944205489940941333770751953125</ele>
            </trkpt>
            <trkpt lat="50.905169999999998253770172595977783203125" lon="14.2328159999999996898623066954314708709716796875">
                <ele>379.65130879998895352400722913444042205810546875</ele>
            </trkpt>
            <trkpt lat="50.905169999999998253770172595977783203125" lon="14.2328159999999996898623066954314708709716796875">
                <ele>379.65130879998895352400722913444042205810546875</ele>
            </trkpt>
            <trkpt lat="50.9052089999999992642187862657010555267333984375" lon="14.2328150000000004382627594168297946453094482421875">
                <ele>380.367238399962616313132457435131072998046875</ele>
            </trkpt>
            <trkpt lat="50.90522200000000196951077668927609920501708984375" lon="14.2326180000000004355342753115110099315643310546875">
                <ele>391.871555839999700765474699437618255615234375</ele>
            </trkpt>
            <trkpt lat="50.90533400000000341378836310468614101409912109375" lon="14.232485000000000496811480843462049961090087890625">
                <ele>399.82532960002941990751423873007297515869140625</ele>
            </trkpt>
            <trkpt lat="50.90543199999999757210389361716806888580322265625" lon="14.232462999999999198053046711720526218414306640625">
                <ele>400.98755263998288000948377884924411773681640625</ele>
            </trkpt>
            <trkpt lat="50.905495999999999412466422654688358306884765625" lon="14.2324789999999996581436789711005985736846923828125">
                <ele>401.472191359997623294475488364696502685546875</ele>
            </trkpt>
            <trkpt lat="50.905495999999999412466422654688358306884765625" lon="14.2324789999999996581436789711005985736846923828125">
                <ele>401.472191359997623294475488364696502685546875</ele>
            </trkpt>
            <trkpt lat="50.9055589999999966721588862128555774688720703125" lon="14.232495000000000118234311230480670928955078125">
                <ele>401.92062319996654196074814535677433013916015625</ele>
            </trkpt>
            <trkpt lat="50.9057940000000002100932761095464229583740234375" lon="14.2326689999999995706048139254562556743621826171875">
                <ele>396.66844544002191241816035471856594085693359375</ele>
            </trkpt>
            <trkpt lat="50.9058500000000009322320693172514438629150390625" lon="14.2326829999999997511395122273825109004974365234375">
                <ele>396.7349440000185722965397872030735015869140625</ele>
            </trkpt>
            <trkpt lat="50.90587099999999765032043796963989734649658203125" lon="14.232630000000000336513039655983448028564453125">
                <ele>399.10963839997219793076510541141033172607421875</ele>
            </trkpt>
            <trkpt lat="50.90587099999999765032043796963989734649658203125" lon="14.232630000000000336513039655983448028564453125">
                <ele>399.10963839997219793076510541141033172607421875</ele>
            </trkpt>
            <trkpt lat="50.9059510000000017271304386667907238006591796875" lon="14.2324280000000005230731403571553528308868408203125">
                <ele>405.488001279992431591381318867206573486328125</ele>
            </trkpt>
            <trkpt lat="50.9060259999999971114448271691799163818359375" lon="14.2323170000000001067519406205974519252777099609375">
                <ele>406.932113920001938822679221630096435546875</ele>
            </trkpt>
            <trkpt lat="50.90618400000000320915205520577728748321533203125" lon="14.2322790000000001242597136297263205051422119140625">
                <ele>407.2360153599946670510689727962017059326171875</ele>
            </trkpt>
            <trkpt lat="50.906283000000001948137651197612285614013671875" lon="14.232378000000000639602149021811783313751220703125">
                <ele>405.940810239991378693957813084125518798828125</ele>
            </trkpt>
            <trkpt lat="50.906283000000001948137651197612285614013671875" lon="14.232378000000000639602149021811783313751220703125">
                <ele>405.940810239991378693957813084125518798828125</ele>
            </trkpt>
            <trkpt lat="50.90636400000000350019035977311432361602783203125" lon="14.2325009999999991805452737025916576385498046875">
                <ele>404.48125312001576503462274558842182159423828125</ele>
            </trkpt>
            <trkpt lat="50.90654599999999874171408009715378284454345703125" lon="14.2329430000000005662741386913694441318511962890625">
                <ele>399.91037823996765609990688972175121307373046875</ele>
            </trkpt>
            <trkpt lat="50.906644999999997480699676088988780975341796875" lon="14.2334060000000004464482117327861487865447998046875">
                <ele>398.865062399894441114156506955623626708984375</ele>
            </trkpt>
            <trkpt lat="50.906734000000000150976120494306087493896484375" lon="14.2337070000000007752305464236997067928314208984375">
                <ele>397.97746079999473067800863645970821380615234375</ele>
            </trkpt>
            <trkpt lat="50.9068060000000031095623853616416454315185546875" lon="14.2338740000000001373336999677121639251708984375">
                <ele>398.29439040007838457313482649624347686767578125</ele>
            </trkpt>
            <trkpt lat="50.90689499999999867441147216595709323883056640625" lon="14.234094999999999942019712761975824832916259765625">
                <ele>399.3185399999574656249023973941802978515625</ele>
            </trkpt>
            <trkpt lat="50.90689499999999867441147216595709323883056640625" lon="14.234094999999999942019712761975824832916259765625">
                <ele>399.3185399999574656249023973941802978515625</ele>
            </trkpt>
            <trkpt lat="50.90691100000000091085894382558763027191162109375" lon="14.2341350000000002040678737103007733821868896484375">
                <ele>399.59127600002574354220996610820293426513671875</ele>
            </trkpt>
            <trkpt lat="50.90680900000000264071786659769713878631591796875" lon="14.23450700000000068712324718944728374481201171875">
                <ele>400.3249811200865906357648782432079315185546875</ele>
            </trkpt>
            <trkpt lat="50.90677600000000069258021540008485317230224609375" lon="14.2347669999999997259010342531837522983551025390625">
                <ele>402.5887340800144329477916471660137176513671875</ele>
            </trkpt>
            <trkpt lat="50.9066270000000002937667886726558208465576171875" lon="14.235248999999999597321220790036022663116455078125">
                <ele>404.57809744000036289435229264199733734130859375</ele>
            </trkpt>
            <trkpt lat="50.90664100000000047430148697458207607269287109375" lon="14.235331999999999652573023922741413116455078125">
                <ele>405.93511936000464856988401152193546295166015625</ele>
            </trkpt>
            <trkpt lat="50.90664100000000047430148697458207607269287109375" lon="14.235331999999999652573023922741413116455078125">
                <ele>405.93511936000464856988401152193546295166015625</ele>
            </trkpt>
            <trkpt lat="50.90667400000000242243913817219436168670654296875" lon="14.2355350000000004939693099004216492176055908203125">
                <ele>409.09415200006168333857203833758831024169921875</ele>
            </trkpt>
            <trkpt lat="50.90676899999999704959918744862079620361328125" lon="14.235842999999999136662154342047870159149169921875">
                <ele>414.59908175994542034459300339221954345703125</ele>
            </trkpt>
            <trkpt lat="50.90686199999999672627382096834480762481689453125" lon="14.235803000000000650970832793973386287689208984375">
                <ele>416.39786079993388057118863798677921295166015625</ele>
            </trkpt>
            <trkpt lat="50.90686199999999672627382096834480762481689453125" lon="14.235803000000000650970832793973386287689208984375">
                <ele>416.39786079993388057118863798677921295166015625</ele>
            </trkpt>
            <trkpt lat="50.90694500000000033423930290155112743377685546875" lon="14.23576800000000019963408703915774822235107421875">
                <ele>417.85892800000777924651629291474819183349609375</ele>
            </trkpt>
            <trkpt lat="50.9070559999999971978468238376080989837646484375" lon="14.235825999999999424971974804066121578216552734375">
                <ele>420.8421567999324679476558230817317962646484375</ele>
            </trkpt>
            <trkpt lat="50.90706899999999990313881426118314266204833984375" lon="14.2358489999999999753299562144093215465545654296875">
                <ele>420.9220036799970330321229994297027587890625</ele>
            </trkpt>
            <trkpt lat="50.90706899999999990313881426118314266204833984375" lon="14.2358489999999999753299562144093215465545654296875">
                <ele>420.9220036799970330321229994297027587890625</ele>
            </trkpt>
            <trkpt lat="50.90716400000000163572622113861143589019775390625" lon="14.236014000000000834234015201218426227569580078125">
                <ele>419.8259788800129399533034302294254302978515625</ele>
            </trkpt>
            <trkpt lat="50.90718700000000040972736314870417118072509765625" lon="14.236734999999999473629941348917782306671142578125">
                <ele>404.36200800002870892058126628398895263671875</ele>
            </trkpt>
            <trkpt lat="50.907229999999998426574165932834148406982421875" lon="14.236940000000000594582161284051835536956787109375">
                <ele>395.0092799999569024294032715260982513427734375</ele>
            </trkpt>
            <trkpt lat="50.9072450000000031877789297141134738922119140625" lon="14.23695000000000021600499167107045650482177734375">
                <ele>394.68960000002249444150947965681552886962890625</ele>
            </trkpt>
            <trkpt lat="50.9072450000000031877789297141134738922119140625" lon="14.23695000000000021600499167107045650482177734375">
                <ele>394.68960000002249444150947965681552886962890625</ele>
            </trkpt>
            <trkpt lat="50.9073139999999995097823557443916797637939453125" lon="14.236993999999999260808181134052574634552001953125">
                <ele>393.366470400029129450558684766292572021484375</ele>
            </trkpt>
            <trkpt lat="50.90741799999999983583620632998645305633544921875" lon="14.2370199999999993423216437804512679576873779296875">
                <ele>393.32678400002777152622002176940441131591796875</ele>
            </trkpt>
            <trkpt lat="50.90754700000000099180397228337824344635009765625" lon="14.236923000000000882891981746070086956024169921875">
                <ele>398.75609183996965612095664255321025848388671875</ele>
            </trkpt>
            <trkpt lat="50.90755399999999752935764263384044170379638671875" lon="14.236907999999999674400896765291690826416015625">
                <ele>399.4461964799974111883784644305706024169921875</ele>
            </trkpt>
            <trkpt lat="50.90755399999999752935764263384044170379638671875" lon="14.236907999999999674400896765291690826416015625">
                <ele>399.4461964799974111883784644305706024169921875</ele>
            </trkpt>
            <trkpt lat="50.90766099999999738656697445549070835113525390625" lon="14.23669399999999995998223312199115753173828125">
                <ele>409.13002175998911980059347115457057952880859375</ele>
            </trkpt>
            <trkpt lat="50.9077180000000026893758331425487995147705078125" lon="14.2363909999999993516439644736237823963165283203125">
                <ele>416.800901760019087305408902466297149658203125</ele>
            </trkpt>
            <trkpt lat="50.9077539999999970632416079752147197723388671875" lon="14.2362920000000006126583684817887842655181884765625">
                <ele>419.0644953599850168757257051765918731689453125</ele>
            </trkpt>
            <trkpt lat="50.90791399999999811143425176851451396942138671875" lon="14.2363510000000008659526429255492985248565673828125">
                <ele>417.936497279980130770127288997173309326171875</ele>
            </trkpt>
            <trkpt lat="50.9082310000000006766640581190586090087890625" lon="14.2362300000000008282086128019727766513824462890625">
                <ele>420.3355775999860952651943080127239227294921875</ele>
            </trkpt>
            <trkpt lat="50.9082310000000006766640581190586090087890625" lon="14.2362300000000008282086128019727766513824462890625">
                <ele>420.3355775999860952651943080127239227294921875</ele>
            </trkpt>
            <trkpt lat="50.908309000000002697561285458505153656005859375" lon="14.2362540000000006301661414909176528453826904296875">
                <ele>419.936478719990191166289150714874267578125</ele>
            </trkpt>
            <trkpt lat="50.90831800000000129102772916667163372039794921875" lon="14.2363440000000007756852937745861709117889404296875">
                <ele>418.5169958399891356748412363231182098388671875</ele>
            </trkpt>
            <trkpt lat="50.908332999999998946805135346949100494384765625" lon="14.2365089999999998582325133611448109149932861328125">
                <ele>415.9586054399989052399178035557270050048828125</ele>
            </trkpt>
            <trkpt lat="50.90838500000000266254573944024741649627685546875" lon="14.2364300000000003620925781433470547199249267578125">
                <ele>418.07835200003847830885206349194049835205078125</ele>
            </trkpt>
            <trkpt lat="50.908490999999997939085005782544612884521484375" lon="14.2363560000000006766640581190586090087890625">
                <ele>420.950397439954713263432495296001434326171875</ele>
            </trkpt>
            <trkpt lat="50.90852399999999988722265698015689849853515625" lon="14.2363739999999996399537849356420338153839111328125">
                <ele>421.24427264000149762068758718669414520263671875</ele>
            </trkpt>
            <trkpt lat="50.908557999999999310603016056120395660400390625" lon="14.2364200000000007406697477563284337520599365234375">
                <ele>421.1827903999763975662062875926494598388671875</ele>
            </trkpt>
            <trkpt lat="50.90861400000000003274180926382541656494140625" lon="14.2367340000000002220303940703161060810089111328125">
                <ele>416.60086719999191018359852023422718048095703125</ele>
            </trkpt>
            <trkpt lat="50.90869699999999653527993359602987766265869140625" lon="14.23688800000000043155523599125444889068603515625">
                <ele>413.09393919991225629928521811962127685546875</ele>
            </trkpt>
            <trkpt lat="50.90873400000000259524313150905072689056396484375" lon="14.23699500000000028876456781290471553802490234375">
                <ele>410.319976000045016917283646762371063232421875</ele>
            </trkpt>
            <trkpt lat="50.90892999999999801730155013501644134521484375" lon="14.2381100000000007099743015714921057224273681640625">
                <ele>382.3587999998832174242124892771244049072265625</ele>
            </trkpt>
            <trkpt lat="50.9080000000000012505552149377763271331787109375" lon="14.2384100000000000108002495835535228252410888671875">
                <ele>338.35920000001664220690145157277584075927734375</ele>
            </trkpt>
            <trkpt lat="50.90780000000000171667124959640204906463623046875" lon="14.2389700000000001267608240596018731594085693359375">
                <ele>323.7758400000485607961309142410755157470703125</ele>
            </trkpt>
            <trkpt lat="50.9057099999999991268850862979888916015625" lon="14.2402099999999993684696164564229547977447509765625">
                <ele>283.67988799999255888906191103160381317138671875</ele>
            </trkpt>
            <trkpt lat="50.9037000000000006139089236967265605926513671875" lon="14.23892000000000024328983272425830364227294921875">
                <ele>281.0664000000002715751179493963718414306640625</ele>
            </trkpt>
            <trkpt lat="50.90218999999999738292899564839899539947509765625" lon="14.2380499999999994287236404488794505596160888671875">
                <ele>277.6092799999727276372141204774379730224609375</ele>
            </trkpt>
            <trkpt lat="50.9014499999999969759301166050136089324951171875" lon="14.2376599999999999823785401531495153903961181640625">
                <ele>270.776960000009921714081428945064544677734375</ele>
            </trkpt>
            <trkpt lat="50.8991800000000012005330063402652740478515625" lon="14.2387999999999994571453498792834579944610595703125">
                <ele>272.06672000000429534338763915002346038818359375</ele>
            </trkpt>
            <trkpt lat="50.8972399999999964848029776476323604583740234375" lon="14.23807000000000044792614062316715717315673828125">
                <ele>257.092831999924555930192582309246063232421875</ele>
            </trkpt>
            <trkpt lat="50.895319999999998117345967330038547515869140625" lon="14.2364399999999999835154085303656756877899169921875">
                <ele>222.99740799999398177533294074237346649169921875</ele>
            </trkpt>
            <trkpt lat="50.8914299999999997226041159592568874359130859375" lon="14.23122000000000042518877307884395122528076171875">
                <ele>131.975328000001780992533895187079906463623046875</ele>
            </trkpt>
        </trkseg>
    </trk>
</gpx>
