<?xml version="1.0" encoding="UTF-8" standalone="yes"?>
<gpx xmlns="http://www.topografix.com/GPX/1/1" xmlns:gpxtrx="http://www.garmin.com/xmlschemas/GpxExtensions/v3" xmlns:rcxx="http://www.routeconverter.de/xmlschemas/RouteCatalogExtensions/1.0" xmlns:xsi="http://www.w3.org/2001/XMLSchema-instance" xmlns:gpxtpx="http://www.garmin.com/xmlschemas/TrackPointExtension/v1" xmlns:gpxx="http://www.garmin.com/xmlschemas/WaypointExtension/v1" xmlns:nmea="http://trekbuddy.net/2009/01/gpx/nmea" version="1.1" creator="Generated by Christian Pesch's RouteConverter. See http://www.routeconverter.com">
    <metadata>
        <name>2017-07-09 08:15</name>
        <link href="http://www.oruxmaps.com">
            <text>OruxMaps</text>
        </link>
        <time>2017-07-09T06:15:00Z</time>
        <bounds minlat="47.5878227" minlon="12.5941327" maxlat="47.6027010" maxlon="12.6090527"/>
    </metadata>
    <wpt lat="47.602157" lon="12.5942328">
        <ele>1589.8</ele>
        <time>2017-07-09T08:28:46.000Z</time>
        <sym>Waypoint</sym>
        <type>Wegpunkt</type>
        <extensions>
            <om:oruxmapsextensions xmlns:om="http://www.oruxmaps.com/oruxmapsextensions/1/0">
                <om:ext subtype="0" type="ICON">1</om:ext>
</om:oruxmapsextensions>
        </extensions>
    </wpt>
    <trk>
        <name>2017-07-09 08:15</name>
        <desc>&lt;h1&gt;OruxMaps&lt;/h1&gt;&lt;br /&gt;&lt;hr align="center" width="480" style="height: 2px; width: 517px"/&gt;&lt;h2&gt;Name: 2017-07-09 08:15&lt;/h2&gt;&lt;br /&gt;&lt;p&gt;Startzeit: 07/09/2017 08:15&lt;/p&gt;&lt;p&gt;Zielzeit: 07/09/2017 14:12&lt;/p&gt;&lt;p&gt;Strecke: 10,
1km (05:57)&lt;/p&gt;&lt;p&gt;Bewegungszeit: 02:32&lt;/p&gt;&lt;p&gt;Ø-Geschwindigkeit: 1,
7km/h&lt;/p&gt;&lt;p&gt;Netto-Geschwindigkeit: 4km/h&lt;/p&gt;&lt;p&gt;Max. Geschwindigkeit: 7,
1km/h&lt;/p&gt;&lt;p&gt;Minimale Höhe: 752m&lt;/p&gt;&lt;p&gt;Maximale Höhe: 1674m&lt;/p&gt;&lt;p&gt;Steig-Geschw.: 308,
9m/h&lt;/p&gt;&lt;p&gt;Sink-Geschw.: -319,
2m/h&lt;/p&gt;&lt;p&gt;Aufstieg: 935m&lt;/p&gt;&lt;p&gt;Abstieg: -917m&lt;/p&gt;&lt;p&gt;Steigzeit: 03:01&lt;/p&gt;&lt;p&gt;Sinkzeit: 02:52&lt;/p&gt;&lt;hr align="center" width="480" style="height: 2px; width: 517px"/&gt;</desc>
        <type>Unbestimmt</type>
        <extensions>
            <om:oruxmapsextensions xmlns:om="http://www.oruxmaps.com/oruxmapsextensions/1/0">
                <om:ext subtype="0" type="TYPE">0</om:ext>
</om:oruxmapsextensions>
        </extensions>
        <trkseg>
            <trkpt lat="47.5878546" lon="12.6036382">
                <ele>752.8</ele>
                <time>2017-07-09T06:15:05.000Z</time>
                <name>Position 1</name>
            </trkpt>
            <trkpt lat="47.5879321" lon="12.6038846">
                <ele>759.2</ele>
                <time>2017-07-09T06:19:20.000Z</time>
                <name>Position 2</name>
            </trkpt>
            <trkpt lat="47.5879012" lon="12.6041574">
                <ele>767.9</ele>
                <time>2017-07-09T06:19:40.000Z</time>
                <name>Position 3</name>
            </trkpt>
            <trkpt lat="47.5879475" lon="12.6044212">
                <ele>777.9</ele>
                <time>2017-07-09T06:20:07.000Z</time>
                <name>Position 4</name>
            </trkpt>
            <trkpt lat="47.5879402" lon="12.6046944">
                <ele>777.4</ele>
                <time>2017-07-09T06:20:28.000Z</time>
                <name>Position 5</name>
            </trkpt>
            <trkpt lat="47.5879589" lon="12.6049777">
                <ele>772.8</ele>
                <time>2017-07-09T06:20:47.000Z</time>
                <name>Position 6</name>
            </trkpt>
            <trkpt lat="47.5879899" lon="12.6052431">
                <ele>772.0</ele>
                <time>2017-07-09T06:21:05.000Z</time>
                <name>Position 7</name>
            </trkpt>
            <trkpt lat="47.5881071" lon="12.6054595">
                <ele>783.0</ele>
                <time>2017-07-09T06:21:30.000Z</time>
                <name>Position 8</name>
            </trkpt>
            <trkpt lat="47.588253" lon="12.6056228">
                <ele>785.5</ele>
                <time>2017-07-09T06:21:48.000Z</time>
                <name>Position 9</name>
            </trkpt>
            <trkpt lat="47.588375" lon="12.6058285">
                <ele>786.9</ele>
                <time>2017-07-09T06:22:08.000Z</time>
                <name>Position 10</name>
            </trkpt>
            <trkpt lat="47.5884985" lon="12.6060281">
                <ele>790.6</ele>
                <time>2017-07-09T06:22:29.000Z</time>
                <name>Position 11</name>
            </trkpt>
            <trkpt lat="47.5886257" lon="12.6062235">
                <ele>796.5</ele>
                <time>2017-07-09T06:23:03.000Z</time>
                <name>Position 12</name>
            </trkpt>
            <trkpt lat="47.5887446" lon="12.6064276">
                <ele>794.8</ele>
                <time>2017-07-09T06:23:23.000Z</time>
                <name>Position 13</name>
            </trkpt>
            <trkpt lat="47.5888798" lon="12.6066226">
                <ele>796.7</ele>
                <time>2017-07-09T06:23:43.000Z</time>
                <name>Position 14</name>
            </trkpt>
            <trkpt lat="47.5889564" lon="12.6068678">
                <ele>798.0</ele>
                <time>2017-07-09T06:24:03.000Z</time>
                <name>Position 15</name>
            </trkpt>
            <trkpt lat="47.5890336" lon="12.6071217">
                <ele>799.7</ele>
                <time>2017-07-09T06:24:20.000Z</time>
                <name>Position 16</name>
            </trkpt>
            <trkpt lat="47.5890452" lon="12.6074264">
                <ele>810.7</ele>
                <time>2017-07-09T06:24:43.000Z</time>
                <name>Position 17</name>
            </trkpt>
            <trkpt lat="47.5890691" lon="12.6077022">
                <ele>813.5</ele>
                <time>2017-07-09T06:25:01.000Z</time>
                <name>Position 18</name>
            </trkpt>
            <trkpt lat="47.5891127" lon="12.60797">
                <ele>814.1</ele>
                <time>2017-07-09T06:25:19.000Z</time>
                <name>Position 19</name>
            </trkpt>
            <trkpt lat="47.5891213" lon="12.6082485">
                <ele>814.2</ele>
                <time>2017-07-09T06:25:36.000Z</time>
                <name>Position 20</name>
            </trkpt>
            <trkpt lat="47.5891292" lon="12.6085165">
                <ele>820.2</ele>
                <time>2017-07-09T06:25:53.000Z</time>
                <name>Position 21</name>
            </trkpt>
            <trkpt lat="47.5891482" lon="12.6087836">
                <ele>823.5</ele>
                <time>2017-07-09T06:26:11.000Z</time>
                <name>Position 22</name>
            </trkpt>
            <trkpt lat="47.5891372" lon="12.6090527">
                <ele>825.9</ele>
                <time>2017-07-09T06:26:30.000Z</time>
                <name>Position 23</name>
            </trkpt>
            <trkpt lat="47.589292" lon="12.6088997">
                <ele>830.8</ele>
                <time>2017-07-09T06:27:11.000Z</time>
                <name>Position 24</name>
            </trkpt>
            <trkpt lat="47.5893502" lon="12.6086376">
                <ele>835.2</ele>
                <time>2017-07-09T06:27:38.000Z</time>
                <name>Position 25</name>
            </trkpt>
            <trkpt lat="47.5894034" lon="12.6083772">
                <ele>838.2</ele>
                <time>2017-07-09T06:28:05.000Z</time>
                <name>Position 26</name>
            </trkpt>
            <trkpt lat="47.5894793" lon="12.6081253">
                <ele>838.2</ele>
                <time>2017-07-09T06:28:29.000Z</time>
                <name>Position 27</name>
            </trkpt>
            <trkpt lat="47.5895904" lon="12.6079091">
                <ele>852.3</ele>
                <time>2017-07-09T06:29:03.000Z</time>
                <name>Position 28</name>
            </trkpt>
            <trkpt lat="47.5895855" lon="12.6076329">
                <ele>853.1</ele>
                <time>2017-07-09T06:29:35.000Z</time>
                <name>Position 29</name>
            </trkpt>
            <trkpt lat="47.5896494" lon="12.6073743">
                <ele>845.9</ele>
                <time>2017-07-09T06:30:00.000Z</time>
                <name>Position 30</name>
            </trkpt>
            <trkpt lat="47.589649" lon="12.6070999">
                <ele>862.1</ele>
                <time>2017-07-09T06:30:31.000Z</time>
                <name>Position 31</name>
            </trkpt>
            <trkpt lat="47.5896878" lon="12.6068317">
                <ele>857.8</ele>
                <time>2017-07-09T06:30:58.000Z</time>
                <name>Position 32</name>
            </trkpt>
            <trkpt lat="47.5897272" lon="12.6065658">
                <ele>865.4</ele>
                <time>2017-07-09T06:31:24.000Z</time>
                <name>Position 33</name>
            </trkpt>
            <trkpt lat="47.5898142" lon="12.6063253">
                <ele>867.2</ele>
                <time>2017-07-09T06:32:00.000Z</time>
                <name>Position 34</name>
            </trkpt>
            <trkpt lat="47.589942" lon="12.6061318">
                <ele>870.8</ele>
                <time>2017-07-09T06:32:29.000Z</time>
                <name>Position 35</name>
            </trkpt>
            <trkpt lat="47.5899399" lon="12.6058518">
                <ele>878.7</ele>
                <time>2017-07-09T06:33:36.000Z</time>
                <name>Position 36</name>
            </trkpt>
            <trkpt lat="47.59" lon="12.6055993">
                <ele>878.4</ele>
                <time>2017-07-09T06:34:08.000Z</time>
                <name>Position 37</name>
            </trkpt>
            <trkpt lat="47.5901411" lon="12.6054236">
                <ele>879.7</ele>
                <time>2017-07-09T06:34:27.000Z</time>
                <name>Position 38</name>
            </trkpt>
            <trkpt lat="47.5902501" lon="12.605201">
                <ele>881.7</ele>
                <time>2017-07-09T06:35:17.000Z</time>
                <name>Position 39</name>
            </trkpt>
            <trkpt lat="47.590433" lon="12.6051736">
                <ele>890.5</ele>
                <time>2017-07-09T06:35:40.000Z</time>
                <name>Position 40</name>
            </trkpt>
            <trkpt lat="47.5904562" lon="12.6048992">
                <ele>882.4</ele>
                <time>2017-07-09T06:36:45.000Z</time>
                <name>Position 41</name>
            </trkpt>
            <trkpt lat="47.5904326" lon="12.6046325">
                <ele>879.1</ele>
                <time>2017-07-09T06:37:03.000Z</time>
                <name>Position 42</name>
            </trkpt>
            <trkpt lat="47.5903446" lon="12.6043813">
                <ele>884.9</ele>
                <time>2017-07-09T06:37:19.000Z</time>
                <name>Position 43</name>
            </trkpt>
            <trkpt lat="47.5902356" lon="12.6041655">
                <ele>892.4</ele>
                <time>2017-07-09T06:37:37.000Z</time>
                <name>Position 44</name>
            </trkpt>
            <trkpt lat="47.5902779" lon="12.6039039">
                <ele>893.8</ele>
                <time>2017-07-09T06:38:10.000Z</time>
                <name>Position 45</name>
            </trkpt>
            <trkpt lat="47.5903337" lon="12.6036381">
                <ele>901.1</ele>
                <time>2017-07-09T06:38:37.000Z</time>
                <name>Position 46</name>
            </trkpt>
            <trkpt lat="47.5904542" lon="12.6034346">
                <ele>904.5</ele>
                <time>2017-07-09T06:38:59.000Z</time>
                <name>Position 47</name>
            </trkpt>
            <trkpt lat="47.5905404" lon="12.6031964">
                <ele>920.4</ele>
                <time>2017-07-09T06:39:38.000Z</time>
                <name>Position 48</name>
            </trkpt>
            <trkpt lat="47.5906694" lon="12.6030095">
                <ele>915.7</ele>
                <time>2017-07-09T06:40:03.000Z</time>
                <name>Position 49</name>
            </trkpt>
            <trkpt lat="47.5908264" lon="12.6028671">
                <ele>918.1</ele>
                <time>2017-07-09T06:40:42.000Z</time>
                <name>Position 50</name>
            </trkpt>
            <trkpt lat="47.591006" lon="12.6028052">
                <ele>915.4</ele>
                <time>2017-07-09T06:41:04.000Z</time>
                <name>Position 51</name>
            </trkpt>
            <trkpt lat="47.5911576" lon="12.6026574">
                <ele>931.5</ele>
                <time>2017-07-09T06:41:32.000Z</time>
                <name>Position 52</name>
            </trkpt>
            <trkpt lat="47.5912081" lon="12.6023903">
                <ele>921.9</ele>
                <time>2017-07-09T06:42:09.000Z</time>
                <name>Position 53</name>
            </trkpt>
            <trkpt lat="47.5911927" lon="12.6021208">
                <ele>933.6</ele>
                <time>2017-07-09T06:42:33.000Z</time>
                <name>Position 54</name>
            </trkpt>
            <trkpt lat="47.5912172" lon="12.6018412">
                <ele>931.5</ele>
                <time>2017-07-09T06:42:55.000Z</time>
                <name>Position 55</name>
            </trkpt>
            <trkpt lat="47.5912788" lon="12.601574">
                <ele>937.0</ele>
                <time>2017-07-09T06:43:41.000Z</time>
                <name>Position 56</name>
            </trkpt>
            <trkpt lat="47.5913126" lon="12.6013031">
                <ele>941.2</ele>
                <time>2017-07-09T06:43:58.000Z</time>
                <name>Position 57</name>
            </trkpt>
            <trkpt lat="47.5914018" lon="12.601065">
                <ele>949.3</ele>
                <time>2017-07-09T06:44:37.000Z</time>
                <name>Position 58</name>
            </trkpt>
            <trkpt lat="47.5915197" lon="12.6008529">
                <ele>956.7</ele>
                <time>2017-07-09T06:45:32.000Z</time>
                <name>Position 59</name>
            </trkpt>
            <trkpt lat="47.5916263" lon="12.6005984">
                <ele>958.0</ele>
                <time>2017-07-09T06:45:56.000Z</time>
                <name>Position 60</name>
            </trkpt>
            <trkpt lat="47.5916678" lon="12.600328">
                <ele>958.0</ele>
                <time>2017-07-09T06:46:32.000Z</time>
                <name>Position 61</name>
            </trkpt>
            <trkpt lat="47.5917" lon="12.6000162">
                <ele>967.6</ele>
                <time>2017-07-09T06:47:00.000Z</time>
                <name>Position 62</name>
            </trkpt>
            <trkpt lat="47.5916385" lon="12.5996951">
                <ele>978.6</ele>
                <time>2017-07-09T06:48:00.000Z</time>
                <name>Position 63</name>
            </trkpt>
            <trkpt lat="47.5916187" lon="12.5994277">
                <ele>978.2</ele>
                <time>2017-07-09T06:48:40.000Z</time>
                <name>Position 64</name>
            </trkpt>
            <trkpt lat="47.5917287" lon="12.5992097">
                <ele>984.4</ele>
                <time>2017-07-09T06:49:44.000Z</time>
                <name>Position 65</name>
            </trkpt>
            <trkpt lat="47.5918158" lon="12.5989738">
                <ele>990.6</ele>
                <time>2017-07-09T06:50:20.000Z</time>
                <name>Position 66</name>
            </trkpt>
            <trkpt lat="47.5918318" lon="12.5987048">
                <ele>989.7</ele>
                <time>2017-07-09T06:50:54.000Z</time>
                <name>Position 67</name>
            </trkpt>
            <trkpt lat="47.5919384" lon="12.5984753">
                <ele>994.0</ele>
                <time>2017-07-09T06:51:19.000Z</time>
                <name>Position 68</name>
            </trkpt>
            <trkpt lat="47.5919605" lon="12.5982052">
                <ele>999.2</ele>
                <time>2017-07-09T06:51:37.000Z</time>
                <name>Position 69</name>
            </trkpt>
            <trkpt lat="47.5919503" lon="12.5979381">
                <ele>1010.4</ele>
                <time>2017-07-09T06:51:53.000Z</time>
                <name>Position 70</name>
            </trkpt>
            <trkpt lat="47.5920963" lon="12.5977714">
                <ele>1012.9</ele>
                <time>2017-07-09T06:52:14.000Z</time>
                <name>Position 71</name>
            </trkpt>
            <trkpt lat="47.5922556" lon="12.5976313">
                <ele>1014.1</ele>
                <time>2017-07-09T06:52:35.000Z</time>
                <name>Position 72</name>
            </trkpt>
            <trkpt lat="47.592421" lon="12.5975071">
                <ele>1013.9</ele>
                <time>2017-07-09T06:52:53.000Z</time>
                <name>Position 73</name>
            </trkpt>
            <trkpt lat="47.5925809" lon="12.5973597">
                <ele>1016.2</ele>
                <time>2017-07-09T06:53:14.000Z</time>
                <name>Position 74</name>
            </trkpt>
            <trkpt lat="47.592723" lon="12.5971776">
                <ele>1018.9</ele>
                <time>2017-07-09T06:53:31.000Z</time>
                <name>Position 75</name>
            </trkpt>
            <trkpt lat="47.5928267" lon="12.5969506">
                <ele>1024.5</ele>
                <time>2017-07-09T06:53:52.000Z</time>
                <name>Position 76</name>
            </trkpt>
            <trkpt lat="47.592853" lon="12.5966827">
                <ele>1023.9</ele>
                <time>2017-07-09T06:54:20.000Z</time>
                <name>Position 77</name>
            </trkpt>
            <trkpt lat="47.592652" lon="12.596308">
                <ele>1034.0</ele>
                <time>2017-07-09T06:55:01.000Z</time>
                <name>Position 78</name>
            </trkpt>
            <trkpt lat="47.5926026" lon="12.5960465">
                <ele>1039.4</ele>
                <time>2017-07-09T06:55:21.000Z</time>
                <name>Position 79</name>
            </trkpt>
            <trkpt lat="47.5924128" lon="12.5957186">
                <ele>1038.5</ele>
                <time>2017-07-09T06:55:49.000Z</time>
                <name>Position 80</name>
            </trkpt>
            <trkpt lat="47.5925978" lon="12.5956792">
                <ele>1041.0</ele>
                <time>2017-07-09T06:56:17.000Z</time>
                <name>Position 81</name>
            </trkpt>
            <trkpt lat="47.5927237" lon="12.5958803">
                <ele>1040.4</ele>
                <time>2017-07-09T06:56:38.000Z</time>
                <name>Position 82</name>
            </trkpt>
            <trkpt lat="47.59285" lon="12.5960812">
                <ele>1049.7</ele>
                <time>2017-07-09T06:56:56.000Z</time>
                <name>Position 83</name>
            </trkpt>
            <trkpt lat="47.5930058" lon="12.5962436">
                <ele>1048.3</ele>
                <time>2017-07-09T06:57:19.000Z</time>
                <name>Position 84</name>
            </trkpt>
            <trkpt lat="47.5930793" lon="12.596502">
                <ele>1046.8</ele>
                <time>2017-07-09T06:57:36.000Z</time>
                <name>Position 85</name>
            </trkpt>
            <trkpt lat="47.5932217" lon="12.5966985">
                <ele>1041.1</ele>
                <time>2017-07-09T06:58:12.000Z</time>
                <name>Position 86</name>
            </trkpt>
            <trkpt lat="47.5932913" lon="12.5969624">
                <ele>1041.5</ele>
                <time>2017-07-09T06:58:26.000Z</time>
                <name>Position 87</name>
            </trkpt>
            <trkpt lat="47.5933832" lon="12.5972031">
                <ele>1039.4</ele>
                <time>2017-07-09T06:58:43.000Z</time>
                <name>Position 88</name>
            </trkpt>
            <trkpt lat="47.5933853" lon="12.5974705">
                <ele>1044.9</ele>
                <time>2017-07-09T06:59:15.000Z</time>
                <name>Position 89</name>
            </trkpt>
            <trkpt lat="47.5933099" lon="12.5977128">
                <ele>1045.7</ele>
                <time>2017-07-09T06:59:38.000Z</time>
                <name>Position 90</name>
            </trkpt>
            <trkpt lat="47.5933122" lon="12.5979913">
                <ele>1051.8</ele>
                <time>2017-07-09T07:00:02.000Z</time>
                <name>Position 91</name>
            </trkpt>
            <trkpt lat="47.5934089" lon="12.5982204">
                <ele>1057.1</ele>
                <time>2017-07-09T07:00:20.000Z</time>
                <name>Position 92</name>
            </trkpt>
            <trkpt lat="47.5935864" lon="12.5981458">
                <ele>1083.7</ele>
                <time>2017-07-09T07:02:52.000Z</time>
                <name>Position 93</name>
            </trkpt>
            <trkpt lat="47.5937684" lon="12.5981463">
                <ele>1081.8</ele>
                <time>2017-07-09T07:03:50.000Z</time>
                <name>Position 94</name>
            </trkpt>
            <trkpt lat="47.5939286" lon="12.5980186">
                <ele>1092.8</ele>
                <time>2017-07-09T07:04:57.000Z</time>
                <name>Position 95</name>
            </trkpt>
            <trkpt lat="47.59411" lon="12.5980312">
                <ele>1110.2</ele>
                <time>2017-07-09T07:06:07.000Z</time>
                <name>Position 96</name>
            </trkpt>
            <trkpt lat="47.5942894" lon="12.5980792">
                <ele>1114.5</ele>
                <time>2017-07-09T07:07:21.000Z</time>
                <name>Position 97</name>
            </trkpt>
            <trkpt lat="47.5944674" lon="12.5981285">
                <ele>1117.4</ele>
                <time>2017-07-09T07:08:10.000Z</time>
                <name>Position 98</name>
            </trkpt>
            <trkpt lat="47.5946343" lon="12.5982296">
                <ele>1130.8</ele>
                <time>2017-07-09T07:09:36.000Z</time>
                <name>Position 99</name>
            </trkpt>
            <trkpt lat="47.5948057" lon="12.5983162">
                <ele>1129.4</ele>
                <time>2017-07-09T07:10:37.000Z</time>
                <name>Position 100</name>
            </trkpt>
            <trkpt lat="47.5949785" lon="12.5983942">
                <ele>1150.3</ele>
                <time>2017-07-09T07:11:49.000Z</time>
                <name>Position 101</name>
            </trkpt>
            <trkpt lat="47.5951253" lon="12.5985521">
                <ele>1144.5</ele>
                <time>2017-07-09T07:12:15.000Z</time>
                <name>Position 102</name>
            </trkpt>
            <trkpt lat="47.5952914" lon="12.5984339">
                <ele>1173.8</ele>
                <time>2017-07-09T07:14:24.000Z</time>
                <name>Position 103</name>
            </trkpt>
            <trkpt lat="47.595471" lon="12.5984882">
                <ele>1181.5</ele>
                <time>2017-07-09T07:15:20.000Z</time>
                <name>Position 104</name>
            </trkpt>
            <trkpt lat="47.595645" lon="12.5985774">
                <ele>1181.4</ele>
                <time>2017-07-09T07:16:30.000Z</time>
                <name>Position 105</name>
            </trkpt>
            <trkpt lat="47.5958177" lon="12.598652">
                <ele>1193.3</ele>
                <time>2017-07-09T07:17:48.000Z</time>
                <name>Position 106</name>
            </trkpt>
            <trkpt lat="47.5960017" lon="12.5986083">
                <ele>1208.9</ele>
                <time>2017-07-09T07:18:26.000Z</time>
                <name>Position 107</name>
            </trkpt>
            <trkpt lat="47.596172" lon="12.5987034">
                <ele>1217.9</ele>
                <time>2017-07-09T07:19:29.000Z</time>
                <name>Position 108</name>
            </trkpt>
            <trkpt lat="47.5962908" lon="12.5984895">
                <ele>1226.8</ele>
                <time>2017-07-09T07:20:08.000Z</time>
                <name>Position 109</name>
            </trkpt>
            <trkpt lat="47.5963245" lon="12.5982179">
                <ele>1229.1</ele>
                <time>2017-07-09T07:20:38.000Z</time>
                <name>Position 110</name>
            </trkpt>
            <trkpt lat="47.5963345" lon="12.5979347">
                <ele>1229.3</ele>
                <time>2017-07-09T07:20:54.000Z</time>
                <name>Position 111</name>
            </trkpt>
            <trkpt lat="47.5963963" lon="12.5976742">
                <ele>1230.0</ele>
                <time>2017-07-09T07:21:12.000Z</time>
                <name>Position 112</name>
            </trkpt>
            <trkpt lat="47.596395" lon="12.5973977">
                <ele>1234.1</ele>
                <time>2017-07-09T07:21:35.000Z</time>
                <name>Position 113</name>
            </trkpt>
            <trkpt lat="47.5963232" lon="12.5971473">
                <ele>1233.2</ele>
                <time>2017-07-09T07:21:57.000Z</time>
                <name>Position 114</name>
            </trkpt>
            <trkpt lat="47.5963217" lon="12.5968757">
                <ele>1237.2</ele>
                <time>2017-07-09T07:22:15.000Z</time>
                <name>Position 115</name>
            </trkpt>
            <trkpt lat="47.5963638" lon="12.5966118">
                <ele>1249.8</ele>
                <time>2017-07-09T07:22:38.000Z</time>
                <name>Position 116</name>
            </trkpt>
            <trkpt lat="47.5964775" lon="12.5964018">
                <ele>1246.0</ele>
                <time>2017-07-09T07:22:54.000Z</time>
                <name>Position 117</name>
            </trkpt>
            <trkpt lat="47.5965698" lon="12.5961706">
                <ele>1254.2</ele>
                <time>2017-07-09T07:23:17.000Z</time>
                <name>Position 118</name>
            </trkpt>
            <trkpt lat="47.5965392" lon="12.5958976">
                <ele>1257.6</ele>
                <time>2017-07-09T07:23:45.000Z</time>
                <name>Position 119</name>
            </trkpt>
            <trkpt lat="47.5964578" lon="12.5956474">
                <ele>1256.9</ele>
                <time>2017-07-09T07:24:06.000Z</time>
                <name>Position 120</name>
            </trkpt>
            <trkpt lat="47.5964187" lon="12.5953693">
                <ele>1255.9</ele>
                <time>2017-07-09T07:24:23.000Z</time>
                <name>Position 121</name>
            </trkpt>
            <trkpt lat="47.5963524" lon="12.5950646">
                <ele>1255.0</ele>
                <time>2017-07-09T07:24:44.000Z</time>
                <name>Position 122</name>
            </trkpt>
            <trkpt lat="47.5963005" lon="12.5947993">
                <ele>1262.3</ele>
                <time>2017-07-09T07:25:01.000Z</time>
                <name>Position 123</name>
            </trkpt>
            <trkpt lat="47.5962367" lon="12.5945484">
                <ele>1261.8</ele>
                <time>2017-07-09T07:25:20.000Z</time>
                <name>Position 124</name>
            </trkpt>
            <trkpt lat="47.5964162" lon="12.5945975">
                <ele>1269.2</ele>
                <time>2017-07-09T07:26:04.000Z</time>
                <name>Position 125</name>
            </trkpt>
            <trkpt lat="47.596514" lon="12.5948227">
                <ele>1273.1</ele>
                <time>2017-07-09T07:26:21.000Z</time>
                <name>Position 126</name>
            </trkpt>
            <trkpt lat="47.5966253" lon="12.595049">
                <ele>1273.1</ele>
                <time>2017-07-09T07:26:43.000Z</time>
                <name>Position 127</name>
            </trkpt>
            <trkpt lat="47.5967514" lon="12.5952472">
                <ele>1276.7</ele>
                <time>2017-07-09T07:27:03.000Z</time>
                <name>Position 128</name>
            </trkpt>
            <trkpt lat="47.5968826" lon="12.5954386">
                <ele>1285.4</ele>
                <time>2017-07-09T07:27:27.000Z</time>
                <name>Position 129</name>
            </trkpt>
            <trkpt lat="47.5970442" lon="12.5955897">
                <ele>1286.5</ele>
                <time>2017-07-09T07:27:49.000Z</time>
                <name>Position 130</name>
            </trkpt>
            <trkpt lat="47.5971706" lon="12.5957919">
                <ele>1281.3</ele>
                <time>2017-07-09T07:28:04.000Z</time>
                <name>Position 131</name>
            </trkpt>
            <trkpt lat="47.5972423" lon="12.596063">
                <ele>1278.9</ele>
                <time>2017-07-09T07:28:21.000Z</time>
                <name>Position 132</name>
            </trkpt>
            <trkpt lat="47.5972196" lon="12.5963392">
                <ele>1285.4</ele>
                <time>2017-07-09T07:28:40.000Z</time>
                <name>Position 133</name>
            </trkpt>
            <trkpt lat="47.5972782" lon="12.5965968">
                <ele>1281.6</ele>
                <time>2017-07-09T07:29:03.000Z</time>
                <name>Position 134</name>
            </trkpt>
            <trkpt lat="47.5973194" lon="12.5968602">
                <ele>1293.0</ele>
                <time>2017-07-09T07:29:27.000Z</time>
                <name>Position 135</name>
            </trkpt>
            <trkpt lat="47.5974175" lon="12.5970897">
                <ele>1300.5</ele>
                <time>2017-07-09T07:29:47.000Z</time>
                <name>Position 136</name>
            </trkpt>
            <trkpt lat="47.5975056" lon="12.5973318">
                <ele>1301.1</ele>
                <time>2017-07-09T07:30:07.000Z</time>
                <name>Position 137</name>
            </trkpt>
            <trkpt lat="47.5974697" lon="12.5976001">
                <ele>1304.9</ele>
                <time>2017-07-09T07:30:27.000Z</time>
                <name>Position 138</name>
            </trkpt>
            <trkpt lat="47.5974803" lon="12.597868">
                <ele>1306.7</ele>
                <time>2017-07-09T07:30:47.000Z</time>
                <name>Position 139</name>
            </trkpt>
            <trkpt lat="47.5975626" lon="12.5981127">
                <ele>1309.1</ele>
                <time>2017-07-09T07:31:10.000Z</time>
                <name>Position 140</name>
            </trkpt>
            <trkpt lat="47.5976551" lon="12.5983423">
                <ele>1309.9</ele>
                <time>2017-07-09T07:31:31.000Z</time>
                <name>Position 141</name>
            </trkpt>
            <trkpt lat="47.5977611" lon="12.5985605">
                <ele>1312.3</ele>
                <time>2017-07-09T07:31:53.000Z</time>
                <name>Position 142</name>
            </trkpt>
            <trkpt lat="47.5978384" lon="12.5988018">
                <ele>1317.6</ele>
                <time>2017-07-09T07:32:15.000Z</time>
                <name>Position 143</name>
            </trkpt>
            <trkpt lat="47.5979117" lon="12.5990495">
                <ele>1313.9</ele>
                <time>2017-07-09T07:32:32.000Z</time>
                <name>Position 144</name>
            </trkpt>
            <trkpt lat="47.5979922" lon="12.5992973">
                <ele>1317.9</ele>
                <time>2017-07-09T07:32:52.000Z</time>
                <name>Position 145</name>
            </trkpt>
            <trkpt lat="47.5980634" lon="12.5990434">
                <ele>1322.8</ele>
                <time>2017-07-09T07:33:39.000Z</time>
                <name>Position 146</name>
            </trkpt>
            <trkpt lat="47.5980673" lon="12.5987736">
                <ele>1323.8</ele>
                <time>2017-07-09T07:34:12.000Z</time>
                <name>Position 147</name>
            </trkpt>
            <trkpt lat="47.5980622" lon="12.598487">
                <ele>1327.2</ele>
                <time>2017-07-09T07:34:30.000Z</time>
                <name>Position 148</name>
            </trkpt>
            <trkpt lat="47.5980086" lon="12.5982297">
                <ele>1329.7</ele>
                <time>2017-07-09T07:34:48.000Z</time>
                <name>Position 149</name>
            </trkpt>
            <trkpt lat="47.5979814" lon="12.5979649">
                <ele>1335.7</ele>
                <time>2017-07-09T07:35:08.000Z</time>
                <name>Position 150</name>
            </trkpt>
            <trkpt lat="47.5979962" lon="12.5976862">
                <ele>1337.1</ele>
                <time>2017-07-09T07:35:30.000Z</time>
                <name>Position 151</name>
            </trkpt>
            <trkpt lat="47.5981053" lon="12.5974705">
                <ele>1338.2</ele>
                <time>2017-07-09T07:35:45.000Z</time>
                <name>Position 152</name>
            </trkpt>
            <trkpt lat="47.598097" lon="12.5972034">
                <ele>1345.2</ele>
                <time>2017-07-09T07:36:11.000Z</time>
                <name>Position 153</name>
            </trkpt>
            <trkpt lat="47.598019" lon="12.5969499">
                <ele>1351.1</ele>
                <time>2017-07-09T07:36:29.000Z</time>
                <name>Position 154</name>
            </trkpt>
            <trkpt lat="47.5980025" lon="12.5966731">
                <ele>1351.4</ele>
                <time>2017-07-09T07:36:48.000Z</time>
                <name>Position 155</name>
            </trkpt>
            <trkpt lat="47.5979863" lon="12.5963993">
                <ele>1347.9</ele>
                <time>2017-07-09T07:37:10.000Z</time>
                <name>Position 156</name>
            </trkpt>
            <trkpt lat="47.5980286" lon="12.5961388">
                <ele>1349.4</ele>
                <time>2017-07-09T07:37:26.000Z</time>
                <name>Position 157</name>
            </trkpt>
            <trkpt lat="47.5980635" lon="12.5958684">
                <ele>1351.2</ele>
                <time>2017-07-09T07:37:47.000Z</time>
                <name>Position 158</name>
            </trkpt>
            <trkpt lat="47.5981539" lon="12.5956332">
                <ele>1355.8</ele>
                <time>2017-07-09T07:38:04.000Z</time>
                <name>Position 159</name>
            </trkpt>
            <trkpt lat="47.5981838" lon="12.5953646">
                <ele>1359.6</ele>
                <time>2017-07-09T07:38:19.000Z</time>
                <name>Position 160</name>
            </trkpt>
            <trkpt lat="47.5981329" lon="12.5950964">
                <ele>1366.4</ele>
                <time>2017-07-09T07:38:40.000Z</time>
                <name>Position 161</name>
            </trkpt>
            <trkpt lat="47.5982905" lon="12.5952349">
                <ele>1371.1</ele>
                <time>2017-07-09T07:39:06.000Z</time>
                <name>Position 162</name>
            </trkpt>
            <trkpt lat="47.5983803" lon="12.5954705">
                <ele>1368.9</ele>
                <time>2017-07-09T07:39:25.000Z</time>
                <name>Position 163</name>
            </trkpt>
            <trkpt lat="47.5983587" lon="12.5957462">
                <ele>1370.7</ele>
                <time>2017-07-09T07:39:42.000Z</time>
                <name>Position 164</name>
            </trkpt>
            <trkpt lat="47.5983733" lon="12.5960307">
                <ele>1379.0</ele>
                <time>2017-07-09T07:39:57.000Z</time>
                <name>Position 165</name>
            </trkpt>
            <trkpt lat="47.5983842" lon="12.5963141">
                <ele>1387.6</ele>
                <time>2017-07-09T07:40:19.000Z</time>
                <name>Position 166</name>
            </trkpt>
            <trkpt lat="47.5984437" lon="12.5965746">
                <ele>1388.6</ele>
                <time>2017-07-09T07:40:36.000Z</time>
                <name>Position 167</name>
            </trkpt>
            <trkpt lat="47.5985341" lon="12.5968088">
                <ele>1391.4</ele>
                <time>2017-07-09T07:40:55.000Z</time>
                <name>Position 168</name>
            </trkpt>
            <trkpt lat="47.5986909" lon="12.5969449">
                <ele>1391.7</ele>
                <time>2017-07-09T07:41:13.000Z</time>
                <name>Position 169</name>
            </trkpt>
            <trkpt lat="47.5987979" lon="12.5971692">
                <ele>1396.4</ele>
                <time>2017-07-09T07:41:35.000Z</time>
                <name>Position 170</name>
            </trkpt>
            <trkpt lat="47.5988335" lon="12.5974333">
                <ele>1396.0</ele>
                <time>2017-07-09T07:41:49.000Z</time>
                <name>Position 171</name>
            </trkpt>
            <trkpt lat="47.5988653" lon="12.5976995">
                <ele>1397.5</ele>
                <time>2017-07-09T07:42:08.000Z</time>
                <name>Position 172</name>
            </trkpt>
            <trkpt lat="47.5989609" lon="12.5979348">
                <ele>1394.2</ele>
                <time>2017-07-09T07:43:10.000Z</time>
                <name>Position 173</name>
            </trkpt>
            <trkpt lat="47.5991002" lon="12.5981237">
                <ele>1404.1</ele>
                <time>2017-07-09T07:43:47.000Z</time>
                <name>Position 174</name>
            </trkpt>
            <trkpt lat="47.5992679" lon="12.598023">
                <ele>1414.0</ele>
                <time>2017-07-09T07:45:01.000Z</time>
                <name>Position 175</name>
            </trkpt>
            <trkpt lat="47.5994452" lon="12.5979727">
                <ele>1423.3</ele>
                <time>2017-07-09T07:46:07.000Z</time>
                <name>Position 176</name>
            </trkpt>
            <trkpt lat="47.5996236" lon="12.5979303">
                <ele>1436.2</ele>
                <time>2017-07-09T07:47:15.000Z</time>
                <name>Position 177</name>
            </trkpt>
            <trkpt lat="47.5997693" lon="12.5977582">
                <ele>1449.2</ele>
                <time>2017-07-09T07:48:16.000Z</time>
                <name>Position 178</name>
            </trkpt>
            <trkpt lat="47.5998394" lon="12.5975074">
                <ele>1451.3</ele>
                <time>2017-07-09T07:48:40.000Z</time>
                <name>Position 179</name>
            </trkpt>
            <trkpt lat="47.5998759" lon="12.597238">
                <ele>1452.3</ele>
                <time>2017-07-09T07:49:31.000Z</time>
                <name>Position 180</name>
            </trkpt>
            <trkpt lat="47.5999707" lon="12.596998">
                <ele>1453.8</ele>
                <time>2017-07-09T07:49:57.000Z</time>
                <name>Position 181</name>
            </trkpt>
            <trkpt lat="47.6000409" lon="12.5967493">
                <ele>1450.5</ele>
                <time>2017-07-09T07:50:18.000Z</time>
                <name>Position 182</name>
            </trkpt>
            <trkpt lat="47.6000776" lon="12.5964855">
                <ele>1462.5</ele>
                <time>2017-07-09T07:50:56.000Z</time>
                <name>Position 183</name>
            </trkpt>
            <trkpt lat="47.6001371" lon="12.5962296">
                <ele>1457.6</ele>
                <time>2017-07-09T07:51:18.000Z</time>
                <name>Position 184</name>
            </trkpt>
            <trkpt lat="47.6001465" lon="12.5959602">
                <ele>1467.3</ele>
                <time>2017-07-09T07:52:27.000Z</time>
                <name>Position 185</name>
            </trkpt>
            <trkpt lat="47.6000924" lon="12.5957057">
                <ele>1469.4</ele>
                <time>2017-07-09T07:52:47.000Z</time>
                <name>Position 186</name>
            </trkpt>
            <trkpt lat="47.6000792" lon="12.5954338">
                <ele>1468.9</ele>
                <time>2017-07-09T07:53:15.000Z</time>
                <name>Position 187</name>
            </trkpt>
            <trkpt lat="47.6001104" lon="12.5951668">
                <ele>1474.0</ele>
                <time>2017-07-09T07:53:58.000Z</time>
                <name>Position 188</name>
            </trkpt>
            <trkpt lat="47.6001873" lon="12.5954155">
                <ele>1471.5</ele>
                <time>2017-07-09T07:54:33.000Z</time>
                <name>Position 189</name>
            </trkpt>
            <trkpt lat="47.6003518" lon="12.5955481">
                <ele>1494.8</ele>
                <time>2017-07-09T07:55:24.000Z</time>
                <name>Position 190</name>
            </trkpt>
            <trkpt lat="47.6005379" lon="12.5956154">
                <ele>1487.6</ele>
                <time>2017-07-09T07:55:50.000Z</time>
                <name>Position 191</name>
            </trkpt>
            <trkpt lat="47.6007165" lon="12.5956532">
                <ele>1497.9</ele>
                <time>2017-07-09T07:56:30.000Z</time>
                <name>Position 192</name>
            </trkpt>
            <trkpt lat="47.600819" lon="12.5958785">
                <ele>1497.0</ele>
                <time>2017-07-09T07:56:58.000Z</time>
                <name>Position 193</name>
            </trkpt>
            <trkpt lat="47.6009664" lon="12.5960336">
                <ele>1502.1</ele>
                <time>2017-07-09T07:57:37.000Z</time>
                <name>Position 194</name>
            </trkpt>
            <trkpt lat="47.6011448" lon="12.5959829">
                <ele>1511.1</ele>
                <time>2017-07-09T07:59:07.000Z</time>
                <name>Position 195</name>
            </trkpt>
            <trkpt lat="47.6013099" lon="12.5960964">
                <ele>1519.4</ele>
                <time>2017-07-09T08:00:07.000Z</time>
                <name>Position 196</name>
            </trkpt>
            <trkpt lat="47.6014903" lon="12.5960478">
                <ele>1530.0</ele>
                <time>2017-07-09T08:01:02.000Z</time>
                <name>Position 197</name>
            </trkpt>
            <trkpt lat="47.6016621" lon="12.5961277">
                <ele>1540.7</ele>
                <time>2017-07-09T08:02:12.000Z</time>
                <name>Position 198</name>
            </trkpt>
            <trkpt lat="47.6018416" lon="12.5961768">
                <ele>1551.7</ele>
                <time>2017-07-09T08:05:01.000Z</time>
                <name>Position 199</name>
            </trkpt>
            <trkpt lat="47.6018903" lon="12.5959144">
                <ele>1556.3</ele>
                <time>2017-07-09T08:06:04.000Z</time>
                <name>Position 200</name>
            </trkpt>
            <trkpt lat="47.6018782" lon="12.5956466">
                <ele>1560.9</ele>
                <time>2017-07-09T08:06:35.000Z</time>
                <name>Position 201</name>
            </trkpt>
            <trkpt lat="47.6019217" lon="12.5953866">
                <ele>1558.9</ele>
                <time>2017-07-09T08:07:08.000Z</time>
                <name>Position 202</name>
            </trkpt>
            <trkpt lat="47.601993" lon="12.5951343">
                <ele>1555.1</ele>
                <time>2017-07-09T08:07:43.000Z</time>
                <name>Position 203</name>
            </trkpt>
            <trkpt lat="47.6020018" lon="12.5948597">
                <ele>1556.0</ele>
                <time>2017-07-09T08:08:44.000Z</time>
                <name>Position 204</name>
            </trkpt>
            <trkpt lat="47.6020037" lon="12.5945916">
                <ele>1561.1</ele>
                <time>2017-07-09T08:09:40.000Z</time>
                <name>Position 205</name>
            </trkpt>
            <trkpt lat="47.6020759" lon="12.594343">
                <ele>1563.3</ele>
                <time>2017-07-09T08:11:48.000Z</time>
                <name>Position 206</name>
            </trkpt>
            <trkpt lat="47.602701" lon="12.594922">
                <ele>1632.1</ele>
                <time>2017-07-09T09:17:15.000Z</time>
                <name>Position 207</name>
            </trkpt>
            <trkpt lat="47.6025252" lon="12.5947907">
                <ele>1626.9</ele>
                <time>2017-07-09T09:17:20.000Z</time>
                <name>Position 208</name>
            </trkpt>
            <trkpt lat="47.602381" lon="12.5946301">
                <ele>1626.4</ele>
                <time>2017-07-09T09:17:58.000Z</time>
                <name>Position 209</name>
            </trkpt>
            <trkpt lat="47.6022319" lon="12.5944687">
                <ele>1636.9</ele>
                <time>2017-07-09T09:18:12.000Z</time>
                <name>Position 210</name>
            </trkpt>
            <trkpt lat="47.6021755" lon="12.594179">
                <ele>1594.2</ele>
                <time>2017-07-09T10:46:26.000Z</time>
                <name>Position 211</name>
            </trkpt>
            <trkpt lat="47.6019963" lon="12.5941327">
                <ele>1580.1</ele>
                <time>2017-07-09T10:48:25.000Z</time>
                <name>Position 212</name>
            </trkpt>
            <trkpt lat="47.602045" lon="12.5944069">
                <ele>1559.8</ele>
                <time>2017-07-09T10:50:23.000Z</time>
                <name>Position 213</name>
            </trkpt>
            <trkpt lat="47.6020549" lon="12.5946757">
                <ele>1560.3</ele>
                <time>2017-07-09T10:51:03.000Z</time>
                <name>Position 214</name>
            </trkpt>
            <trkpt lat="47.6020402" lon="12.5949457">
                <ele>1566.0</ele>
                <time>2017-07-09T10:51:34.000Z</time>
                <name>Position 215</name>
            </trkpt>
            <trkpt lat="47.6019826" lon="12.5952022">
                <ele>1565.5</ele>
                <time>2017-07-09T10:52:04.000Z</time>
                <name>Position 216</name>
            </trkpt>
            <trkpt lat="47.6019798" lon="12.5954804">
                <ele>1564.1</ele>
                <time>2017-07-09T10:52:25.000Z</time>
                <name>Position 217</name>
            </trkpt>
            <trkpt lat="47.6019559" lon="12.5957477">
                <ele>1561.9</ele>
                <time>2017-07-09T10:52:49.000Z</time>
                <name>Position 218</name>
            </trkpt>
            <trkpt lat="47.6019308" lon="12.5960145">
                <ele>1554.4</ele>
                <time>2017-07-09T10:53:26.000Z</time>
                <name>Position 219</name>
            </trkpt>
            <trkpt lat="47.6018409" lon="12.596257">
                <ele>1551.2</ele>
                <time>2017-07-09T10:54:03.000Z</time>
                <name>Position 220</name>
            </trkpt>
            <trkpt lat="47.6017561" lon="12.5965017">
                <ele>1551.6</ele>
                <time>2017-07-09T10:54:46.000Z</time>
                <name>Position 221</name>
            </trkpt>
            <trkpt lat="47.6015943" lon="12.5966223">
                <ele>1537.1</ele>
                <time>2017-07-09T10:56:10.000Z</time>
                <name>Position 222</name>
            </trkpt>
            <trkpt lat="47.6014077" lon="12.5966089">
                <ele>1529.0</ele>
                <time>2017-07-09T10:57:00.000Z</time>
                <name>Position 223</name>
            </trkpt>
            <trkpt lat="47.6012214" lon="12.5966166">
                <ele>1529.2</ele>
                <time>2017-07-09T10:57:34.000Z</time>
                <name>Position 224</name>
            </trkpt>
            <trkpt lat="47.6010425" lon="12.5965555">
                <ele>1506.4</ele>
                <time>2017-07-09T10:58:23.000Z</time>
                <name>Position 225</name>
            </trkpt>
            <trkpt lat="47.600866" lon="12.596491">
                <ele>1497.2</ele>
                <time>2017-07-09T10:58:46.000Z</time>
                <name>Position 226</name>
            </trkpt>
            <trkpt lat="47.600674" lon="12.5964936">
                <ele>1501.6</ele>
                <time>2017-07-09T10:59:10.000Z</time>
                <name>Position 227</name>
            </trkpt>
            <trkpt lat="47.6005069" lon="12.5963799">
                <ele>1490.0</ele>
                <time>2017-07-09T10:59:42.000Z</time>
                <name>Position 228</name>
            </trkpt>
            <trkpt lat="47.6003255" lon="12.5963728">
                <ele>1477.5</ele>
                <time>2017-07-09T11:00:16.000Z</time>
                <name>Position 229</name>
            </trkpt>
            <trkpt lat="47.6001484" lon="12.596314">
                <ele>1470.4</ele>
                <time>2017-07-09T11:00:43.000Z</time>
                <name>Position 230</name>
            </trkpt>
            <trkpt lat="47.6000516" lon="12.5965444">
                <ele>1478.2</ele>
                <time>2017-07-09T11:01:23.000Z</time>
                <name>Position 231</name>
            </trkpt>
            <trkpt lat="47.6000072" lon="12.5968059">
                <ele>1467.5</ele>
                <time>2017-07-09T11:01:47.000Z</time>
                <name>Position 232</name>
            </trkpt>
            <trkpt lat="47.5999804" lon="12.5970711">
                <ele>1457.5</ele>
                <time>2017-07-09T11:02:03.000Z</time>
                <name>Position 233</name>
            </trkpt>
            <trkpt lat="47.5999159" lon="12.597329">
                <ele>1457.6</ele>
                <time>2017-07-09T11:02:20.000Z</time>
                <name>Position 234</name>
            </trkpt>
            <trkpt lat="47.5997949" lon="12.5975305">
                <ele>1456.4</ele>
                <time>2017-07-09T11:02:58.000Z</time>
                <name>Position 235</name>
            </trkpt>
            <trkpt lat="47.5998107" lon="12.5977996">
                <ele>1454.4</ele>
                <time>2017-07-09T11:03:20.000Z</time>
                <name>Position 236</name>
            </trkpt>
            <trkpt lat="47.599798" lon="12.5980707">
                <ele>1447.3</ele>
                <time>2017-07-09T11:03:41.000Z</time>
                <name>Position 237</name>
            </trkpt>
            <trkpt lat="47.5997827" lon="12.5983426">
                <ele>1444.9</ele>
                <time>2017-07-09T11:03:59.000Z</time>
                <name>Position 238</name>
            </trkpt>
            <trkpt lat="47.5996739" lon="12.5985737">
                <ele>1442.2</ele>
                <time>2017-07-09T11:04:15.000Z</time>
                <name>Position 239</name>
            </trkpt>
            <trkpt lat="47.5995816" lon="12.5988104">
                <ele>1441.5</ele>
                <time>2017-07-09T11:04:34.000Z</time>
                <name>Position 240</name>
            </trkpt>
            <trkpt lat="47.5995108" lon="12.5990649">
                <ele>1439.6</ele>
                <time>2017-07-09T11:04:52.000Z</time>
                <name>Position 241</name>
            </trkpt>
            <trkpt lat="47.5994556" lon="12.5993319">
                <ele>1433.0</ele>
                <time>2017-07-09T11:05:09.000Z</time>
                <name>Position 242</name>
            </trkpt>
            <trkpt lat="47.5993988" lon="12.5995955">
                <ele>1431.5</ele>
                <time>2017-07-09T11:05:24.000Z</time>
                <name>Position 243</name>
            </trkpt>
            <trkpt lat="47.5992576" lon="12.5997734">
                <ele>1430.0</ele>
                <time>2017-07-09T11:05:39.000Z</time>
                <name>Position 244</name>
            </trkpt>
            <trkpt lat="47.5992384" lon="12.5995004">
                <ele>1424.7</ele>
                <time>2017-07-09T11:06:44.000Z</time>
                <name>Position 245</name>
            </trkpt>
            <trkpt lat="47.5991976" lon="12.5992379">
                <ele>1430.0</ele>
                <time>2017-07-09T11:07:03.000Z</time>
                <name>Position 246</name>
            </trkpt>
            <trkpt lat="47.5992213" lon="12.5989646">
                <ele>1419.1</ele>
                <time>2017-07-09T11:07:20.000Z</time>
                <name>Position 247</name>
            </trkpt>
            <trkpt lat="47.5991826" lon="12.5986934">
                <ele>1415.8</ele>
                <time>2017-07-09T11:07:43.000Z</time>
                <name>Position 248</name>
            </trkpt>
            <trkpt lat="47.5991124" lon="12.5984391">
                <ele>1420.6</ele>
                <time>2017-07-09T11:07:59.000Z</time>
                <name>Position 249</name>
            </trkpt>
            <trkpt lat="47.5990768" lon="12.5981776">
                <ele>1408.8</ele>
                <time>2017-07-09T11:08:47.000Z</time>
                <name>Position 250</name>
            </trkpt>
            <trkpt lat="47.5989415" lon="12.5979938">
                <ele>1406.4</ele>
                <time>2017-07-09T11:09:42.000Z</time>
                <name>Position 251</name>
            </trkpt>
            <trkpt lat="47.5988389" lon="12.5977646">
                <ele>1407.0</ele>
                <time>2017-07-09T11:09:59.000Z</time>
                <name>Position 252</name>
            </trkpt>
            <trkpt lat="47.5988361" lon="12.5974922">
                <ele>1398.4</ele>
                <time>2017-07-09T11:10:13.000Z</time>
                <name>Position 253</name>
            </trkpt>
            <trkpt lat="47.5987815" lon="12.597237">
                <ele>1399.8</ele>
                <time>2017-07-09T11:10:35.000Z</time>
                <name>Position 254</name>
            </trkpt>
            <trkpt lat="47.5986622" lon="12.5970345">
                <ele>1399.1</ele>
                <time>2017-07-09T11:10:55.000Z</time>
                <name>Position 255</name>
            </trkpt>
            <trkpt lat="47.598525" lon="12.5968317">
                <ele>1395.4</ele>
                <time>2017-07-09T11:11:18.000Z</time>
                <name>Position 256</name>
            </trkpt>
            <trkpt lat="47.5984468" lon="12.596569">
                <ele>1393.2</ele>
                <time>2017-07-09T11:11:30.000Z</time>
                <name>Position 257</name>
            </trkpt>
            <trkpt lat="47.598344" lon="12.5962867">
                <ele>1393.7</ele>
                <time>2017-07-09T11:11:46.000Z</time>
                <name>Position 258</name>
            </trkpt>
            <trkpt lat="47.5983103" lon="12.596005">
                <ele>1387.9</ele>
                <time>2017-07-09T11:11:59.000Z</time>
                <name>Position 259</name>
            </trkpt>
            <trkpt lat="47.5982973" lon="12.5957294">
                <ele>1392.1</ele>
                <time>2017-07-09T11:12:16.000Z</time>
                <name>Position 260</name>
            </trkpt>
            <trkpt lat="47.5983452" lon="12.5954629">
                <ele>1384.9</ele>
                <time>2017-07-09T11:12:29.000Z</time>
                <name>Position 261</name>
            </trkpt>
            <trkpt lat="47.5982362" lon="12.5952455">
                <ele>1385.3</ele>
                <time>2017-07-09T11:12:48.000Z</time>
                <name>Position 262</name>
            </trkpt>
            <trkpt lat="47.5981837" lon="12.5955012">
                <ele>1377.3</ele>
                <time>2017-07-09T11:13:30.000Z</time>
                <name>Position 263</name>
            </trkpt>
            <trkpt lat="47.5981276" lon="12.5957665">
                <ele>1378.0</ele>
                <time>2017-07-09T11:13:45.000Z</time>
                <name>Position 264</name>
            </trkpt>
            <trkpt lat="47.5980772" lon="12.5960242">
                <ele>1367.0</ele>
                <time>2017-07-09T11:14:05.000Z</time>
                <name>Position 265</name>
            </trkpt>
            <trkpt lat="47.5980863" lon="12.5962975">
                <ele>1366.0</ele>
                <time>2017-07-09T11:14:23.000Z</time>
                <name>Position 266</name>
            </trkpt>
            <trkpt lat="47.5980662" lon="12.5965678">
                <ele>1365.6</ele>
                <time>2017-07-09T11:14:40.000Z</time>
                <name>Position 267</name>
            </trkpt>
            <trkpt lat="47.5980338" lon="12.5968494">
                <ele>1374.1</ele>
                <time>2017-07-09T11:14:55.000Z</time>
                <name>Position 268</name>
            </trkpt>
            <trkpt lat="47.5980916" lon="12.5971067">
                <ele>1368.9</ele>
                <time>2017-07-09T11:15:10.000Z</time>
                <name>Position 269</name>
            </trkpt>
            <trkpt lat="47.5981325" lon="12.5973709">
                <ele>1360.5</ele>
                <time>2017-07-09T11:15:29.000Z</time>
                <name>Position 270</name>
            </trkpt>
            <trkpt lat="47.5980654" lon="12.5976312">
                <ele>1365.9</ele>
                <time>2017-07-09T11:15:46.000Z</time>
                <name>Position 271</name>
            </trkpt>
            <trkpt lat="47.5980249" lon="12.5978943">
                <ele>1350.7</ele>
                <time>2017-07-09T11:16:06.000Z</time>
                <name>Position 272</name>
            </trkpt>
            <trkpt lat="47.5980248" lon="12.5981645">
                <ele>1350.7</ele>
                <time>2017-07-09T11:16:47.000Z</time>
                <name>Position 273</name>
            </trkpt>
            <trkpt lat="47.5980863" lon="12.5984695">
                <ele>1342.3</ele>
                <time>2017-07-09T11:17:05.000Z</time>
                <name>Position 274</name>
            </trkpt>
            <trkpt lat="47.5980619" lon="12.5987441">
                <ele>1349.1</ele>
                <time>2017-07-09T11:17:18.000Z</time>
                <name>Position 275</name>
            </trkpt>
            <trkpt lat="47.5980709" lon="12.5990224">
                <ele>1346.9</ele>
                <time>2017-07-09T11:17:34.000Z</time>
                <name>Position 276</name>
            </trkpt>
            <trkpt lat="47.5981108" lon="12.5992964">
                <ele>1331.5</ele>
                <time>2017-07-09T11:17:52.000Z</time>
                <name>Position 277</name>
            </trkpt>
            <trkpt lat="47.5979347" lon="12.599351">
                <ele>1331.6</ele>
                <time>2017-07-09T11:18:18.000Z</time>
                <name>Position 278</name>
            </trkpt>
            <trkpt lat="47.5978605" lon="12.5990915">
                <ele>1327.0</ele>
                <time>2017-07-09T11:18:36.000Z</time>
                <name>Position 279</name>
            </trkpt>
            <trkpt lat="47.597801" lon="12.5988214">
                <ele>1321.5</ele>
                <time>2017-07-09T11:18:53.000Z</time>
                <name>Position 280</name>
            </trkpt>
            <trkpt lat="47.5976732" lon="12.5986254">
                <ele>1322.0</ele>
                <time>2017-07-09T11:19:08.000Z</time>
                <name>Position 281</name>
            </trkpt>
            <trkpt lat="47.5975838" lon="12.5983726">
                <ele>1324.3</ele>
                <time>2017-07-09T11:19:25.000Z</time>
                <name>Position 282</name>
            </trkpt>
            <trkpt lat="47.5975324" lon="12.5980965">
                <ele>1315.1</ele>
                <time>2017-07-09T11:19:38.000Z</time>
                <name>Position 283</name>
            </trkpt>
            <trkpt lat="47.5974722" lon="12.5978289">
                <ele>1312.5</ele>
                <time>2017-07-09T11:19:54.000Z</time>
                <name>Position 284</name>
            </trkpt>
            <trkpt lat="47.5974418" lon="12.5975636">
                <ele>1314.2</ele>
                <time>2017-07-09T11:20:10.000Z</time>
                <name>Position 285</name>
            </trkpt>
            <trkpt lat="47.597434" lon="12.5972857">
                <ele>1301.1</ele>
                <time>2017-07-09T11:20:24.000Z</time>
                <name>Position 286</name>
            </trkpt>
            <trkpt lat="47.5973197" lon="12.5970696">
                <ele>1298.2</ele>
                <time>2017-07-09T11:20:41.000Z</time>
                <name>Position 287</name>
            </trkpt>
            <trkpt lat="47.5971928" lon="12.5968638">
                <ele>1297.5</ele>
                <time>2017-07-09T11:20:57.000Z</time>
                <name>Position 288</name>
            </trkpt>
            <trkpt lat="47.5971177" lon="12.59662">
                <ele>1297.7</ele>
                <time>2017-07-09T11:21:12.000Z</time>
                <name>Position 289</name>
            </trkpt>
            <trkpt lat="47.5971018" lon="12.5963356">
                <ele>1294.3</ele>
                <time>2017-07-09T11:21:27.000Z</time>
                <name>Position 290</name>
            </trkpt>
            <trkpt lat="47.5970821" lon="12.5960544">
                <ele>1291.4</ele>
                <time>2017-07-09T11:21:43.000Z</time>
                <name>Position 291</name>
            </trkpt>
            <trkpt lat="47.5970818" lon="12.5957871">
                <ele>1288.8</ele>
                <time>2017-07-09T11:21:57.000Z</time>
                <name>Position 292</name>
            </trkpt>
            <trkpt lat="47.5969215" lon="12.5956268">
                <ele>1291.1</ele>
                <time>2017-07-09T11:22:16.000Z</time>
                <name>Position 293</name>
            </trkpt>
            <trkpt lat="47.5967557" lon="12.59551">
                <ele>1290.2</ele>
                <time>2017-07-09T11:22:32.000Z</time>
                <name>Position 294</name>
            </trkpt>
            <trkpt lat="47.5966424" lon="12.5952861">
                <ele>1289.2</ele>
                <time>2017-07-09T11:22:47.000Z</time>
                <name>Position 295</name>
            </trkpt>
            <trkpt lat="47.596507" lon="12.595102">
                <ele>1287.7</ele>
                <time>2017-07-09T11:23:03.000Z</time>
                <name>Position 296</name>
            </trkpt>
            <trkpt lat="47.5963895" lon="12.5948674">
                <ele>1284.4</ele>
                <time>2017-07-09T11:23:17.000Z</time>
                <name>Position 297</name>
            </trkpt>
            <trkpt lat="47.5962837" lon="12.5946507">
                <ele>1283.9</ele>
                <time>2017-07-09T11:23:30.000Z</time>
                <name>Position 298</name>
            </trkpt>
            <trkpt lat="47.5961866" lon="12.5944254">
                <ele>1277.5</ele>
                <time>2017-07-09T11:23:45.000Z</time>
                <name>Position 299</name>
            </trkpt>
            <trkpt lat="47.5962641" lon="12.5946816">
                <ele>1272.5</ele>
                <time>2017-07-09T11:24:10.000Z</time>
                <name>Position 300</name>
            </trkpt>
            <trkpt lat="47.5963254" lon="12.5949512">
                <ele>1275.0</ele>
                <time>2017-07-09T11:24:26.000Z</time>
                <name>Position 301</name>
            </trkpt>
            <trkpt lat="47.5965229" lon="12.5954682">
                <ele>1265.5</ele>
                <time>2017-07-09T11:25:01.000Z</time>
                <name>Position 302</name>
            </trkpt>
            <trkpt lat="47.5965645" lon="12.5957291">
                <ele>1262.6</ele>
                <time>2017-07-09T11:25:16.000Z</time>
                <name>Position 303</name>
            </trkpt>
            <trkpt lat="47.5966653" lon="12.5959713">
                <ele>1256.8</ele>
                <time>2017-07-09T11:25:29.000Z</time>
                <name>Position 304</name>
            </trkpt>
            <trkpt lat="47.5965496" lon="12.5963136">
                <ele>1251.3</ele>
                <time>2017-07-09T11:25:50.000Z</time>
                <name>Position 305</name>
            </trkpt>
            <trkpt lat="47.5964315" lon="12.596553">
                <ele>1249.0</ele>
                <time>2017-07-09T11:26:02.000Z</time>
                <name>Position 306</name>
            </trkpt>
            <trkpt lat="47.5963842" lon="12.5968266">
                <ele>1247.1</ele>
                <time>2017-07-09T11:26:18.000Z</time>
                <name>Position 307</name>
            </trkpt>
            <trkpt lat="47.5963541" lon="12.5971018">
                <ele>1245.9</ele>
                <time>2017-07-09T11:26:36.000Z</time>
                <name>Position 308</name>
            </trkpt>
            <trkpt lat="47.5964312" lon="12.5973646">
                <ele>1245.2</ele>
                <time>2017-07-09T11:26:53.000Z</time>
                <name>Position 309</name>
            </trkpt>
            <trkpt lat="47.5964433" lon="12.5976332">
                <ele>1238.6</ele>
                <time>2017-07-09T11:27:09.000Z</time>
                <name>Position 310</name>
            </trkpt>
            <trkpt lat="47.596387" lon="12.5978948">
                <ele>1241.8</ele>
                <time>2017-07-09T11:27:25.000Z</time>
                <name>Position 311</name>
            </trkpt>
            <trkpt lat="47.596382" lon="12.5981647">
                <ele>1244.8</ele>
                <time>2017-07-09T11:27:41.000Z</time>
                <name>Position 312</name>
            </trkpt>
            <trkpt lat="47.5963932" lon="12.5984343">
                <ele>1236.3</ele>
                <time>2017-07-09T11:27:56.000Z</time>
                <name>Position 313</name>
            </trkpt>
            <trkpt lat="47.5963753" lon="12.598703">
                <ele>1235.4</ele>
                <time>2017-07-09T11:28:12.000Z</time>
                <name>Position 314</name>
            </trkpt>
            <trkpt lat="47.5963536" lon="12.5989737">
                <ele>1236.8</ele>
                <time>2017-07-09T11:28:29.000Z</time>
                <name>Position 315</name>
            </trkpt>
            <trkpt lat="47.5963254" lon="12.5992701">
                <ele>1231.5</ele>
                <time>2017-07-09T11:28:43.000Z</time>
                <name>Position 316</name>
            </trkpt>
            <trkpt lat="47.5962441" lon="12.5995172">
                <ele>1217.8</ele>
                <time>2017-07-09T11:28:55.000Z</time>
                <name>Position 317</name>
            </trkpt>
            <trkpt lat="47.5961266" lon="12.5997397">
                <ele>1216.8</ele>
                <time>2017-07-09T11:29:10.000Z</time>
                <name>Position 318</name>
            </trkpt>
            <trkpt lat="47.5960085" lon="12.5999432">
                <ele>1217.3</ele>
                <time>2017-07-09T11:29:25.000Z</time>
                <name>Position 319</name>
            </trkpt>
            <trkpt lat="47.5958538" lon="12.600109">
                <ele>1212.9</ele>
                <time>2017-07-09T11:29:40.000Z</time>
                <name>Position 320</name>
            </trkpt>
            <trkpt lat="47.595715" lon="12.6002793">
                <ele>1206.5</ele>
                <time>2017-07-09T11:29:54.000Z</time>
                <name>Position 321</name>
            </trkpt>
            <trkpt lat="47.5955676" lon="12.6004356">
                <ele>1207.0</ele>
                <time>2017-07-09T11:30:08.000Z</time>
                <name>Position 322</name>
            </trkpt>
            <trkpt lat="47.5954106" lon="12.6005847">
                <ele>1201.5</ele>
                <time>2017-07-09T11:30:23.000Z</time>
                <name>Position 323</name>
            </trkpt>
            <trkpt lat="47.5952438" lon="12.6006891">
                <ele>1212.2</ele>
                <time>2017-07-09T11:30:39.000Z</time>
                <name>Position 324</name>
            </trkpt>
            <trkpt lat="47.5950859" lon="12.6008548">
                <ele>1196.7</ele>
                <time>2017-07-09T11:30:52.000Z</time>
                <name>Position 325</name>
            </trkpt>
            <trkpt lat="47.5949311" lon="12.6010051">
                <ele>1191.6</ele>
                <time>2017-07-09T11:31:07.000Z</time>
                <name>Position 326</name>
            </trkpt>
            <trkpt lat="47.594806" lon="12.6012051">
                <ele>1187.3</ele>
                <time>2017-07-09T11:31:21.000Z</time>
                <name>Position 327</name>
            </trkpt>
            <trkpt lat="47.5946822" lon="12.6014189">
                <ele>1182.3</ele>
                <time>2017-07-09T11:31:36.000Z</time>
                <name>Position 328</name>
            </trkpt>
            <trkpt lat="47.5945642" lon="12.6016363">
                <ele>1188.2</ele>
                <time>2017-07-09T11:31:50.000Z</time>
                <name>Position 329</name>
            </trkpt>
            <trkpt lat="47.5945714" lon="12.6019099">
                <ele>1191.8</ele>
                <time>2017-07-09T11:32:06.000Z</time>
                <name>Position 330</name>
            </trkpt>
            <trkpt lat="47.5946767" lon="12.6021478">
                <ele>1197.0</ele>
                <time>2017-07-09T11:32:22.000Z</time>
                <name>Position 331</name>
            </trkpt>
            <trkpt lat="47.5946763" lon="12.6024226">
                <ele>1193.8</ele>
                <time>2017-07-09T11:32:35.000Z</time>
                <name>Position 332</name>
            </trkpt>
            <trkpt lat="47.5946499" lon="12.6027026">
                <ele>1194.1</ele>
                <time>2017-07-09T11:32:48.000Z</time>
                <name>Position 333</name>
            </trkpt>
            <trkpt lat="47.5946584" lon="12.6029912">
                <ele>1194.6</ele>
                <time>2017-07-09T11:33:01.000Z</time>
                <name>Position 334</name>
            </trkpt>
            <trkpt lat="47.594612" lon="12.6032509">
                <ele>1190.3</ele>
                <time>2017-07-09T11:33:12.000Z</time>
                <name>Position 335</name>
            </trkpt>
            <trkpt lat="47.5946085" lon="12.6035335">
                <ele>1188.6</ele>
                <time>2017-07-09T11:33:27.000Z</time>
                <name>Position 336</name>
            </trkpt>
            <trkpt lat="47.594576" lon="12.6038058">
                <ele>1180.5</ele>
                <time>2017-07-09T11:33:42.000Z</time>
                <name>Position 337</name>
            </trkpt>
            <trkpt lat="47.5944935" lon="12.6040535">
                <ele>1175.1</ele>
                <time>2017-07-09T11:33:55.000Z</time>
                <name>Position 338</name>
            </trkpt>
            <trkpt lat="47.5944374" lon="12.6043124">
                <ele>1169.1</ele>
                <time>2017-07-09T11:34:08.000Z</time>
                <name>Position 339</name>
            </trkpt>
            <trkpt lat="47.5944212" lon="12.6045834">
                <ele>1156.4</ele>
                <time>2017-07-09T11:34:23.000Z</time>
                <name>Position 340</name>
            </trkpt>
            <trkpt lat="47.5943989" lon="12.6048499">
                <ele>1160.1</ele>
                <time>2017-07-09T11:34:38.000Z</time>
                <name>Position 341</name>
            </trkpt>
            <trkpt lat="47.5943364" lon="12.6051074">
                <ele>1152.0</ele>
                <time>2017-07-09T11:34:52.000Z</time>
                <name>Position 342</name>
            </trkpt>
            <trkpt lat="47.594256" lon="12.6053603">
                <ele>1149.6</ele>
                <time>2017-07-09T11:35:05.000Z</time>
                <name>Position 343</name>
            </trkpt>
            <trkpt lat="47.5942305" lon="12.6056376">
                <ele>1156.9</ele>
                <time>2017-07-09T11:35:23.000Z</time>
                <name>Position 344</name>
            </trkpt>
            <trkpt lat="47.5941403" lon="12.6059025">
                <ele>1153.7</ele>
                <time>2017-07-09T11:35:36.000Z</time>
                <name>Position 345</name>
            </trkpt>
            <trkpt lat="47.5940379" lon="12.6061403">
                <ele>1147.3</ele>
                <time>2017-07-09T11:35:49.000Z</time>
                <name>Position 346</name>
            </trkpt>
            <trkpt lat="47.5939673" lon="12.6064009">
                <ele>1145.8</ele>
                <time>2017-07-09T11:36:05.000Z</time>
                <name>Position 347</name>
            </trkpt>
            <trkpt lat="47.593877" lon="12.6066368">
                <ele>1136.3</ele>
                <time>2017-07-09T11:36:21.000Z</time>
                <name>Position 348</name>
            </trkpt>
            <trkpt lat="47.593801" lon="12.6068828">
                <ele>1141.2</ele>
                <time>2017-07-09T11:36:37.000Z</time>
                <name>Position 349</name>
            </trkpt>
            <trkpt lat="47.593735" lon="12.6071486">
                <ele>1139.1</ele>
                <time>2017-07-09T11:36:52.000Z</time>
                <name>Position 350</name>
            </trkpt>
            <trkpt lat="47.5936041" lon="12.6069632">
                <ele>1134.9</ele>
                <time>2017-07-09T11:37:26.000Z</time>
                <name>Position 351</name>
            </trkpt>
            <trkpt lat="47.5935634" lon="12.6067033">
                <ele>1137.7</ele>
                <time>2017-07-09T11:37:38.000Z</time>
                <name>Position 352</name>
            </trkpt>
            <trkpt lat="47.5935186" lon="12.606438">
                <ele>1135.7</ele>
                <time>2017-07-09T11:37:52.000Z</time>
                <name>Position 353</name>
            </trkpt>
            <trkpt lat="47.5935623" lon="12.6061652">
                <ele>1139.5</ele>
                <time>2017-07-09T11:38:07.000Z</time>
                <name>Position 354</name>
            </trkpt>
            <trkpt lat="47.5936564" lon="12.6059273">
                <ele>1134.7</ele>
                <time>2017-07-09T11:38:21.000Z</time>
                <name>Position 355</name>
            </trkpt>
            <trkpt lat="47.5936542" lon="12.6056498">
                <ele>1134.0</ele>
                <time>2017-07-09T11:38:35.000Z</time>
                <name>Position 356</name>
            </trkpt>
            <trkpt lat="47.5935273" lon="12.6054487">
                <ele>1135.8</ele>
                <time>2017-07-09T11:38:50.000Z</time>
                <name>Position 357</name>
            </trkpt>
            <trkpt lat="47.5935165" lon="12.6051658">
                <ele>1130.3</ele>
                <time>2017-07-09T11:39:04.000Z</time>
                <name>Position 358</name>
            </trkpt>
            <trkpt lat="47.5935811" lon="12.6049081">
                <ele>1135.2</ele>
                <time>2017-07-09T11:39:18.000Z</time>
                <name>Position 359</name>
            </trkpt>
            <trkpt lat="47.5935708" lon="12.6046328">
                <ele>1129.4</ele>
                <time>2017-07-09T11:39:32.000Z</time>
                <name>Position 360</name>
            </trkpt>
            <trkpt lat="47.5936013" lon="12.6043304">
                <ele>1115.5</ele>
                <time>2017-07-09T11:39:45.000Z</time>
                <name>Position 361</name>
            </trkpt>
            <trkpt lat="47.593658" lon="12.6040562">
                <ele>1118.7</ele>
                <time>2017-07-09T11:39:58.000Z</time>
                <name>Position 362</name>
            </trkpt>
            <trkpt lat="47.5937583" lon="12.6038131">
                <ele>1117.9</ele>
                <time>2017-07-09T11:40:12.000Z</time>
                <name>Position 363</name>
            </trkpt>
            <trkpt lat="47.5936631" lon="12.6035804">
                <ele>1119.7</ele>
                <time>2017-07-09T11:40:32.000Z</time>
                <name>Position 364</name>
            </trkpt>
            <trkpt lat="47.5935426" lon="12.6033807">
                <ele>1111.3</ele>
                <time>2017-07-09T11:40:48.000Z</time>
                <name>Position 365</name>
            </trkpt>
            <trkpt lat="47.593516" lon="12.6031005">
                <ele>1100.7</ele>
                <time>2017-07-09T11:41:02.000Z</time>
                <name>Position 366</name>
            </trkpt>
            <trkpt lat="47.5935035" lon="12.6028297">
                <ele>1104.3</ele>
                <time>2017-07-09T11:41:14.000Z</time>
                <name>Position 367</name>
            </trkpt>
            <trkpt lat="47.5934702" lon="12.602527">
                <ele>1099.1</ele>
                <time>2017-07-09T11:41:28.000Z</time>
                <name>Position 368</name>
            </trkpt>
            <trkpt lat="47.5932083" lon="12.6019283">
                <ele>1090.8</ele>
                <time>2017-07-09T11:42:00.000Z</time>
                <name>Position 369</name>
            </trkpt>
            <trkpt lat="47.593271" lon="12.6016272">
                <ele>1090.1</ele>
                <time>2017-07-09T11:42:14.000Z</time>
                <name>Position 370</name>
            </trkpt>
            <trkpt lat="47.5932996" lon="12.6013529">
                <ele>1092.4</ele>
                <time>2017-07-09T11:42:29.000Z</time>
                <name>Position 371</name>
            </trkpt>
            <trkpt lat="47.5932905" lon="12.6010865">
                <ele>1083.6</ele>
                <time>2017-07-09T11:42:42.000Z</time>
                <name>Position 372</name>
            </trkpt>
            <trkpt lat="47.5933623" lon="12.6007746">
                <ele>1087.7</ele>
                <time>2017-07-09T11:42:57.000Z</time>
                <name>Position 373</name>
            </trkpt>
            <trkpt lat="47.5932935" lon="12.6005227">
                <ele>1093.3</ele>
                <time>2017-07-09T11:43:12.000Z</time>
                <name>Position 374</name>
            </trkpt>
            <trkpt lat="47.5932516" lon="12.6002405">
                <ele>1091.6</ele>
                <time>2017-07-09T11:43:28.000Z</time>
                <name>Position 375</name>
            </trkpt>
            <trkpt lat="47.5932563" lon="12.599886">
                <ele>1088.9</ele>
                <time>2017-07-09T11:43:43.000Z</time>
                <name>Position 376</name>
            </trkpt>
            <trkpt lat="47.5933501" lon="12.5996255">
                <ele>1083.7</ele>
                <time>2017-07-09T11:43:55.000Z</time>
                <name>Position 377</name>
            </trkpt>
            <trkpt lat="47.5934026" lon="12.5993702">
                <ele>1074.3</ele>
                <time>2017-07-09T11:44:07.000Z</time>
                <name>Position 378</name>
            </trkpt>
            <trkpt lat="47.5934707" lon="12.5991179">
                <ele>1078.0</ele>
                <time>2017-07-09T11:44:23.000Z</time>
                <name>Position 379</name>
            </trkpt>
            <trkpt lat="47.5934341" lon="12.5988549">
                <ele>1077.8</ele>
                <time>2017-07-09T11:44:38.000Z</time>
                <name>Position 380</name>
            </trkpt>
            <trkpt lat="47.5933256" lon="12.598637">
                <ele>1078.1</ele>
                <time>2017-07-09T11:44:52.000Z</time>
                <name>Position 381</name>
            </trkpt>
            <trkpt lat="47.5932184" lon="12.5984043">
                <ele>1079.9</ele>
                <time>2017-07-09T11:45:07.000Z</time>
                <name>Position 382</name>
            </trkpt>
            <trkpt lat="47.5931338" lon="12.5980277">
                <ele>1072.7</ele>
                <time>2017-07-09T11:45:29.000Z</time>
                <name>Position 383</name>
            </trkpt>
            <trkpt lat="47.5931506" lon="12.5976458">
                <ele>1076.5</ele>
                <time>2017-07-09T11:45:50.000Z</time>
                <name>Position 384</name>
            </trkpt>
            <trkpt lat="47.5932603" lon="12.5974146">
                <ele>1067.7</ele>
                <time>2017-07-09T11:46:04.000Z</time>
                <name>Position 385</name>
            </trkpt>
            <trkpt lat="47.5933073" lon="12.5971432">
                <ele>1064.6</ele>
                <time>2017-07-09T11:46:18.000Z</time>
                <name>Position 386</name>
            </trkpt>
            <trkpt lat="47.5932392" lon="12.5968915">
                <ele>1065.1</ele>
                <time>2017-07-09T11:46:35.000Z</time>
                <name>Position 387</name>
            </trkpt>
            <trkpt lat="47.5931151" lon="12.596691">
                <ele>1059.9</ele>
                <time>2017-07-09T11:46:53.000Z</time>
                <name>Position 388</name>
            </trkpt>
            <trkpt lat="47.5929961" lon="12.5963844">
                <ele>1057.9</ele>
                <time>2017-07-09T11:47:07.000Z</time>
                <name>Position 389</name>
            </trkpt>
            <trkpt lat="47.5928549" lon="12.5961953">
                <ele>1054.8</ele>
                <time>2017-07-09T11:47:23.000Z</time>
                <name>Position 390</name>
            </trkpt>
            <trkpt lat="47.5926982" lon="12.5959179">
                <ele>1056.3</ele>
                <time>2017-07-09T11:47:41.000Z</time>
                <name>Position 391</name>
            </trkpt>
            <trkpt lat="47.5925176" lon="12.5958513">
                <ele>1060.0</ele>
                <time>2017-07-09T11:47:55.000Z</time>
                <name>Position 392</name>
            </trkpt>
            <trkpt lat="47.5926887" lon="12.5959544">
                <ele>1040.9</ele>
                <time>2017-07-09T11:48:24.000Z</time>
                <name>Position 393</name>
            </trkpt>
            <trkpt lat="47.5928134" lon="12.5962526">
                <ele>1038.3</ele>
                <time>2017-07-09T11:48:43.000Z</time>
                <name>Position 394</name>
            </trkpt>
            <trkpt lat="47.5929108" lon="12.5964864">
                <ele>1030.6</ele>
                <time>2017-07-09T11:48:57.000Z</time>
                <name>Position 395</name>
            </trkpt>
            <trkpt lat="47.5929692" lon="12.5967557">
                <ele>1041.9</ele>
                <time>2017-07-09T11:49:11.000Z</time>
                <name>Position 396</name>
            </trkpt>
            <trkpt lat="47.5929022" lon="12.5970081">
                <ele>1038.2</ele>
                <time>2017-07-09T11:49:24.000Z</time>
                <name>Position 397</name>
            </trkpt>
            <trkpt lat="47.5927884" lon="12.5972232">
                <ele>1027.1</ele>
                <time>2017-07-09T11:49:38.000Z</time>
                <name>Position 398</name>
            </trkpt>
            <trkpt lat="47.5926652" lon="12.597441">
                <ele>1019.9</ele>
                <time>2017-07-09T11:49:52.000Z</time>
                <name>Position 399</name>
            </trkpt>
            <trkpt lat="47.5925287" lon="12.5976421">
                <ele>1020.0</ele>
                <time>2017-07-09T11:50:08.000Z</time>
                <name>Position 400</name>
            </trkpt>
            <trkpt lat="47.5923581" lon="12.5977282">
                <ele>1023.1</ele>
                <time>2017-07-09T11:50:21.000Z</time>
                <name>Position 401</name>
            </trkpt>
            <trkpt lat="47.5922145" lon="12.5979058">
                <ele>1010.9</ele>
                <time>2017-07-09T11:50:33.000Z</time>
                <name>Position 402</name>
            </trkpt>
            <trkpt lat="47.592098" lon="12.5981151">
                <ele>1005.8</ele>
                <time>2017-07-09T11:50:48.000Z</time>
                <name>Position 403</name>
            </trkpt>
            <trkpt lat="47.5920025" lon="12.5983628">
                <ele>1000.8</ele>
                <time>2017-07-09T11:51:02.000Z</time>
                <name>Position 404</name>
            </trkpt>
            <trkpt lat="47.5919292" lon="12.5986084">
                <ele>993.7</ele>
                <time>2017-07-09T11:51:14.000Z</time>
                <name>Position 405</name>
            </trkpt>
            <trkpt lat="47.5918608" lon="12.5988572">
                <ele>987.2</ele>
                <time>2017-07-09T11:51:28.000Z</time>
                <name>Position 406</name>
            </trkpt>
            <trkpt lat="47.5918895" lon="12.5991242">
                <ele>1005.6</ele>
                <time>2017-07-09T11:51:47.000Z</time>
                <name>Position 407</name>
            </trkpt>
            <trkpt lat="47.5917261" lon="12.5992472">
                <ele>996.8</ele>
                <time>2017-07-09T11:52:13.000Z</time>
                <name>Position 408</name>
            </trkpt>
            <trkpt lat="47.5915761" lon="12.5994016">
                <ele>972.7</ele>
                <time>2017-07-09T11:52:44.000Z</time>
                <name>Position 409</name>
            </trkpt>
            <trkpt lat="47.5916541" lon="12.5996494">
                <ele>978.5</ele>
                <time>2017-07-09T11:53:43.000Z</time>
                <name>Position 410</name>
            </trkpt>
            <trkpt lat="47.5916911" lon="12.5999112">
                <ele>970.4</ele>
                <time>2017-07-09T11:54:08.000Z</time>
                <name>Position 411</name>
            </trkpt>
            <trkpt lat="47.5917402" lon="12.6001852">
                <ele>964.1</ele>
                <time>2017-07-09T11:54:39.000Z</time>
                <name>Position 412</name>
            </trkpt>
            <trkpt lat="47.5917041" lon="12.6004612">
                <ele>969.2</ele>
                <time>2017-07-09T11:54:59.000Z</time>
                <name>Position 413</name>
            </trkpt>
            <trkpt lat="47.5916156" lon="12.6006958">
                <ele>965.8</ele>
                <time>2017-07-09T11:55:21.000Z</time>
                <name>Position 414</name>
            </trkpt>
            <trkpt lat="47.5915236" lon="12.600926">
                <ele>963.8</ele>
                <time>2017-07-09T11:55:45.000Z</time>
                <name>Position 415</name>
            </trkpt>
            <trkpt lat="47.5914414" lon="12.6011769">
                <ele>965.3</ele>
                <time>2017-07-09T11:56:05.000Z</time>
                <name>Position 416</name>
            </trkpt>
            <trkpt lat="47.5913955" lon="12.6014447">
                <ele>954.2</ele>
                <time>2017-07-09T11:56:30.000Z</time>
                <name>Position 417</name>
            </trkpt>
            <trkpt lat="47.5912881" lon="12.6016727">
                <ele>952.2</ele>
                <time>2017-07-09T11:56:50.000Z</time>
                <name>Position 418</name>
            </trkpt>
            <trkpt lat="47.5912726" lon="12.6019437">
                <ele>940.6</ele>
                <time>2017-07-09T11:57:10.000Z</time>
                <name>Position 419</name>
            </trkpt>
            <trkpt lat="47.5912285" lon="12.60221">
                <ele>939.0</ele>
                <time>2017-07-09T11:57:33.000Z</time>
                <name>Position 420</name>
            </trkpt>
            <trkpt lat="47.5912786" lon="12.6024709">
                <ele>942.1</ele>
                <time>2017-07-09T11:57:58.000Z</time>
                <name>Position 421</name>
            </trkpt>
            <trkpt lat="47.591185" lon="12.602711">
                <ele>933.3</ele>
                <time>2017-07-09T11:58:16.000Z</time>
                <name>Position 422</name>
            </trkpt>
            <trkpt lat="47.5910181" lon="12.60282">
                <ele>933.2</ele>
                <time>2017-07-09T11:58:35.000Z</time>
                <name>Position 423</name>
            </trkpt>
            <trkpt lat="47.590859" lon="12.6029588">
                <ele>929.7</ele>
                <time>2017-07-09T11:58:52.000Z</time>
                <name>Position 424</name>
            </trkpt>
            <trkpt lat="47.5907196" lon="12.6031381">
                <ele>920.6</ele>
                <time>2017-07-09T11:59:11.000Z</time>
                <name>Position 425</name>
            </trkpt>
            <trkpt lat="47.5905997" lon="12.6033457">
                <ele>921.3</ele>
                <time>2017-07-09T11:59:30.000Z</time>
                <name>Position 426</name>
            </trkpt>
            <trkpt lat="47.5904331" lon="12.6034898">
                <ele>921.3</ele>
                <time>2017-07-09T11:59:43.000Z</time>
                <name>Position 427</name>
            </trkpt>
            <trkpt lat="47.5903418" lon="12.6037202">
                <ele>907.5</ele>
                <time>2017-07-09T12:00:07.000Z</time>
                <name>Position 428</name>
            </trkpt>
            <trkpt lat="47.5902729" lon="12.6039752">
                <ele>911.0</ele>
                <time>2017-07-09T12:00:24.000Z</time>
                <name>Position 429</name>
            </trkpt>
            <trkpt lat="47.5903211" lon="12.6042382">
                <ele>902.3</ele>
                <time>2017-07-09T12:00:45.000Z</time>
                <name>Position 430</name>
            </trkpt>
            <trkpt lat="47.5904154" lon="12.6044685">
                <ele>906.6</ele>
                <time>2017-07-09T12:00:58.000Z</time>
                <name>Position 431</name>
            </trkpt>
            <trkpt lat="47.5905357" lon="12.6046838">
                <ele>901.2</ele>
                <time>2017-07-09T12:01:14.000Z</time>
                <name>Position 432</name>
            </trkpt>
            <trkpt lat="47.5906175" lon="12.6049236">
                <ele>905.3</ele>
                <time>2017-07-09T12:01:27.000Z</time>
                <name>Position 433</name>
            </trkpt>
            <trkpt lat="47.5904312" lon="12.604973">
                <ele>923.4</ele>
                <time>2017-07-09T12:01:52.000Z</time>
                <name>Position 434</name>
            </trkpt>
            <trkpt lat="47.5903022" lon="12.6051695">
                <ele>904.8</ele>
                <time>2017-07-09T12:02:06.000Z</time>
                <name>Position 435</name>
            </trkpt>
            <trkpt lat="47.5902293" lon="12.6054284">
                <ele>882.4</ele>
                <time>2017-07-09T12:02:21.000Z</time>
                <name>Position 436</name>
            </trkpt>
            <trkpt lat="47.5901093" lon="12.6056395">
                <ele>877.0</ele>
                <time>2017-07-09T12:02:43.000Z</time>
                <name>Position 437</name>
            </trkpt>
            <trkpt lat="47.5900359" lon="12.6058923">
                <ele>875.9</ele>
                <time>2017-07-09T12:03:04.000Z</time>
                <name>Position 438</name>
            </trkpt>
            <trkpt lat="47.5899778" lon="12.606148">
                <ele>875.1</ele>
                <time>2017-07-09T12:03:25.000Z</time>
                <name>Position 439</name>
            </trkpt>
            <trkpt lat="47.5898549" lon="12.6063648">
                <ele>875.3</ele>
                <time>2017-07-09T12:03:46.000Z</time>
                <name>Position 440</name>
            </trkpt>
            <trkpt lat="47.5897646" lon="12.6066052">
                <ele>867.0</ele>
                <time>2017-07-09T12:04:01.000Z</time>
                <name>Position 441</name>
            </trkpt>
            <trkpt lat="47.5897396" lon="12.6068873">
                <ele>860.0</ele>
                <time>2017-07-09T12:04:18.000Z</time>
                <name>Position 442</name>
            </trkpt>
            <trkpt lat="47.5896515" lon="12.6071356">
                <ele>868.4</ele>
                <time>2017-07-09T12:04:34.000Z</time>
                <name>Position 443</name>
            </trkpt>
            <trkpt lat="47.5895945" lon="12.6073965">
                <ele>855.1</ele>
                <time>2017-07-09T12:04:49.000Z</time>
                <name>Position 444</name>
            </trkpt>
            <trkpt lat="47.5896135" lon="12.6076668">
                <ele>851.5</ele>
                <time>2017-07-09T12:05:09.000Z</time>
                <name>Position 445</name>
            </trkpt>
            <trkpt lat="47.5895432" lon="12.6079244">
                <ele>845.9</ele>
                <time>2017-07-09T12:05:24.000Z</time>
                <name>Position 446</name>
            </trkpt>
            <trkpt lat="47.5894777" lon="12.6081974">
                <ele>838.0</ele>
                <time>2017-07-09T12:05:41.000Z</time>
                <name>Position 447</name>
            </trkpt>
            <trkpt lat="47.589401" lon="12.6084612">
                <ele>842.5</ele>
                <time>2017-07-09T12:05:56.000Z</time>
                <name>Position 448</name>
            </trkpt>
            <trkpt lat="47.5893303" lon="12.6087318">
                <ele>843.3</ele>
                <time>2017-07-09T12:06:11.000Z</time>
                <name>Position 449</name>
            </trkpt>
            <trkpt lat="47.5892525" lon="12.6089722">
                <ele>840.2</ele>
                <time>2017-07-09T12:06:25.000Z</time>
                <name>Position 450</name>
            </trkpt>
            <trkpt lat="47.5891428" lon="12.6087554">
                <ele>819.7</ele>
                <time>2017-07-09T12:07:10.000Z</time>
                <name>Position 451</name>
            </trkpt>
            <trkpt lat="47.5891146" lon="12.6084917">
                <ele>820.1</ele>
                <time>2017-07-09T12:07:24.000Z</time>
                <name>Position 452</name>
            </trkpt>
            <trkpt lat="47.5890707" lon="12.6082303">
                <ele>822.6</ele>
                <time>2017-07-09T12:07:44.000Z</time>
                <name>Position 453</name>
            </trkpt>
            <trkpt lat="47.5890178" lon="12.6079751">
                <ele>821.8</ele>
                <time>2017-07-09T12:07:58.000Z</time>
                <name>Position 454</name>
            </trkpt>
            <trkpt lat="47.588994" lon="12.6076994">
                <ele>813.6</ele>
                <time>2017-07-09T12:08:11.000Z</time>
                <name>Position 455</name>
            </trkpt>
            <trkpt lat="47.5889528" lon="12.6074393">
                <ele>808.5</ele>
                <time>2017-07-09T12:08:25.000Z</time>
                <name>Position 456</name>
            </trkpt>
            <trkpt lat="47.5889233" lon="12.6071632">
                <ele>816.1</ele>
                <time>2017-07-09T12:08:40.000Z</time>
                <name>Position 457</name>
            </trkpt>
            <trkpt lat="47.5888577" lon="12.6069129">
                <ele>811.1</ele>
                <time>2017-07-09T12:08:59.000Z</time>
                <name>Position 458</name>
            </trkpt>
            <trkpt lat="47.5887803" lon="12.6066614">
                <ele>803.0</ele>
                <time>2017-07-09T12:09:13.000Z</time>
                <name>Position 459</name>
            </trkpt>
            <trkpt lat="47.5886429" lon="12.6064701">
                <ele>802.9</ele>
                <time>2017-07-09T12:09:28.000Z</time>
                <name>Position 460</name>
            </trkpt>
            <trkpt lat="47.5885604" lon="12.6062231">
                <ele>793.3</ele>
                <time>2017-07-09T12:09:44.000Z</time>
                <name>Position 461</name>
            </trkpt>
            <trkpt lat="47.5884146" lon="12.6060478">
                <ele>799.8</ele>
                <time>2017-07-09T12:10:01.000Z</time>
                <name>Position 462</name>
            </trkpt>
            <trkpt lat="47.5882836" lon="12.6058425">
                <ele>796.6</ele>
                <time>2017-07-09T12:10:12.000Z</time>
                <name>Position 463</name>
            </trkpt>
            <trkpt lat="47.5881164" lon="12.6056774">
                <ele>790.0</ele>
                <time>2017-07-09T12:10:30.000Z</time>
                <name>Position 464</name>
            </trkpt>
            <trkpt lat="47.588032" lon="12.6054214">
                <ele>780.3</ele>
                <time>2017-07-09T12:10:44.000Z</time>
                <name>Position 465</name>
            </trkpt>
            <trkpt lat="47.5879284" lon="12.6051884">
                <ele>779.5</ele>
                <time>2017-07-09T12:10:59.000Z</time>
                <name>Position 466</name>
            </trkpt>
            <trkpt lat="47.5878936" lon="12.6048949">
                <ele>777.4</ele>
                <time>2017-07-09T12:11:13.000Z</time>
                <name>Position 467</name>
            </trkpt>
            <trkpt lat="47.587931" lon="12.604623">
                <ele>772.5</ele>
                <time>2017-07-09T12:11:25.000Z</time>
                <name>Position 468</name>
            </trkpt>
            <trkpt lat="47.5878487" lon="12.6043725">
                <ele>770.8</ele>
                <time>2017-07-09T12:11:43.000Z</time>
                <name>Position 469</name>
            </trkpt>
            <trkpt lat="47.5878597" lon="12.6041056">
                <ele>769.3</ele>
                <time>2017-07-09T12:11:56.000Z</time>
                <name>Position 470</name>
            </trkpt>
            <trkpt lat="47.5878227" lon="12.6038404">
                <ele>767.9</ele>
                <time>2017-07-09T12:12:15.000Z</time>
                <name>Position 471</name>
            </trkpt>
        </trkseg>
    </trk>
</gpx>
