<?xml version="1.0" encoding="UTF-8" standalone="yes"?>
<gpx xmlns="http://www.topografix.com/GPX/1/1" xmlns:gpxtrx="http://www.garmin.com/xmlschemas/GpxExtensions/v3" xmlns:rcxx="http://www.routeconverter.de/xmlschemas/RouteCatalogExtensions/1.0" xmlns:xsi="http://www.w3.org/2001/XMLSchema-instance" xmlns:gpxtpx="http://www.garmin.com/xmlschemas/TrackPointExtension/v1" xmlns:gpxx="http://www.garmin.com/xmlschemas/WaypointExtension/v1" xmlns:nmea="http://trekbuddy.net/2009/01/gpx/nmea" version="1.1" creator="Generated by Christian Pesch's RouteConverter. See http://www.routeconverter.com">
    <metadata>
        <name>2016-09-30 06:57</name>
        <link href="http://www.oruxmaps.com">
            <text>OruxMaps</text>
        </link>
        <time>2016-09-30T04:57:07Z</time>
        <bounds minlat="47.4208015" minlon="10.9783641" maxlat="47.4583195" maxlon="10.9965905"/>
    </metadata>
    <wpt lat="47.4307693" lon="10.9883484">
        <ele>1822.7</ele>
        <time>2016-09-30T07:29:35.000Z</time>
        <sym>Waypoint</sym>
        <type>Wegpunkt</type>
        <extensions>
            <om:oruxmapsextensions xmlns:om="http://www.oruxmaps.com/oruxmapsextensions/1/0">
                <om:ext subtype="0" type="ICON">1</om:ext>
</om:oruxmapsextensions>
        </extensions>
    </wpt>
    <trk>
        <name>2016-09-30 06:57</name>
        <desc>&lt;p&gt;Startzeit: 09/30/2016 06:57&lt;/p&gt;&lt;p&gt;Zielzeit: 09/30/2016 17:32&lt;/p&gt;&lt;p&gt;Strecke: 13,
5 km (10:35)&lt;/p&gt;&lt;p&gt;Bewegungszeit: 04:43&lt;/p&gt;&lt;p&gt;Ø-Geschwindigkeit: 1,
27 km/h&lt;/p&gt;&lt;p&gt;Netto-Geschwindigkeit: 2,
85 km/h&lt;/p&gt;&lt;p&gt;Max. Geschwindigkeit: 113,
27km/h&lt;/p&gt;&lt;p&gt;Minimale Höhe: 962 m&lt;/p&gt;&lt;p&gt;Maximale Höhe: 2961 m&lt;/p&gt;&lt;p&gt;Steig-Geschw.: 256,
4 m/h&lt;/p&gt;&lt;p&gt;Sink-Geschw.: -1405,
2 m/h&lt;/p&gt;&lt;p&gt;Aufstieg: 2273 m&lt;/p&gt;&lt;p&gt;Abstieg: -2229 m&lt;/p&gt;&lt;p&gt;Steigzeit: 08:52&lt;/p&gt;&lt;p&gt;Sinkzeit: 01:35&lt;/p&gt;&lt;hr align="center" width="480" style="height: 2px; width: 517px"/&gt;</desc>
        <type>Unbestimmt</type>
        <extensions>
            <om:oruxmapsextensions xmlns:om="http://www.oruxmaps.com/oruxmapsextensions/1/0">
                <om:ext subtype="0" type="TYPE">0</om:ext>
                <om:ext type="DIFFICULTY">0</om:ext>
</om:oruxmapsextensions>
        </extensions>
        <trkseg>
            <trkpt lat="47.4558824" lon="10.9932591">
                <ele>962.6</ele>
                <time>2016-09-30T04:57:09.000Z</time>
                <name>Position 1</name>
            </trkpt>
            <trkpt lat="47.4556918" lon="10.9932515">
                <ele>1016.9</ele>
                <time>2016-09-30T05:05:49.000Z</time>
                <name>Position 2</name>
            </trkpt>
            <trkpt lat="47.4555073" lon="10.9932614">
                <ele>1018.7</ele>
                <time>2016-09-30T05:06:05.000Z</time>
                <name>Position 3</name>
            </trkpt>
            <trkpt lat="47.4553264" lon="10.9932087">
                <ele>1018.9</ele>
                <time>2016-09-30T05:06:20.000Z</time>
                <name>Position 4</name>
            </trkpt>
            <trkpt lat="47.4551591" lon="10.9931102">
                <ele>1019.9</ele>
                <time>2016-09-30T05:06:35.000Z</time>
                <name>Position 5</name>
            </trkpt>
            <trkpt lat="47.4549905" lon="10.9929868">
                <ele>1019.1</ele>
                <time>2016-09-30T05:06:55.000Z</time>
                <name>Position 6</name>
            </trkpt>
            <trkpt lat="47.4548484" lon="10.9928066">
                <ele>1017.0</ele>
                <time>2016-09-30T05:07:09.000Z</time>
                <name>Position 7</name>
            </trkpt>
            <trkpt lat="47.4547288" lon="10.9926053">
                <ele>1015.9</ele>
                <time>2016-09-30T05:07:23.000Z</time>
                <name>Position 8</name>
            </trkpt>
            <trkpt lat="47.454637" lon="10.9923731">
                <ele>1010.9</ele>
                <time>2016-09-30T05:08:05.000Z</time>
                <name>Position 9</name>
            </trkpt>
            <trkpt lat="47.4545401" lon="10.9921314">
                <ele>1010.9</ele>
                <time>2016-09-30T05:08:20.000Z</time>
                <name>Position 10</name>
            </trkpt>
            <trkpt lat="47.4544444" lon="10.991888">
                <ele>1011.9</ele>
                <time>2016-09-30T05:08:36.000Z</time>
                <name>Position 11</name>
            </trkpt>
            <trkpt lat="47.4544158" lon="10.9916166">
                <ele>1012.9</ele>
                <time>2016-09-30T05:08:52.000Z</time>
                <name>Position 12</name>
            </trkpt>
            <trkpt lat="47.4544396" lon="10.9913436">
                <ele>1015.9</ele>
                <time>2016-09-30T05:09:12.000Z</time>
                <name>Position 13</name>
            </trkpt>
            <trkpt lat="47.4545418" lon="10.991105">
                <ele>1020.5</ele>
                <time>2016-09-30T05:09:29.000Z</time>
                <name>Position 14</name>
            </trkpt>
            <trkpt lat="47.4546007" lon="10.9908479">
                <ele>1017.8</ele>
                <time>2016-09-30T05:09:47.000Z</time>
                <name>Position 15</name>
            </trkpt>
            <trkpt lat="47.4544468" lon="10.9907071">
                <ele>1017.9</ele>
                <time>2016-09-30T05:10:04.000Z</time>
                <name>Position 16</name>
            </trkpt>
            <trkpt lat="47.4542792" lon="10.9905871">
                <ele>1021.9</ele>
                <time>2016-09-30T05:10:22.000Z</time>
                <name>Position 17</name>
            </trkpt>
            <trkpt lat="47.4541209" lon="10.9904353">
                <ele>1022.7</ele>
                <time>2016-09-30T05:10:39.000Z</time>
                <name>Position 18</name>
            </trkpt>
            <trkpt lat="47.4539944" lon="10.9902326">
                <ele>1020.9</ele>
                <time>2016-09-30T05:10:55.000Z</time>
                <name>Position 19</name>
            </trkpt>
            <trkpt lat="47.4538855" lon="10.9900002">
                <ele>1020.9</ele>
                <time>2016-09-30T05:11:11.000Z</time>
                <name>Position 20</name>
            </trkpt>
            <trkpt lat="47.4537331" lon="10.9898443">
                <ele>1019.1</ele>
                <time>2016-09-30T05:11:26.000Z</time>
                <name>Position 21</name>
            </trkpt>
            <trkpt lat="47.4535855" lon="10.9896906">
                <ele>1019.2</ele>
                <time>2016-09-30T05:11:40.000Z</time>
                <name>Position 22</name>
            </trkpt>
            <trkpt lat="47.4534302" lon="10.989545">
                <ele>1020.9</ele>
                <time>2016-09-30T05:11:55.000Z</time>
                <name>Position 23</name>
            </trkpt>
            <trkpt lat="47.4532809" lon="10.9893945">
                <ele>1021.9</ele>
                <time>2016-09-30T05:12:11.000Z</time>
                <name>Position 24</name>
            </trkpt>
            <trkpt lat="47.4531799" lon="10.9891692">
                <ele>1023.0</ele>
                <time>2016-09-30T05:12:28.000Z</time>
                <name>Position 25</name>
            </trkpt>
            <trkpt lat="47.4531484" lon="10.9888892">
                <ele>1020.0</ele>
                <time>2016-09-30T05:12:43.000Z</time>
                <name>Position 26</name>
            </trkpt>
            <trkpt lat="47.4531154" lon="10.9886152">
                <ele>1019.9</ele>
                <time>2016-09-30T05:12:58.000Z</time>
                <name>Position 27</name>
            </trkpt>
            <trkpt lat="47.4530853" lon="10.9883481">
                <ele>1022.9</ele>
                <time>2016-09-30T05:13:13.000Z</time>
                <name>Position 28</name>
            </trkpt>
            <trkpt lat="47.4529429" lon="10.9881573">
                <ele>1023.7</ele>
                <time>2016-09-30T05:16:51.000Z</time>
                <name>Position 29</name>
            </trkpt>
            <trkpt lat="47.4527962" lon="10.9879796">
                <ele>1023.9</ele>
                <time>2016-09-30T05:17:05.000Z</time>
                <name>Position 30</name>
            </trkpt>
            <trkpt lat="47.4526657" lon="10.9877918">
                <ele>1022.9</ele>
                <time>2016-09-30T05:17:19.000Z</time>
                <name>Position 31</name>
            </trkpt>
            <trkpt lat="47.4525109" lon="10.9876403">
                <ele>1021.9</ele>
                <time>2016-09-30T05:17:34.000Z</time>
                <name>Position 32</name>
            </trkpt>
            <trkpt lat="47.4523577" lon="10.98748">
                <ele>1022.9</ele>
                <time>2016-09-30T05:17:47.000Z</time>
                <name>Position 33</name>
            </trkpt>
            <trkpt lat="47.4522042" lon="10.9873119">
                <ele>1025.9</ele>
                <time>2016-09-30T05:18:00.000Z</time>
                <name>Position 34</name>
            </trkpt>
            <trkpt lat="47.4520467" lon="10.9871627">
                <ele>1022.9</ele>
                <time>2016-09-30T05:18:14.000Z</time>
                <name>Position 35</name>
            </trkpt>
            <trkpt lat="47.4518848" lon="10.9870394">
                <ele>1022.1</ele>
                <time>2016-09-30T05:18:27.000Z</time>
                <name>Position 36</name>
            </trkpt>
            <trkpt lat="47.4517101" lon="10.9869704">
                <ele>1021.8</ele>
                <time>2016-09-30T05:18:41.000Z</time>
                <name>Position 37</name>
            </trkpt>
            <trkpt lat="47.4515333" lon="10.9868794">
                <ele>1021.9</ele>
                <time>2016-09-30T05:18:56.000Z</time>
                <name>Position 38</name>
            </trkpt>
            <trkpt lat="47.4513788" lon="10.9867286">
                <ele>1021.1</ele>
                <time>2016-09-30T05:19:09.000Z</time>
                <name>Position 39</name>
            </trkpt>
            <trkpt lat="47.4512467" lon="10.9865422">
                <ele>1026.9</ele>
                <time>2016-09-30T05:19:22.000Z</time>
                <name>Position 40</name>
            </trkpt>
            <trkpt lat="47.4511184" lon="10.9863465">
                <ele>1027.7</ele>
                <time>2016-09-30T05:19:44.000Z</time>
                <name>Position 41</name>
            </trkpt>
            <trkpt lat="47.4510019" lon="10.9861405">
                <ele>1031.8</ele>
                <time>2016-09-30T05:20:06.000Z</time>
                <name>Position 42</name>
            </trkpt>
            <trkpt lat="47.4509246" lon="10.9858951">
                <ele>1033.7</ele>
                <time>2016-09-30T05:20:28.000Z</time>
                <name>Position 43</name>
            </trkpt>
            <trkpt lat="47.4508436" lon="10.9856435">
                <ele>1042.3</ele>
                <time>2016-09-30T05:20:50.000Z</time>
                <name>Position 44</name>
            </trkpt>
            <trkpt lat="47.4508158" lon="10.9853807">
                <ele>1043.7</ele>
                <time>2016-09-30T05:21:10.000Z</time>
                <name>Position 45</name>
            </trkpt>
            <trkpt lat="47.4507442" lon="10.9851226">
                <ele>1051.0</ele>
                <time>2016-09-30T05:21:42.000Z</time>
                <name>Position 46</name>
            </trkpt>
            <trkpt lat="47.4506176" lon="10.98491">
                <ele>1051.9</ele>
                <time>2016-09-30T05:22:00.000Z</time>
                <name>Position 47</name>
            </trkpt>
            <trkpt lat="47.4505196" lon="10.9846739">
                <ele>1050.9</ele>
                <time>2016-09-30T05:22:16.000Z</time>
                <name>Position 48</name>
            </trkpt>
            <trkpt lat="47.4504051" lon="10.9844662">
                <ele>1052.7</ele>
                <time>2016-09-30T05:22:34.000Z</time>
                <name>Position 49</name>
            </trkpt>
            <trkpt lat="47.4502695" lon="10.9842747">
                <ele>1057.0</ele>
                <time>2016-09-30T05:22:55.000Z</time>
                <name>Position 50</name>
            </trkpt>
            <trkpt lat="47.4501326" lon="10.9840922">
                <ele>1060.9</ele>
                <time>2016-09-30T05:23:18.000Z</time>
                <name>Position 51</name>
            </trkpt>
            <trkpt lat="47.44997" lon="10.9839582">
                <ele>1061.9</ele>
                <time>2016-09-30T05:23:41.000Z</time>
                <name>Position 52</name>
            </trkpt>
            <trkpt lat="47.4498118" lon="10.9838123">
                <ele>1066.1</ele>
                <time>2016-09-30T05:24:09.000Z</time>
                <name>Position 53</name>
            </trkpt>
            <trkpt lat="47.4496473" lon="10.9836883">
                <ele>1070.9</ele>
                <time>2016-09-30T05:24:36.000Z</time>
                <name>Position 54</name>
            </trkpt>
            <trkpt lat="47.4494759" lon="10.9836016">
                <ele>1071.9</ele>
                <time>2016-09-30T05:25:01.000Z</time>
                <name>Position 55</name>
            </trkpt>
            <trkpt lat="47.4493058" lon="10.9834937">
                <ele>1080.8</ele>
                <time>2016-09-30T05:25:29.000Z</time>
                <name>Position 56</name>
            </trkpt>
            <trkpt lat="47.4491756" lon="10.9833052">
                <ele>1084.9</ele>
                <time>2016-09-30T05:25:58.000Z</time>
                <name>Position 57</name>
            </trkpt>
            <trkpt lat="47.449058" lon="10.9831019">
                <ele>1086.9</ele>
                <time>2016-09-30T05:26:26.000Z</time>
                <name>Position 58</name>
            </trkpt>
            <trkpt lat="47.4489092" lon="10.9829456">
                <ele>1087.9</ele>
                <time>2016-09-30T05:26:59.000Z</time>
                <name>Position 59</name>
            </trkpt>
            <trkpt lat="47.4487604" lon="10.9827911">
                <ele>1092.1</ele>
                <time>2016-09-30T05:27:27.000Z</time>
                <name>Position 60</name>
            </trkpt>
            <trkpt lat="47.4485998" lon="10.9826544">
                <ele>1093.9</ele>
                <time>2016-09-30T05:27:59.000Z</time>
                <name>Position 61</name>
            </trkpt>
            <trkpt lat="47.44844" lon="10.9825274">
                <ele>1096.9</ele>
                <time>2016-09-30T05:28:30.000Z</time>
                <name>Position 62</name>
            </trkpt>
            <trkpt lat="47.4482733" lon="10.9824206">
                <ele>1102.9</ele>
                <time>2016-09-30T05:28:55.000Z</time>
                <name>Position 63</name>
            </trkpt>
            <trkpt lat="47.4480947" lon="10.9823532">
                <ele>1105.9</ele>
                <time>2016-09-30T05:29:21.000Z</time>
                <name>Position 64</name>
            </trkpt>
            <trkpt lat="47.4479174" lon="10.9822978">
                <ele>1108.9</ele>
                <time>2016-09-30T05:29:52.000Z</time>
                <name>Position 65</name>
            </trkpt>
            <trkpt lat="47.447732" lon="10.9822851">
                <ele>1115.9</ele>
                <time>2016-09-30T05:30:29.000Z</time>
                <name>Position 66</name>
            </trkpt>
            <trkpt lat="47.4475596" lon="10.9822084">
                <ele>1122.9</ele>
                <time>2016-09-30T05:30:59.000Z</time>
                <name>Position 67</name>
            </trkpt>
            <trkpt lat="47.447393" lon="10.9821004">
                <ele>1128.8</ele>
                <time>2016-09-30T05:31:33.000Z</time>
                <name>Position 68</name>
            </trkpt>
            <trkpt lat="47.447237" lon="10.9819586">
                <ele>1132.9</ele>
                <time>2016-09-30T05:32:01.000Z</time>
                <name>Position 69</name>
            </trkpt>
            <trkpt lat="47.4470898" lon="10.9818026">
                <ele>1133.9</ele>
                <time>2016-09-30T05:32:31.000Z</time>
                <name>Position 70</name>
            </trkpt>
            <trkpt lat="47.4469245" lon="10.9816782">
                <ele>1140.0</ele>
                <time>2016-09-30T05:33:04.000Z</time>
                <name>Position 71</name>
            </trkpt>
            <trkpt lat="47.4467706" lon="10.9815284">
                <ele>1143.9</ele>
                <time>2016-09-30T05:33:35.000Z</time>
                <name>Position 72</name>
            </trkpt>
            <trkpt lat="47.4466104" lon="10.9813883">
                <ele>1147.0</ele>
                <time>2016-09-30T05:34:06.000Z</time>
                <name>Position 73</name>
            </trkpt>
            <trkpt lat="47.4464516" lon="10.981249">
                <ele>1152.1</ele>
                <time>2016-09-30T05:34:41.000Z</time>
                <name>Position 74</name>
            </trkpt>
            <trkpt lat="47.4462766" lon="10.981162">
                <ele>1158.1</ele>
                <time>2016-09-30T05:35:13.000Z</time>
                <name>Position 75</name>
            </trkpt>
            <trkpt lat="47.4461167" lon="10.9810355">
                <ele>1162.9</ele>
                <time>2016-09-30T05:35:51.000Z</time>
                <name>Position 76</name>
            </trkpt>
            <trkpt lat="47.4459484" lon="10.9809347">
                <ele>1173.9</ele>
                <time>2016-09-30T05:36:34.000Z</time>
                <name>Position 77</name>
            </trkpt>
            <trkpt lat="47.4457793" lon="10.9808385">
                <ele>1182.9</ele>
                <time>2016-09-30T05:37:12.000Z</time>
                <name>Position 78</name>
            </trkpt>
            <trkpt lat="47.4456139" lon="10.9807224">
                <ele>1185.0</ele>
                <time>2016-09-30T05:38:00.000Z</time>
                <name>Position 79</name>
            </trkpt>
            <trkpt lat="47.4454479" lon="10.9806127">
                <ele>1190.9</ele>
                <time>2016-09-30T05:38:42.000Z</time>
                <name>Position 80</name>
            </trkpt>
            <trkpt lat="47.445271" lon="10.9805432">
                <ele>1194.9</ele>
                <time>2016-09-30T05:39:28.000Z</time>
                <name>Position 81</name>
            </trkpt>
            <trkpt lat="47.4450928" lon="10.9804747">
                <ele>1206.0</ele>
                <time>2016-09-30T05:40:28.000Z</time>
                <name>Position 82</name>
            </trkpt>
            <trkpt lat="47.444913" lon="10.9805241">
                <ele>1212.9</ele>
                <time>2016-09-30T05:41:19.000Z</time>
                <name>Position 83</name>
            </trkpt>
            <trkpt lat="47.4447328" lon="10.9804824">
                <ele>1214.9</ele>
                <time>2016-09-30T05:42:11.000Z</time>
                <name>Position 84</name>
            </trkpt>
            <trkpt lat="47.4446063" lon="10.9806793">
                <ele>1231.9</ele>
                <time>2016-09-30T05:43:06.000Z</time>
                <name>Position 85</name>
            </trkpt>
            <trkpt lat="47.4444292" lon="10.9806207">
                <ele>1236.7</ele>
                <time>2016-09-30T05:44:03.000Z</time>
                <name>Position 86</name>
            </trkpt>
            <trkpt lat="47.4442477" lon="10.9806343">
                <ele>1244.9</ele>
                <time>2016-09-30T05:45:04.000Z</time>
                <name>Position 87</name>
            </trkpt>
            <trkpt lat="47.444067" lon="10.9806537">
                <ele>1249.7</ele>
                <time>2016-09-30T05:45:52.000Z</time>
                <name>Position 88</name>
            </trkpt>
            <trkpt lat="47.4438936" lon="10.9805438">
                <ele>1253.8</ele>
                <time>2016-09-30T05:46:26.000Z</time>
                <name>Position 89</name>
            </trkpt>
            <trkpt lat="47.4440185" lon="10.9803504">
                <ele>1260.9</ele>
                <time>2016-09-30T05:48:00.000Z</time>
                <name>Position 90</name>
            </trkpt>
            <trkpt lat="47.443856" lon="10.9802283">
                <ele>1263.7</ele>
                <time>2016-09-30T05:48:43.000Z</time>
                <name>Position 91</name>
            </trkpt>
            <trkpt lat="47.4437833" lon="10.9799848">
                <ele>1264.9</ele>
                <time>2016-09-30T05:49:17.000Z</time>
                <name>Position 92</name>
            </trkpt>
            <trkpt lat="47.44371" lon="10.9797392">
                <ele>1269.7</ele>
                <time>2016-09-30T05:49:57.000Z</time>
                <name>Position 93</name>
            </trkpt>
            <trkpt lat="47.4435938" lon="10.9795354">
                <ele>1274.9</ele>
                <time>2016-09-30T05:50:31.000Z</time>
                <name>Position 94</name>
            </trkpt>
            <trkpt lat="47.4434188" lon="10.9796008">
                <ele>1286.0</ele>
                <time>2016-09-30T05:51:37.000Z</time>
                <name>Position 95</name>
            </trkpt>
            <trkpt lat="47.4432844" lon="10.9794128">
                <ele>1289.9</ele>
                <time>2016-09-30T05:52:24.000Z</time>
                <name>Position 96</name>
            </trkpt>
            <trkpt lat="47.4431589" lon="10.9792172">
                <ele>1291.9</ele>
                <time>2016-09-30T05:52:55.000Z</time>
                <name>Position 97</name>
            </trkpt>
            <trkpt lat="47.4430151" lon="10.9793833">
                <ele>1301.0</ele>
                <time>2016-09-30T05:53:52.000Z</time>
                <name>Position 98</name>
            </trkpt>
            <trkpt lat="47.4428583" lon="10.979244">
                <ele>1307.0</ele>
                <time>2016-09-30T05:54:38.000Z</time>
                <name>Position 99</name>
            </trkpt>
            <trkpt lat="47.4426864" lon="10.9791332">
                <ele>1312.1</ele>
                <time>2016-09-30T05:55:16.000Z</time>
                <name>Position 100</name>
            </trkpt>
            <trkpt lat="47.4425182" lon="10.9790359">
                <ele>1308.2</ele>
                <time>2016-09-30T05:55:48.000Z</time>
                <name>Position 101</name>
            </trkpt>
            <trkpt lat="47.442354" lon="10.9789208">
                <ele>1314.9</ele>
                <time>2016-09-30T05:56:19.000Z</time>
                <name>Position 102</name>
            </trkpt>
            <trkpt lat="47.4422023" lon="10.9787726">
                <ele>1319.2</ele>
                <time>2016-09-30T05:56:49.000Z</time>
                <name>Position 103</name>
            </trkpt>
            <trkpt lat="47.4420233" lon="10.9787161">
                <ele>1317.9</ele>
                <time>2016-09-30T05:57:13.000Z</time>
                <name>Position 104</name>
            </trkpt>
            <trkpt lat="47.4418527" lon="10.9786181">
                <ele>1327.2</ele>
                <time>2016-09-30T05:57:52.000Z</time>
                <name>Position 105</name>
            </trkpt>
            <trkpt lat="47.4416605" lon="10.9785466">
                <ele>1335.3</ele>
                <time>2016-09-30T06:02:27.000Z</time>
                <name>Position 106</name>
            </trkpt>
            <trkpt lat="47.441585" lon="10.9787891">
                <ele>1340.9</ele>
                <time>2016-09-30T06:03:02.000Z</time>
                <name>Position 107</name>
            </trkpt>
            <trkpt lat="47.4416004" lon="10.9790608">
                <ele>1342.8</ele>
                <time>2016-09-30T06:03:30.000Z</time>
                <name>Position 108</name>
            </trkpt>
            <trkpt lat="47.4415333" lon="10.9793077">
                <ele>1348.9</ele>
                <time>2016-09-30T06:04:12.000Z</time>
                <name>Position 109</name>
            </trkpt>
            <trkpt lat="47.4413508" lon="10.9792667">
                <ele>1347.7</ele>
                <time>2016-09-30T06:04:34.000Z</time>
                <name>Position 110</name>
            </trkpt>
            <trkpt lat="47.4412009" lon="10.9791028">
                <ele>1350.9</ele>
                <time>2016-09-30T06:05:06.000Z</time>
                <name>Position 111</name>
            </trkpt>
            <trkpt lat="47.4410747" lon="10.9789093">
                <ele>1353.9</ele>
                <time>2016-09-30T06:05:32.000Z</time>
                <name>Position 112</name>
            </trkpt>
            <trkpt lat="47.4408964" lon="10.978817">
                <ele>1351.9</ele>
                <time>2016-09-30T06:05:55.000Z</time>
                <name>Position 113</name>
            </trkpt>
            <trkpt lat="47.440723" lon="10.9789063">
                <ele>1353.7</ele>
                <time>2016-09-30T06:06:21.000Z</time>
                <name>Position 114</name>
            </trkpt>
            <trkpt lat="47.4405731" lon="10.9790658">
                <ele>1362.1</ele>
                <time>2016-09-30T06:06:47.000Z</time>
                <name>Position 115</name>
            </trkpt>
            <trkpt lat="47.4404715" lon="10.9792948">
                <ele>1367.9</ele>
                <time>2016-09-30T06:07:23.000Z</time>
                <name>Position 116</name>
            </trkpt>
            <trkpt lat="47.4403803" lon="10.9795339">
                <ele>1369.9</ele>
                <time>2016-09-30T06:07:53.000Z</time>
                <name>Position 117</name>
            </trkpt>
            <trkpt lat="47.4402622" lon="10.9797358">
                <ele>1374.0</ele>
                <time>2016-09-30T06:08:33.000Z</time>
                <name>Position 118</name>
            </trkpt>
            <trkpt lat="47.4401316" lon="10.979922">
                <ele>1374.9</ele>
                <time>2016-09-30T06:09:18.000Z</time>
                <name>Position 119</name>
            </trkpt>
            <trkpt lat="47.4399768" lon="10.9800732">
                <ele>1384.9</ele>
                <time>2016-09-30T06:10:10.000Z</time>
                <name>Position 120</name>
            </trkpt>
            <trkpt lat="47.4398224" lon="10.9802105">
                <ele>1388.9</ele>
                <time>2016-09-30T06:10:48.000Z</time>
                <name>Position 121</name>
            </trkpt>
            <trkpt lat="47.4396479" lon="10.9802948">
                <ele>1393.9</ele>
                <time>2016-09-30T06:11:28.000Z</time>
                <name>Position 122</name>
            </trkpt>
            <trkpt lat="47.4394675" lon="10.9803674">
                <ele>1397.9</ele>
                <time>2016-09-30T06:11:58.000Z</time>
                <name>Position 123</name>
            </trkpt>
            <trkpt lat="47.4392838" lon="10.9803784">
                <ele>1404.7</ele>
                <time>2016-09-30T06:12:30.000Z</time>
                <name>Position 124</name>
            </trkpt>
            <trkpt lat="47.4391057" lon="10.9804277">
                <ele>1411.9</ele>
                <time>2016-09-30T06:13:06.000Z</time>
                <name>Position 125</name>
            </trkpt>
            <trkpt lat="47.43893" lon="10.9803563">
                <ele>1416.9</ele>
                <time>2016-09-30T06:13:46.000Z</time>
                <name>Position 126</name>
            </trkpt>
            <trkpt lat="47.4387508" lon="10.9803324">
                <ele>1420.9</ele>
                <time>2016-09-30T06:14:25.000Z</time>
                <name>Position 127</name>
            </trkpt>
            <trkpt lat="47.4385718" lon="10.9803709">
                <ele>1424.7</ele>
                <time>2016-09-30T06:15:03.000Z</time>
                <name>Position 128</name>
            </trkpt>
            <trkpt lat="47.4383885" lon="10.9803579">
                <ele>1429.9</ele>
                <time>2016-09-30T06:15:38.000Z</time>
                <name>Position 129</name>
            </trkpt>
            <trkpt lat="47.4382077" lon="10.9803671">
                <ele>1433.9</ele>
                <time>2016-09-30T06:16:16.000Z</time>
                <name>Position 130</name>
            </trkpt>
            <trkpt lat="47.438029" lon="10.9804255">
                <ele>1440.9</ele>
                <time>2016-09-30T06:16:52.000Z</time>
                <name>Position 131</name>
            </trkpt>
            <trkpt lat="47.4378451" lon="10.9804397">
                <ele>1444.9</ele>
                <time>2016-09-30T06:17:28.000Z</time>
                <name>Position 132</name>
            </trkpt>
            <trkpt lat="47.4376636" lon="10.9804833">
                <ele>1449.9</ele>
                <time>2016-09-30T06:18:07.000Z</time>
                <name>Position 133</name>
            </trkpt>
            <trkpt lat="47.4375028" lon="10.9803529">
                <ele>1456.9</ele>
                <time>2016-09-30T06:18:47.000Z</time>
                <name>Position 134</name>
            </trkpt>
            <trkpt lat="47.4373502" lon="10.9802091">
                <ele>1462.9</ele>
                <time>2016-09-30T06:19:26.000Z</time>
                <name>Position 135</name>
            </trkpt>
            <trkpt lat="47.437192" lon="10.9800728">
                <ele>1466.9</ele>
                <time>2016-09-30T06:19:56.000Z</time>
                <name>Position 136</name>
            </trkpt>
            <trkpt lat="47.4370391" lon="10.9799257">
                <ele>1468.9</ele>
                <time>2016-09-30T06:20:27.000Z</time>
                <name>Position 137</name>
            </trkpt>
            <trkpt lat="47.4368706" lon="10.9798227">
                <ele>1470.9</ele>
                <time>2016-09-30T06:20:51.000Z</time>
                <name>Position 138</name>
            </trkpt>
            <trkpt lat="47.4366897" lon="10.9797658">
                <ele>1470.9</ele>
                <time>2016-09-30T06:21:16.000Z</time>
                <name>Position 139</name>
            </trkpt>
            <trkpt lat="47.4365078" lon="10.9797139">
                <ele>1471.9</ele>
                <time>2016-09-30T06:21:38.000Z</time>
                <name>Position 140</name>
            </trkpt>
            <trkpt lat="47.4363469" lon="10.9795945">
                <ele>1476.7</ele>
                <time>2016-09-30T06:21:59.000Z</time>
                <name>Position 141</name>
            </trkpt>
            <trkpt lat="47.4362261" lon="10.9793944">
                <ele>1479.9</ele>
                <time>2016-09-30T06:22:22.000Z</time>
                <name>Position 142</name>
            </trkpt>
            <trkpt lat="47.4360805" lon="10.9792228">
                <ele>1484.9</ele>
                <time>2016-09-30T06:22:47.000Z</time>
                <name>Position 143</name>
            </trkpt>
            <trkpt lat="47.4359146" lon="10.9791082">
                <ele>1487.9</ele>
                <time>2016-09-30T06:23:08.000Z</time>
                <name>Position 144</name>
            </trkpt>
            <trkpt lat="47.4357349" lon="10.9790608">
                <ele>1490.9</ele>
                <time>2016-09-30T06:24:50.000Z</time>
                <name>Position 145</name>
            </trkpt>
            <trkpt lat="47.435547" lon="10.9790413">
                <ele>1491.9</ele>
                <time>2016-09-30T06:25:07.000Z</time>
                <name>Position 146</name>
            </trkpt>
            <trkpt lat="47.4353625" lon="10.9790308">
                <ele>1492.9</ele>
                <time>2016-09-30T06:25:24.000Z</time>
                <name>Position 147</name>
            </trkpt>
            <trkpt lat="47.4351843" lon="10.9789823">
                <ele>1500.7</ele>
                <time>2016-09-30T06:25:46.000Z</time>
                <name>Position 148</name>
            </trkpt>
            <trkpt lat="47.4350129" lon="10.9788971">
                <ele>1504.1</ele>
                <time>2016-09-30T06:26:13.000Z</time>
                <name>Position 149</name>
            </trkpt>
            <trkpt lat="47.4348496" lon="10.9787762">
                <ele>1507.9</ele>
                <time>2016-09-30T06:26:50.000Z</time>
                <name>Position 150</name>
            </trkpt>
            <trkpt lat="47.4346687" lon="10.9787343">
                <ele>1512.1</ele>
                <time>2016-09-30T06:27:16.000Z</time>
                <name>Position 151</name>
            </trkpt>
            <trkpt lat="47.4344976" lon="10.978649">
                <ele>1510.9</ele>
                <time>2016-09-30T06:27:38.000Z</time>
                <name>Position 152</name>
            </trkpt>
            <trkpt lat="47.4343324" lon="10.9785162">
                <ele>1511.9</ele>
                <time>2016-09-30T06:27:59.000Z</time>
                <name>Position 153</name>
            </trkpt>
            <trkpt lat="47.4341834" lon="10.9783641">
                <ele>1518.0</ele>
                <time>2016-09-30T06:28:23.000Z</time>
                <name>Position 154</name>
            </trkpt>
            <trkpt lat="47.4340029" lon="10.9784352">
                <ele>1517.9</ele>
                <time>2016-09-30T06:28:51.000Z</time>
                <name>Position 155</name>
            </trkpt>
            <trkpt lat="47.4338339" lon="10.9785319">
                <ele>1520.1</ele>
                <time>2016-09-30T06:29:18.000Z</time>
                <name>Position 156</name>
            </trkpt>
            <trkpt lat="47.4336927" lon="10.9787064">
                <ele>1520.2</ele>
                <time>2016-09-30T06:29:43.000Z</time>
                <name>Position 157</name>
            </trkpt>
            <trkpt lat="47.4335514" lon="10.9788789">
                <ele>1523.9</ele>
                <time>2016-09-30T06:30:08.000Z</time>
                <name>Position 158</name>
            </trkpt>
            <trkpt lat="47.4334332" lon="10.9790829">
                <ele>1529.0</ele>
                <time>2016-09-30T06:30:33.000Z</time>
                <name>Position 159</name>
            </trkpt>
            <trkpt lat="47.4333036" lon="10.9792686">
                <ele>1536.7</ele>
                <time>2016-09-30T06:31:00.000Z</time>
                <name>Position 160</name>
            </trkpt>
            <trkpt lat="47.4332711" lon="10.9795389">
                <ele>1544.7</ele>
                <time>2016-09-30T06:31:31.000Z</time>
                <name>Position 161</name>
            </trkpt>
            <trkpt lat="47.4332585" lon="10.9798051">
                <ele>1546.7</ele>
                <time>2016-09-30T06:31:55.000Z</time>
                <name>Position 162</name>
            </trkpt>
            <trkpt lat="47.4331834" lon="10.9800481">
                <ele>1544.0</ele>
                <time>2016-09-30T06:32:21.000Z</time>
                <name>Position 163</name>
            </trkpt>
            <trkpt lat="47.4331128" lon="10.9802976">
                <ele>1543.0</ele>
                <time>2016-09-30T06:32:48.000Z</time>
                <name>Position 164</name>
            </trkpt>
            <trkpt lat="47.4330352" lon="10.9805444">
                <ele>1548.9</ele>
                <time>2016-09-30T06:33:18.000Z</time>
                <name>Position 165</name>
            </trkpt>
            <trkpt lat="47.4331226" lon="10.980781">
                <ele>1547.9</ele>
                <time>2016-09-30T06:33:43.000Z</time>
                <name>Position 166</name>
            </trkpt>
            <trkpt lat="47.4331743" lon="10.9810364">
                <ele>1552.1</ele>
                <time>2016-09-30T06:34:10.000Z</time>
                <name>Position 167</name>
            </trkpt>
            <trkpt lat="47.4333499" lon="10.9810996">
                <ele>1553.1</ele>
                <time>2016-09-30T06:34:34.000Z</time>
                <name>Position 168</name>
            </trkpt>
            <trkpt lat="47.4333951" lon="10.9813571">
                <ele>1562.9</ele>
                <time>2016-09-30T06:35:09.000Z</time>
                <name>Position 169</name>
            </trkpt>
            <trkpt lat="47.4333128" lon="10.9815968">
                <ele>1570.0</ele>
                <time>2016-09-30T06:35:33.000Z</time>
                <name>Position 170</name>
            </trkpt>
            <trkpt lat="47.4333659" lon="10.981854">
                <ele>1572.8</ele>
                <time>2016-09-30T06:36:03.000Z</time>
                <name>Position 171</name>
            </trkpt>
            <trkpt lat="47.4334175" lon="10.9821129">
                <ele>1575.9</ele>
                <time>2016-09-30T06:36:33.000Z</time>
                <name>Position 172</name>
            </trkpt>
            <trkpt lat="47.4333026" lon="10.9823289">
                <ele>1582.9</ele>
                <time>2016-09-30T06:37:03.000Z</time>
                <name>Position 173</name>
            </trkpt>
            <trkpt lat="47.4333045" lon="10.9825965">
                <ele>1586.9</ele>
                <time>2016-09-30T06:37:30.000Z</time>
                <name>Position 174</name>
            </trkpt>
            <trkpt lat="47.4332749" lon="10.9828644">
                <ele>1590.9</ele>
                <time>2016-09-30T06:37:54.000Z</time>
                <name>Position 175</name>
            </trkpt>
            <trkpt lat="47.4331625" lon="10.9830857">
                <ele>1591.9</ele>
                <time>2016-09-30T06:38:20.000Z</time>
                <name>Position 176</name>
            </trkpt>
            <trkpt lat="47.4333139" lon="10.9832493">
                <ele>1590.9</ele>
                <time>2016-09-30T06:38:45.000Z</time>
                <name>Position 177</name>
            </trkpt>
            <trkpt lat="47.4334987" lon="10.9832881">
                <ele>1591.7</ele>
                <time>2016-09-30T06:39:06.000Z</time>
                <name>Position 178</name>
            </trkpt>
            <trkpt lat="47.4336036" lon="10.9835115">
                <ele>1595.7</ele>
                <time>2016-09-30T06:39:28.000Z</time>
                <name>Position 179</name>
            </trkpt>
            <trkpt lat="47.4336337" lon="10.9837796">
                <ele>1600.9</ele>
                <time>2016-09-30T06:39:51.000Z</time>
                <name>Position 180</name>
            </trkpt>
            <trkpt lat="47.4336471" lon="10.9840523">
                <ele>1603.9</ele>
                <time>2016-09-30T06:40:12.000Z</time>
                <name>Position 181</name>
            </trkpt>
            <trkpt lat="47.4336998" lon="10.9843151">
                <ele>1605.9</ele>
                <time>2016-09-30T06:40:35.000Z</time>
                <name>Position 182</name>
            </trkpt>
            <trkpt lat="47.4337712" lon="10.9845598">
                <ele>1605.0</ele>
                <time>2016-09-30T06:40:55.000Z</time>
                <name>Position 183</name>
            </trkpt>
            <trkpt lat="47.4338812" lon="10.9847718">
                <ele>1606.7</ele>
                <time>2016-09-30T06:41:13.000Z</time>
                <name>Position 184</name>
            </trkpt>
            <trkpt lat="47.434" lon="10.9849794">
                <ele>1607.0</ele>
                <time>2016-09-30T06:41:32.000Z</time>
                <name>Position 185</name>
            </trkpt>
            <trkpt lat="47.434128" lon="10.9851717">
                <ele>1610.9</ele>
                <time>2016-09-30T06:41:53.000Z</time>
                <name>Position 186</name>
            </trkpt>
            <trkpt lat="47.4342658" lon="10.9853428">
                <ele>1613.7</ele>
                <time>2016-09-30T06:42:13.000Z</time>
                <name>Position 187</name>
            </trkpt>
            <trkpt lat="47.4343906" lon="10.9855501">
                <ele>1615.1</ele>
                <time>2016-09-30T06:42:34.000Z</time>
                <name>Position 188</name>
            </trkpt>
            <trkpt lat="47.4344984" lon="10.9857671">
                <ele>1611.9</ele>
                <time>2016-09-30T06:42:54.000Z</time>
                <name>Position 189</name>
            </trkpt>
            <trkpt lat="47.4346197" lon="10.9859703">
                <ele>1615.9</ele>
                <time>2016-09-30T06:43:19.000Z</time>
                <name>Position 190</name>
            </trkpt>
            <trkpt lat="47.4347382" lon="10.9861855">
                <ele>1613.7</ele>
                <time>2016-09-30T06:43:42.000Z</time>
                <name>Position 191</name>
            </trkpt>
            <trkpt lat="47.4348669" lon="10.9863815">
                <ele>1615.7</ele>
                <time>2016-09-30T06:44:04.000Z</time>
                <name>Position 192</name>
            </trkpt>
            <trkpt lat="47.4346897" lon="10.986431">
                <ele>1623.9</ele>
                <time>2016-09-30T06:46:28.000Z</time>
                <name>Position 193</name>
            </trkpt>
            <trkpt lat="47.43451" lon="10.986378">
                <ele>1629.7</ele>
                <time>2016-09-30T06:46:56.000Z</time>
                <name>Position 194</name>
            </trkpt>
            <trkpt lat="47.4343342" lon="10.9862866">
                <ele>1635.9</ele>
                <time>2016-09-30T06:47:24.000Z</time>
                <name>Position 195</name>
            </trkpt>
            <trkpt lat="47.434318" lon="10.9865522">
                <ele>1643.0</ele>
                <time>2016-09-30T06:50:02.000Z</time>
                <name>Position 196</name>
            </trkpt>
            <trkpt lat="47.4344015" lon="10.9867886">
                <ele>1644.9</ele>
                <time>2016-09-30T06:50:26.000Z</time>
                <name>Position 197</name>
            </trkpt>
            <trkpt lat="47.4344627" lon="10.9870449">
                <ele>1653.1</ele>
                <time>2016-09-30T06:51:19.000Z</time>
                <name>Position 198</name>
            </trkpt>
            <trkpt lat="47.4346099" lon="10.987221">
                <ele>1657.1</ele>
                <time>2016-09-30T06:51:40.000Z</time>
                <name>Position 199</name>
            </trkpt>
            <trkpt lat="47.4347439" lon="10.9874086">
                <ele>1658.1</ele>
                <time>2016-09-30T06:51:59.000Z</time>
                <name>Position 200</name>
            </trkpt>
            <trkpt lat="47.434739" lon="10.9876791">
                <ele>1661.9</ele>
                <time>2016-09-30T06:52:27.000Z</time>
                <name>Position 201</name>
            </trkpt>
            <trkpt lat="47.4346455" lon="10.9879142">
                <ele>1666.7</ele>
                <time>2016-09-30T06:53:03.000Z</time>
                <name>Position 202</name>
            </trkpt>
            <trkpt lat="47.4347259" lon="10.9881586">
                <ele>1668.9</ele>
                <time>2016-09-30T06:53:32.000Z</time>
                <name>Position 203</name>
            </trkpt>
            <trkpt lat="47.4347339" lon="10.9884247">
                <ele>1674.9</ele>
                <time>2016-09-30T06:54:07.000Z</time>
                <name>Position 204</name>
            </trkpt>
            <trkpt lat="47.4345597" lon="10.9883429">
                <ele>1678.9</ele>
                <time>2016-09-30T06:54:46.000Z</time>
                <name>Position 205</name>
            </trkpt>
            <trkpt lat="47.4344117" lon="10.9884948">
                <ele>1690.9</ele>
                <time>2016-09-30T06:55:57.000Z</time>
                <name>Position 206</name>
            </trkpt>
            <trkpt lat="47.4342707" lon="10.9883209">
                <ele>1693.9</ele>
                <time>2016-09-30T06:56:28.000Z</time>
                <name>Position 207</name>
            </trkpt>
            <trkpt lat="47.4341109" lon="10.9881894">
                <ele>1696.9</ele>
                <time>2016-09-30T06:56:56.000Z</time>
                <name>Position 208</name>
            </trkpt>
            <trkpt lat="47.4339572" lon="10.988048">
                <ele>1702.9</ele>
                <time>2016-09-30T06:57:30.000Z</time>
                <name>Position 209</name>
            </trkpt>
            <trkpt lat="47.4337876" lon="10.987943">
                <ele>1705.9</ele>
                <time>2016-09-30T06:58:06.000Z</time>
                <name>Position 210</name>
            </trkpt>
            <trkpt lat="47.4337464" lon="10.9882051">
                <ele>1714.9</ele>
                <time>2016-09-30T06:59:19.000Z</time>
                <name>Position 211</name>
            </trkpt>
            <trkpt lat="47.4335937" lon="10.9880559">
                <ele>1717.9</ele>
                <time>2016-09-30T06:59:56.000Z</time>
                <name>Position 212</name>
            </trkpt>
            <trkpt lat="47.4334352" lon="10.9879274">
                <ele>1720.7</ele>
                <time>2016-09-30T07:00:27.000Z</time>
                <name>Position 213</name>
            </trkpt>
            <trkpt lat="47.4332678" lon="10.9878207">
                <ele>1718.3</ele>
                <time>2016-09-30T07:00:59.000Z</time>
                <name>Position 214</name>
            </trkpt>
            <trkpt lat="47.4332847" lon="10.9880883">
                <ele>1733.7</ele>
                <time>2016-09-30T07:02:05.000Z</time>
                <name>Position 215</name>
            </trkpt>
            <trkpt lat="47.4333942" lon="10.9883004">
                <ele>1737.7</ele>
                <time>2016-09-30T07:02:28.000Z</time>
                <name>Position 216</name>
            </trkpt>
            <trkpt lat="47.4332226" lon="10.9882159">
                <ele>1737.1</ele>
                <time>2016-09-30T07:03:19.000Z</time>
                <name>Position 217</name>
            </trkpt>
            <trkpt lat="47.4331537" lon="10.9884664">
                <ele>1751.8</ele>
                <time>2016-09-30T07:04:34.000Z</time>
                <name>Position 218</name>
            </trkpt>
            <trkpt lat="47.4329769" lon="10.9883917">
                <ele>1755.8</ele>
                <time>2016-09-30T07:05:32.000Z</time>
                <name>Position 219</name>
            </trkpt>
            <trkpt lat="47.4328194" lon="10.9882483">
                <ele>1759.9</ele>
                <time>2016-09-30T07:06:04.000Z</time>
                <name>Position 220</name>
            </trkpt>
            <trkpt lat="47.4326513" lon="10.9881485">
                <ele>1763.9</ele>
                <time>2016-09-30T07:06:35.000Z</time>
                <name>Position 221</name>
            </trkpt>
            <trkpt lat="47.4324765" lon="10.9880841">
                <ele>1767.7</ele>
                <time>2016-09-30T07:07:15.000Z</time>
                <name>Position 222</name>
            </trkpt>
            <trkpt lat="47.4323722" lon="10.9883028">
                <ele>1777.7</ele>
                <time>2016-09-30T07:08:33.000Z</time>
                <name>Position 223</name>
            </trkpt>
            <trkpt lat="47.4321903" lon="10.9882538">
                <ele>1788.9</ele>
                <time>2016-09-30T07:09:36.000Z</time>
                <name>Position 224</name>
            </trkpt>
            <trkpt lat="47.4320129" lon="10.988198">
                <ele>1793.9</ele>
                <time>2016-09-30T07:10:06.000Z</time>
                <name>Position 225</name>
            </trkpt>
            <trkpt lat="47.432071" lon="10.9884511">
                <ele>1798.9</ele>
                <time>2016-09-30T07:14:49.000Z</time>
                <name>Position 226</name>
            </trkpt>
            <trkpt lat="47.4322418" lon="10.9890589">
                <ele>1798.1</ele>
                <time>2016-09-30T07:16:43.656Z</time>
                <name>Position 227</name>
            </trkpt>
            <trkpt lat="47.4323788" lon="10.9897452">
                <ele>1810.5</ele>
                <time>2016-09-30T07:18:02.042Z</time>
                <name>Position 228</name>
            </trkpt>
            <trkpt lat="47.4322097" lon="10.9901048">
                <ele>1827.3</ele>
                <time>2016-09-30T07:18:44.566Z</time>
                <name>Position 229</name>
            </trkpt>
            <trkpt lat="47.4322686" lon="10.9905734">
                <ele>1856.9</ele>
                <time>2016-09-30T08:12:02.000Z</time>
                <name>Position 230</name>
            </trkpt>
            <trkpt lat="47.4320884" lon="10.9905874">
                <ele>1877.0</ele>
                <time>2016-09-30T08:18:31.000Z</time>
                <name>Position 231</name>
            </trkpt>
            <trkpt lat="47.4320001" lon="10.9908197">
                <ele>1883.9</ele>
                <time>2016-09-30T08:19:31.000Z</time>
                <name>Position 232</name>
            </trkpt>
            <trkpt lat="47.4320362" lon="10.9911097">
                <ele>1890.2</ele>
                <time>2016-09-30T08:24:02.000Z</time>
                <name>Position 233</name>
            </trkpt>
            <trkpt lat="47.4321351" lon="10.9913436">
                <ele>1898.1</ele>
                <time>2016-09-30T08:24:50.000Z</time>
                <name>Position 234</name>
            </trkpt>
            <trkpt lat="47.4319614" lon="10.9912695">
                <ele>1903.9</ele>
                <time>2016-09-30T08:26:59.000Z</time>
                <name>Position 235</name>
            </trkpt>
            <trkpt lat="47.4318492" lon="10.9910545">
                <ele>1910.9</ele>
                <time>2016-09-30T08:27:35.000Z</time>
                <name>Position 236</name>
            </trkpt>
            <trkpt lat="47.4318058" lon="10.9907959">
                <ele>1912.7</ele>
                <time>2016-09-30T08:28:59.000Z</time>
                <name>Position 237</name>
            </trkpt>
            <trkpt lat="47.4317232" lon="10.990557">
                <ele>1916.9</ele>
                <time>2016-09-30T08:31:42.000Z</time>
                <name>Position 238</name>
            </trkpt>
            <trkpt lat="47.4315656" lon="10.9904066">
                <ele>1916.1</ele>
                <time>2016-09-30T08:35:28.000Z</time>
                <name>Position 239</name>
            </trkpt>
            <trkpt lat="47.4313805" lon="10.9904025">
                <ele>1919.9</ele>
                <time>2016-09-30T08:35:52.000Z</time>
                <name>Position 240</name>
            </trkpt>
            <trkpt lat="47.4312155" lon="10.9902911">
                <ele>1922.1</ele>
                <time>2016-09-30T08:36:37.000Z</time>
                <name>Position 241</name>
            </trkpt>
            <trkpt lat="47.4310964" lon="10.9900843">
                <ele>1928.8</ele>
                <time>2016-09-30T08:37:20.000Z</time>
                <name>Position 242</name>
            </trkpt>
            <trkpt lat="47.4309149" lon="10.9900949">
                <ele>1930.9</ele>
                <time>2016-09-30T08:38:28.000Z</time>
                <name>Position 243</name>
            </trkpt>
            <trkpt lat="47.4307385" lon="10.990164">
                <ele>1935.8</ele>
                <time>2016-09-30T08:39:26.000Z</time>
                <name>Position 244</name>
            </trkpt>
            <trkpt lat="47.4305943" lon="10.9900005">
                <ele>1940.9</ele>
                <time>2016-09-30T08:40:05.000Z</time>
                <name>Position 245</name>
            </trkpt>
            <trkpt lat="47.4304848" lon="10.9897893">
                <ele>1940.1</ele>
                <time>2016-09-30T08:41:11.000Z</time>
                <name>Position 246</name>
            </trkpt>
            <trkpt lat="47.4303347" lon="10.9896346">
                <ele>1948.7</ele>
                <time>2016-09-30T08:42:07.000Z</time>
                <name>Position 247</name>
            </trkpt>
            <trkpt lat="47.4301733" lon="10.9895076">
                <ele>1947.9</ele>
                <time>2016-09-30T08:42:33.000Z</time>
                <name>Position 248</name>
            </trkpt>
            <trkpt lat="47.4301962" lon="10.989239">
                <ele>1954.7</ele>
                <time>2016-09-30T08:44:07.000Z</time>
                <name>Position 249</name>
            </trkpt>
            <trkpt lat="47.4301441" lon="10.9889797">
                <ele>1960.9</ele>
                <time>2016-09-30T08:46:29.000Z</time>
                <name>Position 250</name>
            </trkpt>
            <trkpt lat="47.4300794" lon="10.9887292">
                <ele>1967.7</ele>
                <time>2016-09-30T08:47:16.000Z</time>
                <name>Position 251</name>
            </trkpt>
            <trkpt lat="47.4299946" lon="10.9884912">
                <ele>1979.9</ele>
                <time>2016-09-30T08:48:08.000Z</time>
                <name>Position 252</name>
            </trkpt>
            <trkpt lat="47.4298828" lon="10.9882817">
                <ele>1986.9</ele>
                <time>2016-09-30T08:49:18.000Z</time>
                <name>Position 253</name>
            </trkpt>
            <trkpt lat="47.429773" lon="10.9880702">
                <ele>1997.9</ele>
                <time>2016-09-30T08:50:14.000Z</time>
                <name>Position 254</name>
            </trkpt>
            <trkpt lat="47.4296888" lon="10.9878313">
                <ele>1998.0</ele>
                <time>2016-09-30T08:51:23.000Z</time>
                <name>Position 255</name>
            </trkpt>
            <trkpt lat="47.4297895" lon="10.9876088">
                <ele>2008.6</ele>
                <time>2016-09-30T08:52:18.000Z</time>
                <name>Position 256</name>
            </trkpt>
            <trkpt lat="47.4298606" lon="10.9873639">
                <ele>2014.7</ele>
                <time>2016-09-30T08:57:42.000Z</time>
                <name>Position 257</name>
            </trkpt>
            <trkpt lat="47.4296891" lon="10.9872658">
                <ele>2014.9</ele>
                <time>2016-09-30T09:03:14.000Z</time>
                <name>Position 258</name>
            </trkpt>
            <trkpt lat="47.4295218" lon="10.987164">
                <ele>2024.9</ele>
                <time>2016-09-30T09:04:21.000Z</time>
                <name>Position 259</name>
            </trkpt>
            <trkpt lat="47.4293465" lon="10.9870894">
                <ele>2025.0</ele>
                <time>2016-09-30T09:05:55.000Z</time>
                <name>Position 260</name>
            </trkpt>
            <trkpt lat="47.4292268" lon="10.9868906">
                <ele>2029.7</ele>
                <time>2016-09-30T09:06:43.000Z</time>
                <name>Position 261</name>
            </trkpt>
            <trkpt lat="47.4290715" lon="10.9867454">
                <ele>2024.9</ele>
                <time>2016-09-30T09:07:13.000Z</time>
                <name>Position 262</name>
            </trkpt>
            <trkpt lat="47.4289355" lon="10.9865698">
                <ele>2023.8</ele>
                <time>2016-09-30T09:08:26.000Z</time>
                <name>Position 263</name>
            </trkpt>
            <trkpt lat="47.4287707" lon="10.9864611">
                <ele>2032.9</ele>
                <time>2016-09-30T09:09:09.000Z</time>
                <name>Position 264</name>
            </trkpt>
            <trkpt lat="47.428623" lon="10.9866145">
                <ele>2046.9</ele>
                <time>2016-09-30T09:12:11.000Z</time>
                <name>Position 265</name>
            </trkpt>
            <trkpt lat="47.4287706" lon="10.9867709">
                <ele>2051.2</ele>
                <time>2016-09-30T09:13:46.000Z</time>
                <name>Position 266</name>
            </trkpt>
            <trkpt lat="47.4289138" lon="10.9869393">
                <ele>2055.1</ele>
                <time>2016-09-30T09:15:00.000Z</time>
                <name>Position 267</name>
            </trkpt>
            <trkpt lat="47.4290199" lon="10.9871592">
                <ele>2058.9</ele>
                <time>2016-09-30T09:15:50.000Z</time>
                <name>Position 268</name>
            </trkpt>
            <trkpt lat="47.4291206" lon="10.9873809">
                <ele>2079.9</ele>
                <time>2016-09-30T09:19:15.000Z</time>
                <name>Position 269</name>
            </trkpt>
            <trkpt lat="47.4289388" lon="10.9873799">
                <ele>2097.9</ele>
                <time>2016-09-30T09:20:51.000Z</time>
                <name>Position 270</name>
            </trkpt>
            <trkpt lat="47.4289346" lon="10.9876502">
                <ele>2112.0</ele>
                <time>2016-09-30T09:23:28.000Z</time>
                <name>Position 271</name>
            </trkpt>
            <trkpt lat="47.4287789" lon="10.987792">
                <ele>2135.9</ele>
                <time>2016-09-30T09:26:54.000Z</time>
                <name>Position 272</name>
            </trkpt>
            <trkpt lat="47.428862" lon="10.9880297">
                <ele>2137.7</ele>
                <time>2016-09-30T09:28:01.000Z</time>
                <name>Position 273</name>
            </trkpt>
            <trkpt lat="47.4290002" lon="10.9882038">
                <ele>2159.9</ele>
                <time>2016-09-30T09:32:19.000Z</time>
                <name>Position 274</name>
            </trkpt>
            <trkpt lat="47.4289394" lon="10.9884578">
                <ele>2173.7</ele>
                <time>2016-09-30T09:34:19.000Z</time>
                <name>Position 275</name>
            </trkpt>
            <trkpt lat="47.4288178" lon="10.9886567">
                <ele>2202.9</ele>
                <time>2016-09-30T09:38:03.000Z</time>
                <name>Position 276</name>
            </trkpt>
            <trkpt lat="47.4286914" lon="10.988852">
                <ele>2215.7</ele>
                <time>2016-09-30T09:58:22.000Z</time>
                <name>Position 277</name>
            </trkpt>
            <trkpt lat="47.4287546" lon="10.9891064">
                <ele>2223.9</ele>
                <time>2016-09-30T10:01:15.000Z</time>
                <name>Position 278</name>
            </trkpt>
            <trkpt lat="47.4289172" lon="10.9891694">
                <ele>2240.9</ele>
                <time>2016-09-30T10:04:21.000Z</time>
                <name>Position 279</name>
            </trkpt>
            <trkpt lat="47.4287746" lon="10.9893378">
                <ele>2275.1</ele>
                <time>2016-09-30T10:12:35.000Z</time>
                <name>Position 280</name>
            </trkpt>
            <trkpt lat="47.4286753" lon="10.9895597">
                <ele>2308.1</ele>
                <time>2016-09-30T10:19:04.000Z</time>
                <name>Position 281</name>
            </trkpt>
            <trkpt lat="47.4285017" lon="10.9894855">
                <ele>2321.9</ele>
                <time>2016-09-30T10:25:17.000Z</time>
                <name>Position 282</name>
            </trkpt>
            <trkpt lat="47.4284226" lon="10.989725">
                <ele>2344.9</ele>
                <time>2016-09-30T10:33:13.000Z</time>
                <name>Position 283</name>
            </trkpt>
            <trkpt lat="47.4282442" lon="10.9896886">
                <ele>2361.9</ele>
                <time>2016-09-30T10:37:39.000Z</time>
                <name>Position 284</name>
            </trkpt>
            <trkpt lat="47.4281425" lon="10.9894633">
                <ele>2353.9</ele>
                <time>2016-09-30T10:41:01.000Z</time>
                <name>Position 285</name>
            </trkpt>
            <trkpt lat="47.4281221" lon="10.9891883">
                <ele>2364.9</ele>
                <time>2016-09-30T10:42:30.000Z</time>
                <name>Position 286</name>
            </trkpt>
            <trkpt lat="47.4280826" lon="10.9889097">
                <ele>2364.2</ele>
                <time>2016-09-30T10:42:36.000Z</time>
                <name>Position 287</name>
            </trkpt>
            <trkpt lat="47.4279679" lon="10.9890668">
                <ele>2377.0</ele>
                <time>2016-09-30T10:43:25.000Z</time>
                <name>Position 288</name>
            </trkpt>
            <trkpt lat="47.4276266" lon="10.9890155">
                <ele>2354.9</ele>
                <time>2016-09-30T10:44:59.000Z</time>
                <name>Position 289</name>
            </trkpt>
            <trkpt lat="47.4274096" lon="10.9890039">
                <ele>2355.7</ele>
                <time>2016-09-30T10:46:23.000Z</time>
                <name>Position 290</name>
            </trkpt>
            <trkpt lat="47.4274109" lon="10.988728">
                <ele>2356.7</ele>
                <time>2016-09-30T10:46:36.000Z</time>
                <name>Position 291</name>
            </trkpt>
            <trkpt lat="47.4272344" lon="10.9886714">
                <ele>2364.9</ele>
                <time>2016-09-30T10:47:49.000Z</time>
                <name>Position 292</name>
            </trkpt>
            <trkpt lat="47.4270672" lon="10.9885684">
                <ele>2375.9</ele>
                <time>2016-09-30T10:53:30.000Z</time>
                <name>Position 293</name>
            </trkpt>
            <trkpt lat="47.4268864" lon="10.9885851">
                <ele>2377.9</ele>
                <time>2016-09-30T10:56:42.000Z</time>
                <name>Position 294</name>
            </trkpt>
            <trkpt lat="47.4268232" lon="10.9886914">
                <ele>2394.9</ele>
                <time>2016-09-30T11:08:02.000Z</time>
                <name>Position 295</name>
            </trkpt>
            <trkpt lat="47.4266608" lon="10.9885713">
                <ele>2408.9</ele>
                <time>2016-09-30T11:12:36.000Z</time>
                <name>Position 296</name>
            </trkpt>
            <trkpt lat="47.4264822" lon="10.9886254">
                <ele>2417.9</ele>
                <time>2016-09-30T11:24:05.000Z</time>
                <name>Position 297</name>
            </trkpt>
            <trkpt lat="47.426309" lon="10.9887075">
                <ele>2436.9</ele>
                <time>2016-09-30T11:29:50.000Z</time>
                <name>Position 298</name>
            </trkpt>
            <trkpt lat="47.4261878" lon="10.9885077">
                <ele>2440.7</ele>
                <time>2016-09-30T11:32:28.000Z</time>
                <name>Position 299</name>
            </trkpt>
            <trkpt lat="47.4260059" lon="10.988491">
                <ele>2449.9</ele>
                <time>2016-09-30T11:48:06.000Z</time>
                <name>Position 300</name>
            </trkpt>
            <trkpt lat="47.4258274" lon="10.9884442">
                <ele>2472.9</ele>
                <time>2016-09-30T12:08:04.000Z</time>
                <name>Position 301</name>
            </trkpt>
            <trkpt lat="47.4256761" lon="10.9883">
                <ele>2475.9</ele>
                <time>2016-09-30T12:10:58.000Z</time>
                <name>Position 302</name>
            </trkpt>
            <trkpt lat="47.4255089" lon="10.9884011">
                <ele>2469.9</ele>
                <time>2016-09-30T12:13:39.000Z</time>
                <name>Position 303</name>
            </trkpt>
            <trkpt lat="47.4253338" lon="10.9883296">
                <ele>2489.9</ele>
                <time>2016-09-30T12:17:34.000Z</time>
                <name>Position 304</name>
            </trkpt>
            <trkpt lat="47.4252344" lon="10.9885531">
                <ele>2509.1</ele>
                <time>2016-09-30T12:24:14.000Z</time>
                <name>Position 305</name>
            </trkpt>
            <trkpt lat="47.4251022" lon="10.9887386">
                <ele>2513.9</ele>
                <time>2016-09-30T12:30:22.000Z</time>
                <name>Position 306</name>
            </trkpt>
            <trkpt lat="47.4250811" lon="10.9890054">
                <ele>2531.9</ele>
                <time>2016-09-30T12:32:39.000Z</time>
                <name>Position 307</name>
            </trkpt>
            <trkpt lat="47.4249579" lon="10.9892021">
                <ele>2551.8</ele>
                <time>2016-09-30T12:35:49.000Z</time>
                <name>Position 308</name>
            </trkpt>
            <trkpt lat="47.4249276" lon="10.9894681">
                <ele>2571.7</ele>
                <time>2016-09-30T12:47:51.000Z</time>
                <name>Position 309</name>
            </trkpt>
            <trkpt lat="47.4248029" lon="10.9892729">
                <ele>2609.9</ele>
                <time>2016-09-30T13:03:04.000Z</time>
                <name>Position 310</name>
            </trkpt>
            <trkpt lat="47.424625" lon="10.9892298">
                <ele>2609.1</ele>
                <time>2016-09-30T13:04:44.000Z</time>
                <name>Position 311</name>
            </trkpt>
            <trkpt lat="47.4244826" lon="10.9893949">
                <ele>2647.9</ele>
                <time>2016-09-30T13:22:56.000Z</time>
                <name>Position 312</name>
            </trkpt>
            <trkpt lat="47.4243897" lon="10.9896262">
                <ele>2669.9</ele>
                <time>2016-09-30T13:38:17.000Z</time>
                <name>Position 313</name>
            </trkpt>
            <trkpt lat="47.4242208" lon="10.9897187">
                <ele>2653.9</ele>
                <time>2016-09-30T13:47:51.000Z</time>
                <name>Position 314</name>
            </trkpt>
            <trkpt lat="47.4240838" lon="10.9895436">
                <ele>2639.9</ele>
                <time>2016-09-30T13:58:58.000Z</time>
                <name>Position 315</name>
            </trkpt>
            <trkpt lat="47.4239927" lon="10.9893139">
                <ele>2653.9</ele>
                <time>2016-09-30T14:00:11.000Z</time>
                <name>Position 316</name>
            </trkpt>
            <trkpt lat="47.4239105" lon="10.9890743">
                <ele>2662.7</ele>
                <time>2016-09-30T14:01:13.000Z</time>
                <name>Position 317</name>
            </trkpt>
            <trkpt lat="47.4237856" lon="10.988882">
                <ele>2672.9</ele>
                <time>2016-09-30T14:02:12.000Z</time>
                <name>Position 318</name>
            </trkpt>
            <trkpt lat="47.4236431" lon="10.9887122">
                <ele>2685.9</ele>
                <time>2016-09-30T14:03:20.000Z</time>
                <name>Position 319</name>
            </trkpt>
            <trkpt lat="47.4235006" lon="10.9885454">
                <ele>2692.9</ele>
                <time>2016-09-30T14:04:13.000Z</time>
                <name>Position 320</name>
            </trkpt>
            <trkpt lat="47.4233594" lon="10.9883763">
                <ele>2707.9</ele>
                <time>2016-09-30T14:05:30.000Z</time>
                <name>Position 321</name>
            </trkpt>
            <trkpt lat="47.4232049" lon="10.9882358">
                <ele>2715.7</ele>
                <time>2016-09-30T14:06:20.000Z</time>
                <name>Position 322</name>
            </trkpt>
            <trkpt lat="47.4230407" lon="10.9881254">
                <ele>2726.7</ele>
                <time>2016-09-30T14:07:11.000Z</time>
                <name>Position 323</name>
            </trkpt>
            <trkpt lat="47.4228706" lon="10.9880304">
                <ele>2743.9</ele>
                <time>2016-09-30T14:08:34.000Z</time>
                <name>Position 324</name>
            </trkpt>
            <trkpt lat="47.4227039" lon="10.9879242">
                <ele>2754.9</ele>
                <time>2016-09-30T14:09:47.000Z</time>
                <name>Position 325</name>
            </trkpt>
            <trkpt lat="47.4225232" lon="10.9879068">
                <ele>2760.1</ele>
                <time>2016-09-30T14:10:42.000Z</time>
                <name>Position 326</name>
            </trkpt>
            <trkpt lat="47.4223774" lon="10.9877468">
                <ele>2783.9</ele>
                <time>2016-09-30T14:12:24.000Z</time>
                <name>Position 327</name>
            </trkpt>
            <trkpt lat="47.4222693" lon="10.9875314">
                <ele>2803.9</ele>
                <time>2016-09-30T14:14:23.000Z</time>
                <name>Position 328</name>
            </trkpt>
            <trkpt lat="47.4221826" lon="10.9872932">
                <ele>2821.9</ele>
                <time>2016-09-30T14:16:02.000Z</time>
                <name>Position 329</name>
            </trkpt>
            <trkpt lat="47.4220056" lon="10.9872388">
                <ele>2839.8</ele>
                <time>2016-09-30T14:18:10.000Z</time>
                <name>Position 330</name>
            </trkpt>
            <trkpt lat="47.4218336" lon="10.987159">
                <ele>2858.9</ele>
                <time>2016-09-30T14:20:08.000Z</time>
                <name>Position 331</name>
            </trkpt>
            <trkpt lat="47.4216535" lon="10.9872013">
                <ele>2871.9</ele>
                <time>2016-09-30T14:21:42.000Z</time>
                <name>Position 332</name>
            </trkpt>
            <trkpt lat="47.4214725" lon="10.9872272">
                <ele>2885.9</ele>
                <time>2016-09-30T14:23:02.000Z</time>
                <name>Position 333</name>
            </trkpt>
            <trkpt lat="47.4212958" lon="10.9871694">
                <ele>2904.7</ele>
                <time>2016-09-30T14:25:02.000Z</time>
                <name>Position 334</name>
            </trkpt>
            <trkpt lat="47.4211158" lon="10.9871176">
                <ele>2919.9</ele>
                <time>2016-09-30T14:26:37.000Z</time>
                <name>Position 335</name>
            </trkpt>
            <trkpt lat="47.4211412" lon="10.9868512">
                <ele>2935.9</ele>
                <time>2016-09-30T14:28:13.000Z</time>
                <name>Position 336</name>
            </trkpt>
            <trkpt lat="47.4212266" lon="10.986616">
                <ele>2943.9</ele>
                <time>2016-09-30T14:28:59.000Z</time>
                <name>Position 337</name>
            </trkpt>
            <trkpt lat="47.421271" lon="10.9863561">
                <ele>2951.9</ele>
                <time>2016-09-30T14:30:03.000Z</time>
                <name>Position 338</name>
            </trkpt>
            <trkpt lat="47.4212344" lon="10.9860918">
                <ele>2945.0</ele>
                <time>2016-09-30T14:31:42.000Z</time>
                <name>Position 339</name>
            </trkpt>
            <trkpt lat="47.4213155" lon="10.9858416">
                <ele>2957.7</ele>
                <time>2016-09-30T14:32:22.000Z</time>
                <name>Position 340</name>
            </trkpt>
            <trkpt lat="47.4211603" lon="10.9857019">
                <ele>2958.9</ele>
                <time>2016-09-30T14:32:52.000Z</time>
                <name>Position 341</name>
            </trkpt>
            <trkpt lat="47.4211754" lon="10.9862763">
                <ele>2962.0</ele>
                <time>2016-09-30T14:44:37.004Z</time>
                <name>Position 342</name>
            </trkpt>
            <trkpt lat="47.4211626" lon="10.9857118">
                <ele>2953.0</ele>
                <time>2016-09-30T14:55:36.814Z</time>
                <name>Position 343</name>
            </trkpt>
            <trkpt lat="47.4208241" lon="10.9858642">
                <ele>2948.1</ele>
                <time>2016-09-30T15:05:46.000Z</time>
                <name>Position 344</name>
            </trkpt>
            <trkpt lat="47.4208015" lon="10.9854791">
                <ele>2934.7</ele>
                <time>2016-09-30T15:06:22.000Z</time>
                <name>Position 345</name>
            </trkpt>
            <trkpt lat="47.4212058" lon="10.9849636">
                <ele>2930.7</ele>
                <time>2016-09-30T15:12:29.000Z</time>
                <name>Position 346</name>
            </trkpt>
            <trkpt lat="47.4212608" lon="10.9850617">
                <ele>2956.0</ele>
                <time>2016-09-30T15:18:14.000Z</time>
                <name>Position 347</name>
            </trkpt>
            <trkpt lat="47.429921" lon="10.987194">
                <ele>2889.1</ele>
                <time>2016-09-30T15:22:24.000Z</time>
                <name>Position 348</name>
            </trkpt>
            <trkpt lat="47.4301132" lon="10.9872384">
                <ele>2874.7</ele>
                <time>2016-09-30T15:22:26.000Z</time>
                <name>Position 349</name>
            </trkpt>
            <trkpt lat="47.4468211" lon="10.990374">
                <ele>2686.3</ele>
                <time>2016-09-30T15:25:45.000Z</time>
                <name>Position 350</name>
            </trkpt>
            <trkpt lat="47.447071" lon="10.9904324">
                <ele>2677.5</ele>
                <time>2016-09-30T15:25:48.000Z</time>
                <name>Position 351</name>
            </trkpt>
            <trkpt lat="47.4560757" lon="10.9919327">
                <ele>989.6</ele>
                <time>2016-09-30T15:27:39.066Z</time>
                <name>Position 352</name>
            </trkpt>
            <trkpt lat="47.4560094" lon="10.9925365">
                <ele>1045.0</ele>
                <time>2016-09-30T15:30:37.000Z</time>
                <name>Position 353</name>
            </trkpt>
            <trkpt lat="47.4558294" lon="10.9924418">
                <ele>1007.8</ele>
                <time>2016-09-30T15:30:47.000Z</time>
                <name>Position 354</name>
            </trkpt>
            <trkpt lat="47.455654" lon="10.992507">
                <ele>1004.1</ele>
                <time>2016-09-30T15:31:03.000Z</time>
                <name>Position 355</name>
            </trkpt>
            <trkpt lat="47.455499" lon="10.9926706">
                <ele>1004.9</ele>
                <time>2016-09-30T15:31:20.000Z</time>
                <name>Position 356</name>
            </trkpt>
            <trkpt lat="47.4554994" lon="10.9929451">
                <ele>1007.9</ele>
                <time>2016-09-30T15:31:41.000Z</time>
                <name>Position 357</name>
            </trkpt>
            <trkpt lat="47.4556248" lon="10.9931387">
                <ele>1009.7</ele>
                <time>2016-09-30T15:32:00.000Z</time>
                <name>Position 358</name>
            </trkpt>
            <trkpt lat="47.4557953" lon="10.9932239">
                <ele>1009.9</ele>
                <time>2016-09-30T15:32:17.000Z</time>
                <name>Position 359</name>
            </trkpt>
        </trkseg>
    </trk>
</gpx>
