<?xml version="1.0" encoding="UTF-8" standalone="yes"?>
<gpx xmlns="http://www.topografix.com/GPX/1/1" xmlns:gpxtrx="http://www.garmin.com/xmlschemas/GpxExtensions/v3" xmlns:rcxx="http://www.routeconverter.de/xmlschemas/RouteCatalogExtensions/1.0" xmlns:xsi="http://www.w3.org/2001/XMLSchema-instance" xmlns:gpxtpx="http://www.garmin.com/xmlschemas/TrackPointExtension/v1" xmlns:gpxx="http://www.garmin.com/xmlschemas/WaypointExtension/v1" xmlns:nmea="http://trekbuddy.net/2009/01/gpx/nmea" version="1.1" creator="Generated by Christian Pesch's RouteConverter. See http://www.routeconverter.com">
    <metadata>
        <name>urnerbosen</name>
        <link href="http://www.oruxmaps.com">
            <text>OruxMaps</text>
        </link>
        <time>2017-07-31T13:02:52Z</time>
        <bounds minlat="46.8888022" minlon="8.8943183" maxlat="46.8959780" maxlon="8.9021791"/>
    </metadata>
    <wpt lat="46.8945106" lon="8.898757">
        <ele>1599.3</ele>
        <time>2017-07-31T13:39:08.000Z</time>
        <name>Einstieg</name>
        <sym>Waypoint</sym>
        <type>Wegpunkt</type>
        <extensions>
            <om:oruxmapsextensions xmlns:om="http://www.oruxmaps.com/oruxmapsextensions/1/0">
                <om:ext subtype="0" type="ICON">1</om:ext>
</om:oruxmapsextensions>
        </extensions>
    </wpt>
    <wpt lat="46.893802" lon="8.8999852">
        <ele>1547.1</ele>
        <time>2017-07-31T14:05:15.000Z</time>
        <name>E -20Hm</name>
        <sym>Waypoint</sym>
        <type>Wegpunkt</type>
        <extensions>
            <om:oruxmapsextensions xmlns:om="http://www.oruxmaps.com/oruxmapsextensions/1/0">
                <om:ext subtype="0" type="ICON">1</om:ext>
</om:oruxmapsextensions>
        </extensions>
    </wpt>
    <trk>
        <name>urnerbosen</name>
        <desc>&lt;p&gt;Startzeit: 07/31/2017 15:02&lt;br/&gt;Zielzeit: 07/31/2017 18:07&lt;br/&gt;Strecke: 5,
4 km (03:04)&lt;br/&gt;Bewegungszeit: 01:17&lt;br/&gt;Ø-Geschwindigkeit: 1,
74 km/h&lt;br/&gt;Netto-Geschwindigkeit: 4,
18 km/h&lt;br/&gt;Max. Geschwindigkeit: 123,
07 km/h&lt;br/&gt;Minimale Höhe: 1360 m&lt;br/&gt;Maximale Höhe: 1800 m&lt;br/&gt;Steig-Geschw.: 402,
6 m/h&lt;br/&gt;Sink-Geschw.: -977,
4 m/h&lt;br/&gt;Aufstieg: 826 m&lt;br/&gt;Abstieg: -896 m&lt;br/&gt;Steigzeit: 02:03&lt;br/&gt;Sinkzeit: 00:55&lt;br/&gt;&lt;/p&gt;&lt;hr align="center" width="480" style="height: 2px; width: 517px"/&gt;</desc>
        <type>Unbestimmt</type>
        <extensions>
            <om:oruxmapsextensions xmlns:om="http://www.oruxmaps.com/oruxmapsextensions/1/0">
                <om:ext subtype="0" type="TYPE">0</om:ext>
                <om:ext type="DIFFICULTY">0</om:ext>
</om:oruxmapsextensions>
        </extensions>
        <trkseg>
            <trkpt lat="46.8888022" lon="8.9018105">
                <ele>1388.9</ele>
                <time>2017-07-31T13:02:53.000Z</time>
                <name>Position 1</name>
            </trkpt>
            <trkpt lat="46.8889656" lon="8.901934">
                <ele>1382.6</ele>
                <time>2017-07-31T13:04:28.000Z</time>
                <name>Position 2</name>
            </trkpt>
            <trkpt lat="46.8891363" lon="8.9020474">
                <ele>1380.9</ele>
                <time>2017-07-31T13:05:21.000Z</time>
                <name>Position 3</name>
            </trkpt>
            <trkpt lat="46.8893248" lon="8.9020882">
                <ele>1382.6</ele>
                <time>2017-07-31T13:05:45.000Z</time>
                <name>Position 4</name>
            </trkpt>
            <trkpt lat="46.8895138" lon="8.9020386">
                <ele>1379.9</ele>
                <time>2017-07-31T13:06:04.000Z</time>
                <name>Position 5</name>
            </trkpt>
            <trkpt lat="46.8895871" lon="8.901795">
                <ele>1384.6</ele>
                <time>2017-07-31T13:06:21.000Z</time>
                <name>Position 6</name>
            </trkpt>
            <trkpt lat="46.8896775" lon="8.9015669">
                <ele>1385.9</ele>
                <time>2017-07-31T13:06:36.000Z</time>
                <name>Position 7</name>
            </trkpt>
            <trkpt lat="46.8897621" lon="8.9013216">
                <ele>1380.7</ele>
                <time>2017-07-31T13:06:50.000Z</time>
                <name>Position 8</name>
            </trkpt>
            <trkpt lat="46.8898453" lon="8.9010775">
                <ele>1378.6</ele>
                <time>2017-07-31T13:07:07.000Z</time>
                <name>Position 9</name>
            </trkpt>
            <trkpt lat="46.8898189" lon="8.9008142">
                <ele>1373.5</ele>
                <time>2017-07-31T13:07:33.000Z</time>
                <name>Position 10</name>
            </trkpt>
            <trkpt lat="46.8899917" lon="8.900921">
                <ele>1368.9</ele>
                <time>2017-07-31T13:10:31.000Z</time>
                <name>Position 11</name>
            </trkpt>
            <trkpt lat="46.8901658" lon="8.9009962">
                <ele>1366.9</ele>
                <time>2017-07-31T13:10:55.000Z</time>
                <name>Position 12</name>
            </trkpt>
            <trkpt lat="46.8903464" lon="8.9009703">
                <ele>1374.8</ele>
                <time>2017-07-31T13:11:18.000Z</time>
                <name>Position 13</name>
            </trkpt>
            <trkpt lat="46.8905206" lon="8.9010659">
                <ele>1377.0</ele>
                <time>2017-07-31T13:11:37.000Z</time>
                <name>Position 14</name>
            </trkpt>
            <trkpt lat="46.890689" lon="8.9011746">
                <ele>1376.9</ele>
                <time>2017-07-31T13:11:56.000Z</time>
                <name>Position 15</name>
            </trkpt>
            <trkpt lat="46.8908705" lon="8.901219">
                <ele>1377.8</ele>
                <time>2017-07-31T13:12:26.000Z</time>
                <name>Position 16</name>
            </trkpt>
            <trkpt lat="46.8910776" lon="8.9010696">
                <ele>1385.9</ele>
                <time>2017-07-31T13:13:01.000Z</time>
                <name>Position 17</name>
            </trkpt>
            <trkpt lat="46.8912306" lon="8.9009245">
                <ele>1390.9</ele>
                <time>2017-07-31T13:13:33.000Z</time>
                <name>Position 18</name>
            </trkpt>
            <trkpt lat="46.8913853" lon="8.9007806">
                <ele>1390.9</ele>
                <time>2017-07-31T13:14:09.000Z</time>
                <name>Position 19</name>
            </trkpt>
            <trkpt lat="46.8915043" lon="8.9005816">
                <ele>1397.8</ele>
                <time>2017-07-31T13:14:49.000Z</time>
                <name>Position 20</name>
            </trkpt>
            <trkpt lat="46.8916461" lon="8.9004057">
                <ele>1409.2</ele>
                <time>2017-07-31T13:15:32.000Z</time>
                <name>Position 21</name>
            </trkpt>
            <trkpt lat="46.8917548" lon="8.9001932">
                <ele>1416.9</ele>
                <time>2017-07-31T13:16:10.000Z</time>
                <name>Position 22</name>
            </trkpt>
            <trkpt lat="46.8921528" lon="8.8997769">
                <ele>1417.5</ele>
                <time>2017-07-31T13:17:48.000Z</time>
                <name>Position 23</name>
            </trkpt>
            <trkpt lat="46.8924276" lon="8.8994212">
                <ele>1450.5</ele>
                <time>2017-07-31T13:19:49.000Z</time>
                <name>Position 24</name>
            </trkpt>
            <trkpt lat="46.8925941" lon="8.8995231">
                <ele>1452.3</ele>
                <time>2017-07-31T13:20:42.000Z</time>
                <name>Position 25</name>
            </trkpt>
            <trkpt lat="46.8927856" lon="8.8995094">
                <ele>1488.1</ele>
                <time>2017-07-31T13:22:21.000Z</time>
                <name>Position 26</name>
            </trkpt>
            <trkpt lat="46.8929725" lon="8.8996528">
                <ele>1512.9</ele>
                <time>2017-07-31T13:24:22.000Z</time>
                <name>Position 27</name>
            </trkpt>
            <trkpt lat="46.8930404" lon="8.8998053">
                <ele>1516.1</ele>
                <time>2017-07-31T13:25:20.000Z</time>
                <name>Position 28</name>
            </trkpt>
            <trkpt lat="46.893165" lon="8.9000871">
                <ele>1519.5</ele>
                <time>2017-07-31T13:26:04.000Z</time>
                <name>Position 29</name>
            </trkpt>
            <trkpt lat="46.893577" lon="8.9006988">
                <ele>1546.5</ele>
                <time>2017-07-31T13:26:53.000Z</time>
                <name>Position 30</name>
            </trkpt>
            <trkpt lat="46.8937568" lon="8.9007341">
                <ele>1587.7</ele>
                <time>2017-07-31T13:50:53.000Z</time>
                <name>Position 31</name>
            </trkpt>
            <trkpt lat="46.8940493" lon="8.8994553">
                <ele>1602.1</ele>
                <time>2017-07-31T13:50:55.000Z</time>
                <name>Position 32</name>
            </trkpt>
            <trkpt lat="46.8939808" lon="8.8996989">
                <ele>1609.7</ele>
                <time>2017-07-31T13:51:28.000Z</time>
                <name>Position 33</name>
            </trkpt>
            <trkpt lat="46.8940103" lon="8.8996549">
                <ele>1588.8</ele>
                <time>2017-07-31T13:54:14.000Z</time>
                <name>Position 34</name>
            </trkpt>
            <trkpt lat="46.8938018" lon="8.900419">
                <ele>1760.7</ele>
                <time>2017-07-31T13:57:52.000Z</time>
                <name>Position 35</name>
            </trkpt>
            <trkpt lat="46.8939887" lon="8.9003171">
                <ele>1686.2</ele>
                <time>2017-07-31T13:57:54.000Z</time>
                <name>Position 36</name>
            </trkpt>
            <trkpt lat="46.8938996" lon="8.8999211">
                <ele>1639.7</ele>
                <time>2017-07-31T13:57:58.000Z</time>
                <name>Position 37</name>
            </trkpt>
            <trkpt lat="46.8938776" lon="8.8996382">
                <ele>1606.6</ele>
                <time>2017-07-31T13:58:10.000Z</time>
                <name>Position 38</name>
            </trkpt>
            <trkpt lat="46.8940518" lon="8.8997451">
                <ele>1567.3</ele>
                <time>2017-07-31T13:58:52.000Z</time>
                <name>Position 39</name>
            </trkpt>
            <trkpt lat="46.8938627" lon="8.8997667">
                <ele>1535.0</ele>
                <time>2017-07-31T14:02:32.000Z</time>
                <name>Position 40</name>
            </trkpt>
            <trkpt lat="46.8939594" lon="8.8995433">
                <ele>1546.2</ele>
                <time>2017-07-31T14:04:40.000Z</time>
                <name>Position 41</name>
            </trkpt>
            <trkpt lat="46.893739" lon="8.8996286">
                <ele>1552.4</ele>
                <time>2017-07-31T14:05:00.000Z</time>
                <name>Position 42</name>
            </trkpt>
            <trkpt lat="46.8938551" lon="8.8998439">
                <ele>1553.2</ele>
                <time>2017-07-31T14:05:11.000Z</time>
                <name>Position 43</name>
            </trkpt>
            <trkpt lat="46.8937402" lon="8.9000524">
                <ele>1547.3</ele>
                <time>2017-07-31T14:05:21.000Z</time>
                <name>Position 44</name>
            </trkpt>
            <trkpt lat="46.8939514" lon="8.8999271">
                <ele>1539.2</ele>
                <time>2017-07-31T14:07:08.000Z</time>
                <name>Position 45</name>
            </trkpt>
            <trkpt lat="46.8939903" lon="8.8996641">
                <ele>1570.8</ele>
                <time>2017-07-31T14:09:12.000Z</time>
                <name>Position 46</name>
            </trkpt>
            <trkpt lat="46.8940388" lon="8.8994105">
                <ele>1613.9</ele>
                <time>2017-07-31T14:20:32.000Z</time>
                <name>Position 47</name>
            </trkpt>
            <trkpt lat="46.8942016" lon="8.8995882">
                <ele>1644.8</ele>
                <time>2017-07-31T14:24:04.000Z</time>
                <name>Position 48</name>
            </trkpt>
            <trkpt lat="46.8943431" lon="8.8994257">
                <ele>1689.9</ele>
                <time>2017-07-31T14:44:20.000Z</time>
                <name>Position 49</name>
            </trkpt>
            <trkpt lat="46.8945217" lon="8.8993629">
                <ele>1704.8</ele>
                <time>2017-07-31T14:46:26.000Z</time>
                <name>Position 50</name>
            </trkpt>
            <trkpt lat="46.8946808" lon="8.8992164">
                <ele>1716.9</ele>
                <time>2017-07-31T14:47:02.000Z</time>
                <name>Position 51</name>
            </trkpt>
            <trkpt lat="46.8947972" lon="8.8990089">
                <ele>1731.6</ele>
                <time>2017-07-31T14:48:11.000Z</time>
                <name>Position 52</name>
            </trkpt>
            <trkpt lat="46.8948654" lon="8.8987528">
                <ele>1733.6</ele>
                <time>2017-07-31T14:49:04.000Z</time>
                <name>Position 53</name>
            </trkpt>
            <trkpt lat="46.8950256" lon="8.8986198">
                <ele>1732.8</ele>
                <time>2017-07-31T14:49:18.000Z</time>
                <name>Position 54</name>
            </trkpt>
            <trkpt lat="46.895202" lon="8.8985419">
                <ele>1734.3</ele>
                <time>2017-07-31T14:49:34.000Z</time>
                <name>Position 55</name>
            </trkpt>
            <trkpt lat="46.8953548" lon="8.8987105">
                <ele>1736.3</ele>
                <time>2017-07-31T14:50:05.000Z</time>
                <name>Position 56</name>
            </trkpt>
            <trkpt lat="46.8955361" lon="8.8987186">
                <ele>1749.4</ele>
                <time>2017-07-31T14:50:41.000Z</time>
                <name>Position 57</name>
            </trkpt>
            <trkpt lat="46.8957125" lon="8.8986345">
                <ele>1748.9</ele>
                <time>2017-07-31T14:51:14.000Z</time>
                <name>Position 58</name>
            </trkpt>
            <trkpt lat="46.895887" lon="8.8987056">
                <ele>1746.6</ele>
                <time>2017-07-31T14:51:45.000Z</time>
                <name>Position 59</name>
            </trkpt>
            <trkpt lat="46.8959606" lon="8.8984636">
                <ele>1750.9</ele>
                <time>2017-07-31T15:17:00.000Z</time>
                <name>Position 60</name>
            </trkpt>
            <trkpt lat="46.8959549" lon="8.8981942">
                <ele>1752.0</ele>
                <time>2017-07-31T15:17:35.000Z</time>
                <name>Position 61</name>
            </trkpt>
            <trkpt lat="46.895978" lon="8.8979297">
                <ele>1749.0</ele>
                <time>2017-07-31T15:17:56.000Z</time>
                <name>Position 62</name>
            </trkpt>
            <trkpt lat="46.8959266" lon="8.8976756">
                <ele>1747.9</ele>
                <time>2017-07-31T15:18:10.000Z</time>
                <name>Position 63</name>
            </trkpt>
            <trkpt lat="46.8958129" lon="8.8974684">
                <ele>1745.0</ele>
                <time>2017-07-31T15:18:31.000Z</time>
                <name>Position 64</name>
            </trkpt>
            <trkpt lat="46.8957073" lon="8.8972411">
                <ele>1738.3</ele>
                <time>2017-07-31T15:18:52.000Z</time>
                <name>Position 65</name>
            </trkpt>
            <trkpt lat="46.8955939" lon="8.8970133">
                <ele>1735.7</ele>
                <time>2017-07-31T15:28:23.000Z</time>
                <name>Position 66</name>
            </trkpt>
            <trkpt lat="46.8955756" lon="8.8967487">
                <ele>1733.3</ele>
                <time>2017-07-31T15:28:40.000Z</time>
                <name>Position 67</name>
            </trkpt>
            <trkpt lat="46.8954165" lon="8.8965873">
                <ele>1732.0</ele>
                <time>2017-07-31T15:29:11.000Z</time>
                <name>Position 68</name>
            </trkpt>
            <trkpt lat="46.8952277" lon="8.8965972">
                <ele>1730.4</ele>
                <time>2017-07-31T15:29:34.000Z</time>
                <name>Position 69</name>
            </trkpt>
            <trkpt lat="46.8950898" lon="8.896418">
                <ele>1724.8</ele>
                <time>2017-07-31T15:30:02.000Z</time>
                <name>Position 70</name>
            </trkpt>
            <trkpt lat="46.8949751" lon="8.896212">
                <ele>1723.9</ele>
                <time>2017-07-31T15:30:16.000Z</time>
                <name>Position 71</name>
            </trkpt>
            <trkpt lat="46.894869" lon="8.8959897">
                <ele>1723.5</ele>
                <time>2017-07-31T15:30:34.000Z</time>
                <name>Position 72</name>
            </trkpt>
            <trkpt lat="46.8947989" lon="8.8957361">
                <ele>1718.5</ele>
                <time>2017-07-31T15:30:54.000Z</time>
                <name>Position 73</name>
            </trkpt>
            <trkpt lat="46.8946253" lon="8.8956614">
                <ele>1718.9</ele>
                <time>2017-07-31T15:31:16.000Z</time>
                <name>Position 74</name>
            </trkpt>
            <trkpt lat="46.8944781" lon="8.8955059">
                <ele>1714.9</ele>
                <time>2017-07-31T15:31:38.000Z</time>
                <name>Position 75</name>
            </trkpt>
            <trkpt lat="46.8943108" lon="8.8953943">
                <ele>1712.9</ele>
                <time>2017-07-31T15:31:57.000Z</time>
                <name>Position 76</name>
            </trkpt>
            <trkpt lat="46.8941256" lon="8.8953758">
                <ele>1707.0</ele>
                <time>2017-07-31T15:32:15.000Z</time>
                <name>Position 77</name>
            </trkpt>
            <trkpt lat="46.8939496" lon="8.8953032">
                <ele>1703.7</ele>
                <time>2017-07-31T15:32:31.000Z</time>
                <name>Position 78</name>
            </trkpt>
            <trkpt lat="46.893778" lon="8.8952155">
                <ele>1699.2</ele>
                <time>2017-07-31T15:32:51.000Z</time>
                <name>Position 79</name>
            </trkpt>
            <trkpt lat="46.8938207" lon="8.8954884">
                <ele>1676.1</ele>
                <time>2017-07-31T15:33:25.000Z</time>
                <name>Position 80</name>
            </trkpt>
            <trkpt lat="46.8937557" lon="8.8957376">
                <ele>1664.6</ele>
                <time>2017-07-31T15:34:09.000Z</time>
                <name>Position 81</name>
            </trkpt>
            <trkpt lat="46.8937004" lon="8.8959976">
                <ele>1657.7</ele>
                <time>2017-07-31T15:35:03.000Z</time>
                <name>Position 82</name>
            </trkpt>
            <trkpt lat="46.8935841" lon="8.8962109">
                <ele>1644.3</ele>
                <time>2017-07-31T15:35:55.000Z</time>
                <name>Position 83</name>
            </trkpt>
            <trkpt lat="46.8935768" lon="8.8964741">
                <ele>1633.3</ele>
                <time>2017-07-31T15:36:21.000Z</time>
                <name>Position 84</name>
            </trkpt>
            <trkpt lat="46.8935968" lon="8.8967478">
                <ele>1626.5</ele>
                <time>2017-07-31T15:36:48.000Z</time>
                <name>Position 85</name>
            </trkpt>
            <trkpt lat="46.8935882" lon="8.897023">
                <ele>1620.0</ele>
                <time>2017-07-31T15:37:57.000Z</time>
                <name>Position 86</name>
            </trkpt>
            <trkpt lat="46.8934755" lon="8.8972321">
                <ele>1608.8</ele>
                <time>2017-07-31T15:39:11.000Z</time>
                <name>Position 87</name>
            </trkpt>
            <trkpt lat="46.8935224" lon="8.8974871">
                <ele>1596.3</ele>
                <time>2017-07-31T15:39:42.000Z</time>
                <name>Position 88</name>
            </trkpt>
            <trkpt lat="46.8935957" lon="8.8977338">
                <ele>1588.7</ele>
                <time>2017-07-31T15:40:02.000Z</time>
                <name>Position 89</name>
            </trkpt>
            <trkpt lat="46.8935323" lon="8.8979852">
                <ele>1566.0</ele>
                <time>2017-07-31T15:40:40.000Z</time>
                <name>Position 90</name>
            </trkpt>
            <trkpt lat="46.8933677" lon="8.8981059">
                <ele>1556.2</ele>
                <time>2017-07-31T15:41:20.000Z</time>
                <name>Position 91</name>
            </trkpt>
            <trkpt lat="46.8931872" lon="8.8981306">
                <ele>1534.3</ele>
                <time>2017-07-31T15:42:02.000Z</time>
                <name>Position 92</name>
            </trkpt>
            <trkpt lat="46.8930856" lon="8.8983487">
                <ele>1532.9</ele>
                <time>2017-07-31T15:42:33.000Z</time>
                <name>Position 93</name>
            </trkpt>
            <trkpt lat="46.8932352" lon="8.8984976">
                <ele>1530.0</ele>
                <time>2017-07-31T15:43:07.000Z</time>
                <name>Position 94</name>
            </trkpt>
            <trkpt lat="46.8933021" lon="8.8987432">
                <ele>1525.7</ele>
                <time>2017-07-31T15:43:51.000Z</time>
                <name>Position 95</name>
            </trkpt>
            <trkpt lat="46.8924238" lon="8.8994316">
                <ele>1458.2</ele>
                <time>2017-07-31T15:51:23.000Z</time>
                <name>Position 96</name>
            </trkpt>
            <trkpt lat="46.8922942" lon="8.8996228">
                <ele>1447.0</ele>
                <time>2017-07-31T15:52:56.000Z</time>
                <name>Position 97</name>
            </trkpt>
            <trkpt lat="46.892141" lon="8.8997842">
                <ele>1440.2</ele>
                <time>2017-07-31T15:53:25.000Z</time>
                <name>Position 98</name>
            </trkpt>
            <trkpt lat="46.891976" lon="8.8999192">
                <ele>1432.5</ele>
                <time>2017-07-31T15:53:38.000Z</time>
                <name>Position 99</name>
            </trkpt>
            <trkpt lat="46.8918288" lon="8.9000896">
                <ele>1422.3</ele>
                <time>2017-07-31T15:53:52.000Z</time>
                <name>Position 100</name>
            </trkpt>
            <trkpt lat="46.8917089" lon="8.9002967">
                <ele>1414.2</ele>
                <time>2017-07-31T15:54:04.000Z</time>
                <name>Position 101</name>
            </trkpt>
            <trkpt lat="46.8915836" lon="8.9004912">
                <ele>1408.0</ele>
                <time>2017-07-31T15:54:16.000Z</time>
                <name>Position 102</name>
            </trkpt>
            <trkpt lat="46.8914723" lon="8.9007142">
                <ele>1399.2</ele>
                <time>2017-07-31T15:54:29.000Z</time>
                <name>Position 103</name>
            </trkpt>
            <trkpt lat="46.8913333" lon="8.9008823">
                <ele>1392.9</ele>
                <time>2017-07-31T15:54:47.000Z</time>
                <name>Position 104</name>
            </trkpt>
            <trkpt lat="46.8911937" lon="8.9010751">
                <ele>1384.2</ele>
                <time>2017-07-31T15:55:04.000Z</time>
                <name>Position 105</name>
            </trkpt>
            <trkpt lat="46.8910179" lon="8.9011509">
                <ele>1377.3</ele>
                <time>2017-07-31T15:55:14.000Z</time>
                <name>Position 106</name>
            </trkpt>
            <trkpt lat="46.8908406" lon="8.9012202">
                <ele>1373.0</ele>
                <time>2017-07-31T15:55:24.000Z</time>
                <name>Position 107</name>
            </trkpt>
            <trkpt lat="46.8906616" lon="8.901112">
                <ele>1371.2</ele>
                <time>2017-07-31T15:55:36.000Z</time>
                <name>Position 108</name>
            </trkpt>
            <trkpt lat="46.8904754" lon="8.9010858">
                <ele>1368.9</ele>
                <time>2017-07-31T15:55:46.000Z</time>
                <name>Position 109</name>
            </trkpt>
            <trkpt lat="46.8902879" lon="8.9010246">
                <ele>1368.9</ele>
                <time>2017-07-31T15:56:00.000Z</time>
                <name>Position 110</name>
            </trkpt>
            <trkpt lat="46.8900997" lon="8.9010125">
                <ele>1368.9</ele>
                <time>2017-07-31T15:56:27.000Z</time>
                <name>Position 111</name>
            </trkpt>
            <trkpt lat="46.8899191" lon="8.9009284">
                <ele>1369.9</ele>
                <time>2017-07-31T15:56:41.000Z</time>
                <name>Position 112</name>
            </trkpt>
            <trkpt lat="46.8897668" lon="8.9007712">
                <ele>1372.2</ele>
                <time>2017-07-31T15:56:59.000Z</time>
                <name>Position 113</name>
            </trkpt>
            <trkpt lat="46.8898951" lon="8.9009583">
                <ele>1368.9</ele>
                <time>2017-07-31T15:58:27.000Z</time>
                <name>Position 114</name>
            </trkpt>
            <trkpt lat="46.8898337" lon="8.9009112">
                <ele>1381.5</ele>
                <time>2017-07-31T16:03:41.000Z</time>
                <name>Position 115</name>
            </trkpt>
            <trkpt lat="46.8898468" lon="8.9011886">
                <ele>1376.0</ele>
                <time>2017-07-31T16:04:51.000Z</time>
                <name>Position 116</name>
            </trkpt>
            <trkpt lat="46.8897641" lon="8.901428">
                <ele>1373.9</ele>
                <time>2017-07-31T16:05:09.000Z</time>
                <name>Position 117</name>
            </trkpt>
            <trkpt lat="46.8897098" lon="8.9016807">
                <ele>1378.2</ele>
                <time>2017-07-31T16:05:28.000Z</time>
                <name>Position 118</name>
            </trkpt>
            <trkpt lat="46.8896404" lon="8.9019399">
                <ele>1379.5</ele>
                <time>2017-07-31T16:05:47.000Z</time>
                <name>Position 119</name>
            </trkpt>
            <trkpt lat="46.8895367" lon="8.9021681">
                <ele>1376.9</ele>
                <time>2017-07-31T16:06:09.000Z</time>
                <name>Position 120</name>
            </trkpt>
            <trkpt lat="46.8893546" lon="8.9021791">
                <ele>1379.9</ele>
                <time>2017-07-31T16:06:28.000Z</time>
                <name>Position 121</name>
            </trkpt>
            <trkpt lat="46.8891838" lon="8.9020823">
                <ele>1381.6</ele>
                <time>2017-07-31T16:06:51.000Z</time>
                <name>Position 122</name>
            </trkpt>
            <trkpt lat="46.8890083" lon="8.9020049">
                <ele>1383.9</ele>
                <time>2017-07-31T16:07:22.000Z</time>
                <name>Position 123</name>
            </trkpt>
            <trkpt lat="46.8888548" lon="8.9018582">
                <ele>1385.2</ele>
                <time>2017-07-31T16:07:44.000Z</time>
                <name>Position 124</name>
            </trkpt>
        </trkseg>
    </trk>
</gpx>
