<?xml version="1.0" encoding="UTF-8" standalone="yes"?>
<gpx xmlns="http://www.topografix.com/GPX/1/0" creator="Generated by Christian Pesch's RouteConverter. See http://www.routeconverter.com" version="1.0">
    <wpt lon="12.595717906951538" lat="47.543270587919764">
        <ele>1832.25</ele>
        <time>2013-09-25T10:34:30.000Z</time>
        <name>0000253</name>
    </wpt>
    <trk>
        <name>2013-09-25 10:33</name>
        <desc>&lt;h1&gt;OruxMaps&lt;/h1&gt;&lt;br /&gt;&lt;hr align=&quot;center&quot; width=&quot;480&quot; style=&quot;height: 2px; width: 517px&quot;/&gt;&lt;h2&gt;Name: 2013-09-25 10:33&lt;/h2&gt;&lt;br /&gt;&lt;p&gt;Startzeit: 09/25/2013 10:34&lt;/p&gt;&lt;p&gt;Zielzeit: 09/25/2013 17:53&lt;/p&gt;&lt;p&gt;Strecke: 9,
3 km (07:18)&lt;/p&gt;&lt;p&gt;Bewegungszeit: 02:05&lt;/p&gt;&lt;p&gt;Ø-Geschwindigkeit: 1,
3 km/h&lt;/p&gt;&lt;p&gt;Netto Geschwindigkeit: 4,
5 km/h&lt;/p&gt;&lt;p&gt;Max. Geschwindigkeit: 6 km/h&lt;/p&gt;&lt;p&gt;Minimale Höhe: 822 m&lt;/p&gt;&lt;p&gt;Maximale Höhe: 2149 m&lt;/p&gt;&lt;p&gt;Steig-Geschw.: 334,
7 m/h&lt;/p&gt;&lt;p&gt;Sink-Geschw.: -816,
2 m/h&lt;/p&gt;&lt;p&gt;Aufstieg: 1718 m&lt;/p&gt;&lt;p&gt;Abstieg: -1699 m&lt;/p&gt;&lt;p&gt;Steigzeit: 05:08&lt;/p&gt;&lt;p&gt;Sinkzeit: 02:04&lt;/p&gt;&lt;hr align=&quot;center&quot; width=&quot;480&quot; style=&quot;height: 2px; width: 517px&quot;/&gt;</desc>
        <trkseg>
            <trkpt lon="12.5757193565365" lat="47.53062129020553">
                <ele>822.25</ele>
                <time>2013-09-25T08:34:13.000Z</time>
                <name>Position 1</name>
            </trkpt>
            <trkpt lon="12.57595539092981" lat="47.530728578566126">
                <ele>835.12</ele>
                <time>2013-09-25T08:45:07.000Z</time>
                <name>Position 2</name>
            </trkpt>
            <trkpt lon="12.57619142532312" lat="47.53083586692672">
                <ele>835.68</ele>
                <time>2013-09-25T08:45:20.000Z</time>
                <name>Position 3</name>
            </trkpt>
            <trkpt lon="12.576384544372193" lat="47.53096461295944">
                <ele>836.24</ele>
                <time>2013-09-25T08:45:38.000Z</time>
                <name>Position 4</name>
            </trkpt>
            <trkpt lon="12.576642036437622" lat="47.531028985975794">
                <ele>837.23</ele>
                <time>2013-09-25T08:45:54.000Z</time>
                <name>Position 5</name>
            </trkpt>
            <trkpt lon="12.576920986175171" lat="47.53106117248397">
                <ele>837.0</ele>
                <time>2013-09-25T08:46:08.000Z</time>
                <name>Position 6</name>
            </trkpt>
            <trkpt lon="12.57719993591272" lat="47.53110408782821">
                <ele>836.26</ele>
                <time>2013-09-25T08:46:23.000Z</time>
                <name>Position 7</name>
            </trkpt>
            <trkpt lon="12.57745742797815" lat="47.53118991851669">
                <ele>835.38</ele>
                <time>2013-09-25T08:46:40.000Z</time>
                <name>Position 8</name>
            </trkpt>
            <trkpt lon="12.57771492004358" lat="47.531275749205165">
                <ele>835.25</ele>
                <time>2013-09-25T08:46:56.000Z</time>
                <name>Position 9</name>
            </trkpt>
            <trkpt lon="12.577993869781128" lat="47.53135085105758">
                <ele>834.25</ele>
                <time>2013-09-25T08:47:14.000Z</time>
                <name>Position 10</name>
            </trkpt>
            <trkpt lon="12.57820844650232" lat="47.531479597090296">
                <ele>833.29</ele>
                <time>2013-09-25T08:47:36.000Z</time>
                <name>Position 11</name>
            </trkpt>
            <trkpt lon="12.57846593856775" lat="47.531533241270594">
                <ele>833.25</ele>
                <time>2013-09-25T08:47:52.000Z</time>
                <name>Position 12</name>
            </trkpt>
            <trkpt lon="12.578723430633179" lat="47.53158688545089">
                <ele>832.56</ele>
                <time>2013-09-25T08:48:07.000Z</time>
                <name>Position 13</name>
            </trkpt>
            <trkpt lon="12.578980922698609" lat="47.531511783598475">
                <ele>832.25</ele>
                <time>2013-09-25T08:48:37.000Z</time>
                <name>Position 14</name>
            </trkpt>
            <trkpt lon="12.579259872436158" lat="47.531533241270594">
                <ele>833.24</ele>
                <time>2013-09-25T08:49:31.000Z</time>
                <name>Position 15</name>
            </trkpt>
            <trkpt lon="12.579517364501587" lat="47.53145813941818">
                <ele>834.24</ele>
                <time>2013-09-25T08:49:59.000Z</time>
                <name>Position 16</name>
            </trkpt>
            <trkpt lon="12.579796314239136" lat="47.53144741058212">
                <ele>835.25</ele>
                <time>2013-09-25T08:50:28.000Z</time>
                <name>Position 17</name>
            </trkpt>
            <trkpt lon="12.580075263976685" lat="47.53142595291">
                <ele>840.1</ele>
                <time>2013-09-25T08:51:07.000Z</time>
                <name>Position 18</name>
            </trkpt>
            <trkpt lon="12.580311298369995" lat="47.5313186645494">
                <ele>847.25</ele>
                <time>2013-09-25T08:52:08.000Z</time>
                <name>Position 19</name>
            </trkpt>
            <trkpt lon="12.580590248107544" lat="47.531286478041224">
                <ele>851.25</ele>
                <time>2013-09-25T08:52:47.000Z</time>
                <name>Position 20</name>
            </trkpt>
            <trkpt lon="12.580869197845093" lat="47.5313186645494">
                <ele>854.91</ele>
                <time>2013-09-25T08:53:19.000Z</time>
                <name>Position 21</name>
            </trkpt>
            <trkpt lon="12.581148147582642" lat="47.531275749205165">
                <ele>857.51</ele>
                <time>2013-09-25T08:53:44.000Z</time>
                <name>Position 22</name>
            </trkpt>
            <trkpt lon="12.581405639648072" lat="47.53118991851669">
                <ele>862.01</ele>
                <time>2013-09-25T08:54:07.000Z</time>
                <name>Position 23</name>
            </trkpt>
            <trkpt lon="12.581663131713501" lat="47.53111481666427">
                <ele>867.04</ele>
                <time>2013-09-25T08:54:42.000Z</time>
                <name>Position 24</name>
            </trkpt>
            <trkpt lon="12.58194208145105" lat="47.53108263015609">
                <ele>870.68</ele>
                <time>2013-09-25T08:55:20.000Z</time>
                <name>Position 25</name>
            </trkpt>
            <trkpt lon="12.58219957351648" lat="47.531028985975794">
                <ele>874.23</ele>
                <time>2013-09-25T08:56:00.000Z</time>
                <name>Position 26</name>
            </trkpt>
            <trkpt lon="12.58245706558191" lat="47.53095388412338">
                <ele>877.05</ele>
                <time>2013-09-25T08:56:34.000Z</time>
                <name>Position 27</name>
            </trkpt>
            <trkpt lon="12.582736015319458" lat="47.53091096877914">
                <ele>883.72</ele>
                <time>2013-09-25T08:57:00.000Z</time>
                <name>Position 28</name>
            </trkpt>
            <trkpt lon="12.583014965057007" lat="47.5308680534349">
                <ele>888.25</ele>
                <time>2013-09-25T08:57:22.000Z</time>
                <name>Position 29</name>
            </trkpt>
            <trkpt lon="12.583293914794556" lat="47.53082513809066">
                <ele>891.82</ele>
                <time>2013-09-25T08:57:46.000Z</time>
                <name>Position 30</name>
            </trkpt>
            <trkpt lon="12.583508491515747" lat="47.53070712089401">
                <ele>898.82</ele>
                <time>2013-09-25T08:58:31.000Z</time>
                <name>Position 31</name>
            </trkpt>
            <trkpt lon="12.5836801528927" lat="47.53056764602523">
                <ele>906.22</ele>
                <time>2013-09-25T08:59:18.000Z</time>
                <name>Position 32</name>
            </trkpt>
            <trkpt lon="12.583851814269654" lat="47.5304174423204">
                <ele>908.21</ele>
                <time>2013-09-25T08:59:41.000Z</time>
                <name>Position 33</name>
            </trkpt>
            <trkpt lon="12.584002017974488" lat="47.530256509779505">
                <ele>914.87</ele>
                <time>2013-09-25T09:00:18.000Z</time>
                <name>Position 34</name>
            </trkpt>
            <trkpt lon="12.584238052367798" lat="47.53017067909103">
                <ele>929.77</ele>
                <time>2013-09-25T09:01:01.000Z</time>
                <name>Position 35</name>
            </trkpt>
            <trkpt lon="12.584495544433228" lat="47.53009557723861">
                <ele>940.95</ele>
                <time>2013-09-25T09:01:28.000Z</time>
                <name>Position 36</name>
            </trkpt>
            <trkpt lon="12.584753036498658" lat="47.530041933058314">
                <ele>949.23</ele>
                <time>2013-09-25T09:02:09.000Z</time>
                <name>Position 37</name>
            </trkpt>
            <trkpt lon="12.585010528564087" lat="47.52997756004196">
                <ele>955.52</ele>
                <time>2013-09-25T09:02:32.000Z</time>
                <name>Position 38</name>
            </trkpt>
            <trkpt lon="12.585268020629517" lat="47.52992391586166">
                <ele>960.91</ele>
                <time>2013-09-25T09:03:06.000Z</time>
                <name>Position 39</name>
            </trkpt>
            <trkpt lon="12.585546970367066" lat="47.5299131870256">
                <ele>963.93</ele>
                <time>2013-09-25T09:03:47.000Z</time>
                <name>Position 40</name>
            </trkpt>
            <trkpt lon="12.585804462432495" lat="47.5298595428453">
                <ele>968.97</ele>
                <time>2013-09-25T09:04:21.000Z</time>
                <name>Position 41</name>
            </trkpt>
            <trkpt lon="12.586083412170044" lat="47.52982735633712">
                <ele>972.76</ele>
                <time>2013-09-25T09:04:57.000Z</time>
                <name>Position 42</name>
            </trkpt>
            <trkpt lon="12.586340904235474" lat="47.52988100051742">
                <ele>977.64</ele>
                <time>2013-09-25T09:05:36.000Z</time>
                <name>Position 43</name>
            </trkpt>
            <trkpt lon="12.586619853973023" lat="47.52987027168136">
                <ele>983.25</ele>
                <time>2013-09-25T09:06:40.000Z</time>
                <name>Position 44</name>
            </trkpt>
            <trkpt lon="12.586791515349976" lat="47.530009746550135">
                <ele>986.17</ele>
                <time>2013-09-25T09:07:40.000Z</time>
                <name>Position 45</name>
            </trkpt>
            <trkpt lon="12.586748600005738" lat="47.53019213676315">
                <ele>998.09</ele>
                <time>2013-09-25T09:08:19.000Z</time>
                <name>Position 46</name>
            </trkpt>
            <trkpt lon="12.586984634399048" lat="47.530277967451624">
                <ele>1012.09</ele>
                <time>2013-09-25T09:09:20.000Z</time>
                <name>Position 47</name>
            </trkpt>
            <trkpt lon="12.587027549743286" lat="47.53046035766464">
                <ele>1025.96</ele>
                <time>2013-09-25T09:10:29.000Z</time>
                <name>Position 48</name>
            </trkpt>
            <trkpt lon="12.58694171905481" lat="47.53063201904159">
                <ele>1031.0</ele>
                <time>2013-09-25T09:11:08.000Z</time>
                <name>Position 49</name>
            </trkpt>
            <trkpt lon="12.586984634399048" lat="47.5308144092546">
                <ele>1035.77</ele>
                <time>2013-09-25T09:11:44.000Z</time>
                <name>Position 50</name>
            </trkpt>
            <trkpt lon="12.587070465087525" lat="47.530986070631556">
                <ele>1041.68</ele>
                <time>2013-09-25T09:12:31.000Z</time>
                <name>Position 51</name>
            </trkpt>
            <trkpt lon="12.587134838103882" lat="47.53116846084457">
                <ele>1049.8</ele>
                <time>2013-09-25T09:13:23.000Z</time>
                <name>Position 52</name>
            </trkpt>
            <trkpt lon="12.587220668792359" lat="47.53134012222152">
                <ele>1056.49</ele>
                <time>2013-09-25T09:14:16.000Z</time>
                <name>Position 53</name>
            </trkpt>
            <trkpt lon="12.587413787841431" lat="47.53146886825424">
                <ele>1069.74</ele>
                <time>2013-09-25T09:14:51.000Z</time>
                <name>Position 54</name>
            </trkpt>
            <trkpt lon="12.587478160857788" lat="47.53165125846725">
                <ele>1077.7</ele>
                <time>2013-09-25T09:15:27.000Z</time>
                <name>Position 55</name>
            </trkpt>
            <trkpt lon="12.587392330169312" lat="47.5318229198442">
                <ele>1083.5</ele>
                <time>2013-09-25T09:16:01.000Z</time>
                <name>Position 56</name>
            </trkpt>
            <trkpt lon="12.587392330169312" lat="47.532005310057215">
                <ele>1086.24</ele>
                <time>2013-09-25T09:16:31.000Z</time>
                <name>Position 57</name>
            </trkpt>
            <trkpt lon="12.587413787841431" lat="47.53218770027023">
                <ele>1089.96</ele>
                <time>2013-09-25T09:17:04.000Z</time>
                <name>Position 58</name>
            </trkpt>
            <trkpt lon="12.587413787841431" lat="47.53237009048324">
                <ele>1093.68</ele>
                <time>2013-09-25T09:17:29.000Z</time>
                <name>Position 59</name>
            </trkpt>
            <trkpt lon="12.587285041808716" lat="47.532541751860194">
                <ele>1097.6</ele>
                <time>2013-09-25T09:18:05.000Z</time>
                <name>Position 60</name>
            </trkpt>
            <trkpt lon="12.58717775344812" lat="47.53271341323715">
                <ele>1101.74</ele>
                <time>2013-09-25T09:18:34.000Z</time>
                <name>Position 61</name>
            </trkpt>
            <trkpt lon="12.587134838103882" lat="47.53289580345016">
                <ele>1104.14</ele>
                <time>2013-09-25T09:18:59.000Z</time>
                <name>Position 62</name>
            </trkpt>
            <trkpt lon="12.58719921112024" lat="47.53307819366317">
                <ele>1107.15</ele>
                <time>2013-09-25T09:19:39.000Z</time>
                <name>Position 63</name>
            </trkpt>
            <trkpt lon="12.587263584136597" lat="47.533260583876185">
                <ele>1109.46</ele>
                <time>2013-09-25T09:20:09.000Z</time>
                <name>Position 64</name>
            </trkpt>
            <trkpt lon="12.58719921112024" lat="47.5334429740892">
                <ele>1111.25</ele>
                <time>2013-09-25T09:20:31.000Z</time>
                <name>Position 65</name>
            </trkpt>
            <trkpt lon="12.587113380431763" lat="47.53361463546615">
                <ele>1112.25</ele>
                <time>2013-09-25T09:20:56.000Z</time>
                <name>Position 66</name>
            </trkpt>
            <trkpt lon="12.587006092071167" lat="47.53379702567916">
                <ele>1112.25</ele>
                <time>2013-09-25T09:21:42.000Z</time>
                <name>Position 67</name>
            </trkpt>
            <trkpt lon="12.587091922759644" lat="47.533979415892176">
                <ele>1120.25</ele>
                <time>2013-09-25T09:23:03.000Z</time>
                <name>Position 68</name>
            </trkpt>
            <trkpt lon="12.587285041808716" lat="47.53410816192489">
                <ele>1126.15</ele>
                <time>2013-09-25T09:24:02.000Z</time>
                <name>Position 69</name>
            </trkpt>
            <trkpt lon="12.587542533874146" lat="47.53405451774459">
                <ele>1141.48</ele>
                <time>2013-09-25T09:24:34.000Z</time>
                <name>Position 70</name>
            </trkpt>
            <trkpt lon="12.587649822234741" lat="47.534226179121546">
                <ele>1169.82</ele>
                <time>2013-09-25T09:25:38.000Z</time>
                <name>Position 71</name>
            </trkpt>
            <trkpt lon="12.587499618529908" lat="47.53438711166244">
                <ele>1169.25</ele>
                <time>2013-09-25T09:26:08.000Z</time>
                <name>Position 72</name>
            </trkpt>
            <trkpt lon="12.587392330169312" lat="47.53455877303939">
                <ele>1166.23</ele>
                <time>2013-09-25T09:26:29.000Z</time>
                <name>Position 73</name>
            </trkpt>
            <trkpt lon="12.587370872497193" lat="47.534741163252406">
                <ele>1162.05</ele>
                <time>2013-09-25T09:26:48.000Z</time>
                <name>Position 74</name>
            </trkpt>
            <trkpt lon="12.587392330169312" lat="47.53492355346542">
                <ele>1156.38</ele>
                <time>2013-09-25T09:27:10.000Z</time>
                <name>Position 75</name>
            </trkpt>
            <trkpt lon="12.587349414825074" lat="47.53510594367843">
                <ele>1143.25</ele>
                <time>2013-09-25T09:27:46.000Z</time>
                <name>Position 76</name>
            </trkpt>
            <trkpt lon="12.587327957152954" lat="47.535288333891444">
                <ele>1134.89</ele>
                <time>2013-09-25T09:28:16.000Z</time>
                <name>Position 77</name>
            </trkpt>
            <trkpt lon="12.587542533874146" lat="47.5354063510881">
                <ele>1129.25</ele>
                <time>2013-09-25T09:29:11.000Z</time>
                <name>Position 78</name>
            </trkpt>
            <trkpt lon="12.587585449218384" lat="47.53562092780929">
                <ele>1127.25</ele>
                <time>2013-09-25T09:30:35.000Z</time>
                <name>Position 79</name>
            </trkpt>
            <trkpt lon="12.58745670318567" lat="47.535781860350184">
                <ele>1123.6</ele>
                <time>2013-09-25T09:30:50.000Z</time>
                <name>Position 80</name>
            </trkpt>
            <trkpt lon="12.587392330169312" lat="47.5359642505632">
                <ele>1118.94</ele>
                <time>2013-09-25T09:31:11.000Z</time>
                <name>Position 81</name>
            </trkpt>
            <trkpt lon="12.587327957152954" lat="47.53614664077621">
                <ele>1113.07</ele>
                <time>2013-09-25T09:31:35.000Z</time>
                <name>Position 82</name>
            </trkpt>
            <trkpt lon="12.587306499480835" lat="47.53632903098922">
                <ele>1106.87</ele>
                <time>2013-09-25T09:32:03.000Z</time>
                <name>Position 83</name>
            </trkpt>
            <trkpt lon="12.587542533874146" lat="47.53642559051376">
                <ele>1104.25</ele>
                <time>2013-09-25T09:32:46.000Z</time>
                <name>Position 84</name>
            </trkpt>
            <trkpt lon="12.58767127990686" lat="47.536253929136805">
                <ele>1119.25</ele>
                <time>2013-09-25T09:33:37.000Z</time>
                <name>Position 85</name>
            </trkpt>
            <trkpt lon="12.587885856628052" lat="47.53614664077621">
                <ele>1141.37</ele>
                <time>2013-09-25T09:34:04.000Z</time>
                <name>Position 86</name>
            </trkpt>
            <trkpt lon="12.588014602660767" lat="47.535985708235316">
                <ele>1187.09</ele>
                <time>2013-09-25T09:34:40.000Z</time>
                <name>Position 87</name>
            </trkpt>
            <trkpt lon="12.587971687316529" lat="47.53616809844833">
                <ele>1244.93</ele>
                <time>2013-09-25T09:35:52.000Z</time>
                <name>Position 88</name>
            </trkpt>
            <trkpt lon="12.588100433349243" lat="47.53633975982528">
                <ele>1245.93</ele>
                <time>2013-09-25T09:36:14.000Z</time>
                <name>Position 89</name>
            </trkpt>
            <trkpt lon="12.588379383086792" lat="47.53632903098922">
                <ele>1259.24</ele>
                <time>2013-09-25T09:37:00.000Z</time>
                <name>Position 90</name>
            </trkpt>
            <trkpt lon="12.588658332824341" lat="47.536286115644984">
                <ele>1281.9</ele>
                <time>2013-09-25T09:37:36.000Z</time>
                <name>Position 91</name>
            </trkpt>
            <trkpt lon="12.588551044463745" lat="47.53645777702194">
                <ele>1285.25</ele>
                <time>2013-09-25T09:38:27.000Z</time>
                <name>Position 92</name>
            </trkpt>
            <trkpt lon="12.58842229843103" lat="47.53661870956283">
                <ele>1279.8</ele>
                <time>2013-09-25T09:38:50.000Z</time>
                <name>Position 93</name>
            </trkpt>
            <trkpt lon="12.588229179381958" lat="47.5368654727922">
                <ele>1267.25</ele>
                <time>2013-09-25T09:39:24.000Z</time>
                <name>Position 94</name>
            </trkpt>
            <trkpt lon="12.588508129119507" lat="47.5368654727922">
                <ele>1283.06</ele>
                <time>2013-09-25T09:40:42.000Z</time>
                <name>Position 95</name>
            </trkpt>
            <trkpt lon="12.588636875152222" lat="47.537026405333094">
                <ele>1288.92</ele>
                <time>2013-09-25T09:41:40.000Z</time>
                <name>Position 96</name>
            </trkpt>
            <trkpt lon="12.588744163512818" lat="47.53719806671005">
                <ele>1302.17</ele>
                <time>2013-09-25T09:42:24.000Z</time>
                <name>Position 97</name>
            </trkpt>
            <trkpt lon="12.588894367217652" lat="47.53734827041488">
                <ele>1303.24</ele>
                <time>2013-09-25T09:43:05.000Z</time>
                <name>Position 98</name>
            </trkpt>
            <trkpt lon="12.589066028594605" lat="47.537487745283656">
                <ele>1305.5</ele>
                <time>2013-09-25T09:44:01.000Z</time>
                <name>Position 99</name>
            </trkpt>
            <trkpt lon="12.589280605315796" lat="47.53760576248031">
                <ele>1315.13</ele>
                <time>2013-09-25T09:44:36.000Z</time>
                <name>Position 100</name>
            </trkpt>
            <trkpt lon="12.589581012725464" lat="47.53761649131637">
                <ele>1336.5</ele>
                <time>2013-09-25T09:45:12.000Z</time>
                <name>Position 101</name>
            </trkpt>
            <trkpt lon="12.589838504790894" lat="47.537541389463954">
                <ele>1362.08</ele>
                <time>2013-09-25T09:45:33.000Z</time>
                <name>Position 102</name>
            </trkpt>
            <trkpt lon="12.590053081512085" lat="47.53764867782455">
                <ele>1382.37</ele>
                <time>2013-09-25T09:46:03.000Z</time>
                <name>Position 103</name>
            </trkpt>
            <trkpt lon="12.590267658233277" lat="47.537755966185145">
                <ele>1391.57</ele>
                <time>2013-09-25T09:46:30.000Z</time>
                <name>Position 104</name>
            </trkpt>
            <trkpt lon="12.590525150298706" lat="47.5378203392015">
                <ele>1408.13</ele>
                <time>2013-09-25T09:47:12.000Z</time>
                <name>Position 105</name>
            </trkpt>
            <trkpt lon="12.590739727019898" lat="47.5379276275621">
                <ele>1412.01</ele>
                <time>2013-09-25T09:47:59.000Z</time>
                <name>Position 106</name>
            </trkpt>
            <trkpt lon="12.590889930724732" lat="47.53807783126693">
                <ele>1414.25</ele>
                <time>2013-09-25T09:48:56.000Z</time>
                <name>Position 107</name>
            </trkpt>
            <trkpt lon="12.591018676757447" lat="47.538238763807826">
                <ele>1413.56</ele>
                <time>2013-09-25T09:49:38.000Z</time>
                <name>Position 108</name>
            </trkpt>
            <trkpt lon="12.590997219085327" lat="47.53842115402084">
                <ele>1405.1</ele>
                <time>2013-09-25T09:50:20.000Z</time>
                <name>Position 109</name>
            </trkpt>
            <trkpt lon="12.591018676757447" lat="47.53860354423385">
                <ele>1399.5</ele>
                <time>2013-09-25T09:50:52.000Z</time>
                <name>Position 110</name>
            </trkpt>
            <trkpt lon="12.591083049773804" lat="47.538785934446864">
                <ele>1391.45</ele>
                <time>2013-09-25T09:51:39.000Z</time>
                <name>Position 111</name>
            </trkpt>
            <trkpt lon="12.591319084167115" lat="47.53887176513534">
                <ele>1386.35</ele>
                <time>2013-09-25T09:53:15.000Z</time>
                <name>Position 112</name>
            </trkpt>
            <trkpt lon="12.59144783019983" lat="47.539032697676234">
                <ele>1381.85</ele>
                <time>2013-09-25T09:53:58.000Z</time>
                <name>Position 113</name>
            </trkpt>
            <trkpt lon="12.591598033904663" lat="47.53918290138107">
                <ele>1338.5</ele>
                <time>2013-09-25T09:56:30.000Z</time>
                <name>Position 114</name>
            </trkpt>
            <trkpt lon="12.591619491576783" lat="47.53936529159408">
                <ele>1321.25</ele>
                <time>2013-09-25T09:57:05.000Z</time>
                <name>Position 115</name>
            </trkpt>
            <trkpt lon="12.591898441314331" lat="47.53935456275802">
                <ele>1314.23</ele>
                <time>2013-09-25T09:58:45.000Z</time>
                <name>Position 116</name>
            </trkpt>
            <trkpt lon="12.592134475707642" lat="47.5394403934465">
                <ele>1329.64</ele>
                <time>2013-09-25T09:59:47.000Z</time>
                <name>Position 117</name>
            </trkpt>
            <trkpt lon="12.592370510100952" lat="47.53935456275802">
                <ele>1335.79</ele>
                <time>2013-09-25T10:00:24.000Z</time>
                <name>Position 118</name>
            </trkpt>
            <trkpt lon="12.592606544494263" lat="47.539268732069544">
                <ele>1347.34</ele>
                <time>2013-09-25T10:00:50.000Z</time>
                <name>Position 119</name>
            </trkpt>
            <trkpt lon="12.592864036559693" lat="47.53920435905319">
                <ele>1361.13</ele>
                <time>2013-09-25T10:01:22.000Z</time>
                <name>Position 120</name>
            </trkpt>
            <trkpt lon="12.593078613280884" lat="47.53908634185653">
                <ele>1376.12</ele>
                <time>2013-09-25T10:02:02.000Z</time>
                <name>Position 121</name>
            </trkpt>
            <trkpt lon="12.593207359313599" lat="47.539247274397425">
                <ele>1407.22</ele>
                <time>2013-09-25T10:02:49.000Z</time>
                <name>Position 122</name>
            </trkpt>
            <trkpt lon="12.593100070953003" lat="47.53941893577438">
                <ele>1421.25</ele>
                <time>2013-09-25T10:03:26.000Z</time>
                <name>Position 123</name>
            </trkpt>
            <trkpt lon="12.592971324920288" lat="47.53957986831527">
                <ele>1425.82</ele>
                <time>2013-09-25T10:04:03.000Z</time>
                <name>Position 124</name>
            </trkpt>
            <trkpt lon="12.592842578887574" lat="47.539740800856165">
                <ele>1430.94</ele>
                <time>2013-09-25T10:04:39.000Z</time>
                <name>Position 125</name>
            </trkpt>
            <trkpt lon="12.593035697936646" lat="47.53960132598739">
                <ele>1463.84</ele>
                <time>2013-09-25T10:05:06.000Z</time>
                <name>Position 126</name>
            </trkpt>
            <trkpt lon="12.593314647674195" lat="47.53957986831527">
                <ele>1598.64</ele>
                <time>2013-09-25T10:07:34.000Z</time>
                <name>Position 127</name>
            </trkpt>
            <trkpt lon="12.593593597411743" lat="47.53957986831527">
                <ele>1632.66</ele>
                <time>2013-09-25T10:08:40.000Z</time>
                <name>Position 128</name>
            </trkpt>
            <trkpt lon="12.593872547149292" lat="47.53956913947921">
                <ele>1650.08</ele>
                <time>2013-09-25T10:09:48.000Z</time>
                <name>Position 129</name>
            </trkpt>
            <trkpt lon="12.594022750854126" lat="47.539719343184046">
                <ele>1660.62</ele>
                <time>2013-09-25T10:10:55.000Z</time>
                <name>Position 130</name>
            </trkpt>
            <trkpt lon="12.593979835509888" lat="47.53990173339706">
                <ele>1668.26</ele>
                <time>2013-09-25T10:11:37.000Z</time>
                <name>Position 131</name>
            </trkpt>
            <trkpt lon="12.594065666198365" lat="47.54008412361007">
                <ele>1660.25</ele>
                <time>2013-09-25T10:12:03.000Z</time>
                <name>Position 132</name>
            </trkpt>
            <trkpt lon="12.594237327575318" lat="47.5399446487413">
                <ele>1681.64</ele>
                <time>2013-09-25T10:13:33.000Z</time>
                <name>Position 133</name>
            </trkpt>
            <trkpt lon="12.59440898895227" lat="47.53980517387252">
                <ele>1693.0</ele>
                <time>2013-09-25T10:14:14.000Z</time>
                <name>Position 134</name>
            </trkpt>
            <trkpt lon="12.59468793868982" lat="47.539783716200404">
                <ele>1703.77</ele>
                <time>2013-09-25T10:14:48.000Z</time>
                <name>Position 135</name>
            </trkpt>
            <trkpt lon="12.59492397308313" lat="47.539891004561">
                <ele>1709.23</ele>
                <time>2013-09-25T10:16:00.000Z</time>
                <name>Position 136</name>
            </trkpt>
            <trkpt lon="12.594902515411011" lat="47.54010558128219">
                <ele>1699.0</ele>
                <time>2013-09-25T10:16:29.000Z</time>
                <name>Position 137</name>
            </trkpt>
            <trkpt lon="12.594773769378296" lat="47.54029870033126">
                <ele>1686.0</ele>
                <time>2013-09-25T10:16:54.000Z</time>
                <name>Position 138</name>
            </trkpt>
            <trkpt lon="12.594730854034058" lat="47.540491819380335">
                <ele>1674.75</ele>
                <time>2013-09-25T10:17:23.000Z</time>
                <name>Position 139</name>
            </trkpt>
            <trkpt lon="12.594602108001343" lat="47.54066348075729">
                <ele>1650.0</ele>
                <time>2013-09-25T10:17:42.000Z</time>
                <name>Position 140</name>
            </trkpt>
            <trkpt lon="12.594902515411011" lat="47.54059910774093">
                <ele>1640.25</ele>
                <time>2013-09-25T10:18:45.000Z</time>
                <name>Position 141</name>
            </trkpt>
            <trkpt lon="12.595052719115845" lat="47.5404489040361">
                <ele>1640.93</ele>
                <time>2013-09-25T10:18:52.000Z</time>
                <name>Position 142</name>
            </trkpt>
            <trkpt lon="12.595310211181275" lat="47.54038453101974">
                <ele>1706.46</ele>
                <time>2013-09-25T10:20:00.000Z</time>
                <name>Position 143</name>
            </trkpt>
            <trkpt lon="12.595503330230347" lat="47.540513277052455">
                <ele>1742.25</ele>
                <time>2013-09-25T10:21:27.000Z</time>
                <name>Position 144</name>
            </trkpt>
            <trkpt lon="12.595760822295777" lat="47.54057765006881">
                <ele>1745.81</ele>
                <time>2013-09-25T10:21:58.000Z</time>
                <name>Position 145</name>
            </trkpt>
            <trkpt lon="12.595975399016968" lat="47.540470361708216">
                <ele>1765.19</ele>
                <time>2013-09-25T10:23:07.000Z</time>
                <name>Position 146</name>
            </trkpt>
            <trkpt lon="12.596232891082398" lat="47.540524005888514">
                <ele>1783.51</ele>
                <time>2013-09-25T10:23:58.000Z</time>
                <name>Position 147</name>
            </trkpt>
            <trkpt lon="12.596340179442993" lat="47.54069566726547">
                <ele>1808.38</ele>
                <time>2013-09-25T10:25:07.000Z</time>
                <name>Position 148</name>
            </trkpt>
            <trkpt lon="12.596533298492066" lat="47.54082441329818">
                <ele>1820.52</ele>
                <time>2013-09-25T10:25:47.000Z</time>
                <name>Position 149</name>
            </trkpt>
            <trkpt lon="12.596468925475708" lat="47.541006803511195">
                <ele>1828.15</ele>
                <time>2013-09-25T10:26:36.000Z</time>
                <name>Position 150</name>
            </trkpt>
            <trkpt lon="12.596468925475708" lat="47.54118919372421">
                <ele>1830.15</ele>
                <time>2013-09-25T10:27:11.000Z</time>
                <name>Position 151</name>
            </trkpt>
            <trkpt lon="12.59642601013147" lat="47.54137158393722">
                <ele>1829.25</ele>
                <time>2013-09-25T10:27:41.000Z</time>
                <name>Position 152</name>
            </trkpt>
            <trkpt lon="12.59640455245935" lat="47.54155397415023">
                <ele>1829.25</ele>
                <time>2013-09-25T10:28:03.000Z</time>
                <name>Position 153</name>
            </trkpt>
            <trkpt lon="12.59644746780359" lat="47.541736364363246">
                <ele>1828.29</ele>
                <time>2013-09-25T10:28:40.000Z</time>
                <name>Position 154</name>
            </trkpt>
            <trkpt lon="12.596383094787232" lat="47.54191875457626">
                <ele>1828.25</ele>
                <time>2013-09-25T10:29:11.000Z</time>
                <name>Position 155</name>
            </trkpt>
            <trkpt lon="12.596275806426636" lat="47.54209041595321">
                <ele>1828.25</ele>
                <time>2013-09-25T10:29:40.000Z</time>
                <name>Position 156</name>
            </trkpt>
            <trkpt lon="12.59618997573816" lat="47.542262077330165">
                <ele>1828.25</ele>
                <time>2013-09-25T10:30:06.000Z</time>
                <name>Position 157</name>
            </trkpt>
            <trkpt lon="12.595996856689087" lat="47.54239082336288">
                <ele>1829.11</ele>
                <time>2013-09-25T10:30:34.000Z</time>
                <name>Position 158</name>
            </trkpt>
            <trkpt lon="12.59591102600061" lat="47.54256248473983">
                <ele>1830.25</ele>
                <time>2013-09-25T10:31:14.000Z</time>
                <name>Position 159</name>
            </trkpt>
            <trkpt lon="12.59593248367273" lat="47.542744874952845">
                <ele>1830.25</ele>
                <time>2013-09-25T10:32:02.000Z</time>
                <name>Position 160</name>
            </trkpt>
            <trkpt lon="12.595760822295777" lat="47.54289507865768">
                <ele>1831.17</ele>
                <time>2013-09-25T10:32:27.000Z</time>
                <name>Position 161</name>
            </trkpt>
            <trkpt lon="12.595546245574585" lat="47.543023824690394">
                <ele>1833.25</ele>
                <time>2013-09-25T10:32:56.000Z</time>
                <name>Position 162</name>
            </trkpt>
            <trkpt lon="12.595610618590943" lat="47.54320621490341">
                <ele>1833.25</ele>
                <time>2013-09-25T10:33:41.000Z</time>
                <name>Position 163</name>
            </trkpt>
            <trkpt lon="12.595868110656372" lat="47.54305601119857">
                <ele>1833.0</ele>
                <time>2013-09-25T10:40:55.000Z</time>
                <name>Position 164</name>
            </trkpt>
            <trkpt lon="12.595760822295777" lat="47.543227672575526">
                <ele>1834.23</ele>
                <time>2013-09-25T10:42:12.000Z</time>
                <name>Position 165</name>
            </trkpt>
            <trkpt lon="12.595975399016968" lat="47.54312038421493">
                <ele>1837.25</ele>
                <time>2013-09-25T10:50:02.000Z</time>
                <name>Position 166</name>
            </trkpt>
            <trkpt lon="12.596147060393921" lat="47.542980909346156">
                <ele>1842.5</ele>
                <time>2013-09-25T10:54:41.000Z</time>
                <name>Position 167</name>
            </trkpt>
            <trkpt lon="12.595975399016968" lat="47.54312038421493">
                <ele>1845.17</ele>
                <time>2013-09-25T10:55:45.000Z</time>
                <name>Position 168</name>
            </trkpt>
            <trkpt lon="12.596361637115113" lat="47.543013095854334">
                <ele>1851.25</ele>
                <time>2013-09-25T10:58:52.000Z</time>
                <name>Position 169</name>
            </trkpt>
            <trkpt lon="12.596597671508423" lat="47.5429165363298">
                <ele>1861.19</ele>
                <time>2013-09-25T11:07:42.000Z</time>
                <name>Position 170</name>
            </trkpt>
            <trkpt lon="12.597734928130738" lat="47.54270195960861">
                <ele>1900.12</ele>
                <time>2013-09-25T11:45:07.000Z</time>
                <name>Position 171</name>
            </trkpt>
            <trkpt lon="12.598013877868286" lat="47.54270195960861">
                <ele>1924.25</ele>
                <time>2013-09-25T11:47:59.000Z</time>
                <name>Position 172</name>
            </trkpt>
            <trkpt lon="12.598035335540406" lat="47.54265904426437">
                <ele>1926.25</ele>
                <time>2013-09-25T11:49:33.000Z</time>
                <name>Position 173</name>
            </trkpt>
            <trkpt lon="12.597863674163452" lat="47.542508840559535">
                <ele>1927.58</ele>
                <time>2013-09-25T11:49:41.000Z</time>
                <name>Position 174</name>
            </trkpt>
            <trkpt lon="12.598142623901001" lat="47.542476654051356">
                <ele>1996.08</ele>
                <time>2013-09-25T11:57:41.000Z</time>
                <name>Position 175</name>
            </trkpt>
            <trkpt lon="12.598357200622193" lat="47.5423586368547">
                <ele>2005.67</ele>
                <time>2013-09-25T11:58:54.000Z</time>
                <name>Position 176</name>
            </trkpt>
            <trkpt lon="12.598528861999146" lat="47.54220843314987">
                <ele>2007.15</ele>
                <time>2013-09-25T11:59:26.000Z</time>
                <name>Position 177</name>
            </trkpt>
            <trkpt lon="12.598764896392456" lat="47.54212260246139">
                <ele>2007.7</ele>
                <time>2013-09-25T11:59:56.000Z</time>
                <name>Position 178</name>
            </trkpt>
            <trkpt lon="12.599000930785767" lat="47.542026042936854">
                <ele>2003.32</ele>
                <time>2013-09-25T12:00:35.000Z</time>
                <name>Position 179</name>
            </trkpt>
            <trkpt lon="12.599086761474243" lat="47.5418543815599">
                <ele>1997.89</ele>
                <time>2013-09-25T12:01:45.000Z</time>
                <name>Position 180</name>
            </trkpt>
            <trkpt lon="12.598893642425171" lat="47.541725635527186">
                <ele>1979.47</ele>
                <time>2013-09-25T12:02:40.000Z</time>
                <name>Position 181</name>
            </trkpt>
            <trkpt lon="12.59867906570398" lat="47.54161834716659">
                <ele>1964.58</ele>
                <time>2013-09-25T12:03:26.000Z</time>
                <name>Position 182</name>
            </trkpt>
            <trkpt lon="12.598464488982788" lat="47.541511058805995">
                <ele>1951.27</ele>
                <time>2013-09-25T12:04:40.000Z</time>
                <name>Position 183</name>
            </trkpt>
            <trkpt lon="12.598292827605835" lat="47.54137158393722">
                <ele>1951.25</ele>
                <time>2013-09-25T12:05:02.000Z</time>
                <name>Position 184</name>
            </trkpt>
            <trkpt lon="12.598464488982788" lat="47.541232109068446">
                <ele>1952.25</ele>
                <time>2013-09-25T12:06:05.000Z</time>
                <name>Position 185</name>
            </trkpt>
            <trkpt lon="12.598485946654908" lat="47.54103899001937">
                <ele>1949.79</ele>
                <time>2013-09-25T12:07:06.000Z</time>
                <name>Position 186</name>
            </trkpt>
            <trkpt lon="12.598292827605835" lat="47.54091024398666">
                <ele>1954.19</ele>
                <time>2013-09-25T12:07:18.000Z</time>
                <name>Position 187</name>
            </trkpt>
            <trkpt lon="12.598035335540406" lat="47.54085659980636">
                <ele>1970.25</ele>
                <time>2013-09-25T12:08:00.000Z</time>
                <name>Position 188</name>
            </trkpt>
            <trkpt lon="12.597756385802857" lat="47.54087805747848">
                <ele>1975.11</ele>
                <time>2013-09-25T12:08:21.000Z</time>
                <name>Position 189</name>
            </trkpt>
            <trkpt lon="12.597541809081665" lat="47.540760040281825">
                <ele>1984.11</ele>
                <time>2013-09-25T12:09:19.000Z</time>
                <name>Position 190</name>
            </trkpt>
            <trkpt lon="12.597305774688355" lat="47.54067420959335">
                <ele>1987.12</ele>
                <time>2013-09-25T12:09:40.000Z</time>
                <name>Position 191</name>
            </trkpt>
            <trkpt lon="12.597048282622925" lat="47.540781497953944">
                <ele>1980.0</ele>
                <time>2013-09-25T12:10:15.000Z</time>
                <name>Position 192</name>
            </trkpt>
            <trkpt lon="12.596769332885376" lat="47.54083514213424">
                <ele>1940.65</ele>
                <time>2013-09-25T12:10:56.000Z</time>
                <name>Position 193</name>
            </trkpt>
            <trkpt lon="12.596340179442993" lat="47.54068493842941">
                <ele>1869.75</ele>
                <time>2013-09-25T15:00:01.000Z</time>
                <name>Position 194</name>
            </trkpt>
            <trkpt lon="12.596147060393921" lat="47.54054546356063">
                <ele>1863.62</ele>
                <time>2013-09-25T15:00:19.000Z</time>
                <name>Position 195</name>
            </trkpt>
            <trkpt lon="12.59591102600061" lat="47.54041671752792">
                <ele>1856.25</ele>
                <time>2013-09-25T15:00:38.000Z</time>
                <name>Position 196</name>
            </trkpt>
            <trkpt lon="12.595632076263062" lat="47.54040598869186">
                <ele>1843.03</ele>
                <time>2013-09-25T15:01:18.000Z</time>
                <name>Position 197</name>
            </trkpt>
            <trkpt lon="12.595396041869751" lat="47.54032015800338">
                <ele>1835.25</ele>
                <time>2013-09-25T15:01:37.000Z</time>
                <name>Position 198</name>
            </trkpt>
            <trkpt lon="12.595117092132202" lat="47.54032015800338">
                <ele>1823.05</ele>
                <time>2013-09-25T15:02:11.000Z</time>
                <name>Position 199</name>
            </trkpt>
            <trkpt lon="12.59494543075525" lat="47.54018068313461">
                <ele>1798.81</ele>
                <time>2013-09-25T15:03:25.000Z</time>
                <name>Position 200</name>
            </trkpt>
            <trkpt lon="12.59494543075525" lat="47.539998292921595">
                <ele>1786.12</ele>
                <time>2013-09-25T15:03:57.000Z</time>
                <name>Position 201</name>
            </trkpt>
            <trkpt lon="12.594838142394654" lat="47.53982663154464">
                <ele>1774.03</ele>
                <time>2013-09-25T15:04:30.000Z</time>
                <name>Position 202</name>
            </trkpt>
            <trkpt lon="12.5946664810177" lat="47.53968715667587">
                <ele>1765.56</ele>
                <time>2013-09-25T15:04:56.000Z</time>
                <name>Position 203</name>
            </trkpt>
            <trkpt lon="12.594387531280152" lat="47.539730072020106">
                <ele>1757.34</ele>
                <time>2013-09-25T15:05:20.000Z</time>
                <name>Position 204</name>
            </trkpt>
            <trkpt lon="12.594130039214722" lat="47.539783716200404">
                <ele>1750.3</ele>
                <time>2013-09-25T15:05:37.000Z</time>
                <name>Position 205</name>
            </trkpt>
            <trkpt lon="12.593872547149292" lat="47.5398373603807">
                <ele>1741.1</ele>
                <time>2013-09-25T15:06:02.000Z</time>
                <name>Position 206</name>
            </trkpt>
            <trkpt lon="12.59370088577234" lat="47.53969788551193">
                <ele>1723.75</ele>
                <time>2013-09-25T15:06:43.000Z</time>
                <name>Position 207</name>
            </trkpt>
            <trkpt lon="12.59367942810022" lat="47.539515495298915">
                <ele>1716.94</ele>
                <time>2013-09-25T15:07:04.000Z</time>
                <name>Position 208</name>
            </trkpt>
            <trkpt lon="12.593400478362671" lat="47.539515495298915">
                <ele>1704.52</ele>
                <time>2013-09-25T15:07:39.000Z</time>
                <name>Position 209</name>
            </trkpt>
            <trkpt lon="12.593142986297241" lat="47.53945112228256">
                <ele>1677.98</ele>
                <time>2013-09-25T15:08:31.000Z</time>
                <name>Position 210</name>
            </trkpt>
            <trkpt lon="12.592906951903931" lat="47.539536952971034">
                <ele>1663.47</ele>
                <time>2013-09-25T15:09:09.000Z</time>
                <name>Position 211</name>
            </trkpt>
            <trkpt lon="12.592885494231812" lat="47.53935456275802">
                <ele>1654.67</ele>
                <time>2013-09-25T15:09:30.000Z</time>
                <name>Position 212</name>
            </trkpt>
            <trkpt lon="12.592971324920288" lat="47.53918290138107">
                <ele>1649.68</ele>
                <time>2013-09-25T15:09:50.000Z</time>
                <name>Position 213</name>
            </trkpt>
            <trkpt lon="12.593142986297241" lat="47.539032697676234">
                <ele>1643.67</ele>
                <time>2013-09-25T15:10:10.000Z</time>
                <name>Position 214</name>
            </trkpt>
            <trkpt lon="12.593357563018433" lat="47.53892540931564">
                <ele>1638.55</ele>
                <time>2013-09-25T15:10:25.000Z</time>
                <name>Position 215</name>
            </trkpt>
            <trkpt lon="12.59342193603479" lat="47.538743019102625">
                <ele>1633.56</ele>
                <time>2013-09-25T15:10:40.000Z</time>
                <name>Position 216</name>
            </trkpt>
            <trkpt lon="12.593142986297241" lat="47.538743019102625">
                <ele>1627.11</ele>
                <time>2013-09-25T15:10:58.000Z</time>
                <name>Position 217</name>
            </trkpt>
            <trkpt lon="12.592864036559693" lat="47.538743019102625">
                <ele>1620.4</ele>
                <time>2013-09-25T15:11:14.000Z</time>
                <name>Position 218</name>
            </trkpt>
            <trkpt lon="12.592585086822144" lat="47.538764476774745">
                <ele>1613.58</ele>
                <time>2013-09-25T15:11:32.000Z</time>
                <name>Position 219</name>
            </trkpt>
            <trkpt lon="12.592327594756714" lat="47.53883957862716">
                <ele>1603.54</ele>
                <time>2013-09-25T15:12:03.000Z</time>
                <name>Position 220</name>
            </trkpt>
            <trkpt lon="12.592113018035523" lat="47.538721561430506">
                <ele>1596.22</ele>
                <time>2013-09-25T15:12:24.000Z</time>
                <name>Position 221</name>
            </trkpt>
            <trkpt lon="12.591834068297974" lat="47.538743019102625">
                <ele>1590.53</ele>
                <time>2013-09-25T15:12:42.000Z</time>
                <name>Position 222</name>
            </trkpt>
            <trkpt lon="12.591619491576783" lat="47.53885030746322">
                <ele>1578.77</ele>
                <time>2013-09-25T15:13:16.000Z</time>
                <name>Position 223</name>
            </trkpt>
            <trkpt lon="12.591598033904663" lat="47.53866791725021">
                <ele>1571.0</ele>
                <time>2013-09-25T15:13:36.000Z</time>
                <name>Position 224</name>
            </trkpt>
            <trkpt lon="12.591791152953736" lat="47.538528442381434">
                <ele>1565.23</ele>
                <time>2013-09-25T15:13:54.000Z</time>
                <name>Position 225</name>
            </trkpt>
            <trkpt lon="12.591555118560425" lat="47.53844261169296">
                <ele>1559.0</ele>
                <time>2013-09-25T15:14:19.000Z</time>
                <name>Position 226</name>
            </trkpt>
            <trkpt lon="12.591361999511353" lat="47.53857135772567">
                <ele>1545.5</ele>
                <time>2013-09-25T15:15:02.000Z</time>
                <name>Position 227</name>
            </trkpt>
            <trkpt lon="12.591211795806519" lat="47.53842115402084">
                <ele>1536.0</ele>
                <time>2013-09-25T15:15:27.000Z</time>
                <name>Position 228</name>
            </trkpt>
            <trkpt lon="12.590975761413208" lat="47.53833532333236">
                <ele>1522.63</ele>
                <time>2013-09-25T15:16:04.000Z</time>
                <name>Position 229</name>
            </trkpt>
            <trkpt lon="12.590825557708374" lat="47.53818511962753">
                <ele>1514.87</ele>
                <time>2013-09-25T15:16:25.000Z</time>
                <name>Position 230</name>
            </trkpt>
            <trkpt lon="12.590804100036255" lat="47.538002729414515">
                <ele>1505.37</ele>
                <time>2013-09-25T15:16:49.000Z</time>
                <name>Position 231</name>
            </trkpt>
            <trkpt lon="12.59067535400354" lat="47.53784179687362">
                <ele>1490.21</ele>
                <time>2013-09-25T15:17:22.000Z</time>
                <name>Position 232</name>
            </trkpt>
            <trkpt lon="12.59043931961023" lat="47.537734508513026">
                <ele>1479.11</ele>
                <time>2013-09-25T15:17:49.000Z</time>
                <name>Position 233</name>
            </trkpt>
            <trkpt lon="12.59020328521692" lat="47.53764867782455">
                <ele>1470.4</ele>
                <time>2013-09-25T15:18:10.000Z</time>
                <name>Position 234</name>
            </trkpt>
            <trkpt lon="12.589967250823609" lat="47.53756284713607">
                <ele>1464.11</ele>
                <time>2013-09-25T15:18:26.000Z</time>
                <name>Position 235</name>
            </trkpt>
            <trkpt lon="12.589795589446656" lat="47.5374233722673">
                <ele>1458.25</ele>
                <time>2013-09-25T15:18:42.000Z</time>
                <name>Position 236</name>
            </trkpt>
            <trkpt lon="12.589516639709107" lat="47.53739118575912">
                <ele>1456.02</ele>
                <time>2013-09-25T15:18:55.000Z</time>
                <name>Position 237</name>
            </trkpt>
            <trkpt lon="12.589302062987915" lat="47.537283897398524">
                <ele>1451.47</ele>
                <time>2013-09-25T15:19:12.000Z</time>
                <name>Position 238</name>
            </trkpt>
            <trkpt lon="12.589066028594605" lat="47.53718733787399">
                <ele>1445.11</ele>
                <time>2013-09-25T15:19:34.000Z</time>
                <name>Position 239</name>
            </trkpt>
            <trkpt lon="12.588894367217652" lat="47.53704786300521">
                <ele>1437.78</ele>
                <time>2013-09-25T15:20:00.000Z</time>
                <name>Position 240</name>
            </trkpt>
            <trkpt lon="12.58867979049646" lat="47.53694057464462">
                <ele>1427.98</ele>
                <time>2013-09-25T15:20:30.000Z</time>
                <name>Position 241</name>
            </trkpt>
            <trkpt lon="12.588508129119507" lat="47.53680109977584">
                <ele>1418.56</ele>
                <time>2013-09-25T15:20:56.000Z</time>
                <name>Position 242</name>
            </trkpt>
            <trkpt lon="12.588508129119507" lat="47.53661870956283">
                <ele>1411.3</ele>
                <time>2013-09-25T15:21:19.000Z</time>
                <name>Position 243</name>
            </trkpt>
            <trkpt lon="12.588250637054077" lat="47.53656506538253">
                <ele>1400.78</ele>
                <time>2013-09-25T15:21:46.000Z</time>
                <name>Position 244</name>
            </trkpt>
            <trkpt lon="12.588357925414673" lat="47.53639340400558">
                <ele>1385.0</ele>
                <time>2013-09-25T15:22:26.000Z</time>
                <name>Position 245</name>
            </trkpt>
            <trkpt lon="12.588572502135865" lat="47.536286115644984">
                <ele>1376.28</ele>
                <time>2013-09-25T15:22:48.000Z</time>
                <name>Position 246</name>
            </trkpt>
            <trkpt lon="12.58844375610315" lat="47.53612518310409">
                <ele>1368.42</ele>
                <time>2013-09-25T15:23:06.000Z</time>
                <name>Position 247</name>
            </trkpt>
            <trkpt lon="12.5881648063656" lat="47.53608226775985">
                <ele>1360.42</ele>
                <time>2013-09-25T15:23:24.000Z</time>
                <name>Position 248</name>
            </trkpt>
            <trkpt lon="12.587971687316529" lat="47.53595352172714">
                <ele>1349.67</ele>
                <time>2013-09-25T15:23:54.000Z</time>
                <name>Position 249</name>
            </trkpt>
            <trkpt lon="12.588014602660767" lat="47.535771131514124">
                <ele>1341.54</ele>
                <time>2013-09-25T15:24:21.000Z</time>
                <name>Position 250</name>
            </trkpt>
            <trkpt lon="12.587800025939575" lat="47.53566384315353">
                <ele>1332.15</ele>
                <time>2013-09-25T15:24:45.000Z</time>
                <name>Position 251</name>
            </trkpt>
            <trkpt lon="12.587542533874146" lat="47.53559947013717">
                <ele>1325.1</ele>
                <time>2013-09-25T15:25:04.000Z</time>
                <name>Position 252</name>
            </trkpt>
            <trkpt lon="12.587263584136597" lat="47.53559947013717">
                <ele>1315.98</ele>
                <time>2013-09-25T15:25:30.000Z</time>
                <name>Position 253</name>
            </trkpt>
            <trkpt lon="12.587242126464478" lat="47.53541707992416">
                <ele>1302.22</ele>
                <time>2013-09-25T15:26:09.000Z</time>
                <name>Position 254</name>
            </trkpt>
            <trkpt lon="12.587392330169312" lat="47.535266876219325">
                <ele>1295.18</ele>
                <time>2013-09-25T15:26:32.000Z</time>
                <name>Position 255</name>
            </trkpt>
            <trkpt lon="12.587542533874146" lat="47.53511667251449">
                <ele>1288.97</ele>
                <time>2013-09-25T15:26:53.000Z</time>
                <name>Position 256</name>
            </trkpt>
            <trkpt lon="12.587478160857788" lat="47.53493428230148">
                <ele>1283.72</ele>
                <time>2013-09-25T15:27:09.000Z</time>
                <name>Position 257</name>
            </trkpt>
            <trkpt lon="12.587242126464478" lat="47.534848451613">
                <ele>1276.22</ele>
                <time>2013-09-25T15:27:30.000Z</time>
                <name>Position 258</name>
            </trkpt>
            <trkpt lon="12.587327957152954" lat="47.53467679023605">
                <ele>1268.1</ele>
                <time>2013-09-25T15:27:56.000Z</time>
                <name>Position 259</name>
            </trkpt>
            <trkpt lon="12.587306499480835" lat="47.534494400023036">
                <ele>1262.4</ele>
                <time>2013-09-25T15:28:15.000Z</time>
                <name>Position 260</name>
            </trkpt>
            <trkpt lon="12.587349414825074" lat="47.53431200981002">
                <ele>1257.52</ele>
                <time>2013-09-25T15:28:31.000Z</time>
                <name>Position 261</name>
            </trkpt>
            <trkpt lon="12.58743524551355" lat="47.53414034843307">
                <ele>1251.24</ele>
                <time>2013-09-25T15:28:49.000Z</time>
                <name>Position 262</name>
            </trkpt>
            <trkpt lon="12.587628364562622" lat="47.534000873564295">
                <ele>1244.96</ele>
                <time>2013-09-25T15:29:09.000Z</time>
                <name>Position 263</name>
            </trkpt>
            <trkpt lon="12.587628364562622" lat="47.53381848335128">
                <ele>1237.48</ele>
                <time>2013-09-25T15:29:33.000Z</time>
                <name>Position 264</name>
            </trkpt>
            <trkpt lon="12.587370872497193" lat="47.533764839170985">
                <ele>1231.69</ele>
                <time>2013-09-25T15:29:52.000Z</time>
                <name>Position 265</name>
            </trkpt>
            <trkpt lon="12.587134838103882" lat="47.53367900848251">
                <ele>1223.22</ele>
                <time>2013-09-25T15:30:17.000Z</time>
                <name>Position 266</name>
            </trkpt>
            <trkpt lon="12.587049007415406" lat="47.533496618269496">
                <ele>1214.53</ele>
                <time>2013-09-25T15:30:46.000Z</time>
                <name>Position 267</name>
            </trkpt>
            <trkpt lon="12.587070465087525" lat="47.53331422805648">
                <ele>1206.16</ele>
                <time>2013-09-25T15:31:15.000Z</time>
                <name>Position 268</name>
            </trkpt>
            <trkpt lon="12.587091922759644" lat="47.53313183784347">
                <ele>1200.07</ele>
                <time>2013-09-25T15:31:37.000Z</time>
                <name>Position 269</name>
            </trkpt>
            <trkpt lon="12.587242126464478" lat="47.532981634138636">
                <ele>1193.9</ele>
                <time>2013-09-25T15:31:58.000Z</time>
                <name>Position 270</name>
            </trkpt>
            <trkpt lon="12.58719921112024" lat="47.53279924392562">
                <ele>1188.16</ele>
                <time>2013-09-25T15:32:17.000Z</time>
                <name>Position 271</name>
            </trkpt>
            <trkpt lon="12.587156295776001" lat="47.53261685371261">
                <ele>1182.76</ele>
                <time>2013-09-25T15:32:37.000Z</time>
                <name>Position 272</name>
            </trkpt>
            <trkpt lon="12.587156295776001" lat="47.5324344634996">
                <ele>1177.81</ele>
                <time>2013-09-25T15:32:57.000Z</time>
                <name>Position 273</name>
            </trkpt>
            <trkpt lon="12.587263584136597" lat="47.532262802122645">
                <ele>1173.25</ele>
                <time>2013-09-25T15:33:19.000Z</time>
                <name>Position 274</name>
            </trkpt>
            <trkpt lon="12.587413787841431" lat="47.53211259841781">
                <ele>1168.98</ele>
                <time>2013-09-25T15:33:40.000Z</time>
                <name>Position 275</name>
            </trkpt>
            <trkpt lon="12.58745670318567" lat="47.5319302082048">
                <ele>1165.84</ele>
                <time>2013-09-25T15:33:55.000Z</time>
                <name>Position 276</name>
            </trkpt>
            <trkpt lon="12.587413787841431" lat="47.531747817991786">
                <ele>1162.33</ele>
                <time>2013-09-25T15:34:10.000Z</time>
                <name>Position 277</name>
            </trkpt>
            <trkpt lon="12.58745670318567" lat="47.53156542777877">
                <ele>1157.17</ele>
                <time>2013-09-25T15:34:29.000Z</time>
                <name>Position 278</name>
            </trkpt>
            <trkpt lon="12.587542533874146" lat="47.53139376640182">
                <ele>1150.49</ele>
                <time>2013-09-25T15:34:56.000Z</time>
                <name>Position 279</name>
            </trkpt>
            <trkpt lon="12.587349414825074" lat="47.531265020369105">
                <ele>1143.41</ele>
                <time>2013-09-25T15:35:14.000Z</time>
                <name>Position 280</name>
            </trkpt>
            <trkpt lon="12.58719921112024" lat="47.53111481666427">
                <ele>1133.65</ele>
                <time>2013-09-25T15:35:37.000Z</time>
                <name>Position 281</name>
            </trkpt>
            <trkpt lon="12.58717775344812" lat="47.53093242645126">
                <ele>1123.11</ele>
                <time>2013-09-25T15:36:07.000Z</time>
                <name>Position 282</name>
            </trkpt>
            <trkpt lon="12.587070465087525" lat="47.530760765074305">
                <ele>1115.73</ele>
                <time>2013-09-25T15:36:29.000Z</time>
                <name>Position 283</name>
            </trkpt>
            <trkpt lon="12.586963176726929" lat="47.53058910369735">
                <ele>1107.58</ele>
                <time>2013-09-25T15:36:52.000Z</time>
                <name>Position 284</name>
            </trkpt>
            <trkpt lon="12.586877346038452" lat="47.5304174423204">
                <ele>1102.48</ele>
                <time>2013-09-25T15:37:09.000Z</time>
                <name>Position 285</name>
            </trkpt>
            <trkpt lon="12.587006092071167" lat="47.530256509779505">
                <ele>1097.08</ele>
                <time>2013-09-25T15:37:29.000Z</time>
                <name>Position 286</name>
            </trkpt>
            <trkpt lon="12.587027549743286" lat="47.53007411956649">
                <ele>1087.39</ele>
                <time>2013-09-25T15:38:03.000Z</time>
                <name>Position 287</name>
            </trkpt>
            <trkpt lon="12.586791515349976" lat="47.529988288878016">
                <ele>1078.4</ele>
                <time>2013-09-25T15:38:26.000Z</time>
                <name>Position 288</name>
            </trkpt>
            <trkpt lon="12.586877346038452" lat="47.52981662750106">
                <ele>1066.4</ele>
                <time>2013-09-25T15:38:53.000Z</time>
                <name>Position 289</name>
            </trkpt>
            <trkpt lon="12.586641311645142" lat="47.52972006797653">
                <ele>1052.86</ele>
                <time>2013-09-25T15:39:26.000Z</time>
                <name>Position 290</name>
            </trkpt>
            <trkpt lon="12.586362361907593" lat="47.529730796812586">
                <ele>1042.83</ele>
                <time>2013-09-25T15:39:46.000Z</time>
                <name>Position 291</name>
            </trkpt>
            <trkpt lon="12.586126327514283" lat="47.52964496612411">
                <ele>1035.4</ele>
                <time>2013-09-25T15:40:04.000Z</time>
                <name>Position 292</name>
            </trkpt>
            <trkpt lon="12.585847377776734" lat="47.52966642379623">
                <ele>1027.55</ele>
                <time>2013-09-25T15:40:26.000Z</time>
                <name>Position 293</name>
            </trkpt>
            <trkpt lon="12.585589885711304" lat="47.529730796812586">
                <ele>1022.79</ele>
                <time>2013-09-25T15:40:41.000Z</time>
                <name>Position 294</name>
            </trkpt>
            <trkpt lon="12.585353851317993" lat="47.52981662750106">
                <ele>1019.32</ele>
                <time>2013-09-25T15:40:55.000Z</time>
                <name>Position 295</name>
            </trkpt>
            <trkpt lon="12.585074901580445" lat="47.5298595428453">
                <ele>1014.93</ele>
                <time>2013-09-25T15:41:12.000Z</time>
                <name>Position 296</name>
            </trkpt>
            <trkpt lon="12.584795951842896" lat="47.52988100051742">
                <ele>1010.72</ele>
                <time>2013-09-25T15:41:28.000Z</time>
                <name>Position 297</name>
            </trkpt>
            <trkpt lon="12.584517002105347" lat="47.5299131870256">
                <ele>1006.34</ele>
                <time>2013-09-25T15:41:45.000Z</time>
                <name>Position 298</name>
            </trkpt>
            <trkpt lon="12.584259510039917" lat="47.5299668312059">
                <ele>1002.34</ele>
                <time>2013-09-25T15:42:02.000Z</time>
                <name>Position 299</name>
            </trkpt>
            <trkpt lon="12.584002017974488" lat="47.530041933058314">
                <ele>998.32</ele>
                <time>2013-09-25T15:42:19.000Z</time>
                <name>Position 300</name>
            </trkpt>
            <trkpt lon="12.583765983581177" lat="47.53015995025497">
                <ele>994.64</ele>
                <time>2013-09-25T15:42:39.000Z</time>
                <name>Position 301</name>
            </trkpt>
            <trkpt lon="12.583637237548462" lat="47.53032088279586">
                <ele>990.86</ele>
                <time>2013-09-25T15:42:54.000Z</time>
                <name>Position 302</name>
            </trkpt>
            <trkpt lon="12.583401203155152" lat="47.53040671348434">
                <ele>987.07</ele>
                <time>2013-09-25T15:43:09.000Z</time>
                <name>Position 303</name>
            </trkpt>
            <trkpt lon="12.583165168761841" lat="47.530503273008875">
                <ele>982.76</ele>
                <time>2013-09-25T15:43:26.000Z</time>
                <name>Position 304</name>
            </trkpt>
            <trkpt lon="12.582907676696411" lat="47.53058910369735">
                <ele>977.66</ele>
                <time>2013-09-25T15:43:48.000Z</time>
                <name>Position 305</name>
            </trkpt>
            <trkpt lon="12.582628726958863" lat="47.53057837486129">
                <ele>975.31</ele>
                <time>2013-09-25T15:44:06.000Z</time>
                <name>Position 306</name>
            </trkpt>
            <trkpt lon="12.582349777221314" lat="47.53058910369735">
                <ele>973.43</ele>
                <time>2013-09-25T15:44:23.000Z</time>
                <name>Position 307</name>
            </trkpt>
            <trkpt lon="12.582070827483765" lat="47.53064274787765">
                <ele>970.09</ele>
                <time>2013-09-25T15:44:43.000Z</time>
                <name>Position 308</name>
            </trkpt>
            <trkpt lon="12.581856250762574" lat="47.530750036238246">
                <ele>964.2</ele>
                <time>2013-09-25T15:45:00.000Z</time>
                <name>Position 309</name>
            </trkpt>
            <trkpt lon="12.581598758697144" lat="47.53080368041854">
                <ele>957.33</ele>
                <time>2013-09-25T15:45:17.000Z</time>
                <name>Position 310</name>
            </trkpt>
            <trkpt lon="12.581384181975952" lat="47.53091096877914">
                <ele>949.41</ele>
                <time>2013-09-25T15:45:36.000Z</time>
                <name>Position 311</name>
            </trkpt>
            <trkpt lon="12.581148147582642" lat="47.531007528303675">
                <ele>942.15</ele>
                <time>2013-09-25T15:45:54.000Z</time>
                <name>Position 312</name>
            </trkpt>
            <trkpt lon="12.580890655517212" lat="47.53107190132003">
                <ele>935.64</ele>
                <time>2013-09-25T15:46:10.000Z</time>
                <name>Position 313</name>
            </trkpt>
            <trkpt lon="12.580633163451783" lat="47.53112554550033">
                <ele>928.79</ele>
                <time>2013-09-25T15:46:31.000Z</time>
                <name>Position 314</name>
            </trkpt>
            <trkpt lon="12.580397129058472" lat="47.531232833860926">
                <ele>922.21</ele>
                <time>2013-09-25T15:46:52.000Z</time>
                <name>Position 315</name>
            </trkpt>
            <trkpt lon="12.580225467681519" lat="47.5313723087297">
                <ele>917.48</ele>
                <time>2013-09-25T15:47:08.000Z</time>
                <name>Position 316</name>
            </trkpt>
            <trkpt lon="12.57996797561609" lat="47.53130793571334">
                <ele>911.28</ele>
                <time>2013-09-25T15:47:38.000Z</time>
                <name>Position 317</name>
            </trkpt>
            <trkpt lon="12.57971048355066" lat="47.53136157989364">
                <ele>899.3</ele>
                <time>2013-09-25T15:48:20.000Z</time>
                <name>Position 318</name>
            </trkpt>
            <trkpt lon="12.57945299148523" lat="47.53143668174606">
                <ele>887.29</ele>
                <time>2013-09-25T15:48:49.000Z</time>
                <name>Position 319</name>
            </trkpt>
            <trkpt lon="12.5791954994198" lat="47.531490325926356">
                <ele>876.36</ele>
                <time>2013-09-25T15:49:21.000Z</time>
                <name>Position 320</name>
            </trkpt>
            <trkpt lon="12.57893800735437" lat="47.531543970106654">
                <ele>867.41</ele>
                <time>2013-09-25T15:49:47.000Z</time>
                <name>Position 321</name>
            </trkpt>
            <trkpt lon="12.57870197296106" lat="47.53145813941818">
                <ele>862.05</ele>
                <time>2013-09-25T15:50:05.000Z</time>
                <name>Position 322</name>
            </trkpt>
            <trkpt lon="12.578423023223511" lat="47.53144741058212">
                <ele>857.25</ele>
                <time>2013-09-25T15:50:25.000Z</time>
                <name>Position 323</name>
            </trkpt>
            <trkpt lon="12.5781869888302" lat="47.53136157989364">
                <ele>853.94</ele>
                <time>2013-09-25T15:50:40.000Z</time>
                <name>Position 324</name>
            </trkpt>
            <trkpt lon="12.57792949676477" lat="47.531297206877284">
                <ele>850.56</ele>
                <time>2013-09-25T15:50:54.000Z</time>
                <name>Position 325</name>
            </trkpt>
            <trkpt lon="12.577672004699341" lat="47.531232833860926">
                <ele>847.91</ele>
                <time>2013-09-25T15:51:08.000Z</time>
                <name>Position 326</name>
            </trkpt>
            <trkpt lon="12.577414512633911" lat="47.53116846084457">
                <ele>846.39</ele>
                <time>2013-09-25T15:51:22.000Z</time>
                <name>Position 327</name>
            </trkpt>
            <trkpt lon="12.577157020568482" lat="47.53109335899215">
                <ele>845.3</ele>
                <time>2013-09-25T15:51:37.000Z</time>
                <name>Position 328</name>
            </trkpt>
            <trkpt lon="12.576899528503052" lat="47.531039714811854">
                <ele>843.43</ele>
                <time>2013-09-25T15:51:55.000Z</time>
                <name>Position 329</name>
            </trkpt>
            <trkpt lon="12.576642036437622" lat="47.530986070631556">
                <ele>842.32</ele>
                <time>2013-09-25T15:52:10.000Z</time>
                <name>Position 330</name>
            </trkpt>
            <trkpt lon="12.576384544372193" lat="47.5309216976152">
                <ele>840.82</ele>
                <time>2013-09-25T15:52:29.000Z</time>
                <name>Position 331</name>
            </trkpt>
            <trkpt lon="12.576169967651001" lat="47.5308144092546">
                <ele>840.25</ele>
                <time>2013-09-25T15:52:48.000Z</time>
                <name>Position 332</name>
            </trkpt>
            <trkpt lon="12.57595539092981" lat="47.53069639205795">
                <ele>839.25</ele>
                <time>2013-09-25T15:53:08.000Z</time>
                <name>Position 333</name>
            </trkpt>
        </trkseg>
    </trk>
</gpx>
