<?xml version="1.0" encoding="UTF-8" standalone="yes"?>
<gpx xmlns:gpxtpx1="http://www.garmin.com/xmlschemas/TrackPointExtension/v1" xmlns="http://www.topografix.com/GPX/1/1" xmlns:trp="http://www.garmin.com/xmlschemas/TripExtensions/v1" xmlns:gpxx="http://www.garmin.com/xmlschemas/GpxExtensions/v3" xmlns:gpxtpx="http://www.garmin.com/xmlschemas/TrackPointExtension/v2" version="1.1" creator="Generated by Christian Pesch's RouteConverter. See http://www.routeconverter.com">
    <metadata>
        <name>2018-10-05 11:08</name>
        <link href="http://www.oruxmaps.com">
            <text>OruxMaps</text>
        </link>
        <time>2018-10-05T09:08:07Z</time>
        <bounds minlat="47.2859461" minlon="11.3796441" maxlat="47.3126791" maxlon="11.3993138"/>
    </metadata>
    <wpt lat="47.3123924" lon="11.3811641">
        <ele>2273.1</ele>
        <time>2018-10-05T11:43:09.000Z</time>
        <name>0000022</name>
        <sym>Waypoint</sym>
        <type>Wegpunkt</type>
        <extensions>
            <om:oruxmapsextensions xmlns:om="http://www.oruxmaps.com/oruxmapsextensions/1/0" xmlns:gpxtpx="http://www.garmin.com/xmlschemas/TrackPointExtension/v1" xmlns:xsi="http://www.w3.org/2001/XMLSchema-instance">
                <om:ext subtype="0" type="ICON">1</om:ext>
</om:oruxmapsextensions>
        </extensions>
    </wpt>
    <trk>
        <name>2018-10-05 11:08</name>
        <desc>&lt;p&gt;Startzeit: 10/05/2018 11:08&lt;br/&gt;Zielzeit: 10/05/2018 14:43&lt;br/&gt;Strecke: 7,
2 km (03:35)&lt;br/&gt;Bewegungszeit: 01:56&lt;br/&gt;Ø-Geschwindigkeit: 2,
01 km/h&lt;br/&gt;Netto-Geschwindigkeit: 3,
7 km/h&lt;br/&gt;Max. Geschwindigkeit: 24,
37 km/h&lt;br/&gt;Minimale Höhe: 857 m&lt;br/&gt;Maximale Höhe: 2298 m&lt;br/&gt;Steig-Geschw.: 989,
4 m/h&lt;br/&gt;Sink-Geschw.: -3764,
8 m/h&lt;br/&gt;Aufstieg: 3025 m&lt;br/&gt;Abstieg: -1994 m&lt;br/&gt;Steigzeit: 03:03&lt;br/&gt;Sinkzeit: 00:31&lt;br/&gt;&lt;/p&gt;&lt;hr align="center" width="480" style="height: 2px; width: 517px"/&gt;</desc>
        <type>Berg/ Bergsteigen</type>
        <extensions>
            <om:oruxmapsextensions xmlns:om="http://www.oruxmaps.com/oruxmapsextensions/1/0" xmlns:gpxtpx="http://www.garmin.com/xmlschemas/TrackPointExtension/v1" xmlns:xsi="http://www.w3.org/2001/XMLSchema-instance">
                <om:ext subtype="0" type="TYPE">7</om:ext>
                <om:ext type="DIFFICULTY">0</om:ext>
</om:oruxmapsextensions>
        </extensions>
        <trkseg>
            <trkpt lat="47.3122318" lon="11.3839236">
                <ele>2223.8</ele>
                <time>2018-10-05T11:20:41.000Z</time>
                <name>Position 1</name>
            </trkpt>
            <trkpt lat="47.3123172" lon="11.3839729">
                <ele>2259.3</ele>
                <time>2018-10-05T11:20:59.000Z</time>
                <name>Position 2</name>
            </trkpt>
            <trkpt lat="47.3123759" lon="11.3838666">
                <ele>2266.3</ele>
                <time>2018-10-05T11:21:15.000Z</time>
                <name>Position 3</name>
            </trkpt>
            <trkpt lat="47.3124341" lon="11.383303">
                <ele>2259.7</ele>
                <time>2018-10-05T11:33:06.000Z</time>
                <name>Position 4</name>
            </trkpt>
            <trkpt lat="47.312095" lon="11.3824268">
                <ele>2274.4</ele>
                <time>2018-10-05T11:34:53.000Z</time>
                <name>Position 5</name>
            </trkpt>
            <trkpt lat="47.3120887" lon="11.3822859">
                <ele>2283.2</ele>
                <time>2018-10-05T11:35:11.000Z</time>
                <name>Position 6</name>
            </trkpt>
            <trkpt lat="47.3120979" lon="11.3821523">
                <ele>2284.6</ele>
                <time>2018-10-05T11:35:25.000Z</time>
                <name>Position 7</name>
            </trkpt>
            <trkpt lat="47.3120979" lon="11.3819989">
                <ele>2283.7</ele>
                <time>2018-10-05T11:35:35.000Z</time>
                <name>Position 8</name>
            </trkpt>
            <trkpt lat="47.3120839" lon="11.3818633">
                <ele>2288.6</ele>
                <time>2018-10-05T11:35:53.000Z</time>
                <name>Position 9</name>
            </trkpt>
            <trkpt lat="47.3120679" lon="11.3817089">
                <ele>2285.4</ele>
                <time>2018-10-05T11:36:23.000Z</time>
                <name>Position 10</name>
            </trkpt>
            <trkpt lat="47.3120815" lon="11.3815581">
                <ele>2287.0</ele>
                <time>2018-10-05T11:36:35.000Z</time>
                <name>Position 11</name>
            </trkpt>
            <trkpt lat="47.3121816" lon="11.3812398">
                <ele>2282.6</ele>
                <time>2018-10-05T11:38:36.000Z</time>
                <name>Position 12</name>
            </trkpt>
            <trkpt lat="47.3122729" lon="11.3812959">
                <ele>2282.3</ele>
                <time>2018-10-05T11:39:28.000Z</time>
                <name>Position 13</name>
            </trkpt>
            <trkpt lat="47.3123078" lon="11.3811631">
                <ele>2277.1</ele>
                <time>2018-10-05T11:42:46.000Z</time>
                <name>Position 14</name>
            </trkpt>
            <trkpt lat="47.3123282" lon="11.3811336">
                <ele>2281.4</ele>
                <time>2018-10-05T11:46:18.000Z</time>
                <name>Position 15</name>
            </trkpt>
            <trkpt lat="47.312344" lon="11.3809993">
                <ele>2279.2</ele>
                <time>2018-10-05T11:47:04.000Z</time>
                <name>Position 16</name>
            </trkpt>
            <trkpt lat="47.3123921" lon="11.3808823">
                <ele>2282.9</ele>
                <time>2018-10-05T11:50:06.000Z</time>
                <name>Position 17</name>
            </trkpt>
            <trkpt lat="47.3123406" lon="11.3807569">
                <ele>2288.6</ele>
                <time>2018-10-05T11:55:51.000Z</time>
                <name>Position 18</name>
            </trkpt>
            <trkpt lat="47.3123841" lon="11.3805072">
                <ele>2298.7</ele>
                <time>2018-10-05T11:57:21.000Z</time>
                <name>Position 19</name>
            </trkpt>
            <trkpt lat="47.3122921" lon="11.3804951">
                <ele>2283.3</ele>
                <time>2018-10-05T12:02:14.000Z</time>
                <name>Position 20</name>
            </trkpt>
            <trkpt lat="47.3122202" lon="11.380578">
                <ele>2284.3</ele>
                <time>2018-10-05T12:02:40.000Z</time>
                <name>Position 21</name>
            </trkpt>
            <trkpt lat="47.3121392" lon="11.3805199">
                <ele>2276.1</ele>
                <time>2018-10-05T12:02:52.000Z</time>
                <name>Position 22</name>
            </trkpt>
            <trkpt lat="47.3121671" lon="11.3807016">
                <ele>2280.0</ele>
                <time>2018-10-05T12:03:40.000Z</time>
                <name>Position 23</name>
            </trkpt>
            <trkpt lat="47.3121596" lon="11.3811702">
                <ele>2272.5</ele>
                <time>2018-10-05T12:04:22.000Z</time>
                <name>Position 24</name>
            </trkpt>
            <trkpt lat="47.3120659" lon="11.3812138">
                <ele>2279.9</ele>
                <time>2018-10-05T12:04:44.000Z</time>
                <name>Position 25</name>
            </trkpt>
            <trkpt lat="47.3121629" lon="11.3813391">
                <ele>2282.3</ele>
                <time>2018-10-05T12:14:56.000Z</time>
                <name>Position 26</name>
            </trkpt>
            <trkpt lat="47.3122486" lon="11.3814121">
                <ele>2282.3</ele>
                <time>2018-10-05T12:15:06.000Z</time>
                <name>Position 27</name>
            </trkpt>
            <trkpt lat="47.3122006" lon="11.3812984">
                <ele>2281.3</ele>
                <time>2018-10-05T12:15:50.000Z</time>
                <name>Position 28</name>
            </trkpt>
            <trkpt lat="47.3122874" lon="11.3812255">
                <ele>2282.2</ele>
                <time>2018-10-05T12:16:11.000Z</time>
                <name>Position 29</name>
            </trkpt>
            <trkpt lat="47.3123921" lon="11.3812048">
                <ele>2286.5</ele>
                <time>2018-10-05T12:16:35.000Z</time>
                <name>Position 30</name>
            </trkpt>
            <trkpt lat="47.3124836" lon="11.3812219">
                <ele>2284.1</ele>
                <time>2018-10-05T12:17:13.000Z</time>
                <name>Position 31</name>
            </trkpt>
            <trkpt lat="47.3125238" lon="11.3810674">
                <ele>2281.3</ele>
                <time>2018-10-05T12:18:27.000Z</time>
                <name>Position 32</name>
            </trkpt>
            <trkpt lat="47.312455" lon="11.3809775">
                <ele>2293.1</ele>
                <time>2018-10-05T12:19:39.000Z</time>
                <name>Position 33</name>
            </trkpt>
            <trkpt lat="47.3124467" lon="11.3805617">
                <ele>2292.1</ele>
                <time>2018-10-05T12:21:35.000Z</time>
                <name>Position 34</name>
            </trkpt>
            <trkpt lat="47.3123514" lon="11.3804428">
                <ele>2283.2</ele>
                <time>2018-10-05T12:25:13.000Z</time>
                <name>Position 35</name>
            </trkpt>
            <trkpt lat="47.3122389" lon="11.3804056">
                <ele>2286.9</ele>
                <time>2018-10-05T12:25:52.000Z</time>
                <name>Position 36</name>
            </trkpt>
            <trkpt lat="47.3121683" lon="11.3804927">
                <ele>2281.1</ele>
                <time>2018-10-05T12:26:02.000Z</time>
                <name>Position 37</name>
            </trkpt>
            <trkpt lat="47.3120597" lon="11.3809056">
                <ele>2281.6</ele>
                <time>2018-10-05T12:26:38.000Z</time>
                <name>Position 38</name>
            </trkpt>
            <trkpt lat="47.3120782" lon="11.3810412">
                <ele>2282.5</ele>
                <time>2018-10-05T12:26:46.000Z</time>
                <name>Position 39</name>
            </trkpt>
            <trkpt lat="47.3121015" lon="11.3811765">
                <ele>2276.0</ele>
                <time>2018-10-05T12:26:54.000Z</time>
                <name>Position 40</name>
            </trkpt>
            <trkpt lat="47.3121599" lon="11.3813125">
                <ele>2279.3</ele>
                <time>2018-10-05T12:27:00.000Z</time>
                <name>Position 41</name>
            </trkpt>
            <trkpt lat="47.3121691" lon="11.3814555">
                <ele>2281.6</ele>
                <time>2018-10-05T12:27:14.000Z</time>
                <name>Position 42</name>
            </trkpt>
            <trkpt lat="47.3120896" lon="11.3815528">
                <ele>2286.8</ele>
                <time>2018-10-05T12:27:26.000Z</time>
                <name>Position 43</name>
            </trkpt>
            <trkpt lat="47.3120903" lon="11.3816996">
                <ele>2283.9</ele>
                <time>2018-10-05T12:27:42.000Z</time>
                <name>Position 44</name>
            </trkpt>
            <trkpt lat="47.3121067" lon="11.3818304">
                <ele>2285.5</ele>
                <time>2018-10-05T12:27:54.000Z</time>
                <name>Position 45</name>
            </trkpt>
            <trkpt lat="47.312198" lon="11.3824761">
                <ele>2264.3</ele>
                <time>2018-10-05T12:28:47.000Z</time>
                <name>Position 46</name>
            </trkpt>
            <trkpt lat="47.3122101" lon="11.382629">
                <ele>2264.7</ele>
                <time>2018-10-05T12:28:57.000Z</time>
                <name>Position 47</name>
            </trkpt>
            <trkpt lat="47.3122518" lon="11.3827593">
                <ele>2270.4</ele>
                <time>2018-10-05T12:29:07.000Z</time>
                <name>Position 48</name>
            </trkpt>
            <trkpt lat="47.3122717" lon="11.3829112">
                <ele>2272.0</ele>
                <time>2018-10-05T12:29:19.000Z</time>
                <name>Position 49</name>
            </trkpt>
            <trkpt lat="47.3123034" lon="11.3830684">
                <ele>2274.2</ele>
                <time>2018-10-05T12:29:29.000Z</time>
                <name>Position 50</name>
            </trkpt>
            <trkpt lat="47.3123346" lon="11.3831945">
                <ele>2276.2</ele>
                <time>2018-10-05T12:29:37.000Z</time>
                <name>Position 51</name>
            </trkpt>
            <trkpt lat="47.3123735" lon="11.3833289">
                <ele>2278.1</ele>
                <time>2018-10-05T12:29:47.000Z</time>
                <name>Position 52</name>
            </trkpt>
            <trkpt lat="47.3123871" lon="11.3834968">
                <ele>2276.2</ele>
                <time>2018-10-05T12:29:57.000Z</time>
                <name>Position 53</name>
            </trkpt>
            <trkpt lat="47.3123691" lon="11.3836367">
                <ele>2276.9</ele>
                <time>2018-10-05T12:30:05.000Z</time>
                <name>Position 54</name>
            </trkpt>
            <trkpt lat="47.3123543" lon="11.3837733">
                <ele>2276.8</ele>
                <time>2018-10-05T12:30:13.000Z</time>
                <name>Position 55</name>
            </trkpt>
            <trkpt lat="47.3123445" lon="11.3839344">
                <ele>2277.2</ele>
                <time>2018-10-05T12:30:21.000Z</time>
                <name>Position 56</name>
            </trkpt>
            <trkpt lat="47.3122478" lon="11.383996">
                <ele>2275.7</ele>
                <time>2018-10-05T12:30:29.000Z</time>
                <name>Position 57</name>
            </trkpt>
            <trkpt lat="47.3121448" lon="11.3839399">
                <ele>2277.5</ele>
                <time>2018-10-05T12:30:39.000Z</time>
                <name>Position 58</name>
            </trkpt>
        </trkseg>
    </trk>
</gpx>
