<?xml version="1.0" encoding="UTF-8" standalone="yes"?>
<gpx xmlns:gpxtpx1="http://www.garmin.com/xmlschemas/TrackPointExtension/v1" xmlns="http://www.topografix.com/GPX/1/1" xmlns:trp="http://www.garmin.com/xmlschemas/TripExtensions/v1" xmlns:gpxx="http://www.garmin.com/xmlschemas/GpxExtensions/v3" xmlns:gpxtpx="http://www.garmin.com/xmlschemas/TrackPointExtension/v2" version="1.1" creator="RouteConverter 2.29">
    <metadata>
        <name>2022-08-30 09:31</name>
        <link href="https://www.oruxmaps.com">
            <text>OruxMaps</text>
        </link>
        <time>2022-09-01T05:06:12.206Z</time>
        <bounds minlat="47.5290398" minlon="13.4950686" maxlat="47.5855288" maxlon="13.5355770"/>
    </metadata>
    <wpt lat="47.5292139" lon="13.5097253">
        <ele>935.6</ele>
        <time>2022-08-30T08:02:15.000Z</time>
        <name>eist</name>
        <sym>Waypoint</sym>
        <type>Wegpunkt</type>
        <extensions>
            <om:oruxmapsextensions xmlns:om="http://www.oruxmaps.com/oruxmapsextensions/1/0" xmlns:gpxtpx="http://www.garmin.com/xmlschemas/TrackPointExtension/v1" xmlns:xsi="http://www.w3.org/2001/XMLSchema-instance">
                <om:ext subtype="0" type="ICON">1</om:ext>
</om:oruxmapsextensions>
        </extensions>
    </wpt>
    <trk>
        <name>2022-08-30 09:31</name>
        <desc>&lt;p&gt;Startzeit: 08/30/2022 09:32&lt;br/&gt;Zielzeit: 08/30/2022 16:17&lt;br/&gt;Strecke: 12,
5 km (06:45)&lt;br/&gt;Bewegungszeit: 01:59&lt;br/&gt;Ø-Geschwindigkeit: 1,
84 km/h&lt;br/&gt;Netto-Geschwindigkeit: 6,
25 km/h&lt;br/&gt;Max. Geschwindigkeit: 79,
36 km/h&lt;br/&gt;Minimale Höhe: 717 m&lt;br/&gt;Maximale Höhe: 1201 m&lt;br/&gt;Steig-Geschw.: 66 m/h&lt;br/&gt;Sink-Geschw.: -268,
2 m/h&lt;br/&gt;Aufstieg: 313 m&lt;br/&gt;Abstieg: -496 m&lt;br/&gt;Steigzeit: 04:44&lt;br/&gt;Sinkzeit: 01:51&lt;br/&gt;&lt;/p&gt;&lt;hr align="center" width="480" style="height: 2px; width: 517px"/&gt;</desc>
        <type>Unbestimmt</type>
        <extensions>
            <om:oruxmapsextensions xmlns:om="http://www.oruxmaps.com/oruxmapsextensions/1/0" xmlns:gpxtpx="http://www.garmin.com/xmlschemas/TrackPointExtension/v1" xmlns:xsi="http://www.w3.org/2001/XMLSchema-instance">
                <om:ext subtype="0" type="TYPE">0</om:ext>
                <om:ext type="DIFFICULTY">0</om:ext>
</om:oruxmapsextensions>
        </extensions>
        <trkseg>
            <trkpt lat="47.5335949" lon="13.495692">
                <ele>911.6</ele>
                <time>2022-08-30T07:32:12.000Z</time>
                <name>Position 1</name>
            </trkpt>
            <trkpt lat="47.5335" lon="13.4957281">
                <ele>911.5</ele>
                <time>2022-08-30T07:32:15.000Z</time>
                <name>Position 2</name>
            </trkpt>
            <trkpt lat="47.5335293" lon="13.4959465">
                <ele>912.1</ele>
                <time>2022-08-30T07:32:35.000Z</time>
                <name>Position 3</name>
            </trkpt>
            <trkpt lat="47.5336135" lon="13.4960307">
                <ele>912.5</ele>
                <time>2022-08-30T07:32:52.000Z</time>
                <name>Position 4</name>
            </trkpt>
            <trkpt lat="47.5336969" lon="13.4960893">
                <ele>916.4</ele>
                <time>2022-08-30T07:33:13.000Z</time>
                <name>Position 5</name>
            </trkpt>
            <trkpt lat="47.5337679" lon="13.4961758">
                <ele>918.5</ele>
                <time>2022-08-30T07:33:22.000Z</time>
                <name>Position 6</name>
            </trkpt>
            <trkpt lat="47.5337889" lon="13.4963173">
                <ele>919.8</ele>
                <time>2022-08-30T07:33:30.000Z</time>
                <name>Position 7</name>
            </trkpt>
            <trkpt lat="47.5337326" lon="13.4964401">
                <ele>921.1</ele>
                <time>2022-08-30T07:33:37.000Z</time>
                <name>Position 8</name>
            </trkpt>
            <trkpt lat="47.5336418" lon="13.4964803">
                <ele>924.5</ele>
                <time>2022-08-30T07:34:03.000Z</time>
                <name>Position 9</name>
            </trkpt>
            <trkpt lat="47.5335451" lon="13.4965246">
                <ele>926.4</ele>
                <time>2022-08-30T07:34:17.000Z</time>
                <name>Position 10</name>
            </trkpt>
            <trkpt lat="47.5334503" lon="13.4965492">
                <ele>927.9</ele>
                <time>2022-08-30T07:34:27.000Z</time>
                <name>Position 11</name>
            </trkpt>
            <trkpt lat="47.5333696" lon="13.4966156">
                <ele>928.9</ele>
                <time>2022-08-30T07:34:38.000Z</time>
                <name>Position 12</name>
            </trkpt>
            <trkpt lat="47.533277" lon="13.4966772">
                <ele>930.1</ele>
                <time>2022-08-30T07:34:46.000Z</time>
                <name>Position 13</name>
            </trkpt>
            <trkpt lat="47.5332167" lon="13.4967766">
                <ele>930.9</ele>
                <time>2022-08-30T07:34:55.000Z</time>
                <name>Position 14</name>
            </trkpt>
            <trkpt lat="47.5331534" lon="13.4968738">
                <ele>931.6</ele>
                <time>2022-08-30T07:35:04.000Z</time>
                <name>Position 15</name>
            </trkpt>
            <trkpt lat="47.5330871" lon="13.4969794">
                <ele>931.8</ele>
                <time>2022-08-30T07:35:11.000Z</time>
                <name>Position 16</name>
            </trkpt>
            <trkpt lat="47.5329997" lon="13.4970463">
                <ele>932.2</ele>
                <time>2022-08-30T07:35:20.000Z</time>
                <name>Position 17</name>
            </trkpt>
            <trkpt lat="47.5329528" lon="13.4971665">
                <ele>932.4</ele>
                <time>2022-08-30T07:35:27.000Z</time>
                <name>Position 18</name>
            </trkpt>
            <trkpt lat="47.5328912" lon="13.497284">
                <ele>932.3</ele>
                <time>2022-08-30T07:35:39.000Z</time>
                <name>Position 19</name>
            </trkpt>
            <trkpt lat="47.5328441" lon="13.497403">
                <ele>932.6</ele>
                <time>2022-08-30T07:35:46.000Z</time>
                <name>Position 20</name>
            </trkpt>
            <trkpt lat="47.5328552" lon="13.4975448">
                <ele>932.7</ele>
                <time>2022-08-30T07:35:56.000Z</time>
                <name>Position 21</name>
            </trkpt>
            <trkpt lat="47.5328381" lon="13.4976808">
                <ele>933.2</ele>
                <time>2022-08-30T07:36:04.000Z</time>
                <name>Position 22</name>
            </trkpt>
            <trkpt lat="47.5328462" lon="13.4978192">
                <ele>933.5</ele>
                <time>2022-08-30T07:36:12.000Z</time>
                <name>Position 23</name>
            </trkpt>
            <trkpt lat="47.5328331" lon="13.4979526">
                <ele>933.5</ele>
                <time>2022-08-30T07:36:19.000Z</time>
                <name>Position 24</name>
            </trkpt>
            <trkpt lat="47.5327927" lon="13.4980887">
                <ele>933.6</ele>
                <time>2022-08-30T07:36:30.000Z</time>
                <name>Position 25</name>
            </trkpt>
            <trkpt lat="47.5327731" lon="13.498241">
                <ele>933.7</ele>
                <time>2022-08-30T07:36:37.000Z</time>
                <name>Position 26</name>
            </trkpt>
            <trkpt lat="47.5327314" lon="13.4983727">
                <ele>933.5</ele>
                <time>2022-08-30T07:36:46.000Z</time>
                <name>Position 27</name>
            </trkpt>
            <trkpt lat="47.5327079" lon="13.4985088">
                <ele>933.7</ele>
                <time>2022-08-30T07:36:56.000Z</time>
                <name>Position 28</name>
            </trkpt>
            <trkpt lat="47.5326714" lon="13.4986445">
                <ele>933.8</ele>
                <time>2022-08-30T07:37:03.000Z</time>
                <name>Position 29</name>
            </trkpt>
            <trkpt lat="47.5326527" lon="13.4987866">
                <ele>933.9</ele>
                <time>2022-08-30T07:37:12.000Z</time>
                <name>Position 30</name>
            </trkpt>
            <trkpt lat="47.5326436" lon="13.4989298">
                <ele>933.7</ele>
                <time>2022-08-30T07:37:21.000Z</time>
                <name>Position 31</name>
            </trkpt>
            <trkpt lat="47.532667" lon="13.4990685">
                <ele>933.8</ele>
                <time>2022-08-30T07:37:29.000Z</time>
                <name>Position 32</name>
            </trkpt>
            <trkpt lat="47.532663" lon="13.4992078">
                <ele>933.7</ele>
                <time>2022-08-30T07:38:04.000Z</time>
                <name>Position 33</name>
            </trkpt>
            <trkpt lat="47.53264" lon="13.4993499">
                <ele>933.9</ele>
                <time>2022-08-30T07:38:12.000Z</time>
                <name>Position 34</name>
            </trkpt>
            <trkpt lat="47.5326274" lon="13.4994954">
                <ele>933.9</ele>
                <time>2022-08-30T07:38:22.000Z</time>
                <name>Position 35</name>
            </trkpt>
            <trkpt lat="47.5325878" lon="13.4996297">
                <ele>933.8</ele>
                <time>2022-08-30T07:38:59.000Z</time>
                <name>Position 36</name>
            </trkpt>
            <trkpt lat="47.532562" lon="13.499776">
                <ele>933.8</ele>
                <time>2022-08-30T07:39:09.000Z</time>
                <name>Position 37</name>
            </trkpt>
            <trkpt lat="47.532522" lon="13.4999102">
                <ele>933.6</ele>
                <time>2022-08-30T07:39:17.000Z</time>
                <name>Position 38</name>
            </trkpt>
            <trkpt lat="47.5325077" lon="13.5000479">
                <ele>933.7</ele>
                <time>2022-08-30T07:39:28.000Z</time>
                <name>Position 39</name>
            </trkpt>
            <trkpt lat="47.5325435" lon="13.5001907">
                <ele>933.4</ele>
                <time>2022-08-30T07:39:46.000Z</time>
                <name>Position 40</name>
            </trkpt>
            <trkpt lat="47.532584" lon="13.5003292">
                <ele>933.7</ele>
                <time>2022-08-30T07:39:55.000Z</time>
                <name>Position 41</name>
            </trkpt>
            <trkpt lat="47.5326132" lon="13.5004667">
                <ele>933.6</ele>
                <time>2022-08-30T07:40:05.000Z</time>
                <name>Position 42</name>
            </trkpt>
            <trkpt lat="47.5326084" lon="13.5006076">
                <ele>933.7</ele>
                <time>2022-08-30T07:40:13.000Z</time>
                <name>Position 43</name>
            </trkpt>
            <trkpt lat="47.5326066" lon="13.5007435">
                <ele>933.8</ele>
                <time>2022-08-30T07:40:21.000Z</time>
                <name>Position 44</name>
            </trkpt>
            <trkpt lat="47.5326059" lon="13.5008868">
                <ele>934.1</ele>
                <time>2022-08-30T07:40:29.000Z</time>
                <name>Position 45</name>
            </trkpt>
            <trkpt lat="47.5326219" lon="13.5010268">
                <ele>934.2</ele>
                <time>2022-08-30T07:40:37.000Z</time>
                <name>Position 46</name>
            </trkpt>
            <trkpt lat="47.5326358" lon="13.5011659">
                <ele>934.1</ele>
                <time>2022-08-30T07:40:46.000Z</time>
                <name>Position 47</name>
            </trkpt>
            <trkpt lat="47.5326504" lon="13.5013052">
                <ele>934.0</ele>
                <time>2022-08-30T07:40:55.000Z</time>
                <name>Position 48</name>
            </trkpt>
            <trkpt lat="47.5326468" lon="13.5014512">
                <ele>933.9</ele>
                <time>2022-08-30T07:41:03.000Z</time>
                <name>Position 49</name>
            </trkpt>
            <trkpt lat="47.5326518" lon="13.5015917">
                <ele>934.0</ele>
                <time>2022-08-30T07:41:11.000Z</time>
                <name>Position 50</name>
            </trkpt>
            <trkpt lat="47.5326348" lon="13.5017273">
                <ele>933.8</ele>
                <time>2022-08-30T07:41:19.000Z</time>
                <name>Position 51</name>
            </trkpt>
            <trkpt lat="47.53263" lon="13.501861">
                <ele>934.0</ele>
                <time>2022-08-30T07:41:27.000Z</time>
                <name>Position 52</name>
            </trkpt>
            <trkpt lat="47.5326143" lon="13.5020043">
                <ele>933.8</ele>
                <time>2022-08-30T07:41:35.000Z</time>
                <name>Position 53</name>
            </trkpt>
            <trkpt lat="47.5325937" lon="13.5021499">
                <ele>933.7</ele>
                <time>2022-08-30T07:41:46.000Z</time>
                <name>Position 54</name>
            </trkpt>
            <trkpt lat="47.5325649" lon="13.5022906">
                <ele>934.0</ele>
                <time>2022-08-30T07:41:54.000Z</time>
                <name>Position 55</name>
            </trkpt>
            <trkpt lat="47.5325638" lon="13.502425">
                <ele>933.9</ele>
                <time>2022-08-30T07:42:01.000Z</time>
                <name>Position 56</name>
            </trkpt>
            <trkpt lat="47.5325845" lon="13.5025702">
                <ele>933.8</ele>
                <time>2022-08-30T07:42:09.000Z</time>
                <name>Position 57</name>
            </trkpt>
            <trkpt lat="47.5325446" lon="13.5027047">
                <ele>933.6</ele>
                <time>2022-08-30T07:42:20.000Z</time>
                <name>Position 58</name>
            </trkpt>
            <trkpt lat="47.5325299" lon="13.5028369">
                <ele>933.8</ele>
                <time>2022-08-30T07:42:29.000Z</time>
                <name>Position 59</name>
            </trkpt>
            <trkpt lat="47.5325017" lon="13.5029825">
                <ele>933.5</ele>
                <time>2022-08-30T07:42:37.000Z</time>
                <name>Position 60</name>
            </trkpt>
            <trkpt lat="47.5324614" lon="13.5031041">
                <ele>933.6</ele>
                <time>2022-08-30T07:42:45.000Z</time>
                <name>Position 61</name>
            </trkpt>
            <trkpt lat="47.5324063" lon="13.5032225">
                <ele>933.3</ele>
                <time>2022-08-30T07:42:54.000Z</time>
                <name>Position 62</name>
            </trkpt>
            <trkpt lat="47.5323749" lon="13.5033482">
                <ele>933.1</ele>
                <time>2022-08-30T07:43:02.000Z</time>
                <name>Position 63</name>
            </trkpt>
            <trkpt lat="47.5323601" lon="13.5034933">
                <ele>933.1</ele>
                <time>2022-08-30T07:43:11.000Z</time>
                <name>Position 64</name>
            </trkpt>
            <trkpt lat="47.5323118" lon="13.5036115">
                <ele>933.0</ele>
                <time>2022-08-30T07:43:21.000Z</time>
                <name>Position 65</name>
            </trkpt>
            <trkpt lat="47.5322706" lon="13.5037459">
                <ele>933.1</ele>
                <time>2022-08-30T07:43:42.000Z</time>
                <name>Position 66</name>
            </trkpt>
            <trkpt lat="47.5321802" lon="13.5037247">
                <ele>933.3</ele>
                <time>2022-08-30T07:44:03.000Z</time>
                <name>Position 67</name>
            </trkpt>
            <trkpt lat="47.532098" lon="13.503792">
                <ele>933.2</ele>
                <time>2022-08-30T07:44:09.000Z</time>
                <name>Position 68</name>
            </trkpt>
            <trkpt lat="47.5320182" lon="13.503875">
                <ele>933.1</ele>
                <time>2022-08-30T07:44:20.000Z</time>
                <name>Position 69</name>
            </trkpt>
            <trkpt lat="47.5319451" lon="13.50397">
                <ele>933.6</ele>
                <time>2022-08-30T07:44:28.000Z</time>
                <name>Position 70</name>
            </trkpt>
            <trkpt lat="47.5318835" lon="13.5040966">
                <ele>933.6</ele>
                <time>2022-08-30T07:44:38.000Z</time>
                <name>Position 71</name>
            </trkpt>
            <trkpt lat="47.5318521" lon="13.5042229">
                <ele>933.9</ele>
                <time>2022-08-30T07:44:47.000Z</time>
                <name>Position 72</name>
            </trkpt>
            <trkpt lat="47.5318352" lon="13.5043778">
                <ele>933.5</ele>
                <time>2022-08-30T07:44:56.000Z</time>
                <name>Position 73</name>
            </trkpt>
            <trkpt lat="47.5318018" lon="13.5045147">
                <ele>933.7</ele>
                <time>2022-08-30T07:45:05.000Z</time>
                <name>Position 74</name>
            </trkpt>
            <trkpt lat="47.5317443" lon="13.5046221">
                <ele>933.8</ele>
                <time>2022-08-30T07:45:13.000Z</time>
                <name>Position 75</name>
            </trkpt>
            <trkpt lat="47.5316915" lon="13.5047429">
                <ele>933.7</ele>
                <time>2022-08-30T07:45:22.000Z</time>
                <name>Position 76</name>
            </trkpt>
            <trkpt lat="47.5316342" lon="13.5048639">
                <ele>934.0</ele>
                <time>2022-08-30T07:45:30.000Z</time>
                <name>Position 77</name>
            </trkpt>
            <trkpt lat="47.5316071" lon="13.5050092">
                <ele>933.6</ele>
                <time>2022-08-30T07:45:38.000Z</time>
                <name>Position 78</name>
            </trkpt>
            <trkpt lat="47.5315942" lon="13.5051483">
                <ele>933.7</ele>
                <time>2022-08-30T07:45:45.000Z</time>
                <name>Position 79</name>
            </trkpt>
            <trkpt lat="47.5315772" lon="13.5052803">
                <ele>933.9</ele>
                <time>2022-08-30T07:45:53.000Z</time>
                <name>Position 80</name>
            </trkpt>
            <trkpt lat="47.5315795" lon="13.5054289">
                <ele>933.6</ele>
                <time>2022-08-30T07:46:01.000Z</time>
                <name>Position 81</name>
            </trkpt>
            <trkpt lat="47.5315538" lon="13.5055623">
                <ele>933.7</ele>
                <time>2022-08-30T07:46:10.000Z</time>
                <name>Position 82</name>
            </trkpt>
            <trkpt lat="47.5315211" lon="13.5056919">
                <ele>933.5</ele>
                <time>2022-08-30T07:46:20.000Z</time>
                <name>Position 83</name>
            </trkpt>
            <trkpt lat="47.5314542" lon="13.5057934">
                <ele>933.5</ele>
                <time>2022-08-30T07:46:32.000Z</time>
                <name>Position 84</name>
            </trkpt>
            <trkpt lat="47.5313904" lon="13.505905">
                <ele>933.3</ele>
                <time>2022-08-30T07:46:41.000Z</time>
                <name>Position 85</name>
            </trkpt>
            <trkpt lat="47.5313479" lon="13.5060231">
                <ele>933.5</ele>
                <time>2022-08-30T07:46:50.000Z</time>
                <name>Position 86</name>
            </trkpt>
            <trkpt lat="47.5312718" lon="13.5060974">
                <ele>933.7</ele>
                <time>2022-08-30T07:46:57.000Z</time>
                <name>Position 87</name>
            </trkpt>
            <trkpt lat="47.5311838" lon="13.506191">
                <ele>933.6</ele>
                <time>2022-08-30T07:47:04.000Z</time>
                <name>Position 88</name>
            </trkpt>
            <trkpt lat="47.5311114" lon="13.5063004">
                <ele>933.6</ele>
                <time>2022-08-30T07:47:13.000Z</time>
                <name>Position 89</name>
            </trkpt>
            <trkpt lat="47.531041" lon="13.5063961">
                <ele>933.7</ele>
                <time>2022-08-30T07:47:21.000Z</time>
                <name>Position 90</name>
            </trkpt>
            <trkpt lat="47.5309567" lon="13.5064566">
                <ele>933.6</ele>
                <time>2022-08-30T07:47:29.000Z</time>
                <name>Position 91</name>
            </trkpt>
            <trkpt lat="47.5308756" lon="13.5065378">
                <ele>933.7</ele>
                <time>2022-08-30T07:47:38.000Z</time>
                <name>Position 92</name>
            </trkpt>
            <trkpt lat="47.5307959" lon="13.5066299">
                <ele>933.9</ele>
                <time>2022-08-30T07:47:46.000Z</time>
                <name>Position 93</name>
            </trkpt>
            <trkpt lat="47.5307175" lon="13.5066957">
                <ele>934.4</ele>
                <time>2022-08-30T07:50:22.000Z</time>
                <name>Position 94</name>
            </trkpt>
            <trkpt lat="47.5307282" lon="13.5068355">
                <ele>934.4</ele>
                <time>2022-08-30T07:50:43.000Z</time>
                <name>Position 95</name>
            </trkpt>
            <trkpt lat="47.5306901" lon="13.5069648">
                <ele>934.2</ele>
                <time>2022-08-30T07:50:56.000Z</time>
                <name>Position 96</name>
            </trkpt>
            <trkpt lat="47.5306543" lon="13.5071077">
                <ele>934.2</ele>
                <time>2022-08-30T07:51:12.000Z</time>
                <name>Position 97</name>
            </trkpt>
            <trkpt lat="47.5305976" lon="13.507221">
                <ele>934.2</ele>
                <time>2022-08-30T07:51:22.000Z</time>
                <name>Position 98</name>
            </trkpt>
            <trkpt lat="47.5305145" lon="13.5073112">
                <ele>934.1</ele>
                <time>2022-08-30T07:51:32.000Z</time>
                <name>Position 99</name>
            </trkpt>
            <trkpt lat="47.5304238" lon="13.5073534">
                <ele>934.4</ele>
                <time>2022-08-30T07:51:40.000Z</time>
                <name>Position 100</name>
            </trkpt>
            <trkpt lat="47.5303344" lon="13.5074031">
                <ele>934.2</ele>
                <time>2022-08-30T07:51:47.000Z</time>
                <name>Position 101</name>
            </trkpt>
            <trkpt lat="47.5302997" lon="13.5075412">
                <ele>934.5</ele>
                <time>2022-08-30T07:51:56.000Z</time>
                <name>Position 102</name>
            </trkpt>
            <trkpt lat="47.5302398" lon="13.5076667">
                <ele>934.3</ele>
                <time>2022-08-30T07:52:03.000Z</time>
                <name>Position 103</name>
            </trkpt>
            <trkpt lat="47.5302032" lon="13.5077912">
                <ele>934.5</ele>
                <time>2022-08-30T07:52:11.000Z</time>
                <name>Position 104</name>
            </trkpt>
            <trkpt lat="47.5301183" lon="13.5078544">
                <ele>934.7</ele>
                <time>2022-08-30T07:52:20.000Z</time>
                <name>Position 105</name>
            </trkpt>
            <trkpt lat="47.5300223" lon="13.5078947">
                <ele>934.8</ele>
                <time>2022-08-30T07:52:28.000Z</time>
                <name>Position 106</name>
            </trkpt>
            <trkpt lat="47.5299383" lon="13.5079795">
                <ele>934.8</ele>
                <time>2022-08-30T07:52:35.000Z</time>
                <name>Position 107</name>
            </trkpt>
            <trkpt lat="47.5298985" lon="13.5081165">
                <ele>934.7</ele>
                <time>2022-08-30T07:52:43.000Z</time>
                <name>Position 108</name>
            </trkpt>
            <trkpt lat="47.5298845" lon="13.5082582">
                <ele>934.7</ele>
                <time>2022-08-30T07:52:51.000Z</time>
                <name>Position 109</name>
            </trkpt>
            <trkpt lat="47.5298601" lon="13.5083919">
                <ele>934.7</ele>
                <time>2022-08-30T07:53:00.000Z</time>
                <name>Position 110</name>
            </trkpt>
            <trkpt lat="47.5298058" lon="13.5084995">
                <ele>934.8</ele>
                <time>2022-08-30T07:53:36.000Z</time>
                <name>Position 111</name>
            </trkpt>
            <trkpt lat="47.5297209" lon="13.508552">
                <ele>934.6</ele>
                <time>2022-08-30T07:54:11.000Z</time>
                <name>Position 112</name>
            </trkpt>
            <trkpt lat="47.5297018" lon="13.5086923">
                <ele>934.7</ele>
                <time>2022-08-30T07:54:38.000Z</time>
                <name>Position 113</name>
            </trkpt>
            <trkpt lat="47.5296384" lon="13.508788">
                <ele>934.8</ele>
                <time>2022-08-30T07:54:48.000Z</time>
                <name>Position 114</name>
            </trkpt>
            <trkpt lat="47.5295688" lon="13.5088885">
                <ele>935.0</ele>
                <time>2022-08-30T07:55:04.000Z</time>
                <name>Position 115</name>
            </trkpt>
            <trkpt lat="47.5294911" lon="13.508967">
                <ele>934.8</ele>
                <time>2022-08-30T07:55:20.000Z</time>
                <name>Position 116</name>
            </trkpt>
            <trkpt lat="47.5294192" lon="13.5090674">
                <ele>935.1</ele>
                <time>2022-08-30T07:55:28.000Z</time>
                <name>Position 117</name>
            </trkpt>
            <trkpt lat="47.5293872" lon="13.5091927">
                <ele>935.1</ele>
                <time>2022-08-30T07:55:34.000Z</time>
                <name>Position 118</name>
            </trkpt>
            <trkpt lat="47.5293495" lon="13.5093303">
                <ele>935.1</ele>
                <time>2022-08-30T07:55:42.000Z</time>
                <name>Position 119</name>
            </trkpt>
            <trkpt lat="47.5293428" lon="13.5094713">
                <ele>934.9</ele>
                <time>2022-08-30T07:55:50.000Z</time>
                <name>Position 120</name>
            </trkpt>
            <trkpt lat="47.5293049" lon="13.5096077">
                <ele>934.9</ele>
                <time>2022-08-30T07:55:59.000Z</time>
                <name>Position 121</name>
            </trkpt>
            <trkpt lat="47.5292568" lon="13.5097276">
                <ele>934.9</ele>
                <time>2022-08-30T07:56:19.000Z</time>
                <name>Position 122</name>
            </trkpt>
            <trkpt lat="47.5292006" lon="13.5098431">
                <ele>935.0</ele>
                <time>2022-08-30T07:57:45.000Z</time>
                <name>Position 123</name>
            </trkpt>
            <trkpt lat="47.5291733" lon="13.5099723">
                <ele>935.0</ele>
                <time>2022-08-30T07:58:26.000Z</time>
                <name>Position 124</name>
            </trkpt>
            <trkpt lat="47.529234" lon="13.5098628">
                <ele>935.3</ele>
                <time>2022-08-30T07:58:46.000Z</time>
                <name>Position 125</name>
            </trkpt>
            <trkpt lat="47.5291517" lon="13.5099207">
                <ele>935.0</ele>
                <time>2022-08-30T08:00:43.000Z</time>
                <name>Position 126</name>
            </trkpt>
            <trkpt lat="47.5291031" lon="13.5100429">
                <ele>935.0</ele>
                <time>2022-08-30T08:00:52.000Z</time>
                <name>Position 127</name>
            </trkpt>
            <trkpt lat="47.5290398" lon="13.5101441">
                <ele>934.8</ele>
                <time>2022-08-30T08:01:01.000Z</time>
                <name>Position 128</name>
            </trkpt>
            <trkpt lat="47.5291136" lon="13.510062">
                <ele>935.1</ele>
                <time>2022-08-30T08:01:54.000Z</time>
                <name>Position 129</name>
            </trkpt>
            <trkpt lat="47.5291365" lon="13.5099298">
                <ele>935.1</ele>
                <time>2022-08-30T08:02:00.000Z</time>
                <name>Position 130</name>
            </trkpt>
            <trkpt lat="47.5291768" lon="13.5097831">
                <ele>935.1</ele>
                <time>2022-08-30T08:02:07.000Z</time>
                <name>Position 131</name>
            </trkpt>
            <trkpt lat="47.5292649" lon="13.5097433">
                <ele>934.5</ele>
                <time>2022-08-30T08:04:05.000Z</time>
                <name>Position 132</name>
            </trkpt>
            <trkpt lat="47.5293463" lon="13.5098256">
                <ele>944.1</ele>
                <time>2022-08-30T08:13:18.000Z</time>
                <name>Position 133</name>
            </trkpt>
            <trkpt lat="47.5294387" lon="13.5098267">
                <ele>954.5</ele>
                <time>2022-08-30T08:18:30.000Z</time>
                <name>Position 134</name>
            </trkpt>
            <trkpt lat="47.5293628" lon="13.5097532">
                <ele>954.5</ele>
                <time>2022-08-30T08:21:41.000Z</time>
                <name>Position 135</name>
            </trkpt>
            <trkpt lat="47.5294458" lon="13.5098124">
                <ele>969.8</ele>
                <time>2022-08-30T08:39:35.000Z</time>
                <name>Position 136</name>
            </trkpt>
            <trkpt lat="47.5294406" lon="13.5096748">
                <ele>978.1</ele>
                <time>2022-08-30T08:49:56.000Z</time>
                <name>Position 137</name>
            </trkpt>
            <trkpt lat="47.529531" lon="13.5097178">
                <ele>978.4</ele>
                <time>2022-08-30T08:53:42.000Z</time>
                <name>Position 138</name>
            </trkpt>
            <trkpt lat="47.5295834" lon="13.5098277">
                <ele>978.4</ele>
                <time>2022-08-30T08:53:57.000Z</time>
                <name>Position 139</name>
            </trkpt>
            <trkpt lat="47.5295058" lon="13.5097598">
                <ele>978.6</ele>
                <time>2022-08-30T08:56:28.000Z</time>
                <name>Position 140</name>
            </trkpt>
            <trkpt lat="47.5295595" lon="13.5096524">
                <ele>978.5</ele>
                <time>2022-08-30T09:00:08.000Z</time>
                <name>Position 141</name>
            </trkpt>
            <trkpt lat="47.5296488" lon="13.5096819">
                <ele>978.6</ele>
                <time>2022-08-30T09:00:45.000Z</time>
                <name>Position 142</name>
            </trkpt>
            <trkpt lat="47.5297322" lon="13.5097318">
                <ele>978.7</ele>
                <time>2022-08-30T09:01:56.000Z</time>
                <name>Position 143</name>
            </trkpt>
            <trkpt lat="47.5297855" lon="13.5098399">
                <ele>978.8</ele>
                <time>2022-08-30T09:04:47.000Z</time>
                <name>Position 144</name>
            </trkpt>
            <trkpt lat="47.5296942" lon="13.5098724">
                <ele>979.1</ele>
                <time>2022-08-30T09:05:53.000Z</time>
                <name>Position 145</name>
            </trkpt>
            <trkpt lat="47.5296033" lon="13.5098805">
                <ele>980.3</ele>
                <time>2022-08-30T09:06:42.000Z</time>
                <name>Position 146</name>
            </trkpt>
            <trkpt lat="47.5295169" lon="13.5098313">
                <ele>987.1</ele>
                <time>2022-08-30T09:08:47.000Z</time>
                <name>Position 147</name>
            </trkpt>
            <trkpt lat="47.5294074" lon="13.5097784">
                <ele>990.8</ele>
                <time>2022-08-30T09:09:44.000Z</time>
                <name>Position 148</name>
            </trkpt>
            <trkpt lat="47.529383" lon="13.509907">
                <ele>991.3</ele>
                <time>2022-08-30T09:11:02.000Z</time>
                <name>Position 149</name>
            </trkpt>
            <trkpt lat="47.5293964" lon="13.5100419">
                <ele>1011.5</ele>
                <time>2022-08-30T09:27:34.000Z</time>
                <name>Position 150</name>
            </trkpt>
            <trkpt lat="47.5294185" lon="13.5101742">
                <ele>1021.1</ele>
                <time>2022-08-30T09:32:05.000Z</time>
                <name>Position 151</name>
            </trkpt>
            <trkpt lat="47.5294364" lon="13.5103832">
                <ele>1021.0</ele>
                <time>2022-08-30T09:34:07.000Z</time>
                <name>Position 152</name>
            </trkpt>
            <trkpt lat="47.5294067" lon="13.5102552">
                <ele>1021.1</ele>
                <time>2022-08-30T09:34:24.000Z</time>
                <name>Position 153</name>
            </trkpt>
            <trkpt lat="47.5293911" lon="13.5103866">
                <ele>1020.6</ele>
                <time>2022-08-30T09:35:17.000Z</time>
                <name>Position 154</name>
            </trkpt>
            <trkpt lat="47.5294825" lon="13.5105037">
                <ele>1021.0</ele>
                <time>2022-08-30T09:35:37.000Z</time>
                <name>Position 155</name>
            </trkpt>
            <trkpt lat="47.5294902" lon="13.5103685">
                <ele>1021.1</ele>
                <time>2022-08-30T09:36:09.000Z</time>
                <name>Position 156</name>
            </trkpt>
            <trkpt lat="47.5294636" lon="13.5102338">
                <ele>1021.1</ele>
                <time>2022-08-30T09:37:08.000Z</time>
                <name>Position 157</name>
            </trkpt>
            <trkpt lat="47.5293922" lon="13.5101521">
                <ele>1022.2</ele>
                <time>2022-08-30T09:52:26.000Z</time>
                <name>Position 158</name>
            </trkpt>
            <trkpt lat="47.5294696" lon="13.5102359">
                <ele>1024.2</ele>
                <time>2022-08-30T09:54:02.000Z</time>
                <name>Position 159</name>
            </trkpt>
            <trkpt lat="47.5295623" lon="13.5102652">
                <ele>1032.6</ele>
                <time>2022-08-30T09:58:51.000Z</time>
                <name>Position 160</name>
            </trkpt>
            <trkpt lat="47.5294838" lon="13.51019">
                <ele>1034.4</ele>
                <time>2022-08-30T10:00:18.000Z</time>
                <name>Position 161</name>
            </trkpt>
            <trkpt lat="47.5295111" lon="13.5103207">
                <ele>1061.9</ele>
                <time>2022-08-30T10:36:09.000Z</time>
                <name>Position 162</name>
            </trkpt>
            <trkpt lat="47.5296012" lon="13.5103098">
                <ele>1069.3</ele>
                <time>2022-08-30T10:55:35.000Z</time>
                <name>Position 163</name>
            </trkpt>
            <trkpt lat="47.5295142" lon="13.5102673">
                <ele>1069.4</ele>
                <time>2022-08-30T10:56:28.000Z</time>
                <name>Position 164</name>
            </trkpt>
            <trkpt lat="47.5295333" lon="13.5103976">
                <ele>1078.9</ele>
                <time>2022-08-30T11:03:00.000Z</time>
                <name>Position 165</name>
            </trkpt>
            <trkpt lat="47.5295629" lon="13.5105237">
                <ele>1088.2</ele>
                <time>2022-08-30T11:07:54.000Z</time>
                <name>Position 166</name>
            </trkpt>
            <trkpt lat="47.5294722" lon="13.5105122">
                <ele>1087.7</ele>
                <time>2022-08-30T11:16:39.000Z</time>
                <name>Position 167</name>
            </trkpt>
            <trkpt lat="47.5295641" lon="13.5105064">
                <ele>1087.6</ele>
                <time>2022-08-30T11:18:11.000Z</time>
                <name>Position 168</name>
            </trkpt>
            <trkpt lat="47.5296081" lon="13.5106236">
                <ele>1090.4</ele>
                <time>2022-08-30T11:21:35.000Z</time>
                <name>Position 169</name>
            </trkpt>
            <trkpt lat="47.5295333" lon="13.5107056">
                <ele>1093.3</ele>
                <time>2022-08-30T11:23:12.000Z</time>
                <name>Position 170</name>
            </trkpt>
            <trkpt lat="47.5296256" lon="13.5106723">
                <ele>1096.7</ele>
                <time>2022-08-30T11:24:08.000Z</time>
                <name>Position 171</name>
            </trkpt>
            <trkpt lat="47.5295683" lon="13.5107755">
                <ele>1102.1</ele>
                <time>2022-08-30T11:28:39.000Z</time>
                <name>Position 172</name>
            </trkpt>
            <trkpt lat="47.5296494" lon="13.5107169">
                <ele>1110.5</ele>
                <time>2022-08-30T11:34:52.000Z</time>
                <name>Position 173</name>
            </trkpt>
            <trkpt lat="47.5297335" lon="13.5106664">
                <ele>1126.3</ele>
                <time>2022-08-30T12:03:35.000Z</time>
                <name>Position 174</name>
            </trkpt>
            <trkpt lat="47.5297696" lon="13.5105408">
                <ele>1129.7</ele>
                <time>2022-08-30T12:04:21.000Z</time>
                <name>Position 175</name>
            </trkpt>
            <trkpt lat="47.5298322" lon="13.5104433">
                <ele>1132.6</ele>
                <time>2022-08-30T12:05:47.000Z</time>
                <name>Position 176</name>
            </trkpt>
            <trkpt lat="47.5299243" lon="13.5103906">
                <ele>1137.3</ele>
                <time>2022-08-30T12:07:20.000Z</time>
                <name>Position 177</name>
            </trkpt>
            <trkpt lat="47.5299402" lon="13.5105257">
                <ele>1141.5</ele>
                <time>2022-08-30T12:09:14.000Z</time>
                <name>Position 178</name>
            </trkpt>
            <trkpt lat="47.5299022" lon="13.5106469">
                <ele>1146.0</ele>
                <time>2022-08-30T12:09:34.000Z</time>
                <name>Position 179</name>
            </trkpt>
            <trkpt lat="47.5299864" lon="13.5107181">
                <ele>1152.6</ele>
                <time>2022-08-30T12:10:41.000Z</time>
                <name>Position 180</name>
            </trkpt>
            <trkpt lat="47.5300605" lon="13.51064">
                <ele>1153.7</ele>
                <time>2022-08-30T12:11:04.000Z</time>
                <name>Position 181</name>
            </trkpt>
            <trkpt lat="47.5301402" lon="13.5107072">
                <ele>1159.4</ele>
                <time>2022-08-30T12:11:35.000Z</time>
                <name>Position 182</name>
            </trkpt>
            <trkpt lat="47.5302341" lon="13.5107307">
                <ele>1161.5</ele>
                <time>2022-08-30T12:12:05.000Z</time>
                <name>Position 183</name>
            </trkpt>
            <trkpt lat="47.5302684" lon="13.5108563">
                <ele>1166.0</ele>
                <time>2022-08-30T12:15:10.000Z</time>
                <name>Position 184</name>
            </trkpt>
            <trkpt lat="47.5302931" lon="13.5109856">
                <ele>1168.8</ele>
                <time>2022-08-30T12:15:33.000Z</time>
                <name>Position 185</name>
            </trkpt>
            <trkpt lat="47.5303156" lon="13.5111196">
                <ele>1172.9</ele>
                <time>2022-08-30T12:16:09.000Z</time>
                <name>Position 186</name>
            </trkpt>
            <trkpt lat="47.5303772" lon="13.5112168">
                <ele>1175.5</ele>
                <time>2022-08-30T12:16:57.000Z</time>
                <name>Position 187</name>
            </trkpt>
            <trkpt lat="47.5304586" lon="13.5112863">
                <ele>1180.4</ele>
                <time>2022-08-30T12:17:46.000Z</time>
                <name>Position 188</name>
            </trkpt>
            <trkpt lat="47.5305478" lon="13.5113086">
                <ele>1185.0</ele>
                <time>2022-08-30T12:18:09.000Z</time>
                <name>Position 189</name>
            </trkpt>
            <trkpt lat="47.5306473" lon="13.5112819">
                <ele>1187.9</ele>
                <time>2022-08-30T12:18:33.000Z</time>
                <name>Position 190</name>
            </trkpt>
            <trkpt lat="47.530738" lon="13.5112986">
                <ele>1190.5</ele>
                <time>2022-08-30T12:19:00.000Z</time>
                <name>Position 191</name>
            </trkpt>
            <trkpt lat="47.5308182" lon="13.5113644">
                <ele>1193.8</ele>
                <time>2022-08-30T12:19:22.000Z</time>
                <name>Position 192</name>
            </trkpt>
            <trkpt lat="47.5308994" lon="13.511455">
                <ele>1194.2</ele>
                <time>2022-08-30T12:19:32.000Z</time>
                <name>Position 193</name>
            </trkpt>
            <trkpt lat="47.5309997" lon="13.5114608">
                <ele>1196.0</ele>
                <time>2022-08-30T12:19:49.000Z</time>
                <name>Position 194</name>
            </trkpt>
            <trkpt lat="47.5310736" lon="13.5115533">
                <ele>1199.1</ele>
                <time>2022-08-30T12:20:11.000Z</time>
                <name>Position 195</name>
            </trkpt>
            <trkpt lat="47.5311583" lon="13.5116349">
                <ele>1201.9</ele>
                <time>2022-08-30T12:20:28.000Z</time>
                <name>Position 196</name>
            </trkpt>
            <trkpt lat="47.5312243" lon="13.5117471">
                <ele>1201.0</ele>
                <time>2022-08-30T12:20:36.000Z</time>
                <name>Position 197</name>
            </trkpt>
            <trkpt lat="47.5312919" lon="13.5118428">
                <ele>1201.2</ele>
                <time>2022-08-30T12:20:46.000Z</time>
                <name>Position 198</name>
            </trkpt>
            <trkpt lat="47.5313582" lon="13.5119484">
                <ele>1199.7</ele>
                <time>2022-08-30T12:20:57.000Z</time>
                <name>Position 199</name>
            </trkpt>
            <trkpt lat="47.5314319" lon="13.5120284">
                <ele>1198.2</ele>
                <time>2022-08-30T12:21:09.000Z</time>
                <name>Position 200</name>
            </trkpt>
            <trkpt lat="47.5315192" lon="13.5120909">
                <ele>1195.7</ele>
                <time>2022-08-30T12:21:20.000Z</time>
                <name>Position 201</name>
            </trkpt>
            <trkpt lat="47.5315889" lon="13.5121982">
                <ele>1194.9</ele>
                <time>2022-08-30T12:21:27.000Z</time>
                <name>Position 202</name>
            </trkpt>
            <trkpt lat="47.5316424" lon="13.5123109">
                <ele>1194.2</ele>
                <time>2022-08-30T12:21:36.000Z</time>
                <name>Position 203</name>
            </trkpt>
            <trkpt lat="47.5317049" lon="13.5124296">
                <ele>1192.9</ele>
                <time>2022-08-30T12:21:46.000Z</time>
                <name>Position 204</name>
            </trkpt>
            <trkpt lat="47.5317723" lon="13.5125326">
                <ele>1192.2</ele>
                <time>2022-08-30T12:21:54.000Z</time>
                <name>Position 205</name>
            </trkpt>
            <trkpt lat="47.5318423" lon="13.512628">
                <ele>1191.3</ele>
                <time>2022-08-30T12:22:04.000Z</time>
                <name>Position 206</name>
            </trkpt>
            <trkpt lat="47.5318647" lon="13.5127757">
                <ele>1190.7</ele>
                <time>2022-08-30T12:22:13.000Z</time>
                <name>Position 207</name>
            </trkpt>
            <trkpt lat="47.5318476" lon="13.5129077">
                <ele>1189.3</ele>
                <time>2022-08-30T12:22:20.000Z</time>
                <name>Position 208</name>
            </trkpt>
            <trkpt lat="47.531783" lon="13.513009">
                <ele>1188.1</ele>
                <time>2022-08-30T12:22:31.000Z</time>
                <name>Position 209</name>
            </trkpt>
            <trkpt lat="47.5317068" lon="13.5130805">
                <ele>1186.5</ele>
                <time>2022-08-30T12:22:40.000Z</time>
                <name>Position 210</name>
            </trkpt>
            <trkpt lat="47.5316317" lon="13.5131727">
                <ele>1185.0</ele>
                <time>2022-08-30T12:22:48.000Z</time>
                <name>Position 211</name>
            </trkpt>
            <trkpt lat="47.531569" lon="13.5132816">
                <ele>1184.0</ele>
                <time>2022-08-30T12:22:57.000Z</time>
                <name>Position 212</name>
            </trkpt>
            <trkpt lat="47.5315782" lon="13.5134236">
                <ele>1183.4</ele>
                <time>2022-08-30T12:23:08.000Z</time>
                <name>Position 213</name>
            </trkpt>
            <trkpt lat="47.5316358" lon="13.5135383">
                <ele>1182.5</ele>
                <time>2022-08-30T12:23:18.000Z</time>
                <name>Position 214</name>
            </trkpt>
            <trkpt lat="47.5317125" lon="13.5136199">
                <ele>1182.9</ele>
                <time>2022-08-30T12:23:28.000Z</time>
                <name>Position 215</name>
            </trkpt>
            <trkpt lat="47.5318005" lon="13.5136945">
                <ele>1181.2</ele>
                <time>2022-08-30T12:23:38.000Z</time>
                <name>Position 216</name>
            </trkpt>
            <trkpt lat="47.5318843" lon="13.5137619">
                <ele>1181.3</ele>
                <time>2022-08-30T12:23:48.000Z</time>
                <name>Position 217</name>
            </trkpt>
            <trkpt lat="47.53196" lon="13.5138438">
                <ele>1179.7</ele>
                <time>2022-08-30T12:23:56.000Z</time>
                <name>Position 218</name>
            </trkpt>
            <trkpt lat="47.5320457" lon="13.5139221">
                <ele>1181.2</ele>
                <time>2022-08-30T12:24:04.000Z</time>
                <name>Position 219</name>
            </trkpt>
            <trkpt lat="47.5321225" lon="13.5140019">
                <ele>1179.4</ele>
                <time>2022-08-30T12:24:13.000Z</time>
                <name>Position 220</name>
            </trkpt>
            <trkpt lat="47.5322137" lon="13.5140341">
                <ele>1180.5</ele>
                <time>2022-08-30T12:24:21.000Z</time>
                <name>Position 221</name>
            </trkpt>
            <trkpt lat="47.5323014" lon="13.5140693">
                <ele>1180.9</ele>
                <time>2022-08-30T12:24:28.000Z</time>
                <name>Position 222</name>
            </trkpt>
            <trkpt lat="47.5323984" lon="13.5140724">
                <ele>1179.7</ele>
                <time>2022-08-30T12:24:37.000Z</time>
                <name>Position 223</name>
            </trkpt>
            <trkpt lat="47.5324906" lon="13.5141076">
                <ele>1179.4</ele>
                <time>2022-08-30T12:24:43.000Z</time>
                <name>Position 224</name>
            </trkpt>
            <trkpt lat="47.5325835" lon="13.5141777">
                <ele>1179.3</ele>
                <time>2022-08-30T12:24:52.000Z</time>
                <name>Position 225</name>
            </trkpt>
            <trkpt lat="47.5326766" lon="13.514209">
                <ele>1179.4</ele>
                <time>2022-08-30T12:25:02.000Z</time>
                <name>Position 226</name>
            </trkpt>
            <trkpt lat="47.5327593" lon="13.5142632">
                <ele>1179.3</ele>
                <time>2022-08-30T12:25:11.000Z</time>
                <name>Position 227</name>
            </trkpt>
            <trkpt lat="47.5328399" lon="13.5143347">
                <ele>1177.8</ele>
                <time>2022-08-30T12:25:17.000Z</time>
                <name>Position 228</name>
            </trkpt>
            <trkpt lat="47.5329308" lon="13.5143975">
                <ele>1179.1</ele>
                <time>2022-08-30T12:25:24.000Z</time>
                <name>Position 229</name>
            </trkpt>
            <trkpt lat="47.5329967" lon="13.5144975">
                <ele>1178.1</ele>
                <time>2022-08-30T12:25:32.000Z</time>
                <name>Position 230</name>
            </trkpt>
            <trkpt lat="47.5330889" lon="13.5145073">
                <ele>1177.4</ele>
                <time>2022-08-30T12:25:48.000Z</time>
                <name>Position 231</name>
            </trkpt>
            <trkpt lat="47.533178" lon="13.5144241">
                <ele>1178.0</ele>
                <time>2022-08-30T12:25:56.000Z</time>
                <name>Position 232</name>
            </trkpt>
            <trkpt lat="47.5332603" lon="13.5143627">
                <ele>1177.8</ele>
                <time>2022-08-30T12:26:02.000Z</time>
                <name>Position 233</name>
            </trkpt>
            <trkpt lat="47.5333552" lon="13.5143132">
                <ele>1176.8</ele>
                <time>2022-08-30T12:26:10.000Z</time>
                <name>Position 234</name>
            </trkpt>
            <trkpt lat="47.5334463" lon="13.5142466">
                <ele>1176.5</ele>
                <time>2022-08-30T12:26:18.000Z</time>
                <name>Position 235</name>
            </trkpt>
            <trkpt lat="47.5335103" lon="13.5141443">
                <ele>1175.8</ele>
                <time>2022-08-30T12:26:26.000Z</time>
                <name>Position 236</name>
            </trkpt>
            <trkpt lat="47.5335565" lon="13.5140263">
                <ele>1175.5</ele>
                <time>2022-08-30T12:26:34.000Z</time>
                <name>Position 237</name>
            </trkpt>
            <trkpt lat="47.5336094" lon="13.5139096">
                <ele>1174.5</ele>
                <time>2022-08-30T12:26:41.000Z</time>
                <name>Position 238</name>
            </trkpt>
            <trkpt lat="47.5336437" lon="13.513786">
                <ele>1174.1</ele>
                <time>2022-08-30T12:27:02.000Z</time>
                <name>Position 239</name>
            </trkpt>
            <trkpt lat="47.5337027" lon="13.513672">
                <ele>1172.8</ele>
                <time>2022-08-30T12:27:26.000Z</time>
                <name>Position 240</name>
            </trkpt>
            <trkpt lat="47.5337722" lon="13.5135734">
                <ele>1172.6</ele>
                <time>2022-08-30T12:27:34.000Z</time>
                <name>Position 241</name>
            </trkpt>
            <trkpt lat="47.533854" lon="13.5134967">
                <ele>1170.8</ele>
                <time>2022-08-30T12:27:43.000Z</time>
                <name>Position 242</name>
            </trkpt>
            <trkpt lat="47.533933" lon="13.5134231">
                <ele>1169.7</ele>
                <time>2022-08-30T12:27:53.000Z</time>
                <name>Position 243</name>
            </trkpt>
            <trkpt lat="47.5340201" lon="13.513359">
                <ele>1169.7</ele>
                <time>2022-08-30T12:28:01.000Z</time>
                <name>Position 244</name>
            </trkpt>
            <trkpt lat="47.5340978" lon="13.5132806">
                <ele>1169.5</ele>
                <time>2022-08-30T12:28:08.000Z</time>
                <name>Position 245</name>
            </trkpt>
            <trkpt lat="47.5341682" lon="13.5131951">
                <ele>1167.5</ele>
                <time>2022-08-30T12:28:15.000Z</time>
                <name>Position 246</name>
            </trkpt>
            <trkpt lat="47.5342608" lon="13.5131552">
                <ele>1166.5</ele>
                <time>2022-08-30T12:28:23.000Z</time>
                <name>Position 247</name>
            </trkpt>
            <trkpt lat="47.5343277" lon="13.5130538">
                <ele>1165.9</ele>
                <time>2022-08-30T12:28:35.000Z</time>
                <name>Position 248</name>
            </trkpt>
            <trkpt lat="47.5344133" lon="13.5130038">
                <ele>1165.7</ele>
                <time>2022-08-30T12:28:43.000Z</time>
                <name>Position 249</name>
            </trkpt>
            <trkpt lat="47.5344659" lon="13.5128924">
                <ele>1164.5</ele>
                <time>2022-08-30T12:28:51.000Z</time>
                <name>Position 250</name>
            </trkpt>
            <trkpt lat="47.5345536" lon="13.5128339">
                <ele>1164.3</ele>
                <time>2022-08-30T12:29:01.000Z</time>
                <name>Position 251</name>
            </trkpt>
            <trkpt lat="47.5346477" lon="13.5128549">
                <ele>1163.1</ele>
                <time>2022-08-30T12:29:08.000Z</time>
                <name>Position 252</name>
            </trkpt>
            <trkpt lat="47.5347254" lon="13.512754">
                <ele>1163.0</ele>
                <time>2022-08-30T12:29:16.000Z</time>
                <name>Position 253</name>
            </trkpt>
            <trkpt lat="47.5347899" lon="13.5126476">
                <ele>1162.1</ele>
                <time>2022-08-30T12:29:24.000Z</time>
                <name>Position 254</name>
            </trkpt>
            <trkpt lat="47.5348767" lon="13.5125898">
                <ele>1162.0</ele>
                <time>2022-08-30T12:29:32.000Z</time>
                <name>Position 255</name>
            </trkpt>
            <trkpt lat="47.5349513" lon="13.5125068">
                <ele>1161.3</ele>
                <time>2022-08-30T12:29:40.000Z</time>
                <name>Position 256</name>
            </trkpt>
            <trkpt lat="47.5349904" lon="13.5123858">
                <ele>1158.5</ele>
                <time>2022-08-30T12:30:11.000Z</time>
                <name>Position 257</name>
            </trkpt>
            <trkpt lat="47.5348979" lon="13.5123776">
                <ele>1154.2</ele>
                <time>2022-08-30T12:30:25.000Z</time>
                <name>Position 258</name>
            </trkpt>
            <trkpt lat="47.5348143" lon="13.5123154">
                <ele>1153.9</ele>
                <time>2022-08-30T12:30:38.000Z</time>
                <name>Position 259</name>
            </trkpt>
            <trkpt lat="47.5347383" lon="13.5122338">
                <ele>1152.2</ele>
                <time>2022-08-30T12:30:54.000Z</time>
                <name>Position 260</name>
            </trkpt>
            <trkpt lat="47.5346726" lon="13.5121246">
                <ele>1149.5</ele>
                <time>2022-08-30T12:31:05.000Z</time>
                <name>Position 261</name>
            </trkpt>
            <trkpt lat="47.5346032" lon="13.5120388">
                <ele>1147.9</ele>
                <time>2022-08-30T12:31:13.000Z</time>
                <name>Position 262</name>
            </trkpt>
            <trkpt lat="47.5345288" lon="13.5119547">
                <ele>1144.6</ele>
                <time>2022-08-30T12:31:27.000Z</time>
                <name>Position 263</name>
            </trkpt>
            <trkpt lat="47.5345137" lon="13.5118154">
                <ele>1144.8</ele>
                <time>2022-08-30T12:31:35.000Z</time>
                <name>Position 264</name>
            </trkpt>
            <trkpt lat="47.5344943" lon="13.5116727">
                <ele>1145.0</ele>
                <time>2022-08-30T12:31:42.000Z</time>
                <name>Position 265</name>
            </trkpt>
            <trkpt lat="47.5345306" lon="13.5115506">
                <ele>1144.5</ele>
                <time>2022-08-30T12:31:49.000Z</time>
                <name>Position 266</name>
            </trkpt>
            <trkpt lat="47.5345541" lon="13.511414">
                <ele>1142.7</ele>
                <time>2022-08-30T12:32:01.000Z</time>
                <name>Position 267</name>
            </trkpt>
            <trkpt lat="47.5346141" lon="13.511314">
                <ele>1140.9</ele>
                <time>2022-08-30T12:32:32.000Z</time>
                <name>Position 268</name>
            </trkpt>
            <trkpt lat="47.534652" lon="13.5111805">
                <ele>1138.3</ele>
                <time>2022-08-30T12:32:52.000Z</time>
                <name>Position 269</name>
            </trkpt>
            <trkpt lat="47.5346226" lon="13.511044">
                <ele>1135.2</ele>
                <time>2022-08-30T12:33:21.000Z</time>
                <name>Position 270</name>
            </trkpt>
            <trkpt lat="47.5345766" lon="13.5109205">
                <ele>1130.9</ele>
                <time>2022-08-30T12:33:37.000Z</time>
                <name>Position 271</name>
            </trkpt>
            <trkpt lat="47.5345199" lon="13.510803">
                <ele>1127.7</ele>
                <time>2022-08-30T12:33:48.000Z</time>
                <name>Position 272</name>
            </trkpt>
            <trkpt lat="47.5344546" lon="13.5106994">
                <ele>1127.2</ele>
                <time>2022-08-30T12:33:55.000Z</time>
                <name>Position 273</name>
            </trkpt>
            <trkpt lat="47.5344086" lon="13.5105831">
                <ele>1119.9</ele>
                <time>2022-08-30T12:34:29.000Z</time>
                <name>Position 274</name>
            </trkpt>
            <trkpt lat="47.5343411" lon="13.5104566">
                <ele>1116.4</ele>
                <time>2022-08-30T12:34:40.000Z</time>
                <name>Position 275</name>
            </trkpt>
            <trkpt lat="47.5342912" lon="13.5103373">
                <ele>1112.2</ele>
                <time>2022-08-30T12:34:57.000Z</time>
                <name>Position 276</name>
            </trkpt>
            <trkpt lat="47.5342311" lon="13.5102298">
                <ele>1111.5</ele>
                <time>2022-08-30T12:35:03.000Z</time>
                <name>Position 277</name>
            </trkpt>
            <trkpt lat="47.5341589" lon="13.5101407">
                <ele>1105.6</ele>
                <time>2022-08-30T12:35:16.000Z</time>
                <name>Position 278</name>
            </trkpt>
            <trkpt lat="47.5340637" lon="13.5101239">
                <ele>1104.5</ele>
                <time>2022-08-30T12:35:30.000Z</time>
                <name>Position 279</name>
            </trkpt>
            <trkpt lat="47.5339813" lon="13.510048">
                <ele>1099.0</ele>
                <time>2022-08-30T12:35:51.000Z</time>
                <name>Position 280</name>
            </trkpt>
            <trkpt lat="47.533901" lon="13.5099827">
                <ele>1099.9</ele>
                <time>2022-08-30T12:36:01.000Z</time>
                <name>Position 281</name>
            </trkpt>
            <trkpt lat="47.533806" lon="13.5099749">
                <ele>1095.1</ele>
                <time>2022-08-30T12:36:17.000Z</time>
                <name>Position 282</name>
            </trkpt>
            <trkpt lat="47.533756" lon="13.5098634">
                <ele>1090.8</ele>
                <time>2022-08-30T12:36:32.000Z</time>
                <name>Position 283</name>
            </trkpt>
            <trkpt lat="47.533691" lon="13.5097506">
                <ele>1088.3</ele>
                <time>2022-08-30T12:36:41.000Z</time>
                <name>Position 284</name>
            </trkpt>
            <trkpt lat="47.533674" lon="13.5096158">
                <ele>1085.7</ele>
                <time>2022-08-30T12:36:55.000Z</time>
                <name>Position 285</name>
            </trkpt>
            <trkpt lat="47.5336317" lon="13.5094956">
                <ele>1082.1</ele>
                <time>2022-08-30T12:37:10.000Z</time>
                <name>Position 286</name>
            </trkpt>
            <trkpt lat="47.5336168" lon="13.5093586">
                <ele>1080.2</ele>
                <time>2022-08-30T12:37:22.000Z</time>
                <name>Position 287</name>
            </trkpt>
            <trkpt lat="47.5335916" lon="13.5092238">
                <ele>1076.9</ele>
                <time>2022-08-30T12:37:35.000Z</time>
                <name>Position 288</name>
            </trkpt>
            <trkpt lat="47.5335561" lon="13.5091013">
                <ele>1073.3</ele>
                <time>2022-08-30T12:37:45.000Z</time>
                <name>Position 289</name>
            </trkpt>
            <trkpt lat="47.5335822" lon="13.5089563">
                <ele>1067.8</ele>
                <time>2022-08-30T12:38:07.000Z</time>
                <name>Position 290</name>
            </trkpt>
            <trkpt lat="47.5335768" lon="13.5088179">
                <ele>1066.4</ele>
                <time>2022-08-30T12:38:17.000Z</time>
                <name>Position 291</name>
            </trkpt>
            <trkpt lat="47.5335672" lon="13.5086812">
                <ele>1061.8</ele>
                <time>2022-08-30T12:38:40.000Z</time>
                <name>Position 292</name>
            </trkpt>
            <trkpt lat="47.5335531" lon="13.5085486">
                <ele>1059.4</ele>
                <time>2022-08-30T12:38:50.000Z</time>
                <name>Position 293</name>
            </trkpt>
            <trkpt lat="47.5335036" lon="13.50843">
                <ele>1053.4</ele>
                <time>2022-08-30T12:39:07.000Z</time>
                <name>Position 294</name>
            </trkpt>
            <trkpt lat="47.5334418" lon="13.5083158">
                <ele>1052.6</ele>
                <time>2022-08-30T12:39:20.000Z</time>
                <name>Position 295</name>
            </trkpt>
            <trkpt lat="47.5333678" lon="13.5082175">
                <ele>1051.2</ele>
                <time>2022-08-30T12:39:28.000Z</time>
                <name>Position 296</name>
            </trkpt>
            <trkpt lat="47.5332937" lon="13.5081275">
                <ele>1050.3</ele>
                <time>2022-08-30T12:39:38.000Z</time>
                <name>Position 297</name>
            </trkpt>
            <trkpt lat="47.533235" lon="13.508012">
                <ele>1049.1</ele>
                <time>2022-08-30T12:39:46.000Z</time>
                <name>Position 298</name>
            </trkpt>
            <trkpt lat="47.533211" lon="13.5078765">
                <ele>1045.6</ele>
                <time>2022-08-30T12:39:57.000Z</time>
                <name>Position 299</name>
            </trkpt>
            <trkpt lat="47.5332031" lon="13.5077332">
                <ele>1045.4</ele>
                <time>2022-08-30T12:40:10.000Z</time>
                <name>Position 300</name>
            </trkpt>
            <trkpt lat="47.5331228" lon="13.5076462">
                <ele>1043.0</ele>
                <time>2022-08-30T12:40:17.000Z</time>
                <name>Position 301</name>
            </trkpt>
            <trkpt lat="47.5330452" lon="13.5077183">
                <ele>1040.3</ele>
                <time>2022-08-30T12:40:29.000Z</time>
                <name>Position 302</name>
            </trkpt>
            <trkpt lat="47.5330199" lon="13.5078557">
                <ele>1038.1</ele>
                <time>2022-08-30T12:40:39.000Z</time>
                <name>Position 303</name>
            </trkpt>
            <trkpt lat="47.5329741" lon="13.5079711">
                <ele>1035.2</ele>
                <time>2022-08-30T12:40:59.000Z</time>
                <name>Position 304</name>
            </trkpt>
            <trkpt lat="47.532921" lon="13.5080811">
                <ele>1032.5</ele>
                <time>2022-08-30T12:41:22.000Z</time>
                <name>Position 305</name>
            </trkpt>
            <trkpt lat="47.5328537" lon="13.5081712">
                <ele>1029.5</ele>
                <time>2022-08-30T12:41:31.000Z</time>
                <name>Position 306</name>
            </trkpt>
            <trkpt lat="47.5327704" lon="13.508229">
                <ele>1028.8</ele>
                <time>2022-08-30T12:42:27.000Z</time>
                <name>Position 307</name>
            </trkpt>
            <trkpt lat="47.5327082" lon="13.5081207">
                <ele>1024.8</ele>
                <time>2022-08-30T12:43:09.000Z</time>
                <name>Position 308</name>
            </trkpt>
            <trkpt lat="47.5327121" lon="13.5079762">
                <ele>1022.6</ele>
                <time>2022-08-30T12:43:17.000Z</time>
                <name>Position 309</name>
            </trkpt>
            <trkpt lat="47.5326955" lon="13.507837">
                <ele>1021.8</ele>
                <time>2022-08-30T12:43:28.000Z</time>
                <name>Position 310</name>
            </trkpt>
            <trkpt lat="47.5326542" lon="13.5077176">
                <ele>1019.7</ele>
                <time>2022-08-30T12:43:37.000Z</time>
                <name>Position 311</name>
            </trkpt>
            <trkpt lat="47.5326203" lon="13.5075799">
                <ele>1019.7</ele>
                <time>2022-08-30T12:43:45.000Z</time>
                <name>Position 312</name>
            </trkpt>
            <trkpt lat="47.5325685" lon="13.5074693">
                <ele>1017.4</ele>
                <time>2022-08-30T12:43:55.000Z</time>
                <name>Position 313</name>
            </trkpt>
            <trkpt lat="47.5325323" lon="13.5073264">
                <ele>1015.3</ele>
                <time>2022-08-30T12:44:04.000Z</time>
                <name>Position 314</name>
            </trkpt>
            <trkpt lat="47.5324917" lon="13.5071872">
                <ele>1015.5</ele>
                <time>2022-08-30T12:44:12.000Z</time>
                <name>Position 315</name>
            </trkpt>
            <trkpt lat="47.5324775" lon="13.507051">
                <ele>1015.8</ele>
                <time>2022-08-30T12:44:19.000Z</time>
                <name>Position 316</name>
            </trkpt>
            <trkpt lat="47.5324368" lon="13.5071796">
                <ele>1011.0</ele>
                <time>2022-08-30T12:44:45.000Z</time>
                <name>Position 317</name>
            </trkpt>
            <trkpt lat="47.532436" lon="13.5073264">
                <ele>1011.5</ele>
                <time>2022-08-30T12:44:53.000Z</time>
                <name>Position 318</name>
            </trkpt>
            <trkpt lat="47.5324062" lon="13.5074527">
                <ele>1009.2</ele>
                <time>2022-08-30T12:45:03.000Z</time>
                <name>Position 319</name>
            </trkpt>
            <trkpt lat="47.5323181" lon="13.5074116">
                <ele>1008.9</ele>
                <time>2022-08-30T12:45:15.000Z</time>
                <name>Position 320</name>
            </trkpt>
            <trkpt lat="47.5323023" lon="13.5072772">
                <ele>1006.2</ele>
                <time>2022-08-30T12:45:25.000Z</time>
                <name>Position 321</name>
            </trkpt>
            <trkpt lat="47.5323238" lon="13.5071429">
                <ele>1006.0</ele>
                <time>2022-08-30T12:45:35.000Z</time>
                <name>Position 322</name>
            </trkpt>
            <trkpt lat="47.5323184" lon="13.5070073">
                <ele>1003.7</ele>
                <time>2022-08-30T12:45:45.000Z</time>
                <name>Position 323</name>
            </trkpt>
            <trkpt lat="47.532323" lon="13.5068661">
                <ele>1001.8</ele>
                <time>2022-08-30T12:45:53.000Z</time>
                <name>Position 324</name>
            </trkpt>
            <trkpt lat="47.5323171" lon="13.5067202">
                <ele>1000.7</ele>
                <time>2022-08-30T12:46:01.000Z</time>
                <name>Position 325</name>
            </trkpt>
            <trkpt lat="47.532329" lon="13.5065877">
                <ele>999.2</ele>
                <time>2022-08-30T12:46:10.000Z</time>
                <name>Position 326</name>
            </trkpt>
            <trkpt lat="47.5323388" lon="13.5064381">
                <ele>998.7</ele>
                <time>2022-08-30T12:46:19.000Z</time>
                <name>Position 327</name>
            </trkpt>
            <trkpt lat="47.5323653" lon="13.5063101">
                <ele>997.9</ele>
                <time>2022-08-30T12:46:28.000Z</time>
                <name>Position 328</name>
            </trkpt>
            <trkpt lat="47.5323755" lon="13.5061716">
                <ele>996.1</ele>
                <time>2022-08-30T12:46:37.000Z</time>
                <name>Position 329</name>
            </trkpt>
            <trkpt lat="47.5323914" lon="13.5060286">
                <ele>995.2</ele>
                <time>2022-08-30T12:46:45.000Z</time>
                <name>Position 330</name>
            </trkpt>
            <trkpt lat="47.532411" lon="13.5058812">
                <ele>994.2</ele>
                <time>2022-08-30T12:46:55.000Z</time>
                <name>Position 331</name>
            </trkpt>
            <trkpt lat="47.5324013" lon="13.5057404">
                <ele>992.4</ele>
                <time>2022-08-30T12:47:05.000Z</time>
                <name>Position 332</name>
            </trkpt>
            <trkpt lat="47.5323775" lon="13.5055988">
                <ele>989.9</ele>
                <time>2022-08-30T12:47:15.000Z</time>
                <name>Position 333</name>
            </trkpt>
            <trkpt lat="47.5323539" lon="13.5054688">
                <ele>990.6</ele>
                <time>2022-08-30T12:47:23.000Z</time>
                <name>Position 334</name>
            </trkpt>
            <trkpt lat="47.5323311" lon="13.5053282">
                <ele>988.9</ele>
                <time>2022-08-30T12:47:32.000Z</time>
                <name>Position 335</name>
            </trkpt>
            <trkpt lat="47.5322432" lon="13.5052955">
                <ele>986.6</ele>
                <time>2022-08-30T12:47:45.000Z</time>
                <name>Position 336</name>
            </trkpt>
            <trkpt lat="47.5322046" lon="13.5054215">
                <ele>985.9</ele>
                <time>2022-08-30T12:47:56.000Z</time>
                <name>Position 337</name>
            </trkpt>
            <trkpt lat="47.5322135" lon="13.5055691">
                <ele>983.7</ele>
                <time>2022-08-30T12:48:07.000Z</time>
                <name>Position 338</name>
            </trkpt>
            <trkpt lat="47.5322297" lon="13.5057128">
                <ele>983.2</ele>
                <time>2022-08-30T12:48:16.000Z</time>
                <name>Position 339</name>
            </trkpt>
            <trkpt lat="47.5321806" lon="13.5058289">
                <ele>982.1</ele>
                <time>2022-08-30T12:48:24.000Z</time>
                <name>Position 340</name>
            </trkpt>
            <trkpt lat="47.5321108" lon="13.5059379">
                <ele>980.5</ele>
                <time>2022-08-30T12:48:33.000Z</time>
                <name>Position 341</name>
            </trkpt>
            <trkpt lat="47.5320854" lon="13.506082">
                <ele>979.7</ele>
                <time>2022-08-30T12:48:42.000Z</time>
                <name>Position 342</name>
            </trkpt>
            <trkpt lat="47.5320681" lon="13.5062221">
                <ele>978.4</ele>
                <time>2022-08-30T12:48:49.000Z</time>
                <name>Position 343</name>
            </trkpt>
            <trkpt lat="47.5320335" lon="13.5063547">
                <ele>977.3</ele>
                <time>2022-08-30T12:48:56.000Z</time>
                <name>Position 344</name>
            </trkpt>
            <trkpt lat="47.5320194" lon="13.5064895">
                <ele>977.4</ele>
                <time>2022-08-30T12:49:03.000Z</time>
                <name>Position 345</name>
            </trkpt>
            <trkpt lat="47.5319766" lon="13.5066157">
                <ele>976.1</ele>
                <time>2022-08-30T12:49:13.000Z</time>
                <name>Position 346</name>
            </trkpt>
            <trkpt lat="47.5319178" lon="13.5067199">
                <ele>973.8</ele>
                <time>2022-08-30T12:49:23.000Z</time>
                <name>Position 347</name>
            </trkpt>
            <trkpt lat="47.5318554" lon="13.5068242">
                <ele>973.4</ele>
                <time>2022-08-30T12:49:31.000Z</time>
                <name>Position 348</name>
            </trkpt>
            <trkpt lat="47.5317961" lon="13.506943">
                <ele>971.0</ele>
                <time>2022-08-30T12:49:42.000Z</time>
                <name>Position 349</name>
            </trkpt>
            <trkpt lat="47.531741" lon="13.5070667">
                <ele>969.1</ele>
                <time>2022-08-30T12:49:50.000Z</time>
                <name>Position 350</name>
            </trkpt>
            <trkpt lat="47.5316775" lon="13.5071626">
                <ele>968.6</ele>
                <time>2022-08-30T12:49:57.000Z</time>
                <name>Position 351</name>
            </trkpt>
            <trkpt lat="47.5316328" lon="13.5072789">
                <ele>965.9</ele>
                <time>2022-08-30T12:50:05.000Z</time>
                <name>Position 352</name>
            </trkpt>
            <trkpt lat="47.5315712" lon="13.5073847">
                <ele>966.7</ele>
                <time>2022-08-30T12:50:14.000Z</time>
                <name>Position 353</name>
            </trkpt>
            <trkpt lat="47.5314756" lon="13.5074221">
                <ele>963.1</ele>
                <time>2022-08-30T12:50:25.000Z</time>
                <name>Position 354</name>
            </trkpt>
            <trkpt lat="47.5313858" lon="13.507435">
                <ele>964.2</ele>
                <time>2022-08-30T12:50:32.000Z</time>
                <name>Position 355</name>
            </trkpt>
            <trkpt lat="47.5312865" lon="13.5074399">
                <ele>963.5</ele>
                <time>2022-08-30T12:50:39.000Z</time>
                <name>Position 356</name>
            </trkpt>
            <trkpt lat="47.5312044" lon="13.5073835">
                <ele>960.6</ele>
                <time>2022-08-30T12:51:02.000Z</time>
                <name>Position 357</name>
            </trkpt>
            <trkpt lat="47.5312587" lon="13.5072637">
                <ele>957.1</ele>
                <time>2022-08-30T12:51:11.000Z</time>
                <name>Position 358</name>
            </trkpt>
            <trkpt lat="47.5313167" lon="13.5071597">
                <ele>957.0</ele>
                <time>2022-08-30T12:51:18.000Z</time>
                <name>Position 359</name>
            </trkpt>
            <trkpt lat="47.5313859" lon="13.50706">
                <ele>957.9</ele>
                <time>2022-08-30T12:51:27.000Z</time>
                <name>Position 360</name>
            </trkpt>
            <trkpt lat="47.5314385" lon="13.5069439">
                <ele>955.5</ele>
                <time>2022-08-30T12:51:37.000Z</time>
                <name>Position 361</name>
            </trkpt>
            <trkpt lat="47.5314666" lon="13.5068108">
                <ele>955.3</ele>
                <time>2022-08-30T12:51:45.000Z</time>
                <name>Position 362</name>
            </trkpt>
            <trkpt lat="47.5315024" lon="13.506666">
                <ele>953.4</ele>
                <time>2022-08-30T12:51:54.000Z</time>
                <name>Position 363</name>
            </trkpt>
            <trkpt lat="47.531538" lon="13.5065296">
                <ele>951.6</ele>
                <time>2022-08-30T12:52:01.000Z</time>
                <name>Position 364</name>
            </trkpt>
            <trkpt lat="47.5315587" lon="13.5063938">
                <ele>949.5</ele>
                <time>2022-08-30T12:52:10.000Z</time>
                <name>Position 365</name>
            </trkpt>
            <trkpt lat="47.5315889" lon="13.5062512">
                <ele>948.7</ele>
                <time>2022-08-30T12:52:17.000Z</time>
                <name>Position 366</name>
            </trkpt>
            <trkpt lat="47.5315928" lon="13.506094">
                <ele>947.1</ele>
                <time>2022-08-30T12:52:27.000Z</time>
                <name>Position 367</name>
            </trkpt>
            <trkpt lat="47.5315992" lon="13.5059448">
                <ele>947.0</ele>
                <time>2022-08-30T12:52:33.000Z</time>
                <name>Position 368</name>
            </trkpt>
            <trkpt lat="47.5315994" lon="13.5058053">
                <ele>946.4</ele>
                <time>2022-08-30T12:52:40.000Z</time>
                <name>Position 369</name>
            </trkpt>
            <trkpt lat="47.5315701" lon="13.5056694">
                <ele>944.6</ele>
                <time>2022-08-30T12:52:48.000Z</time>
                <name>Position 370</name>
            </trkpt>
            <trkpt lat="47.5315819" lon="13.5055204">
                <ele>944.4</ele>
                <time>2022-08-30T12:52:56.000Z</time>
                <name>Position 371</name>
            </trkpt>
            <trkpt lat="47.531582" lon="13.5053687">
                <ele>944.4</ele>
                <time>2022-08-30T12:53:02.000Z</time>
                <name>Position 372</name>
            </trkpt>
            <trkpt lat="47.5315873" lon="13.505232">
                <ele>943.9</ele>
                <time>2022-08-30T12:53:08.000Z</time>
                <name>Position 373</name>
            </trkpt>
            <trkpt lat="47.5316047" lon="13.5050962">
                <ele>944.2</ele>
                <time>2022-08-30T12:53:17.000Z</time>
                <name>Position 374</name>
            </trkpt>
            <trkpt lat="47.5316573" lon="13.5049771">
                <ele>944.1</ele>
                <time>2022-08-30T12:53:26.000Z</time>
                <name>Position 375</name>
            </trkpt>
            <trkpt lat="47.5317201" lon="13.5048671">
                <ele>943.7</ele>
                <time>2022-08-30T12:53:36.000Z</time>
                <name>Position 376</name>
            </trkpt>
            <trkpt lat="47.5317621" lon="13.5047486">
                <ele>943.6</ele>
                <time>2022-08-30T12:53:43.000Z</time>
                <name>Position 377</name>
            </trkpt>
            <trkpt lat="47.5318001" lon="13.5046051">
                <ele>943.2</ele>
                <time>2022-08-30T12:53:52.000Z</time>
                <name>Position 378</name>
            </trkpt>
            <trkpt lat="47.5318285" lon="13.5044717">
                <ele>943.1</ele>
                <time>2022-08-30T12:53:59.000Z</time>
                <name>Position 379</name>
            </trkpt>
            <trkpt lat="47.5318548" lon="13.5043297">
                <ele>944.1</ele>
                <time>2022-08-30T12:54:06.000Z</time>
                <name>Position 380</name>
            </trkpt>
            <trkpt lat="47.5318637" lon="13.5041806">
                <ele>943.0</ele>
                <time>2022-08-30T12:54:15.000Z</time>
                <name>Position 381</name>
            </trkpt>
            <trkpt lat="47.5318907" lon="13.5040436">
                <ele>943.9</ele>
                <time>2022-08-30T12:54:22.000Z</time>
                <name>Position 382</name>
            </trkpt>
            <trkpt lat="47.5319389" lon="13.5039285">
                <ele>942.4</ele>
                <time>2022-08-30T12:54:29.000Z</time>
                <name>Position 383</name>
            </trkpt>
            <trkpt lat="47.5319957" lon="13.5038215">
                <ele>942.4</ele>
                <time>2022-08-30T12:54:36.000Z</time>
                <name>Position 384</name>
            </trkpt>
            <trkpt lat="47.5320753" lon="13.5037208">
                <ele>942.8</ele>
                <time>2022-08-30T12:54:43.000Z</time>
                <name>Position 385</name>
            </trkpt>
            <trkpt lat="47.5321617" lon="13.5036749">
                <ele>942.5</ele>
                <time>2022-08-30T12:54:54.000Z</time>
                <name>Position 386</name>
            </trkpt>
            <trkpt lat="47.5322403" lon="13.5035987">
                <ele>942.9</ele>
                <time>2022-08-30T12:55:05.000Z</time>
                <name>Position 387</name>
            </trkpt>
            <trkpt lat="47.5323012" lon="13.5034989">
                <ele>942.9</ele>
                <time>2022-08-30T12:55:15.000Z</time>
                <name>Position 388</name>
            </trkpt>
            <trkpt lat="47.5323416" lon="13.5033619">
                <ele>942.2</ele>
                <time>2022-08-30T12:55:23.000Z</time>
                <name>Position 389</name>
            </trkpt>
            <trkpt lat="47.5323839" lon="13.5032263">
                <ele>941.9</ele>
                <time>2022-08-30T12:55:30.000Z</time>
                <name>Position 390</name>
            </trkpt>
            <trkpt lat="47.5324192" lon="13.5030959">
                <ele>942.4</ele>
                <time>2022-08-30T12:55:37.000Z</time>
                <name>Position 391</name>
            </trkpt>
            <trkpt lat="47.5324807" lon="13.5029841">
                <ele>942.7</ele>
                <time>2022-08-30T12:55:45.000Z</time>
                <name>Position 392</name>
            </trkpt>
            <trkpt lat="47.532535" lon="13.5028703">
                <ele>942.9</ele>
                <time>2022-08-30T12:55:52.000Z</time>
                <name>Position 393</name>
            </trkpt>
            <trkpt lat="47.532545" lon="13.5027303">
                <ele>942.6</ele>
                <time>2022-08-30T12:56:00.000Z</time>
                <name>Position 394</name>
            </trkpt>
            <trkpt lat="47.5325406" lon="13.5025828">
                <ele>941.9</ele>
                <time>2022-08-30T12:56:07.000Z</time>
                <name>Position 395</name>
            </trkpt>
            <trkpt lat="47.5325247" lon="13.5024391">
                <ele>942.2</ele>
                <time>2022-08-30T12:56:16.000Z</time>
                <name>Position 396</name>
            </trkpt>
            <trkpt lat="47.5325268" lon="13.5022963">
                <ele>942.1</ele>
                <time>2022-08-30T12:56:24.000Z</time>
                <name>Position 397</name>
            </trkpt>
            <trkpt lat="47.5325349" lon="13.5021632">
                <ele>942.6</ele>
                <time>2022-08-30T12:56:31.000Z</time>
                <name>Position 398</name>
            </trkpt>
            <trkpt lat="47.5325604" lon="13.5020316">
                <ele>941.0</ele>
                <time>2022-08-30T12:56:39.000Z</time>
                <name>Position 399</name>
            </trkpt>
            <trkpt lat="47.5325707" lon="13.5018954">
                <ele>941.5</ele>
                <time>2022-08-30T12:56:48.000Z</time>
                <name>Position 400</name>
            </trkpt>
            <trkpt lat="47.5325708" lon="13.5017497">
                <ele>941.3</ele>
                <time>2022-08-30T12:56:55.000Z</time>
                <name>Position 401</name>
            </trkpt>
            <trkpt lat="47.5325712" lon="13.5016151">
                <ele>942.6</ele>
                <time>2022-08-30T12:57:04.000Z</time>
                <name>Position 402</name>
            </trkpt>
            <trkpt lat="47.5325703" lon="13.5014756">
                <ele>941.1</ele>
                <time>2022-08-30T12:57:12.000Z</time>
                <name>Position 403</name>
            </trkpt>
            <trkpt lat="47.5325732" lon="13.5013336">
                <ele>941.8</ele>
                <time>2022-08-30T12:57:20.000Z</time>
                <name>Position 404</name>
            </trkpt>
            <trkpt lat="47.5325651" lon="13.5011947">
                <ele>941.8</ele>
                <time>2022-08-30T12:57:28.000Z</time>
                <name>Position 405</name>
            </trkpt>
            <trkpt lat="47.5325494" lon="13.5010582">
                <ele>942.1</ele>
                <time>2022-08-30T12:57:36.000Z</time>
                <name>Position 406</name>
            </trkpt>
            <trkpt lat="47.5325275" lon="13.5009172">
                <ele>942.1</ele>
                <time>2022-08-30T12:57:42.000Z</time>
                <name>Position 407</name>
            </trkpt>
            <trkpt lat="47.5325195" lon="13.500775">
                <ele>940.6</ele>
                <time>2022-08-30T12:57:50.000Z</time>
                <name>Position 408</name>
            </trkpt>
            <trkpt lat="47.5325071" lon="13.5006252">
                <ele>939.9</ele>
                <time>2022-08-30T12:58:01.000Z</time>
                <name>Position 409</name>
            </trkpt>
            <trkpt lat="47.5325131" lon="13.5004874">
                <ele>940.5</ele>
                <time>2022-08-30T12:58:11.000Z</time>
                <name>Position 410</name>
            </trkpt>
            <trkpt lat="47.5324794" lon="13.5003606">
                <ele>939.8</ele>
                <time>2022-08-30T12:58:19.000Z</time>
                <name>Position 411</name>
            </trkpt>
            <trkpt lat="47.5324521" lon="13.5002232">
                <ele>941.4</ele>
                <time>2022-08-30T12:58:29.000Z</time>
                <name>Position 412</name>
            </trkpt>
            <trkpt lat="47.5324865" lon="13.5000956">
                <ele>941.1</ele>
                <time>2022-08-30T12:58:36.000Z</time>
                <name>Position 413</name>
            </trkpt>
            <trkpt lat="47.5324738" lon="13.4999553">
                <ele>941.2</ele>
                <time>2022-08-30T12:58:42.000Z</time>
                <name>Position 414</name>
            </trkpt>
            <trkpt lat="47.5324732" lon="13.4998199">
                <ele>941.2</ele>
                <time>2022-08-30T12:58:47.000Z</time>
                <name>Position 415</name>
            </trkpt>
            <trkpt lat="47.5325161" lon="13.4996942">
                <ele>939.9</ele>
                <time>2022-08-30T12:58:56.000Z</time>
                <name>Position 416</name>
            </trkpt>
            <trkpt lat="47.5325656" lon="13.4995801">
                <ele>940.9</ele>
                <time>2022-08-30T12:59:05.000Z</time>
                <name>Position 417</name>
            </trkpt>
            <trkpt lat="47.5326143" lon="13.4994532">
                <ele>940.4</ele>
                <time>2022-08-30T12:59:14.000Z</time>
                <name>Position 418</name>
            </trkpt>
            <trkpt lat="47.5326359" lon="13.4993072">
                <ele>941.0</ele>
                <time>2022-08-30T12:59:23.000Z</time>
                <name>Position 419</name>
            </trkpt>
            <trkpt lat="47.5326366" lon="13.499162">
                <ele>939.2</ele>
                <time>2022-08-30T12:59:32.000Z</time>
                <name>Position 420</name>
            </trkpt>
            <trkpt lat="47.5326175" lon="13.499025">
                <ele>939.6</ele>
                <time>2022-08-30T12:59:39.000Z</time>
                <name>Position 421</name>
            </trkpt>
            <trkpt lat="47.5326254" lon="13.4988845">
                <ele>940.2</ele>
                <time>2022-08-30T12:59:46.000Z</time>
                <name>Position 422</name>
            </trkpt>
            <trkpt lat="47.5326575" lon="13.4987485">
                <ele>940.7</ele>
                <time>2022-08-30T12:59:53.000Z</time>
                <name>Position 423</name>
            </trkpt>
            <trkpt lat="47.5327022" lon="13.4986192">
                <ele>939.8</ele>
                <time>2022-08-30T13:00:04.000Z</time>
                <name>Position 424</name>
            </trkpt>
            <trkpt lat="47.5327345" lon="13.49848">
                <ele>939.7</ele>
                <time>2022-08-30T13:00:12.000Z</time>
                <name>Position 425</name>
            </trkpt>
            <trkpt lat="47.5327724" lon="13.4983575">
                <ele>939.3</ele>
                <time>2022-08-30T13:00:21.000Z</time>
                <name>Position 426</name>
            </trkpt>
            <trkpt lat="47.532788" lon="13.4982105">
                <ele>939.7</ele>
                <time>2022-08-30T13:00:30.000Z</time>
                <name>Position 427</name>
            </trkpt>
            <trkpt lat="47.5327889" lon="13.4980746">
                <ele>939.6</ele>
                <time>2022-08-30T13:00:37.000Z</time>
                <name>Position 428</name>
            </trkpt>
            <trkpt lat="47.5328088" lon="13.4979375">
                <ele>939.6</ele>
                <time>2022-08-30T13:00:47.000Z</time>
                <name>Position 429</name>
            </trkpt>
            <trkpt lat="47.5328287" lon="13.4977979">
                <ele>937.9</ele>
                <time>2022-08-30T13:00:54.000Z</time>
                <name>Position 430</name>
            </trkpt>
            <trkpt lat="47.532846" lon="13.4976643">
                <ele>938.2</ele>
                <time>2022-08-30T13:01:04.000Z</time>
                <name>Position 431</name>
            </trkpt>
            <trkpt lat="47.5327882" lon="13.497558">
                <ele>937.5</ele>
                <time>2022-08-30T13:01:14.000Z</time>
                <name>Position 432</name>
            </trkpt>
            <trkpt lat="47.5327615" lon="13.4974279">
                <ele>937.4</ele>
                <time>2022-08-30T13:01:26.000Z</time>
                <name>Position 433</name>
            </trkpt>
            <trkpt lat="47.5326709" lon="13.4974244">
                <ele>927.6</ele>
                <time>2022-08-30T13:16:11.000Z</time>
                <name>Position 434</name>
            </trkpt>
            <trkpt lat="47.5327406" lon="13.4975133">
                <ele>922.1</ele>
                <time>2022-08-30T13:25:26.000Z</time>
                <name>Position 435</name>
            </trkpt>
            <trkpt lat="47.5327797" lon="13.4973916">
                <ele>921.5</ele>
                <time>2022-08-30T13:26:24.000Z</time>
                <name>Position 436</name>
            </trkpt>
            <trkpt lat="47.5326994" lon="13.4974536">
                <ele>919.9</ele>
                <time>2022-08-30T13:29:00.000Z</time>
                <name>Position 437</name>
            </trkpt>
            <trkpt lat="47.5327964" lon="13.4973981">
                <ele>910.9</ele>
                <time>2022-08-30T13:46:05.000Z</time>
                <name>Position 438</name>
            </trkpt>
            <trkpt lat="47.5328602" lon="13.4972942">
                <ele>911.1</ele>
                <time>2022-08-30T13:46:13.000Z</time>
                <name>Position 439</name>
            </trkpt>
            <trkpt lat="47.5329996" lon="13.4973241">
                <ele>910.8</ele>
                <time>2022-08-30T13:46:14.000Z</time>
                <name>Position 440</name>
            </trkpt>
            <trkpt lat="47.5329822" lon="13.497177">
                <ele>910.9</ele>
                <time>2022-08-30T13:46:28.000Z</time>
                <name>Position 441</name>
            </trkpt>
            <trkpt lat="47.5330299" lon="13.4970531">
                <ele>910.9</ele>
                <time>2022-08-30T13:46:32.000Z</time>
                <name>Position 442</name>
            </trkpt>
            <trkpt lat="47.5330146" lon="13.4969013">
                <ele>911.0</ele>
                <time>2022-08-30T13:46:39.000Z</time>
                <name>Position 443</name>
            </trkpt>
            <trkpt lat="47.533045" lon="13.4967759">
                <ele>911.4</ele>
                <time>2022-08-30T13:47:11.000Z</time>
                <name>Position 444</name>
            </trkpt>
            <trkpt lat="47.5330921" lon="13.4968942">
                <ele>910.3</ele>
                <time>2022-08-30T13:47:49.000Z</time>
                <name>Position 445</name>
            </trkpt>
            <trkpt lat="47.5331865" lon="13.496901">
                <ele>909.9</ele>
                <time>2022-08-30T13:48:01.000Z</time>
                <name>Position 446</name>
            </trkpt>
            <trkpt lat="47.533283" lon="13.4968655">
                <ele>909.4</ele>
                <time>2022-08-30T13:48:11.000Z</time>
                <name>Position 447</name>
            </trkpt>
            <trkpt lat="47.5333624" lon="13.4967967">
                <ele>908.9</ele>
                <time>2022-08-30T13:48:20.000Z</time>
                <name>Position 448</name>
            </trkpt>
            <trkpt lat="47.5334503" lon="13.4967561">
                <ele>906.2</ele>
                <time>2022-08-30T13:48:36.000Z</time>
                <name>Position 449</name>
            </trkpt>
            <trkpt lat="47.5335518" lon="13.4967396">
                <ele>905.3</ele>
                <time>2022-08-30T13:48:47.000Z</time>
                <name>Position 450</name>
            </trkpt>
            <trkpt lat="47.5336431" lon="13.4966981">
                <ele>903.6</ele>
                <time>2022-08-30T13:48:55.000Z</time>
                <name>Position 451</name>
            </trkpt>
            <trkpt lat="47.5337307" lon="13.4966647">
                <ele>900.6</ele>
                <time>2022-08-30T13:49:11.000Z</time>
                <name>Position 452</name>
            </trkpt>
            <trkpt lat="47.5338301" lon="13.4966649">
                <ele>901.0</ele>
                <time>2022-08-30T13:49:20.000Z</time>
                <name>Position 453</name>
            </trkpt>
            <trkpt lat="47.5338911" lon="13.4965471">
                <ele>898.2</ele>
                <time>2022-08-30T13:49:37.000Z</time>
                <name>Position 454</name>
            </trkpt>
            <trkpt lat="47.5338405" lon="13.4964358">
                <ele>894.1</ele>
                <time>2022-08-30T13:49:53.000Z</time>
                <name>Position 455</name>
            </trkpt>
            <trkpt lat="47.5338998" lon="13.4963328">
                <ele>892.2</ele>
                <time>2022-08-30T13:50:06.000Z</time>
                <name>Position 456</name>
            </trkpt>
            <trkpt lat="47.5339066" lon="13.4961979">
                <ele>892.2</ele>
                <time>2022-08-30T13:50:22.000Z</time>
                <name>Position 457</name>
            </trkpt>
            <trkpt lat="47.5338448" lon="13.4960933">
                <ele>891.4</ele>
                <time>2022-08-30T13:50:38.000Z</time>
                <name>Position 458</name>
            </trkpt>
            <trkpt lat="47.5337796" lon="13.4959987">
                <ele>891.1</ele>
                <time>2022-08-30T13:50:50.000Z</time>
                <name>Position 459</name>
            </trkpt>
            <trkpt lat="47.5337048" lon="13.4959012">
                <ele>891.1</ele>
                <time>2022-08-30T13:50:59.000Z</time>
                <name>Position 460</name>
            </trkpt>
            <trkpt lat="47.5336365" lon="13.4958141">
                <ele>890.8</ele>
                <time>2022-08-30T13:51:07.000Z</time>
                <name>Position 461</name>
            </trkpt>
            <trkpt lat="47.533568" lon="13.4957041">
                <ele>890.9</ele>
                <time>2022-08-30T13:51:15.000Z</time>
                <name>Position 462</name>
            </trkpt>
            <trkpt lat="47.5334997" lon="13.4956134">
                <ele>890.5</ele>
                <time>2022-08-30T13:51:22.000Z</time>
                <name>Position 463</name>
            </trkpt>
            <trkpt lat="47.5334318" lon="13.4955251">
                <ele>890.0</ele>
                <time>2022-08-30T13:51:49.000Z</time>
                <name>Position 464</name>
            </trkpt>
            <trkpt lat="47.5335237" lon="13.4955258">
                <ele>890.5</ele>
                <time>2022-08-30T13:52:31.000Z</time>
                <name>Position 465</name>
            </trkpt>
            <trkpt lat="47.5334322" lon="13.4954952">
                <ele>889.7</ele>
                <time>2022-08-30T13:54:14.000Z</time>
                <name>Position 466</name>
            </trkpt>
            <trkpt lat="47.5333556" lon="13.4955654">
                <ele>889.9</ele>
                <time>2022-08-30T13:54:22.000Z</time>
                <name>Position 467</name>
            </trkpt>
            <trkpt lat="47.533443" lon="13.4956338">
                <ele>890.1</ele>
                <time>2022-08-30T13:54:53.000Z</time>
                <name>Position 468</name>
            </trkpt>
            <trkpt lat="47.5335202" lon="13.4957238">
                <ele>890.2</ele>
                <time>2022-08-30T13:54:57.000Z</time>
                <name>Position 469</name>
            </trkpt>
            <trkpt lat="47.5336049" lon="13.4958376">
                <ele>890.6</ele>
                <time>2022-08-30T13:55:00.000Z</time>
                <name>Position 470</name>
            </trkpt>
            <trkpt lat="47.5336784" lon="13.4959221">
                <ele>890.9</ele>
                <time>2022-08-30T13:55:02.000Z</time>
                <name>Position 471</name>
            </trkpt>
            <trkpt lat="47.5337647" lon="13.4959962">
                <ele>891.0</ele>
                <time>2022-08-30T13:55:04.000Z</time>
                <name>Position 472</name>
            </trkpt>
            <trkpt lat="47.5338498" lon="13.4960897">
                <ele>891.2</ele>
                <time>2022-08-30T13:55:07.000Z</time>
                <name>Position 473</name>
            </trkpt>
        </trkseg>
    </trk>
</gpx>
