<?xml version="1.0" encoding="UTF-8" standalone="yes"?>
<gpx xmlns="http://www.topografix.com/GPX/1/1" creator="alpenkarte.eu">
    <metadata>
        <name>ganhofersteig</name>
        <link href="alpenkarte.eu">
            <text>Route von alpenkarte.eu</text>
        </link>
        <bounds minlat="47.85092300000000165027813636697828769683837890625" minlon="16.079564999999998775592757738195359706878662109375" maxlat="47.85631699999999710826159571297466754913330078125" maxlon="16.0999470000000002301021595485508441925048828125"/>
    </metadata>
    <trk>
        <name>ganhofersteig</name>
        <trkseg>
            <trkpt lat="47.8552770000000009531504474580287933349609375" lon="16.09974199999999910914993961341679096221923828125">
                <ele>533.783488959991018418804742395877838134765625</ele>
            </trkpt>
            <trkpt lat="47.8552729999999968413249007426202297210693359375" lon="16.099727000000001453372533433139324188232421875">
                <ele>533.7718782400287409473094157874584197998046875</ele>
            </trkpt>
            <trkpt lat="47.85520799999999752571966382674872875213623046875" lon="16.099622000000000099362296168692409992218017578125">
                <ele>533.9819814400201494208886288106441497802734375</ele>
            </trkpt>
            <trkpt lat="47.85477900000000062163962866179645061492919921875" lon="16.099281000000001284888639929704368114471435546875">
                <ele>538.0295708799958447343669831752777099609375</ele>
            </trkpt>
            <trkpt lat="47.85469100000000253203324973583221435546875" lon="16.099163000000000778300091042183339595794677734375">
                <ele>538.952368479963979552849195897579193115234375</ele>
            </trkpt>
            <trkpt lat="47.85443099999999816418494447134435176849365234375" lon="16.098366999999999649162418791092932224273681640625">
                <ele>542.99798512002553252386860549449920654296875</ele>
            </trkpt>
            <trkpt lat="47.854095999999998412022250704467296600341796875" lon="16.097784999999998234443410183303058147430419921875">
                <ele>544.1781983999989051881129853427410125732421875</ele>
            </trkpt>
            <trkpt lat="47.8536720000000030950104701332747936248779296875" lon="16.097117999999998261273503885604441165924072265625">
                <ele>543.942931199972690592403523623943328857421875</ele>
            </trkpt>
            <trkpt lat="47.8531100000000009231371222995221614837646484375" lon="16.09663400000000166301106219179928302764892578125">
                <ele>546.9276223999905823802691884338855743408203125</ele>
            </trkpt>
            <trkpt lat="47.85299400000000247246134676970541477203369140625" lon="16.096433999999998576413418049924075603485107421875">
                <ele>548.19956096000169054605066776275634765625</ele>
            </trkpt>
            <trkpt lat="47.85289499999999662804839317686855792999267578125" lon="16.096147999999999456122168339788913726806640625">
                <ele>550.202729600017619304708205163478851318359375</ele>
            </trkpt>
            <trkpt lat="47.85255099999999828241925570182502269744873046875" lon="16.0956469999999995934558683075010776519775390625">
                <ele>555.900694080017046871944330632686614990234375</ele>
            </trkpt>
            <trkpt lat="47.852451999999999543433659709990024566650390625" lon="16.095472000000000889485818333923816680908203125">
                <ele>558.053402879991836016415618360042572021484375</ele>
            </trkpt>
            <trkpt lat="47.852317999999996800397639162838459014892578125" lon="16.095335999999999643250703229568898677825927734375">
                <ele>559.8803289600149355464964173734188079833984375</ele>
            </trkpt>
            <trkpt lat="47.85196400000000238605935010127723217010498046875" lon="16.094823000000001655962478253059089183807373046875">
                <ele>567.81609407996575100696645677089691162109375</ele>
            </trkpt>
            <trkpt lat="47.8518049999999988131094141863286495208740234375" lon="16.094446000000001362195689580403268337249755859375">
                <ele>572.8250592000014194127288646996021270751953125</ele>
            </trkpt>
            <trkpt lat="47.8514770000000027039277483709156513214111328125" lon="16.093986999999998488419805653393268585205078125">
                <ele>576.2262939200298887953977100551128387451171875</ele>
            </trkpt>
            <trkpt lat="47.8512539999999972906152834184467792510986328125" lon="16.093536000000000285581336356699466705322265625">
                <ele>577.1801715199857198967947624623775482177734375</ele>
            </trkpt>
            <trkpt lat="47.85110999999999847887011128477752208709716796875" lon="16.093033999999999394958649645559489727020263671875">
                <ele>580.8005280000051016031648032367229461669921875</ele>
            </trkpt>
            <trkpt lat="47.8510830000000026984707801602780818939208984375" lon="16.09293600000000168392944033257663249969482421875">
                <ele>581.676153599983763342606835067272186279296875</ele>
            </trkpt>
            <trkpt lat="47.8510830000000026984707801602780818939208984375" lon="16.09293600000000168392944033257663249969482421875">
                <ele>581.676153599983763342606835067272186279296875</ele>
            </trkpt>
            <trkpt lat="47.85097700000000031650415621697902679443359375" lon="16.092532999999999532292349613271653652191162109375">
                <ele>585.6605352000038919868529774248600006103515625</ele>
            </trkpt>
            <trkpt lat="47.85092999999999818783180671744048595428466796875" lon="16.092237999999998265820977394469082355499267578125">
                <ele>588.7992480000281148022622801363468170166015625</ele>
            </trkpt>
            <trkpt lat="47.85092300000000165027813636697828769683837890625" lon="16.09192699999999831561581231653690338134765625">
                <ele>591.99567120000529030221514403820037841796875</ele>
            </trkpt>
            <trkpt lat="47.85112500000000324007487506605684757232666015625" lon="16.09143100000000004001776687800884246826171875">
                <ele>594.00087999996549115166999399662017822265625</ele>
            </trkpt>
            <trkpt lat="47.85120400000000273621481028385460376739501953125" lon="16.091097999999998791054167668335139751434326171875">
                <ele>594.8218739199722904231748543679714202880859375</ele>
            </trkpt>
            <trkpt lat="47.85131899999999660622052033431828022003173828125" lon="16.090258999999999645069692633114755153656005859375">
                <ele>597.37733152004648218280635774135589599609375</ele>
            </trkpt>
            <trkpt lat="47.851719000000002779415808618068695068359375" lon="16.08921000000000134377842186950147151947021484375">
                <ele>601.5913967999614442305755801498889923095703125</ele>
            </trkpt>
            <trkpt lat="47.85187700000000177169567905366420745849609375" lon="16.08896899999999874353306950069963932037353515625">
                <ele>601.666799999990644209901802241802215576171875</ele>
            </trkpt>
            <trkpt lat="47.8522150000000010550138540565967559814453125" lon="16.08858000000000032514435588382184505462646484375">
                <ele>600.75599999998803468770347535610198974609375</ele>
            </trkpt>
            <trkpt lat="47.85249400000000008503775461576879024505615234375" lon="16.088367999999999113924786797724664211273193359375">
                <ele>599.34960000000455693225376307964324951171875</ele>
            </trkpt>
            <trkpt lat="47.85288800000000009049472282640635967254638671875" lon="16.087945999999998747398421983234584331512451171875">
                <ele>593.5087564800036261658533476293087005615234375</ele>
            </trkpt>
            <trkpt lat="47.8530530000000027257556212134659290313720703125" lon="16.087650000000000005684341886080801486968994140625">
                <ele>590.80579199993781003286130726337432861328125</ele>
            </trkpt>
            <trkpt lat="47.8532129999999966685209074057638645172119140625" lon="16.087824000000001234411683981306850910186767578125">
                <ele>586.7746291200722907888120971620082855224609375</ele>
            </trkpt>
            <trkpt lat="47.8534939999999977544575813226401805877685546875" lon="16.08706600000000008776623872108757495880126953125">
                <ele>586.3328000000104793798527680337429046630859375</ele>
            </trkpt>
            <trkpt lat="47.85367899999999963256414048373699188232421875" lon="16.0865170000000006211848813109099864959716796875">
                <ele>589.9959999999931596903479658067226409912109375</ele>
            </trkpt>
            <trkpt lat="47.854140999999998484781826846301555633544921875" lon="16.085530999999999579586074105463922023773193359375">
                <ele>607.3852772800192951763165183365345001220703125</ele>
            </trkpt>
            <trkpt lat="47.8543319999999994251993484795093536376953125" lon="16.0852000000000003865352482534945011138916015625">
                <ele>619.654815999981337881763465702533721923828125</ele>
            </trkpt>
            <trkpt lat="47.854455999999998994098859839141368865966796875" lon="16.085111000000001268972482648678123950958251953125">
                <ele>623.727447039949083773535676300525665283203125</ele>
            </trkpt>
            <trkpt lat="47.8548210000000011632437235675752162933349609375" lon="16.085074999999999789679350215010344982147216796875">
                <ele>628.4222680000174250380950979888439178466796875</ele>
            </trkpt>
            <trkpt lat="47.85506600000000076988726505078375339508056640625" lon="16.085138000000000602085492573678493499755859375">
                <ele>629.328417279993800548254512250423431396484375</ele>
            </trkpt>
            <trkpt lat="47.85545499999999918827597866766154766082763671875" lon="16.08495599999999825513441464863717555999755859375">
                <ele>639.8676544000200010486878454685211181640625</ele>
            </trkpt>
            <trkpt lat="47.85578199999999782221493660472333431243896484375" lon="16.084489999999998843804860371164977550506591796875">
                <ele>650.333190400002195019624195992946624755859375</ele>
            </trkpt>
            <trkpt lat="47.85606700000000301997715723700821399688720703125" lon="16.08472199999999929787009023129940032958984375">
                <ele>648.0224099200091814054758287966251373291015625</ele>
            </trkpt>
            <trkpt lat="47.85615399999999652891347068361937999725341796875" lon="16.084824000000001120724846259690821170806884765625">
                <ele>647.197511679983790600090287625789642333984375</ele>
            </trkpt>
            <trkpt lat="47.8562220000000024811015464365482330322265625" lon="16.085004000000001411763150827027857303619384765625">
                <ele>645.8527935999926512522506527602672576904296875</ele>
            </trkpt>
            <trkpt lat="47.85631699999999710826159571297466754913330078125" lon="16.085125000000001449507180950604379177093505859375">
                <ele>644.876499999971201759763062000274658203125</ele>
            </trkpt>
            <trkpt lat="47.85631699999999710826159571297466754913330078125" lon="16.085125000000001449507180950604379177093505859375">
                <ele>644.876499999971201759763062000274658203125</ele>
            </trkpt>
            <trkpt lat="47.85630900000000309546521748416125774383544921875" lon="16.085115999999999303327058441936969757080078125">
                <ele>644.939276800021389135508798062801361083984375</ele>
            </trkpt>
            <trkpt lat="47.85629099999999880310497246682643890380859375" lon="16.08452199999999976398612488992512226104736328125">
                <ele>649.678452160003189419512636959552764892578125</ele>
            </trkpt>
            <trkpt lat="47.85620200000000323825588566251099109649658203125" lon="16.083724000000000131649358081631362438201904296875">
                <ele>657.8171711999624449163093231618404388427734375</ele>
            </trkpt>
            <trkpt lat="47.85619700000000165118763106875121593475341796875" lon="16.08355099999999993087840266525745391845703125">
                <ele>659.873476799978334383922629058361053466796875</ele>
            </trkpt>
            <trkpt lat="47.85605100000000078352968557737767696380615234375" lon="16.08340199999999953206497593782842159271240234375">
                <ele>663.9048287999941067027975805103778839111328125</ele>
            </trkpt>
            <trkpt lat="47.85614799999999746660250821150839328765869140625" lon="16.082840999999998388148014782927930355072021484375">
                <ele>670.36936960007506058900617063045501708984375</ele>
            </trkpt>
            <trkpt lat="47.85617599999999782767190481536090373992919921875" lon="16.08251599999999825740815140306949615478515625">
                <ele>674.4578752000743406824767589569091796875</ele>
            </trkpt>
            <trkpt lat="47.85614799999999746660250821150839328765869140625" lon="16.082297000000000508634911966510117053985595703125">
                <ele>678.395349760056660670670680701732635498046875</ele>
            </trkpt>
            <trkpt lat="47.85592700000000121463017421774566173553466796875" lon="16.081866000000001548642103443853557109832763671875">
                <ele>691.7675747199344868931802920997142791748046875</ele>
            </trkpt>
            <trkpt lat="47.855828999999999950887286104261875152587890625" lon="16.081624999999998948396751075051724910736083984375">
                <ele>699.15036000001737193088047206401824951171875</ele>
            </trkpt>
            <trkpt lat="47.855716000000001031366991810500621795654296875" lon="16.081472000000001543185135233215987682342529296875">
                <ele>703.9421452799551843781955540180206298828125</ele>
            </trkpt>
            <trkpt lat="47.85560000000000258069121628068387508392333984375" lon="16.081468000000000984073267318308353424072265625">
                <ele>706.8429119999242402627714909613132476806640625</ele>
            </trkpt>
            <trkpt lat="47.8554620000000028312570066191256046295166015625" lon="16.08164599999999921919879852794110774993896484375">
                <ele>707.30550527995001175440847873687744140625</ele>
            </trkpt>
            <trkpt lat="47.85538999999999987267074175179004669189453125" lon="16.081703000000000969293978414498269557952880859375">
                <ele>707.817619199983937505749054253101348876953125</ele>
            </trkpt>
            <trkpt lat="47.85526999999999731016941950656473636627197265625" lon="16.081669999999999021156327216885983943939208984375">
                <ele>711.2691840000853744641062803566455841064453125</ele>
            </trkpt>
            <trkpt lat="47.85507499999999936335370875895023345947265625" lon="16.081292000000001252146830665878951549530029296875">
                <ele>723.19041599999445679713971912860870361328125</ele>
            </trkpt>
            <trkpt lat="47.854995999999999867213773541152477264404296875" lon="16.081056000000000238969732890836894512176513671875">
                <ele>730.086539520001906566903926432132720947265625</ele>
            </trkpt>
            <trkpt lat="47.8548559999999980618667905218899250030517578125" lon="16.080895000000001715534381219185888767242431640625">
                <ele>738.1509024000309864277369342744350433349609375</ele>
            </trkpt>
            <trkpt lat="47.8547420000000016671037883497774600982666015625" lon="16.08088000000000050704329623840749263763427734375">
                <ele>742.3876991999337633387767709791660308837890625</ele>
            </trkpt>
            <trkpt lat="47.8545510000000007266862667165696620941162109375" lon="16.081005000000001103899194276891648769378662109375">
                <ele>745.735257599950500662089325487613677978515625</ele>
            </trkpt>
            <trkpt lat="47.85437999999999902911440585739910602569580078125" lon="16.080921000000000020691004465334117412567138671875">
                <ele>753.661449600034984541707672178745269775390625</ele>
            </trkpt>
            <trkpt lat="47.85417799999999743931766715832054615020751953125" lon="16.081006999999999607098288834095001220703125">
                <ele>757.9182739200983860428095795214176177978515625</ele>
            </trkpt>
            <trkpt lat="47.8539320000000003574314177967607975006103515625" lon="16.081005000000001103899194276891648769378662109375">
                <ele>764.4460767999622703428030945360660552978515625</ele>
            </trkpt>
            <trkpt lat="47.853644000000002733941073529422283172607421875" lon="16.081188999999998401335687958635389804840087890625">
                <ele>767.5155116799631969115580432116985321044921875</ele>
            </trkpt>
            <trkpt lat="47.8531559999999984711394063197076320648193359375" lon="16.081220999999999321516952477395534515380859375">
                <ele>776.784216320025052482378669083118438720703125</ele>
            </trkpt>
            <trkpt lat="47.85297899999999771125658298842608928680419921875" lon="16.081272999999999484543877770192921161651611328125">
                <ele>776.834193440026638199924491345882415771484375</ele>
            </trkpt>
            <trkpt lat="47.85279700000000246973286266438663005828857421875" lon="16.08142600000000044246917241252958774566650390625">
                <ele>774.5416150399759089850704185664653778076171875</ele>
            </trkpt>
            <trkpt lat="47.85267999999999943838702165521681308746337890625" lon="16.0814850000000006957634468562901020050048828125">
                <ele>773.8547359999873833658057264983654022216796875</ele>
            </trkpt>
            <trkpt lat="47.8525319999999965148163028061389923095703125" lon="16.081461999999998369048626045696437358856201171875">
                <ele>775.230106880059111063019372522830963134765625</ele>
            </trkpt>
            <trkpt lat="47.85228200000000242653186433017253875732421875" lon="16.0811929999999989604475558735430240631103515625">
                <ele>777.070988480083769900375045835971832275390625</ele>
            </trkpt>
            <trkpt lat="47.85223899999999730425770394504070281982421875" lon="16.081036999999998471366779995150864124298095703125">
                <ele>780.8655166399972813451313413679599761962890625</ele>
            </trkpt>
            <trkpt lat="47.8520639999999986002876539714634418487548828125" lon="16.080760000000001497255652793683111667633056640625">
                <ele>786.927340799938747295527718961238861083984375</ele>
            </trkpt>
            <trkpt lat="47.85211699999999979127096594311296939849853515625" lon="16.080625000000001278976924368180334568023681640625">
                <ele>791.438099999961195862852036952972412109375</ele>
            </trkpt>
            <trkpt lat="47.8520309999999966521500027738511562347412109375" lon="16.080408999999999508645487367175519466400146484375">
                <ele>797.2003108799972324050031602382659912109375</ele>
            </trkpt>
            <trkpt lat="47.85176100000000332101990352384746074676513671875" lon="16.080054000000000513637132826261222362518310546875">
                <ele>808.3601596799771868973039090633392333984375</ele>
            </trkpt>
            <trkpt lat="47.85142599999999646342985215596854686737060546875" lon="16.079930999999998419980329344980418682098388671875">
                <ele>809.9209148800110824595321901142597198486328125</ele>
            </trkpt>
            <trkpt lat="47.85135199999999855435817153193056583404541015625" lon="16.079814999999999969304553815163671970367431640625">
                <ele>812.45626239999319295748136937618255615234375</ele>
            </trkpt>
            <trkpt lat="47.85131100000000259342414210550487041473388671875" lon="16.079778999999998490011421381495893001556396484375">
                <ele>813.2529851200528128174482844769954681396484375</ele>
            </trkpt>
            <trkpt lat="47.851439999999996643964550457894802093505859375" lon="16.079632000000000147110768011771142482757568359375">
                <ele>817.4315583999945147297694347798824310302734375</ele>
            </trkpt>
            <trkpt lat="47.85147400000000317277226713486015796661376953125" lon="16.079564999999998775592757738195359706878662109375">
                <ele>819.0540688000263571666437201201915740966796875</ele>
            </trkpt>
            <trkpt lat="47.85147400000000317277226713486015796661376953125" lon="16.079564999999998775592757738195359706878662109375">
                <ele>819.0540688000263571666437201201915740966796875</ele>
            </trkpt>
            <trkpt lat="47.851439999999996643964550457894802093505859375" lon="16.079632000000000147110768011771142482757568359375">
                <ele>817.4315583999945147297694347798824310302734375</ele>
            </trkpt>
            <trkpt lat="47.85131100000000259342414210550487041473388671875" lon="16.079778999999998490011421381495893001556396484375">
                <ele>813.2529851200528128174482844769954681396484375</ele>
            </trkpt>
            <trkpt lat="47.85135199999999855435817153193056583404541015625" lon="16.079814999999999969304553815163671970367431640625">
                <ele>812.45626239999319295748136937618255615234375</ele>
            </trkpt>
            <trkpt lat="47.85129599999999783221937832422554492950439453125" lon="16.0798759999999987257979228161275386810302734375">
                <ele>810.4475660800213745460496284067630767822265625</ele>
            </trkpt>
            <trkpt lat="47.8513439999999974361344357021152973175048828125" lon="16.07994000000000056616045185364782810211181640625">
                <ele>809.0283327999632092542015016078948974609375</ele>
            </trkpt>
            <trkpt lat="47.851394999999996571204974316060543060302734375" lon="16.080135999999999540932549280114471912384033203125">
                <ele>801.3963135999694031852413900196552276611328125</ele>
            </trkpt>
            <trkpt lat="47.85147400000000317277226713486015796661376953125" lon="16.0802809999999993806341080926358699798583984375">
                <ele>796.0922627200906163125182501971721649169921875</ele>
            </trkpt>
            <trkpt lat="47.85149200000000035970515455119311809539794921875" lon="16.080387999999999237843439914286136627197265625">
                <ele>791.7546764800398477746057324111461639404296875</ele>
            </trkpt>
            <trkpt lat="47.8514339999999975816535879857838153839111328125" lon="16.080428000000001276248440262861549854278564453125">
                <ele>788.47307775987474087742157280445098876953125</ele>
            </trkpt>
            <trkpt lat="47.85146499999999747387846582569181919097900390625" lon="16.080538000000000664613253320567309856414794921875">
                <ele>784.3320495998897285971906967461109161376953125</ele>
            </trkpt>
            <trkpt lat="47.85146499999999747387846582569181919097900390625" lon="16.080538000000000664613253320567309856414794921875">
                <ele>784.3320495998897285971906967461109161376953125</ele>
            </trkpt>
            <trkpt lat="47.8514339999999975816535879857838153839111328125" lon="16.080580999999998681460056104697287082672119140625">
                <ele>781.3974275199797148161451332271099090576171875</ele>
            </trkpt>
            <trkpt lat="47.85123999999999711008058511652052402496337890625" lon="16.08039099999999876899892115034162998199462890625">
                <ele>785.3725791999919465524726547300815582275390625</ele>
            </trkpt>
            <trkpt lat="47.8511510000000015452314983122050762176513671875" lon="16.080251000000000516365616931580007076263427734375">
                <ele>791.180070879998311283998191356658935546875</ele>
            </trkpt>
            <trkpt lat="47.8511510000000015452314983122050762176513671875" lon="16.080251000000000516365616931580007076263427734375">
                <ele>791.180070879998311283998191356658935546875</ele>
            </trkpt>
            <trkpt lat="47.8511510000000015452314983122050762176513671875" lon="16.080251000000000516365616931580007076263427734375">
                <ele>791.180070879998311283998191356658935546875</ele>
            </trkpt>
            <trkpt lat="47.8511510000000015452314983122050762176513671875" lon="16.080251000000000516365616931580007076263427734375">
                <ele>791.180070879998311283998191356658935546875</ele>
            </trkpt>
            <trkpt lat="47.85119499999999703732100897468626499176025390625" lon="16.080214000000001561829776619561016559600830078125">
                <ele>794.08678239985829350189305841922760009765625</ele>
            </trkpt>
            <trkpt lat="47.85122899999999646070136805064976215362548828125" lon="16.08022700000000071440808824263513088226318359375">
                <ele>793.991259039894202942377887666225433349609375</ele>
            </trkpt>
            <trkpt lat="47.8512199999999978672349243424832820892333984375" lon="16.0799990000000008194547262974083423614501953125">
                <ele>806.2421343999541250013862736523151397705078125</ele>
            </trkpt>
            <trkpt lat="47.85129599999999783221937832422554492950439453125" lon="16.0798759999999987257979228161275386810302734375">
                <ele>810.4475660800213745460496284067630767822265625</ele>
            </trkpt>
            <trkpt lat="47.85135199999999855435817153193056583404541015625" lon="16.079814999999999969304553815163671970367431640625">
                <ele>812.45626239999319295748136937618255615234375</ele>
            </trkpt>
            <trkpt lat="47.85142599999999646342985215596854686737060546875" lon="16.079930999999998419980329344980418682098388671875">
                <ele>809.9209148800110824595321901142597198486328125</ele>
            </trkpt>
            <trkpt lat="47.85176100000000332101990352384746074676513671875" lon="16.080054000000000513637132826261222362518310546875">
                <ele>808.3601596799771868973039090633392333984375</ele>
            </trkpt>
            <trkpt lat="47.85193100000000043792169890366494655609130859375" lon="16.080276999999998821522240177728235721588134765625">
                <ele>800.9318846400392430950887501239776611328125</ele>
            </trkpt>
            <trkpt lat="47.85193100000000043792169890366494655609130859375" lon="16.080276999999998821522240177728235721588134765625">
                <ele>800.9318846400392430950887501239776611328125</ele>
            </trkpt>
            <trkpt lat="47.8520309999999966521500027738511562347412109375" lon="16.080408999999999508645487367175519466400146484375">
                <ele>797.2003108799972324050031602382659912109375</ele>
            </trkpt>
            <trkpt lat="47.85211699999999979127096594311296939849853515625" lon="16.080625000000001278976924368180334568023681640625">
                <ele>791.438099999961195862852036952972412109375</ele>
            </trkpt>
            <trkpt lat="47.8520639999999986002876539714634418487548828125" lon="16.080760000000001497255652793683111667633056640625">
                <ele>786.927340799938747295527718961238861083984375</ele>
            </trkpt>
            <trkpt lat="47.85223899999999730425770394504070281982421875" lon="16.081036999999998471366779995150864124298095703125">
                <ele>780.8655166399972813451313413679599761962890625</ele>
            </trkpt>
            <trkpt lat="47.85228200000000242653186433017253875732421875" lon="16.0811929999999989604475558735430240631103515625">
                <ele>777.070988480083769900375045835971832275390625</ele>
            </trkpt>
            <trkpt lat="47.8525319999999965148163028061389923095703125" lon="16.081461999999998369048626045696437358856201171875">
                <ele>775.230106880059111063019372522830963134765625</ele>
            </trkpt>
            <trkpt lat="47.852632999999997309714672155678272247314453125" lon="16.08147999999999910869519226253032684326171875">
                <ele>774.2343488000364004619768820703029632568359375</ele>
            </trkpt>
            <trkpt lat="47.85267999999999943838702165521681308746337890625" lon="16.0814850000000006957634468562901020050048828125">
                <ele>773.8547359999873833658057264983654022216796875</ele>
            </trkpt>
            <trkpt lat="47.85279700000000246973286266438663005828857421875" lon="16.08142600000000044246917241252958774566650390625">
                <ele>774.5416150399759089850704185664653778076171875</ele>
            </trkpt>
            <trkpt lat="47.85297899999999771125658298842608928680419921875" lon="16.081272999999999484543877770192921161651611328125">
                <ele>776.834193440026638199924491345882415771484375</ele>
            </trkpt>
            <trkpt lat="47.8531559999999984711394063197076320648193359375" lon="16.081220999999999321516952477395534515380859375">
                <ele>776.784216320025052482378669083118438720703125</ele>
            </trkpt>
            <trkpt lat="47.853644000000002733941073529422283172607421875" lon="16.081188999999998401335687958635389804840087890625">
                <ele>767.5155116799631969115580432116985321044921875</ele>
            </trkpt>
            <trkpt lat="47.8539320000000003574314177967607975006103515625" lon="16.081005000000001103899194276891648769378662109375">
                <ele>764.4460767999622703428030945360660552978515625</ele>
            </trkpt>
            <trkpt lat="47.85417799999999743931766715832054615020751953125" lon="16.081006999999999607098288834095001220703125">
                <ele>757.9182739200983860428095795214176177978515625</ele>
            </trkpt>
            <trkpt lat="47.85437999999999902911440585739910602569580078125" lon="16.080921000000000020691004465334117412567138671875">
                <ele>753.661449600034984541707672178745269775390625</ele>
            </trkpt>
            <trkpt lat="47.8545510000000007266862667165696620941162109375" lon="16.081005000000001103899194276891648769378662109375">
                <ele>745.735257599950500662089325487613677978515625</ele>
            </trkpt>
            <trkpt lat="47.8547420000000016671037883497774600982666015625" lon="16.08088000000000050704329623840749263763427734375">
                <ele>742.3876991999337633387767709791660308837890625</ele>
            </trkpt>
            <trkpt lat="47.8548559999999980618667905218899250030517578125" lon="16.080895000000001715534381219185888767242431640625">
                <ele>738.1509024000309864277369342744350433349609375</ele>
            </trkpt>
            <trkpt lat="47.854995999999999867213773541152477264404296875" lon="16.081056000000000238969732890836894512176513671875">
                <ele>730.086539520001906566903926432132720947265625</ele>
            </trkpt>
            <trkpt lat="47.85507499999999936335370875895023345947265625" lon="16.081292000000001252146830665878951549530029296875">
                <ele>723.19041599999445679713971912860870361328125</ele>
            </trkpt>
            <trkpt lat="47.85526999999999731016941950656473636627197265625" lon="16.081669999999999021156327216885983943939208984375">
                <ele>711.2691840000853744641062803566455841064453125</ele>
            </trkpt>
            <trkpt lat="47.85538999999999987267074175179004669189453125" lon="16.081703000000000969293978414498269557952880859375">
                <ele>707.817619199983937505749054253101348876953125</ele>
            </trkpt>
            <trkpt lat="47.8554620000000028312570066191256046295166015625" lon="16.08164599999999921919879852794110774993896484375">
                <ele>707.30550527995001175440847873687744140625</ele>
            </trkpt>
            <trkpt lat="47.85560000000000258069121628068387508392333984375" lon="16.081468000000000984073267318308353424072265625">
                <ele>706.8429119999242402627714909613132476806640625</ele>
            </trkpt>
            <trkpt lat="47.855716000000001031366991810500621795654296875" lon="16.081472000000001543185135233215987682342529296875">
                <ele>703.9421452799551843781955540180206298828125</ele>
            </trkpt>
            <trkpt lat="47.855828999999999950887286104261875152587890625" lon="16.081624999999998948396751075051724910736083984375">
                <ele>699.15036000001737193088047206401824951171875</ele>
            </trkpt>
            <trkpt lat="47.85592700000000121463017421774566173553466796875" lon="16.081866000000001548642103443853557109832763671875">
                <ele>691.7675747199344868931802920997142791748046875</ele>
            </trkpt>
            <trkpt lat="47.85614799999999746660250821150839328765869140625" lon="16.082297000000000508634911966510117053985595703125">
                <ele>678.395349760056660670670680701732635498046875</ele>
            </trkpt>
            <trkpt lat="47.85617599999999782767190481536090373992919921875" lon="16.08251599999999825740815140306949615478515625">
                <ele>674.4578752000743406824767589569091796875</ele>
            </trkpt>
            <trkpt lat="47.85614799999999746660250821150839328765869140625" lon="16.082840999999998388148014782927930355072021484375">
                <ele>670.36936960007506058900617063045501708984375</ele>
            </trkpt>
            <trkpt lat="47.85605100000000078352968557737767696380615234375" lon="16.08340199999999953206497593782842159271240234375">
                <ele>663.9048287999941067027975805103778839111328125</ele>
            </trkpt>
            <trkpt lat="47.85619700000000165118763106875121593475341796875" lon="16.08355099999999993087840266525745391845703125">
                <ele>659.873476799978334383922629058361053466796875</ele>
            </trkpt>
            <trkpt lat="47.85620200000000323825588566251099109649658203125" lon="16.083724000000000131649358081631362438201904296875">
                <ele>657.8171711999624449163093231618404388427734375</ele>
            </trkpt>
            <trkpt lat="47.85628200000000020963852875865995883941650390625" lon="16.084444000000001295802576350979506969451904296875">
                <ele>650.272656639989918403443880379199981689453125</ele>
            </trkpt>
            <trkpt lat="47.85628200000000020963852875865995883941650390625" lon="16.084444000000001295802576350979506969451904296875">
                <ele>650.272656639989918403443880379199981689453125</ele>
            </trkpt>
            <trkpt lat="47.85630900000000309546521748416125774383544921875" lon="16.085115999999999303327058441936969757080078125">
                <ele>644.939276800021389135508798062801361083984375</ele>
            </trkpt>
            <trkpt lat="47.8562220000000024811015464365482330322265625" lon="16.085004000000001411763150827027857303619384765625">
                <ele>645.8527935999926512522506527602672576904296875</ele>
            </trkpt>
            <trkpt lat="47.85615399999999652891347068361937999725341796875" lon="16.084824000000001120724846259690821170806884765625">
                <ele>647.197511679983790600090287625789642333984375</ele>
            </trkpt>
            <trkpt lat="47.85606700000000301997715723700821399688720703125" lon="16.08472199999999929787009023129940032958984375">
                <ele>648.0224099200091814054758287966251373291015625</ele>
            </trkpt>
            <trkpt lat="47.85578199999999782221493660472333431243896484375" lon="16.084489999999998843804860371164977550506591796875">
                <ele>650.333190400002195019624195992946624755859375</ele>
            </trkpt>
            <trkpt lat="47.85545499999999918827597866766154766082763671875" lon="16.08495599999999825513441464863717555999755859375">
                <ele>639.8676544000200010486878454685211181640625</ele>
            </trkpt>
            <trkpt lat="47.85506600000000076988726505078375339508056640625" lon="16.085138000000000602085492573678493499755859375">
                <ele>629.328417279993800548254512250423431396484375</ele>
            </trkpt>
            <trkpt lat="47.8548210000000011632437235675752162933349609375" lon="16.085074999999999789679350215010344982147216796875">
                <ele>628.4222680000174250380950979888439178466796875</ele>
            </trkpt>
            <trkpt lat="47.854455999999998994098859839141368865966796875" lon="16.085111000000001268972482648678123950958251953125">
                <ele>623.727447039949083773535676300525665283203125</ele>
            </trkpt>
            <trkpt lat="47.8543319999999994251993484795093536376953125" lon="16.0852000000000003865352482534945011138916015625">
                <ele>619.654815999981337881763465702533721923828125</ele>
            </trkpt>
            <trkpt lat="47.854140999999998484781826846301555633544921875" lon="16.085530999999999579586074105463922023773193359375">
                <ele>607.3852772800192951763165183365345001220703125</ele>
            </trkpt>
            <trkpt lat="47.85367899999999963256414048373699188232421875" lon="16.0865170000000006211848813109099864959716796875">
                <ele>589.9959999999931596903479658067226409912109375</ele>
            </trkpt>
            <trkpt lat="47.8534939999999977544575813226401805877685546875" lon="16.08706600000000008776623872108757495880126953125">
                <ele>586.3328000000104793798527680337429046630859375</ele>
            </trkpt>
            <trkpt lat="47.8532129999999966685209074057638645172119140625" lon="16.087824000000001234411683981306850910186767578125">
                <ele>586.7746291200722907888120971620082855224609375</ele>
            </trkpt>
            <trkpt lat="47.8530530000000027257556212134659290313720703125" lon="16.087650000000000005684341886080801486968994140625">
                <ele>590.80579199993781003286130726337432861328125</ele>
            </trkpt>
            <trkpt lat="47.85288800000000009049472282640635967254638671875" lon="16.087945999999998747398421983234584331512451171875">
                <ele>593.5087564800036261658533476293087005615234375</ele>
            </trkpt>
            <trkpt lat="47.85249400000000008503775461576879024505615234375" lon="16.088367999999999113924786797724664211273193359375">
                <ele>599.34960000000455693225376307964324951171875</ele>
            </trkpt>
            <trkpt lat="47.8522150000000010550138540565967559814453125" lon="16.08858000000000032514435588382184505462646484375">
                <ele>600.75599999998803468770347535610198974609375</ele>
            </trkpt>
            <trkpt lat="47.85187700000000177169567905366420745849609375" lon="16.08896899999999874353306950069963932037353515625">
                <ele>601.666799999990644209901802241802215576171875</ele>
            </trkpt>
            <trkpt lat="47.851719000000002779415808618068695068359375" lon="16.08921000000000134377842186950147151947021484375">
                <ele>601.5913967999614442305755801498889923095703125</ele>
            </trkpt>
            <trkpt lat="47.85131899999999660622052033431828022003173828125" lon="16.090258999999999645069692633114755153656005859375">
                <ele>597.37733152004648218280635774135589599609375</ele>
            </trkpt>
            <trkpt lat="47.85120400000000273621481028385460376739501953125" lon="16.091097999999998791054167668335139751434326171875">
                <ele>594.8218739199722904231748543679714202880859375</ele>
            </trkpt>
            <trkpt lat="47.85112500000000324007487506605684757232666015625" lon="16.09143100000000004001776687800884246826171875">
                <ele>594.00087999996549115166999399662017822265625</ele>
            </trkpt>
            <trkpt lat="47.85092300000000165027813636697828769683837890625" lon="16.09192699999999831561581231653690338134765625">
                <ele>591.99567120000529030221514403820037841796875</ele>
            </trkpt>
            <trkpt lat="47.85092999999999818783180671744048595428466796875" lon="16.092237999999998265820977394469082355499267578125">
                <ele>588.7992480000281148022622801363468170166015625</ele>
            </trkpt>
            <trkpt lat="47.85097700000000031650415621697902679443359375" lon="16.092532999999999532292349613271653652191162109375">
                <ele>585.6605352000038919868529774248600006103515625</ele>
            </trkpt>
            <trkpt lat="47.8512539999999972906152834184467792510986328125" lon="16.093536000000000285581336356699466705322265625">
                <ele>577.1801715199857198967947624623775482177734375</ele>
            </trkpt>
            <trkpt lat="47.8514770000000027039277483709156513214111328125" lon="16.093986999999998488419805653393268585205078125">
                <ele>576.2262939200298887953977100551128387451171875</ele>
            </trkpt>
            <trkpt lat="47.8516139999999978726918925531208515167236328125" lon="16.094179000000000456793713965453207492828369140625">
                <ele>576.795193919970870410907082259654998779296875</ele>
            </trkpt>
            <trkpt lat="47.8516139999999978726918925531208515167236328125" lon="16.094179000000000456793713965453207492828369140625">
                <ele>576.795193919970870410907082259654998779296875</ele>
            </trkpt>
            <trkpt lat="47.8518049999999988131094141863286495208740234375" lon="16.094446000000001362195689580403268337249755859375">
                <ele>572.8250592000014194127288646996021270751953125</ele>
            </trkpt>
            <trkpt lat="47.85196400000000238605935010127723217010498046875" lon="16.094823000000001655962478253059089183807373046875">
                <ele>567.81609407996575100696645677089691162109375</ele>
            </trkpt>
            <trkpt lat="47.852317999999996800397639162838459014892578125" lon="16.095335999999999643250703229568898677825927734375">
                <ele>559.8803289600149355464964173734188079833984375</ele>
            </trkpt>
            <trkpt lat="47.852451999999999543433659709990024566650390625" lon="16.095472000000000889485818333923816680908203125">
                <ele>558.053402879991836016415618360042572021484375</ele>
            </trkpt>
            <trkpt lat="47.85255099999999828241925570182502269744873046875" lon="16.0956469999999995934558683075010776519775390625">
                <ele>555.900694080017046871944330632686614990234375</ele>
            </trkpt>
            <trkpt lat="47.85289499999999662804839317686855792999267578125" lon="16.096147999999999456122168339788913726806640625">
                <ele>550.202729600017619304708205163478851318359375</ele>
            </trkpt>
            <trkpt lat="47.85299400000000247246134676970541477203369140625" lon="16.096433999999998576413418049924075603485107421875">
                <ele>548.19956096000169054605066776275634765625</ele>
            </trkpt>
            <trkpt lat="47.8531100000000009231371222995221614837646484375" lon="16.09663400000000166301106219179928302764892578125">
                <ele>546.9276223999905823802691884338855743408203125</ele>
            </trkpt>
            <trkpt lat="47.8536720000000030950104701332747936248779296875" lon="16.097117999999998261273503885604441165924072265625">
                <ele>543.942931199972690592403523623943328857421875</ele>
            </trkpt>
            <trkpt lat="47.854095999999998412022250704467296600341796875" lon="16.097784999999998234443410183303058147430419921875">
                <ele>544.1781983999989051881129853427410125732421875</ele>
            </trkpt>
            <trkpt lat="47.85443099999999816418494447134435176849365234375" lon="16.098366999999999649162418791092932224273681640625">
                <ele>542.99798512002553252386860549449920654296875</ele>
            </trkpt>
            <trkpt lat="47.85469100000000253203324973583221435546875" lon="16.099163000000000778300091042183339595794677734375">
                <ele>538.952368479963979552849195897579193115234375</ele>
            </trkpt>
            <trkpt lat="47.85477900000000062163962866179645061492919921875" lon="16.099281000000001284888639929704368114471435546875">
                <ele>538.0295708799958447343669831752777099609375</ele>
            </trkpt>
            <trkpt lat="47.85520799999999752571966382674872875213623046875" lon="16.099622000000000099362296168692409992218017578125">
                <ele>533.9819814400201494208886288106441497802734375</ele>
            </trkpt>
            <trkpt lat="47.8552729999999968413249007426202297210693359375" lon="16.099727000000001453372533433139324188232421875">
                <ele>533.7718782400287409473094157874584197998046875</ele>
            </trkpt>
            <trkpt lat="47.85522999999999882447809795849025249481201171875" lon="16.0999470000000002301021595485508441925048828125">
                <ele>534.6992464000098834731034003198146820068359375</ele>
            </trkpt>
        </trkseg>
    </trk>
</gpx>
