<?xml version="1.0" encoding="UTF-8" standalone="yes"?>
<gpx xmlns="http://www.topografix.com/GPX/1/1" creator="RouteConverter 2.27.2" version="1.1">
  <trk>
    <name>elfer-nordwand-klettersteig</name>
    <trkseg>
      <trkpt lat="47.098469" lon="11.323373">
        <ele>1784.9</ele>
        <name>Pos 1</name>
      </trkpt>
      <trkpt lat="47.098284" lon="11.323078">
        <ele>1789.7</ele>
        <name>Pos 2</name>
      </trkpt>
      <trkpt lat="47.09826" lon="11.322619">
        <ele>1783.6</ele>
        <name>Pos 3</name>
      </trkpt>
      <trkpt lat="47.098206" lon="11.322365">
        <ele>1781.4</ele>
        <name>Pos 4</name>
      </trkpt>
      <trkpt lat="47.098128" lon="11.32226">
        <ele>1783.5</ele>
        <name>Pos 5</name>
      </trkpt>
      <trkpt lat="47.098125" lon="11.322385">
        <ele>1786.7</ele>
        <name>Pos 6</name>
      </trkpt>
      <trkpt lat="47.098054" lon="11.322663">
        <ele>1795.7</ele>
        <name>Pos 7</name>
      </trkpt>
      <trkpt lat="47.097989" lon="11.322799">
        <ele>1801.0</ele>
        <name>Pos 8</name>
      </trkpt>
      <trkpt lat="47.097878" lon="11.322189">
        <ele>1796.9</ele>
        <name>Pos 9</name>
      </trkpt>
      <trkpt lat="47.097746" lon="11.322562">
        <ele>1811.9</ele>
        <name>Pos 10</name>
      </trkpt>
      <trkpt lat="47.09772" lon="11.322157">
        <ele>1805.9</ele>
        <name>Pos 11</name>
      </trkpt>
      <trkpt lat="47.097635" lon="11.322413">
        <ele>1816.0</ele>
        <name>Pos 12</name>
      </trkpt>
      <trkpt lat="47.097551" lon="11.322078">
        <ele>1814.7</ele>
        <name>Pos 13</name>
      </trkpt>
      <trkpt lat="47.09749" lon="11.322324">
        <ele>1823.0</ele>
        <name>Pos 14</name>
      </trkpt>
      <trkpt lat="47.09735" lon="11.321948">
        <ele>1825.2</ele>
        <name>Pos 15</name>
      </trkpt>
      <trkpt lat="47.097288" lon="11.322208">
        <ele>1833.6</ele>
        <name>Pos 16</name>
      </trkpt>
      <trkpt lat="47.097241" lon="11.321984">
        <ele>1832.8</ele>
        <name>Pos 17</name>
      </trkpt>
      <trkpt lat="47.097081" lon="11.321714">
        <ele>1838.9</ele>
        <name>Pos 18</name>
      </trkpt>
      <trkpt lat="47.096982" lon="11.321641">
        <ele>1844.2</ele>
        <name>Pos 19</name>
      </trkpt>
      <trkpt lat="47.097054" lon="11.321992">
        <ele>1845.0</ele>
        <name>Pos 20</name>
      </trkpt>
      <trkpt lat="47.096949" lon="11.321826">
        <ele>1849.2</ele>
        <name>Pos 21</name>
      </trkpt>
      <trkpt lat="47.096873" lon="11.321849">
        <ele>1854.5</ele>
        <name>Pos 22</name>
      </trkpt>
      <trkpt lat="47.096756" lon="11.321738">
        <ele>1860.6</ele>
        <name>Pos 23</name>
      </trkpt>
      <trkpt lat="47.096697" lon="11.321447">
        <ele>1859.3</ele>
        <name>Pos 24</name>
      </trkpt>
      <trkpt lat="47.096557" lon="11.321116">
        <ele>1862.5</ele>
        <name>Pos 25</name>
      </trkpt>
      <trkpt lat="47.096522" lon="11.321417">
        <ele>1870.0</ele>
        <name>Pos 26</name>
      </trkpt>
      <trkpt lat="47.096381" lon="11.321117">
        <ele>1874.6</ele>
        <name>Pos 27</name>
      </trkpt>
      <trkpt lat="47.09633" lon="11.321086">
        <ele>1877.6</ele>
        <name>Pos 28</name>
      </trkpt>
      <trkpt lat="47.096332" lon="11.321245">
        <ele>1879.7</ele>
        <name>Pos 29</name>
      </trkpt>
      <trkpt lat="47.096131" lon="11.320942">
        <ele>1889.9</ele>
        <name>Pos 30</name>
      </trkpt>
      <trkpt lat="47.09616" lon="11.32113">
        <ele>1889.9</ele>
        <name>Pos 31</name>
      </trkpt>
      <trkpt lat="47.096066" lon="11.320888">
        <ele>1894.0</ele>
        <name>Pos 32</name>
      </trkpt>
      <trkpt lat="47.095967" lon="11.320741">
        <ele>1899.8</ele>
        <name>Pos 33</name>
      </trkpt>
      <trkpt lat="47.095983" lon="11.320975">
        <ele>1900.7</ele>
        <name>Pos 34</name>
      </trkpt>
      <trkpt lat="47.095901" lon="11.320842">
        <ele>1905.6</ele>
        <name>Pos 35</name>
      </trkpt>
      <trkpt lat="47.095824" lon="11.320658">
        <ele>1909.7</ele>
        <name>Pos 36</name>
      </trkpt>
      <trkpt lat="47.095821" lon="11.320843">
        <ele>1911.3</ele>
        <name>Pos 37</name>
      </trkpt>
      <trkpt lat="47.095776" lon="11.32079">
        <ele>1913.7</ele>
        <name>Pos 38</name>
      </trkpt>
      <trkpt lat="47.095719" lon="11.320575">
        <ele>1916.3</ele>
        <name>Pos 39</name>
      </trkpt>
      <trkpt lat="47.095653" lon="11.320679">
        <ele>1921.2</ele>
        <name>Pos 40</name>
      </trkpt>
      <trkpt lat="47.095655" lon="11.320492">
        <ele>1920.6</ele>
        <name>Pos 41</name>
      </trkpt>
      <trkpt lat="47.095547" lon="11.320574">
        <ele>1928.3</ele>
        <name>Pos 42</name>
      </trkpt>
      <trkpt lat="47.095519" lon="11.320543">
        <ele>1930.3</ele>
        <name>Pos 43</name>
      </trkpt>
      <trkpt lat="47.095558" lon="11.320335">
        <ele>1927.7</ele>
        <name>Pos 44</name>
      </trkpt>
      <trkpt lat="47.095459" lon="11.320473">
        <ele>1934.8</ele>
        <name>Pos 45</name>
      </trkpt>
      <trkpt lat="47.095419" lon="11.320435">
        <ele>1938.0</ele>
        <name>Pos 46</name>
      </trkpt>
      <trkpt lat="47.095496" lon="11.320301">
        <ele>1932.6</ele>
        <name>Pos 47</name>
      </trkpt>
      <trkpt lat="47.09549" lon="11.320254">
        <ele>1933.2</ele>
        <name>Pos 48</name>
      </trkpt>
      <trkpt lat="47.095361" lon="11.320377">
        <ele>1942.7</ele>
        <name>Pos 49</name>
      </trkpt>
      <trkpt lat="47.095395" lon="11.320224">
        <ele>1941.1</ele>
        <name>Pos 50</name>
      </trkpt>
      <trkpt lat="47.095286" lon="11.320316">
        <ele>1949.0</ele>
        <name>Pos 51</name>
      </trkpt>
      <trkpt lat="47.095262" lon="11.320259">
        <ele>1951.5</ele>
        <name>Pos 52</name>
      </trkpt>
      <trkpt lat="47.095324" lon="11.320115">
        <ele>1947.8</ele>
        <name>Pos 53</name>
      </trkpt>
      <trkpt lat="47.095208" lon="11.32016">
        <ele>1957.1</ele>
        <name>Pos 54</name>
      </trkpt>
      <trkpt lat="47.095127" lon="11.320139">
        <ele>1964.1</ele>
        <name>Pos 55</name>
      </trkpt>
      <trkpt lat="47.095202" lon="11.320074">
        <ele>1958.6</ele>
        <name>Pos 56</name>
      </trkpt>
      <trkpt lat="47.095085" lon="11.320035">
        <ele>1969.4</ele>
        <name>Pos 57</name>
      </trkpt>
      <trkpt lat="47.09506" lon="11.319998">
        <ele>1972.1</ele>
        <name>Pos 58</name>
      </trkpt>
      <trkpt lat="47.095219" lon="11.319881">
        <ele>1956.3</ele>
        <name>Pos 59</name>
      </trkpt>
      <trkpt lat="47.095208" lon="11.319838">
        <ele>1956.6</ele>
        <name>Pos 60</name>
      </trkpt>
      <trkpt lat="47.095059" lon="11.319783">
        <ele>1969.3</ele>
        <name>Pos 61</name>
      </trkpt>
      <trkpt lat="47.095059" lon="11.319783">
        <ele>1969.3</ele>
        <name>Pos 62</name>
      </trkpt>
      <trkpt lat="47.09493" lon="11.319701">
        <ele>1976.9</ele>
        <name>Pos 63</name>
      </trkpt>
      <trkpt lat="47.094897" lon="11.319636">
        <ele>1977.7</ele>
        <name>Pos 64</name>
      </trkpt>
      <trkpt lat="47.094916" lon="11.319537">
        <ele>1975.6</ele>
        <name>Pos 65</name>
      </trkpt>
      <trkpt lat="47.094976" lon="11.319447">
        <ele>1971.4</ele>
        <name>Pos 66</name>
      </trkpt>
      <trkpt lat="47.094945" lon="11.31919">
        <ele>1969.9</ele>
        <name>Pos 67</name>
      </trkpt>
      <trkpt lat="47.094806" lon="11.319048">
        <ele>1972.4</ele>
        <name>Pos 68</name>
      </trkpt>
      <trkpt lat="47.094701" lon="11.318895">
        <ele>1972.1</ele>
        <name>Pos 69</name>
      </trkpt>
      <trkpt lat="47.094639" lon="11.318871">
        <ele>1974.8</ele>
        <name>Pos 70</name>
      </trkpt>
      <trkpt lat="47.094472" lon="11.318898">
        <ele>1985.8</ele>
        <name>Pos 71</name>
      </trkpt>
      <trkpt lat="47.094361" lon="11.319053">
        <ele>1998.2</ele>
        <name>Pos 72</name>
      </trkpt>
      <trkpt lat="47.094298" lon="11.319192">
        <ele>2006.1</ele>
        <name>Pos 73</name>
      </trkpt>
      <trkpt lat="47.094266" lon="11.319142">
        <ele>2007.0</ele>
        <name>Pos 74</name>
      </trkpt>
      <trkpt lat="47.094224" lon="11.318887">
        <ele>2000.0</ele>
        <name>Pos 75</name>
      </trkpt>
      <trkpt lat="47.094093" lon="11.319207">
        <ele>2016.2</ele>
        <name>Pos 76</name>
      </trkpt>
      <trkpt lat="47.094018" lon="11.319225">
        <ele>2019.0</ele>
        <name>Pos 77</name>
      </trkpt>
      <trkpt lat="47.093624" lon="11.318924">
        <ele>2024.7</ele>
        <name>Pos 78</name>
      </trkpt>
      <trkpt lat="47.093492" lon="11.318871">
        <ele>2027.7</ele>
        <name>Pos 79</name>
      </trkpt>
      <trkpt lat="47.093324" lon="11.318871">
        <ele>2034.1</ele>
        <name>Pos 80</name>
      </trkpt>
      <trkpt lat="47.093142" lon="11.318806">
        <ele>2042.5</ele>
        <name>Pos 81</name>
      </trkpt>
      <trkpt lat="47.093067" lon="11.318864">
        <ele>2048.9</ele>
        <name>Pos 82</name>
      </trkpt>
      <trkpt lat="47.093042" lon="11.319021">
        <ele>2056.1</ele>
        <name>Pos 83</name>
      </trkpt>
      <trkpt lat="47.093114" lon="11.319191">
        <ele>2057.2</ele>
        <name>Pos 84</name>
      </trkpt>
      <trkpt lat="47.0932" lon="11.319321">
        <ele>2053.5</ele>
        <name>Pos 85</name>
      </trkpt>
      <trkpt lat="47.093362" lon="11.319684">
        <ele>2050.3</ele>
        <name>Pos 86</name>
      </trkpt>
      <trkpt lat="47.093344" lon="11.319741">
        <ele>2052.0</ele>
        <name>Pos 87</name>
      </trkpt>
      <trkpt lat="47.09327" lon="11.319738">
        <ele>2055.3</ele>
        <name>Pos 88</name>
      </trkpt>
      <trkpt lat="47.093272" lon="11.319646">
        <ele>2053.9</ele>
        <name>Pos 89</name>
      </trkpt>
      <trkpt lat="47.093222" lon="11.319596">
        <ele>2055.7</ele>
        <name>Pos 90</name>
      </trkpt>
      <trkpt lat="47.093169" lon="11.319581">
        <ele>2058.2</ele>
        <name>Pos 91</name>
      </trkpt>
      <trkpt lat="47.0931" lon="11.319477">
        <ele>2060.6</ele>
        <name>Pos 92</name>
      </trkpt>
      <trkpt lat="47.093052" lon="11.319467">
        <ele>2063.1</ele>
        <name>Pos 93</name>
      </trkpt>
      <trkpt lat="47.093009" lon="11.31941">
        <ele>2065.0</ele>
        <name>Pos 94</name>
      </trkpt>
      <trkpt lat="47.092955" lon="11.319426">
        <ele>2068.0</ele>
        <name>Pos 95</name>
      </trkpt>
      <trkpt lat="47.092915" lon="11.319378">
        <ele>2070.0</ele>
        <name>Pos 96</name>
      </trkpt>
      <trkpt lat="47.09287" lon="11.319403">
        <ele>2072.5</ele>
        <name>Pos 97</name>
      </trkpt>
      <trkpt lat="47.092842" lon="11.319346">
        <ele>2074.0</ele>
        <name>Pos 98</name>
      </trkpt>
      <trkpt lat="47.092759" lon="11.319299">
        <ele>2078.6</ele>
        <name>Pos 99</name>
      </trkpt>
      <trkpt lat="47.09267" lon="11.319328">
        <ele>2083.7</ele>
        <name>Pos 100</name>
      </trkpt>
      <trkpt lat="47.092601" lon="11.3193">
        <ele>2087.7</ele>
        <name>Pos 101</name>
      </trkpt>
      <trkpt lat="47.092484" lon="11.319332">
        <ele>2093.9</ele>
        <name>Pos 102</name>
      </trkpt>
      <trkpt lat="47.092436" lon="11.319378">
        <ele>2095.3</ele>
        <name>Pos 103</name>
      </trkpt>
      <trkpt lat="47.092267" lon="11.319252">
        <ele>2102.4</ele>
        <name>Pos 104</name>
      </trkpt>
      <trkpt lat="47.091995" lon="11.319203">
        <ele>2112.9</ele>
        <name>Pos 105</name>
      </trkpt>
      <trkpt lat="47.091878" lon="11.319042">
        <ele>2113.8</ele>
        <name>Pos 106</name>
      </trkpt>
      <trkpt lat="47.091747" lon="11.318956">
        <ele>2116.4</ele>
        <name>Pos 107</name>
      </trkpt>
      <trkpt lat="47.091673" lon="11.318999">
        <ele>2120.6</ele>
        <name>Pos 108</name>
      </trkpt>
      <trkpt lat="47.091608" lon="11.319246">
        <ele>2127.4</ele>
        <name>Pos 109</name>
      </trkpt>
      <trkpt lat="47.091418" lon="11.319257">
        <ele>2136.5</ele>
        <name>Pos 110</name>
      </trkpt>
      <trkpt lat="47.091359" lon="11.319139">
        <ele>2140.7</ele>
        <name>Pos 111</name>
      </trkpt>
      <trkpt lat="47.091315" lon="11.31913">
        <ele>2142.7</ele>
        <name>Pos 112</name>
      </trkpt>
      <trkpt lat="47.091223" lon="11.319183">
        <ele>2148.0</ele>
        <name>Pos 113</name>
      </trkpt>
      <trkpt lat="47.091201" lon="11.319086">
        <ele>2147.6</ele>
        <name>Pos 114</name>
      </trkpt>
      <trkpt lat="47.091157" lon="11.319101">
        <ele>2150.2</ele>
        <name>Pos 115</name>
      </trkpt>
      <trkpt lat="47.0906242" lon="11.3187762">
        <ele>2163.0</ele>
        <name>Pos 116</name>
      </trkpt>
      <trkpt lat="47.0903616" lon="11.3184729">
        <ele>2179.0</ele>
        <name>Pos 117</name>
      </trkpt>
      <trkpt lat="47.0896393" lon="11.3177697">
        <ele>2185.0</ele>
        <name>Pos 118</name>
      </trkpt>
      <trkpt lat="47.0890903" lon="11.3174658">
        <ele>2228.0</ele>
        <name>Pos 119</name>
      </trkpt>
      <trkpt lat="47.0887311" lon="11.3175053">
        <ele>2241.0</ele>
        <name>Pos 120</name>
      </trkpt>
      <trkpt lat="47.0884389" lon="11.317209">
        <ele>2244.0</ele>
        <name>Pos 121</name>
      </trkpt>
      <trkpt lat="47.0881435" lon="11.3170138">
        <ele>2245.0</ele>
        <name>Pos 122</name>
      </trkpt>
      <trkpt lat="47.0878462" lon="11.3169681">
        <ele>2276.0</ele>
        <name>Pos 123</name>
      </trkpt>
      <trkpt lat="47.0875376" lon="11.3167918">
        <ele>2276.0</ele>
        <name>Pos 124</name>
      </trkpt>
      <trkpt lat="47.0875881" lon="11.3166762">
        <ele>2273.0</ele>
        <name>Pos 125</name>
      </trkpt>
      <trkpt lat="47.0873847" lon="11.3164459">
        <ele>2283.0</ele>
        <name>Pos 126</name>
      </trkpt>
      <trkpt lat="47.0871832" lon="11.3162999">
        <ele>2295.0</ele>
        <name>Pos 127</name>
      </trkpt>
      <trkpt lat="47.0873457" lon="11.3161849">
        <ele>2299.0</ele>
        <name>Pos 128</name>
      </trkpt>
      <trkpt lat="47.0872177" lon="11.3158446">
        <ele>2285.0</ele>
        <name>Pos 129</name>
      </trkpt>
      <trkpt lat="47.0870258" lon="11.3153717">
        <ele>2274.0</ele>
        <name>Pos 130</name>
      </trkpt>
      <trkpt lat="47.0870845" lon="11.3151737">
        <ele>2260.4</ele>
        <name>Pos 131</name>
      </trkpt>
      <trkpt lat="47.08729" lon="11.31508">
        <ele>2255.6</ele>
        <name>Pos 132</name>
      </trkpt>
      <trkpt lat="47.08726" lon="11.31469">
        <ele>2238.7</ele>
        <name>Pos 133</name>
      </trkpt>
      <trkpt lat="47.08672" lon="11.31433">
        <ele>2260.1</ele>
        <name>Pos 134</name>
      </trkpt>
      <trkpt lat="47.08644" lon="11.3139">
        <ele>2262.8</ele>
        <name>Pos 135</name>
      </trkpt>
      <trkpt lat="47.08637" lon="11.31354">
        <ele>2252.9</ele>
        <name>Pos 136</name>
      </trkpt>
      <trkpt lat="47.08605" lon="11.31343">
        <ele>2270.8</ele>
        <name>Pos 137</name>
      </trkpt>
      <trkpt lat="47.08579" lon="11.31309">
        <ele>2282.4</ele>
        <name>Pos 138</name>
      </trkpt>
      <trkpt lat="47.08587" lon="11.31229">
        <ele>2262.2</ele>
        <name>Pos 139</name>
      </trkpt>
      <trkpt lat="47.08574" lon="11.31197">
        <ele>2263.5</ele>
        <name>Pos 140</name>
      </trkpt>
      <trkpt lat="47.08549" lon="11.31203">
        <ele>2281.0</ele>
        <name>Pos 141</name>
      </trkpt>
      <trkpt lat="47.08509" lon="11.31199">
        <ele>2304.2</ele>
        <name>Pos 142</name>
      </trkpt>
      <trkpt lat="47.0853" lon="11.31231">
        <ele>2305.5</ele>
        <name>Pos 143</name>
      </trkpt>
      <trkpt lat="47.08506" lon="11.31238">
        <ele>2327.1</ele>
        <name>Pos 144</name>
      </trkpt>
      <trkpt lat="47.08476" lon="11.31246">
        <ele>2339.8</ele>
        <name>Pos 145</name>
      </trkpt>
      <trkpt lat="47.08459" lon="11.31279">
        <ele>2361.1</ele>
        <name>Pos 146</name>
      </trkpt>
      <trkpt lat="47.0844" lon="11.31317">
        <ele>2393.1</ele>
        <name>Pos 147</name>
      </trkpt>
      <trkpt lat="47.08412" lon="11.31343">
        <ele>2422.8</ele>
        <name>Pos 148</name>
      </trkpt>
      <trkpt lat="47.08386" lon="11.31343">
        <ele>2419.0</ele>
        <name>Pos 149</name>
      </trkpt>
      <trkpt lat="47.08416" lon="11.31384">
        <ele>2440.0</ele>
        <name>Pos 150</name>
      </trkpt>
      <trkpt lat="47.08435" lon="11.31433">
        <ele>2440.5</ele>
        <name>Pos 151</name>
      </trkpt>
      <trkpt lat="47.08473" lon="11.3145">
        <ele>2424.1</ele>
        <name>Pos 152</name>
      </trkpt>
      <trkpt lat="47.084732" lon="11.314497">
        <ele>2424.0</ele>
        <name>Pos 153</name>
      </trkpt>
      <trkpt lat="47.084837" lon="11.314604">
        <ele>2422.1</ele>
        <name>Pos 154</name>
      </trkpt>
      <trkpt lat="47.084991" lon="11.314836">
        <ele>2423.9</ele>
        <name>Pos 155</name>
      </trkpt>
      <trkpt lat="47.085064" lon="11.314896">
        <ele>2420.5</ele>
        <name>Pos 156</name>
      </trkpt>
      <trkpt lat="47.085152" lon="11.315024">
        <ele>2416.1</ele>
        <name>Pos 157</name>
      </trkpt>
      <trkpt lat="47.085212" lon="11.315069">
        <ele>2410.0</ele>
        <name>Pos 158</name>
      </trkpt>
      <trkpt lat="47.085274" lon="11.315073">
        <ele>2405.4</ele>
        <name>Pos 159</name>
      </trkpt>
      <trkpt lat="47.08537" lon="11.315121">
        <ele>2397.0</ele>
        <name>Pos 160</name>
      </trkpt>
      <trkpt lat="47.085567" lon="11.315062">
        <ele>2384.4</ele>
        <name>Pos 161</name>
      </trkpt>
      <trkpt lat="47.08572" lon="11.315073">
        <ele>2373.0</ele>
        <name>Pos 162</name>
      </trkpt>
      <trkpt lat="47.085895" lon="11.315116">
        <ele>2359.5</ele>
        <name>Pos 163</name>
      </trkpt>
      <trkpt lat="47.086034" lon="11.31518">
        <ele>2348.3</ele>
        <name>Pos 164</name>
      </trkpt>
      <trkpt lat="47.086034" lon="11.315339">
        <ele>2348.2</ele>
        <name>Pos 165</name>
      </trkpt>
      <trkpt lat="47.086093" lon="11.315433">
        <ele>2344.2</ele>
        <name>Pos 166</name>
      </trkpt>
      <trkpt lat="47.086092" lon="11.315499">
        <ele>2344.4</ele>
        <name>Pos 167</name>
      </trkpt>
      <trkpt lat="47.086025" lon="11.315565">
        <ele>2348.6</ele>
        <name>Pos 168</name>
      </trkpt>
      <trkpt lat="47.086034" lon="11.315665">
        <ele>2348.0</ele>
        <name>Pos 169</name>
      </trkpt>
      <trkpt lat="47.086086" lon="11.315758">
        <ele>2345.2</ele>
        <name>Pos 170</name>
      </trkpt>
      <trkpt lat="47.0861" lon="11.315974">
        <ele>2338.6</ele>
        <name>Pos 171</name>
      </trkpt>
      <trkpt lat="47.086056" lon="11.316024">
        <ele>2338.2</ele>
        <name>Pos 172</name>
      </trkpt>
      <trkpt lat="47.086158" lon="11.316231">
        <ele>2325.5</ele>
        <name>Pos 173</name>
      </trkpt>
      <trkpt lat="47.086259" lon="11.316171">
        <ele>2324.4</ele>
        <name>Pos 174</name>
      </trkpt>
      <trkpt lat="47.086454" lon="11.315902">
        <ele>2325.7</ele>
        <name>Pos 175</name>
      </trkpt>
      <trkpt lat="47.086546" lon="11.315909">
        <ele>2321.3</ele>
        <name>Pos 176</name>
      </trkpt>
      <trkpt lat="47.086589" lon="11.315975">
        <ele>2317.7</ele>
        <name>Pos 177</name>
      </trkpt>
      <trkpt lat="47.086721" lon="11.316017">
        <ele>2311.6</ele>
        <name>Pos 178</name>
      </trkpt>
      <trkpt lat="47.087017" lon="11.31601">
        <ele>2301.2</ele>
        <name>Pos 179</name>
      </trkpt>
      <trkpt lat="47.087064" lon="11.316263">
        <ele>2298.4</ele>
        <name>Pos 180</name>
      </trkpt>
      <trkpt lat="47.087203" lon="11.31638">
        <ele>2295.2</ele>
        <name>Pos 181</name>
      </trkpt>
      <trkpt lat="47.087451" lon="11.316457">
        <ele>2291.3</ele>
        <name>Pos 182</name>
      </trkpt>
      <trkpt lat="47.08759" lon="11.316671">
        <ele>2287.3</ele>
        <name>Pos 183</name>
      </trkpt>
      <trkpt lat="47.087539" lon="11.316779">
        <ele>2287.7</ele>
        <name>Pos 184</name>
      </trkpt>
      <trkpt lat="47.087605" lon="11.316886">
        <ele>2281.6</ele>
        <name>Pos 185</name>
      </trkpt>
      <trkpt lat="47.087718" lon="11.31694">
        <ele>2275.4</ele>
        <name>Pos 186</name>
      </trkpt>
      <trkpt lat="47.087897" lon="11.316972">
        <ele>2267.6</ele>
        <name>Pos 187</name>
      </trkpt>
      <trkpt lat="47.087967" lon="11.317024">
        <ele>2265.1</ele>
        <name>Pos 188</name>
      </trkpt>
      <trkpt lat="47.08807" lon="11.31703">
        <ele>2261.5</ele>
        <name>Pos 189</name>
      </trkpt>
      <trkpt lat="47.088143" lon="11.317005">
        <ele>2258.2</ele>
        <name>Pos 190</name>
      </trkpt>
      <trkpt lat="47.088263" lon="11.317119">
        <ele>2257.4</ele>
        <name>Pos 191</name>
      </trkpt>
      <trkpt lat="47.088315" lon="11.317134">
        <ele>2256.5</ele>
        <name>Pos 192</name>
      </trkpt>
      <trkpt lat="47.08839" lon="11.317205">
        <ele>2255.7</ele>
        <name>Pos 193</name>
      </trkpt>
      <trkpt lat="47.088426" lon="11.317215">
        <ele>2254.2</ele>
        <name>Pos 194</name>
      </trkpt>
      <trkpt lat="47.088463" lon="11.317196">
        <ele>2251.3</ele>
        <name>Pos 195</name>
      </trkpt>
      <trkpt lat="47.088524" lon="11.31723">
        <ele>2249.5</ele>
        <name>Pos 196</name>
      </trkpt>
      <trkpt lat="47.088602" lon="11.317332">
        <ele>2249.9</ele>
        <name>Pos 197</name>
      </trkpt>
      <trkpt lat="47.088589" lon="11.317442">
        <ele>2255.6</ele>
        <name>Pos 198</name>
      </trkpt>
      <trkpt lat="47.088686" lon="11.317433">
        <ele>2250.4</ele>
        <name>Pos 199</name>
      </trkpt>
      <trkpt lat="47.088803" lon="11.317519">
        <ele>2247.6</ele>
        <name>Pos 200</name>
      </trkpt>
      <trkpt lat="47.088942" lon="11.31753">
        <ele>2240.8</ele>
        <name>Pos 201</name>
      </trkpt>
      <trkpt lat="47.08913" lon="11.317431">
        <ele>2228.3</ele>
        <name>Pos 202</name>
      </trkpt>
      <trkpt lat="47.089191" lon="11.317572">
        <ele>2228.5</ele>
        <name>Pos 203</name>
      </trkpt>
      <trkpt lat="47.089248" lon="11.317593">
        <ele>2224.9</ele>
        <name>Pos 204</name>
      </trkpt>
      <trkpt lat="47.089286" lon="11.317684">
        <ele>2222.5</ele>
        <name>Pos 205</name>
      </trkpt>
      <trkpt lat="47.089342" lon="11.317715">
        <ele>2219.5</ele>
        <name>Pos 206</name>
      </trkpt>
      <trkpt lat="47.089467" lon="11.317701">
        <ele>2212.6</ele>
        <name>Pos 207</name>
      </trkpt>
      <trkpt lat="47.089599" lon="11.317744">
        <ele>2206.0</ele>
        <name>Pos 208</name>
      </trkpt>
      <trkpt lat="47.089618" lon="11.317794">
        <ele>2205.8</ele>
        <name>Pos 209</name>
      </trkpt>
      <trkpt lat="47.089701" lon="11.317765">
        <ele>2201.1</ele>
        <name>Pos 210</name>
      </trkpt>
      <trkpt lat="47.089767" lon="11.317808">
        <ele>2198.7</ele>
        <name>Pos 211</name>
      </trkpt>
      <trkpt lat="47.089767" lon="11.317894">
        <ele>2200.7</ele>
        <name>Pos 212</name>
      </trkpt>
      <trkpt lat="47.089818" lon="11.318023">
        <ele>2201.7</ele>
        <name>Pos 213</name>
      </trkpt>
      <trkpt lat="47.089884" lon="11.318055">
        <ele>2200.1</ele>
        <name>Pos 214</name>
      </trkpt>
      <trkpt lat="47.089899" lon="11.318141">
        <ele>2202.1</ele>
        <name>Pos 215</name>
      </trkpt>
      <trkpt lat="47.090019" lon="11.318217">
        <ele>2200.2</ele>
        <name>Pos 216</name>
      </trkpt>
      <trkpt lat="47.090132" lon="11.318259">
        <ele>2194.2</ele>
        <name>Pos 217</name>
      </trkpt>
      <trkpt lat="47.09022" lon="11.318366">
        <ele>2190.5</ele>
        <name>Pos 218</name>
      </trkpt>
      <trkpt lat="47.090366" lon="11.318442">
        <ele>2180.7</ele>
        <name>Pos 219</name>
      </trkpt>
      <trkpt lat="47.090622" lon="11.318763">
        <ele>2168.4</ele>
        <name>Pos 220</name>
      </trkpt>
      <trkpt lat="47.090805" lon="11.318878">
        <ele>2163.2</ele>
        <name>Pos 221</name>
      </trkpt>
      <trkpt lat="47.090805" lon="11.318878">
        <ele>2163.2</ele>
        <name>Pos 222</name>
      </trkpt>
      <trkpt lat="47.091101" lon="11.319027">
        <ele>2151.4</ele>
        <name>Pos 223</name>
      </trkpt>
      <trkpt lat="47.091124" lon="11.319112">
        <ele>2152.2</ele>
        <name>Pos 224</name>
      </trkpt>
      <trkpt lat="47.091201" lon="11.319086">
        <ele>2147.6</ele>
        <name>Pos 225</name>
      </trkpt>
      <trkpt lat="47.091223" lon="11.319183">
        <ele>2148.0</ele>
        <name>Pos 226</name>
      </trkpt>
      <trkpt lat="47.091315" lon="11.31913">
        <ele>2142.7</ele>
        <name>Pos 227</name>
      </trkpt>
      <trkpt lat="47.091359" lon="11.319139">
        <ele>2140.7</ele>
        <name>Pos 228</name>
      </trkpt>
      <trkpt lat="47.091418" lon="11.319257">
        <ele>2136.5</ele>
        <name>Pos 229</name>
      </trkpt>
      <trkpt lat="47.091608" lon="11.319246">
        <ele>2127.4</ele>
        <name>Pos 230</name>
      </trkpt>
      <trkpt lat="47.091673" lon="11.318999">
        <ele>2120.6</ele>
        <name>Pos 231</name>
      </trkpt>
      <trkpt lat="47.091747" lon="11.318956">
        <ele>2116.4</ele>
        <name>Pos 232</name>
      </trkpt>
      <trkpt lat="47.091878" lon="11.319042">
        <ele>2113.8</ele>
        <name>Pos 233</name>
      </trkpt>
      <trkpt lat="47.091995" lon="11.319203">
        <ele>2112.9</ele>
        <name>Pos 234</name>
      </trkpt>
      <trkpt lat="47.092267" lon="11.319252">
        <ele>2102.4</ele>
        <name>Pos 235</name>
      </trkpt>
      <trkpt lat="47.092436" lon="11.319378">
        <ele>2095.3</ele>
        <name>Pos 236</name>
      </trkpt>
      <trkpt lat="47.092484" lon="11.319332">
        <ele>2093.9</ele>
        <name>Pos 237</name>
      </trkpt>
      <trkpt lat="47.092601" lon="11.3193">
        <ele>2087.7</ele>
        <name>Pos 238</name>
      </trkpt>
      <trkpt lat="47.09267" lon="11.319328">
        <ele>2083.7</ele>
        <name>Pos 239</name>
      </trkpt>
      <trkpt lat="47.092759" lon="11.319299">
        <ele>2078.6</ele>
        <name>Pos 240</name>
      </trkpt>
      <trkpt lat="47.092842" lon="11.319346">
        <ele>2074.0</ele>
        <name>Pos 241</name>
      </trkpt>
      <trkpt lat="47.09287" lon="11.319403">
        <ele>2072.5</ele>
        <name>Pos 242</name>
      </trkpt>
      <trkpt lat="47.092915" lon="11.319378">
        <ele>2070.0</ele>
        <name>Pos 243</name>
      </trkpt>
      <trkpt lat="47.092955" lon="11.319426">
        <ele>2068.0</ele>
        <name>Pos 244</name>
      </trkpt>
      <trkpt lat="47.093009" lon="11.31941">
        <ele>2065.0</ele>
        <name>Pos 245</name>
      </trkpt>
      <trkpt lat="47.093052" lon="11.319467">
        <ele>2063.1</ele>
        <name>Pos 246</name>
      </trkpt>
      <trkpt lat="47.0931" lon="11.319477">
        <ele>2060.6</ele>
        <name>Pos 247</name>
      </trkpt>
      <trkpt lat="47.093169" lon="11.319581">
        <ele>2058.2</ele>
        <name>Pos 248</name>
      </trkpt>
      <trkpt lat="47.093222" lon="11.319596">
        <ele>2055.7</ele>
        <name>Pos 249</name>
      </trkpt>
      <trkpt lat="47.093272" lon="11.319646">
        <ele>2053.9</ele>
        <name>Pos 250</name>
      </trkpt>
      <trkpt lat="47.09327" lon="11.319738">
        <ele>2055.3</ele>
        <name>Pos 251</name>
      </trkpt>
      <trkpt lat="47.093344" lon="11.319741">
        <ele>2052.0</ele>
        <name>Pos 252</name>
      </trkpt>
      <trkpt lat="47.093362" lon="11.319684">
        <ele>2050.3</ele>
        <name>Pos 253</name>
      </trkpt>
      <trkpt lat="47.0932" lon="11.319321">
        <ele>2053.5</ele>
        <name>Pos 254</name>
      </trkpt>
      <trkpt lat="47.093114" lon="11.319191">
        <ele>2057.2</ele>
        <name>Pos 255</name>
      </trkpt>
      <trkpt lat="47.093042" lon="11.319021">
        <ele>2056.1</ele>
        <name>Pos 256</name>
      </trkpt>
      <trkpt lat="47.093067" lon="11.318864">
        <ele>2048.9</ele>
        <name>Pos 257</name>
      </trkpt>
      <trkpt lat="47.093142" lon="11.318806">
        <ele>2042.5</ele>
        <name>Pos 258</name>
      </trkpt>
      <trkpt lat="47.093324" lon="11.318871">
        <ele>2034.1</ele>
        <name>Pos 259</name>
      </trkpt>
      <trkpt lat="47.093492" lon="11.318871">
        <ele>2027.7</ele>
        <name>Pos 260</name>
      </trkpt>
      <trkpt lat="47.093624" lon="11.318924">
        <ele>2024.7</ele>
        <name>Pos 261</name>
      </trkpt>
      <trkpt lat="47.094018" lon="11.319225">
        <ele>2019.0</ele>
        <name>Pos 262</name>
      </trkpt>
      <trkpt lat="47.094093" lon="11.319207">
        <ele>2016.2</ele>
        <name>Pos 263</name>
      </trkpt>
      <trkpt lat="47.094224" lon="11.318887">
        <ele>2000.0</ele>
        <name>Pos 264</name>
      </trkpt>
      <trkpt lat="47.094266" lon="11.319142">
        <ele>2007.0</ele>
        <name>Pos 265</name>
      </trkpt>
      <trkpt lat="47.094298" lon="11.319192">
        <ele>2006.1</ele>
        <name>Pos 266</name>
      </trkpt>
      <trkpt lat="47.094361" lon="11.319053">
        <ele>1998.2</ele>
        <name>Pos 267</name>
      </trkpt>
      <trkpt lat="47.094472" lon="11.318898">
        <ele>1985.8</ele>
        <name>Pos 268</name>
      </trkpt>
      <trkpt lat="47.094639" lon="11.318871">
        <ele>1974.8</ele>
        <name>Pos 269</name>
      </trkpt>
      <trkpt lat="47.094701" lon="11.318895">
        <ele>1972.1</ele>
        <name>Pos 270</name>
      </trkpt>
      <trkpt lat="47.094806" lon="11.319048">
        <ele>1972.4</ele>
        <name>Pos 271</name>
      </trkpt>
      <trkpt lat="47.094945" lon="11.31919">
        <ele>1969.9</ele>
        <name>Pos 272</name>
      </trkpt>
      <trkpt lat="47.094976" lon="11.319447">
        <ele>1971.4</ele>
        <name>Pos 273</name>
      </trkpt>
      <trkpt lat="47.094916" lon="11.319537">
        <ele>1975.6</ele>
        <name>Pos 274</name>
      </trkpt>
      <trkpt lat="47.094897" lon="11.319636">
        <ele>1977.7</ele>
        <name>Pos 275</name>
      </trkpt>
      <trkpt lat="47.09493" lon="11.319701">
        <ele>1976.9</ele>
        <name>Pos 276</name>
      </trkpt>
      <trkpt lat="47.095084" lon="11.319799">
        <ele>1967.3</ele>
        <name>Pos 277</name>
      </trkpt>
      <trkpt lat="47.095208" lon="11.319838">
        <ele>1956.6</ele>
        <name>Pos 278</name>
      </trkpt>
      <trkpt lat="47.095219" lon="11.319881">
        <ele>1956.3</ele>
        <name>Pos 279</name>
      </trkpt>
      <trkpt lat="47.09506" lon="11.319998">
        <ele>1972.1</ele>
        <name>Pos 280</name>
      </trkpt>
      <trkpt lat="47.095085" lon="11.320035">
        <ele>1969.4</ele>
        <name>Pos 281</name>
      </trkpt>
      <trkpt lat="47.095202" lon="11.320074">
        <ele>1958.6</ele>
        <name>Pos 282</name>
      </trkpt>
      <trkpt lat="47.095127" lon="11.320139">
        <ele>1964.1</ele>
        <name>Pos 283</name>
      </trkpt>
      <trkpt lat="47.095208" lon="11.32016">
        <ele>1957.1</ele>
        <name>Pos 284</name>
      </trkpt>
      <trkpt lat="47.095324" lon="11.320115">
        <ele>1947.8</ele>
        <name>Pos 285</name>
      </trkpt>
      <trkpt lat="47.095262" lon="11.320259">
        <ele>1951.5</ele>
        <name>Pos 286</name>
      </trkpt>
      <trkpt lat="47.095286" lon="11.320316">
        <ele>1949.0</ele>
        <name>Pos 287</name>
      </trkpt>
      <trkpt lat="47.095395" lon="11.320224">
        <ele>1941.1</ele>
        <name>Pos 288</name>
      </trkpt>
      <trkpt lat="47.095361" lon="11.320377">
        <ele>1942.7</ele>
        <name>Pos 289</name>
      </trkpt>
      <trkpt lat="47.09549" lon="11.320254">
        <ele>1933.2</ele>
        <name>Pos 290</name>
      </trkpt>
      <trkpt lat="47.095496" lon="11.320301">
        <ele>1932.6</ele>
        <name>Pos 291</name>
      </trkpt>
      <trkpt lat="47.095419" lon="11.320435">
        <ele>1938.0</ele>
        <name>Pos 292</name>
      </trkpt>
      <trkpt lat="47.095459" lon="11.320473">
        <ele>1934.8</ele>
        <name>Pos 293</name>
      </trkpt>
      <trkpt lat="47.095558" lon="11.320335">
        <ele>1927.7</ele>
        <name>Pos 294</name>
      </trkpt>
      <trkpt lat="47.095519" lon="11.320543">
        <ele>1930.3</ele>
        <name>Pos 295</name>
      </trkpt>
      <trkpt lat="47.095547" lon="11.320574">
        <ele>1928.3</ele>
        <name>Pos 296</name>
      </trkpt>
      <trkpt lat="47.095655" lon="11.320492">
        <ele>1920.6</ele>
        <name>Pos 297</name>
      </trkpt>
      <trkpt lat="47.095653" lon="11.320679">
        <ele>1921.2</ele>
        <name>Pos 298</name>
      </trkpt>
      <trkpt lat="47.095719" lon="11.320575">
        <ele>1916.3</ele>
        <name>Pos 299</name>
      </trkpt>
      <trkpt lat="47.095776" lon="11.32079">
        <ele>1913.7</ele>
        <name>Pos 300</name>
      </trkpt>
      <trkpt lat="47.095821" lon="11.320843">
        <ele>1911.3</ele>
        <name>Pos 301</name>
      </trkpt>
      <trkpt lat="47.095824" lon="11.320658">
        <ele>1909.7</ele>
        <name>Pos 302</name>
      </trkpt>
      <trkpt lat="47.095901" lon="11.320842">
        <ele>1905.6</ele>
        <name>Pos 303</name>
      </trkpt>
      <trkpt lat="47.095983" lon="11.320975">
        <ele>1900.7</ele>
        <name>Pos 304</name>
      </trkpt>
      <trkpt lat="47.095967" lon="11.320741">
        <ele>1899.8</ele>
        <name>Pos 305</name>
      </trkpt>
      <trkpt lat="47.096066" lon="11.320888">
        <ele>1894.0</ele>
        <name>Pos 306</name>
      </trkpt>
      <trkpt lat="47.09616" lon="11.32113">
        <ele>1889.9</ele>
        <name>Pos 307</name>
      </trkpt>
      <trkpt lat="47.096131" lon="11.320942">
        <ele>1889.9</ele>
        <name>Pos 308</name>
      </trkpt>
      <trkpt lat="47.096332" lon="11.321245">
        <ele>1879.7</ele>
        <name>Pos 309</name>
      </trkpt>
      <trkpt lat="47.09633" lon="11.321086">
        <ele>1877.6</ele>
        <name>Pos 310</name>
      </trkpt>
      <trkpt lat="47.096381" lon="11.321117">
        <ele>1874.6</ele>
        <name>Pos 311</name>
      </trkpt>
      <trkpt lat="47.096522" lon="11.321417">
        <ele>1870.0</ele>
        <name>Pos 312</name>
      </trkpt>
      <trkpt lat="47.096557" lon="11.321116">
        <ele>1862.5</ele>
        <name>Pos 313</name>
      </trkpt>
      <trkpt lat="47.096697" lon="11.321447">
        <ele>1859.3</ele>
        <name>Pos 314</name>
      </trkpt>
      <trkpt lat="47.096756" lon="11.321738">
        <ele>1860.6</ele>
        <name>Pos 315</name>
      </trkpt>
      <trkpt lat="47.096873" lon="11.321849">
        <ele>1854.5</ele>
        <name>Pos 316</name>
      </trkpt>
      <trkpt lat="47.096949" lon="11.321826">
        <ele>1849.2</ele>
        <name>Pos 317</name>
      </trkpt>
      <trkpt lat="47.097054" lon="11.321992">
        <ele>1845.0</ele>
        <name>Pos 318</name>
      </trkpt>
      <trkpt lat="47.096982" lon="11.321641">
        <ele>1844.2</ele>
        <name>Pos 319</name>
      </trkpt>
      <trkpt lat="47.097081" lon="11.321714">
        <ele>1838.9</ele>
        <name>Pos 320</name>
      </trkpt>
      <trkpt lat="47.097241" lon="11.321984">
        <ele>1832.8</ele>
        <name>Pos 321</name>
      </trkpt>
      <trkpt lat="47.097288" lon="11.322208">
        <ele>1833.6</ele>
        <name>Pos 322</name>
      </trkpt>
      <trkpt lat="47.09735" lon="11.321948">
        <ele>1825.2</ele>
        <name>Pos 323</name>
      </trkpt>
      <trkpt lat="47.09749" lon="11.322324">
        <ele>1823.0</ele>
        <name>Pos 324</name>
      </trkpt>
      <trkpt lat="47.097551" lon="11.322078">
        <ele>1814.7</ele>
        <name>Pos 325</name>
      </trkpt>
      <trkpt lat="47.097635" lon="11.322413">
        <ele>1816.0</ele>
        <name>Pos 326</name>
      </trkpt>
      <trkpt lat="47.09772" lon="11.322157">
        <ele>1805.9</ele>
        <name>Pos 327</name>
      </trkpt>
      <trkpt lat="47.097746" lon="11.322562">
        <ele>1811.9</ele>
        <name>Pos 328</name>
      </trkpt>
      <trkpt lat="47.097878" lon="11.322189">
        <ele>1796.9</ele>
        <name>Pos 329</name>
      </trkpt>
      <trkpt lat="47.097989" lon="11.322799">
        <ele>1801.0</ele>
        <name>Pos 330</name>
      </trkpt>
      <trkpt lat="47.098054" lon="11.322663">
        <ele>1795.7</ele>
        <name>Pos 331</name>
      </trkpt>
      <trkpt lat="47.098125" lon="11.322385">
        <ele>1786.7</ele>
        <name>Pos 332</name>
      </trkpt>
      <trkpt lat="47.098128" lon="11.32226">
        <ele>1783.5</ele>
        <name>Pos 333</name>
      </trkpt>
      <trkpt lat="47.098206" lon="11.322365">
        <ele>1781.4</ele>
        <name>Pos 334</name>
      </trkpt>
      <trkpt lat="47.09826" lon="11.322619">
        <ele>1783.6</ele>
        <name>Pos 335</name>
      </trkpt>
      <trkpt lat="47.098284" lon="11.323078">
        <ele>1789.7</ele>
        <name>Pos 336</name>
      </trkpt>
      <trkpt lat="47.098524" lon="11.323473">
        <ele>1782.2</ele>
        <name>Pos 337</name>
      </trkpt>
      <trkpt lat="47.098536" lon="11.323581">
        <ele>1781.6</ele>
        <name>Pos 338</name>
      </trkpt>
    </trkseg>
  </trk>
</gpx>