<?xml version="1.0" encoding="UTF-8" standalone="yes"?>
<gpx xmlns="http://www.topografix.com/GPX/1/1" creator="alpenkarte.eu">
    <metadata>
        <name>karhorn-klettersteig</name>
        <link href="alpenkarte.eu">
            <text>Route von alpenkarte.eu</text>
        </link>
        <bounds minlat="47.24595000000000055706550483591854572296142578125" minlon="10.1500190000000003465174813754856586456298828125" maxlat="47.256135000000000445652403868734836578369140625" maxlon="10.159143000000000256477505899965763092041015625"/>
    </metadata>
    <trk>
        <name>karhorn-klettersteig</name>
        <trkseg>
            <trkpt lat="47.2561290000000013833414413966238498687744140625" lon="10.158861999999999170540831983089447021484375">
                <ele>1879.3882809599499523756094276905059814453125</ele>
            </trkpt>
            <trkpt lat="47.25610499999999802867023390717804431915283203125" lon="10.1588720000000005683205017703585326671600341796875">
                <ele>1880.300611200077355533721856772899627685546875</ele>
            </trkpt>
            <trkpt lat="47.25608600000000336649463861249387264251708984375" lon="10.158488999999999435885911225341260433197021484375">
                <ele>1883.633902079853442046442069113254547119140625</ele>
            </trkpt>
            <trkpt lat="47.25587399999999860256139072589576244354248046875" lon="10.1586979999999993395931596751324832439422607421875">
                <ele>1891.266839040066770394332706928253173828125</ele>
            </trkpt>
            <trkpt lat="47.25581199999999881811163504607975482940673828125" lon="10.1585979999999995726511770044453442096710205078125">
                <ele>1894.65973888004327818634919822216033935546875</ele>
            </trkpt>
            <trkpt lat="47.2557929999999970505086821503937244415283203125" lon="10.158505999999999147576090763323009014129638671875">
                <ele>1896.177543040106456828652881085872650146484375</ele>
            </trkpt>
            <trkpt lat="47.2557479999999969777491060085594654083251953125" lon="10.1584979999999998057091943337582051753997802734375">
                <ele>1897.745931520102431022678501904010772705078125</ele>
            </trkpt>
            <trkpt lat="47.25569899999999989859134075231850147247314453125" lon="10.1583880000000004173443812760524451732635498046875">
                <ele>1900.46765055999958349275402724742889404296875</ele>
            </trkpt>
            <trkpt lat="47.2557029999999969049895298667252063751220703125" lon="10.158319999999999794226823723874986171722412109375">
                <ele>1900.879200000104219725471921265125274658203125</ele>
            </trkpt>
            <trkpt lat="47.25562000000000040245140553452074527740478515625" lon="10.1582480000000003883542376570403575897216796875">
                <ele>1903.667999999986705006449483335018157958984375</ele>
            </trkpt>
            <trkpt lat="47.25560500000000274667399935424327850341796875" lon="10.158179000000000513637132826261222362518310546875">
                <ele>1904.171999999907939127297140657901763916015625</ele>
            </trkpt>
            <trkpt lat="47.255550999999996975020621903240680694580078125" lon="10.1581449999999993138999343500472605228424072265625">
                <ele>1905.986400000101866680779494345188140869140625</ele>
            </trkpt>
            <trkpt lat="47.25548400000000270892996923066675662994384765625" lon="10.1580060000000003128661774098873138427734375">
                <ele>1908.237599999909207326709292829036712646484375</ele>
            </trkpt>
            <trkpt lat="47.2554310000000015179466572590172290802001953125" lon="10.15777800000000041791281546466052532196044921875">
                <ele>1910.018399999949224365991540253162384033203125</ele>
            </trkpt>
            <trkpt lat="47.255347999999997909981175325810909271240234375" lon="10.15717000000000069803718361072242259979248046875">
                <ele>1912.21098240007768254145048558712005615234375</ele>
            </trkpt>
            <trkpt lat="47.25525499999999823330654180608689785003662109375" lon="10.1570839999999993352730598417110741138458251953125">
                <ele>1915.514668800065237519447691738605499267578125</ele>
            </trkpt>
            <trkpt lat="47.25519899999999751116774859838187694549560546875" lon="10.1569850000000005962874638498760759830474853515625">
                <ele>1917.546129600095127898384816944599151611328125</ele>
            </trkpt>
            <trkpt lat="47.25508099999999700457919971086084842681884765625" lon="10.1566120000000008616325430921278893947601318359375">
                <ele>1921.93917632012608009972609579563140869140625</ele>
            </trkpt>
            <trkpt lat="47.25501899999999722012944403104484081268310546875" lon="10.1565290000000008063807399594224989414215087890625">
                <ele>1924.067766560116751861642114818096160888671875</ele>
            </trkpt>
            <trkpt lat="47.2549580000000020163497538305819034576416015625" lon="10.1563569999999998572093318216502666473388671875">
                <ele>1926.2672863998932371032424271106719970703125</ele>
            </trkpt>
            <trkpt lat="47.25492899999999707461029174737632274627685546875" lon="10.156057000000000556383383809588849544525146484375">
                <ele>1926.690123200173957229708321392536163330078125</ele>
            </trkpt>
            <trkpt lat="47.2549470000000013669705367647111415863037109375" lon="10.1559290000000004283720045350492000579833984375">
                <ele>1925.1297871999222479644231498241424560546875</ele>
            </trkpt>
            <trkpt lat="47.2549530000000004292814992368221282958984375" lon="10.1556400000000000005684341886080801486968994140625">
                <ele>1924.735721599977068763109855353832244873046875</ele>
            </trkpt>
            <trkpt lat="47.2549350000000032423486118204891681671142578125" lon="10.1555710000000001258513293578289449214935302734375">
                <ele>1925.911164799813604986411519348621368408203125</ele>
            </trkpt>
            <trkpt lat="47.25495000000000089812601800076663494110107421875" lon="10.1554920000000006297113941400311887264251708984375">
                <ele>1925.18259199994963637436740100383758544921875</ele>
            </trkpt>
            <trkpt lat="47.254998999999997977283783257007598876953125" lon="10.1553769999999996542783264885656535625457763671875">
                <ele>1922.651143040116267002304084599018096923828125</ele>
            </trkpt>
            <trkpt lat="47.2549810000000007903508958406746387481689453125" lon="10.15526200000000045520209823735058307647705078125">
                <ele>1923.908946559957939825835637748241424560546875</ele>
            </trkpt>
            <trkpt lat="47.254986999999999852661858312785625457763671875" lon="10.155151000000000038880898500792682170867919921875">
                <ele>1923.831013760009909674408845603466033935546875</ele>
            </trkpt>
            <trkpt lat="47.2550269999999983383531798608601093292236328125" lon="10.1548929999999995033022059942595660686492919921875">
                <ele>1923.196160960053020971827208995819091796875</ele>
            </trkpt>
            <trkpt lat="47.25502300000000133195499074645340442657470703125" lon="10.154785000000000394493326894007623195648193359375">
                <ele>1923.857124799959137817495502531528472900390625</ele>
            </trkpt>
            <trkpt lat="47.25503599999999693181962356902658939361572265625" lon="10.1547199999999993025312505778856575489044189453125">
                <ele>1923.8078912000919444835744798183441162109375</ele>
            </trkpt>
            <trkpt lat="47.2549819999999982655936037190258502960205078125" lon="10.15433600000000069485395215451717376708984375">
                <ele>1927.409469440068278345279395580291748046875</ele>
            </trkpt>
            <trkpt lat="47.25501299999999815781848155893385410308837890625" lon="10.15417599999999964666130836121737957000732421875">
                <ele>1927.14215168004602674045599997043609619140625</ele>
            </trkpt>
            <trkpt lat="47.2550159999999976889739627949893474578857421875" lon="10.1539929999999998244675225578248500823974609375">
                <ele>1929.22000640005489913164637982845306396484375</ele>
            </trkpt>
            <trkpt lat="47.25470899999999829788066563196480274200439453125" lon="10.153862000000000165300662047229707241058349609375">
                <ele>1941.342862400059630090254358947277069091796875</ele>
            </trkpt>
            <trkpt lat="47.254458999999997104168869554996490478515625" lon="10.15361299999999999954525264911353588104248046875">
                <ele>1952.112557600097716203890740871429443359375</ele>
            </trkpt>
            <trkpt lat="47.25442799999999721194399171508848667144775390625" lon="10.1534929999999992134007698041386902332305908203125">
                <ele>1954.0879712000978543073870241641998291015625</ele>
            </trkpt>
            <trkpt lat="47.25438199999999966394170769490301609039306640625" lon="10.1534899999999996822452885680831968784332275390625">
                <ele>1955.598704000014777193428017199039459228515625</ele>
            </trkpt>
            <trkpt lat="47.25430000000000063664629124104976654052734375" lon="10.1532409999999995164898791699670255184173583984375">
                <ele>1960.926655999989861811627633869647979736328125</ele>
            </trkpt>
            <trkpt lat="47.25421399999999749752532807178795337677001953125" lon="10.153178000000000480440576211549341678619384765625">
                <ele>1964.653975040070008617476560175418853759765625</ele>
            </trkpt>
            <trkpt lat="47.25421800000000160935087478719651699066162109375" lon="10.1531169999999999475903678103350102901458740234375">
                <ele>1965.564782719952972911414690315723419189453125</ele>
            </trkpt>
            <trkpt lat="47.25415799999999677538653486408293247222900390625" lon="10.1530579999999996942960933665744960308074951171875">
                <ele>1968.431002240119369162130169570446014404296875</ele>
            </trkpt>
            <trkpt lat="47.25415199999999771307557239197194576263427734375" lon="10.15292600000000078352968557737767696380615234375">
                <ele>1970.8293683200636223773472011089324951171875</ele>
            </trkpt>
            <trkpt lat="47.254131000000000994987203739583492279052734375" lon="10.152837999999999141209627850912511348724365234375">
                <ele>1972.9541564799828847753815352916717529296875</ele>
            </trkpt>
            <trkpt lat="47.25413499999999800138539285399019718170166015625" lon="10.1527329999999995635562299867160618305206298828125">
                <ele>1974.538472800067893331288360059261322021484375</ele>
            </trkpt>
            <trkpt lat="47.25415000000000276259015663526952266693115234375" lon="10.1527089999999997615987012977711856365203857421875">
                <ele>1974.483975999922449773293919861316680908203125</ele>
            </trkpt>
            <trkpt lat="47.25414500000000117552190204150974750518798828125" lon="10.1526540000000000674162947689183056354522705078125">
                <ele>1975.53765279996559911523945629596710205078125</ele>
            </trkpt>
            <trkpt lat="47.2541820000000001300577423535287380218505859375" lon="10.152359000000000577301761950366199016571044921875">
                <ele>1979.77182655998649352113716304302215576171875</ele>
            </trkpt>
            <trkpt lat="47.2542380000000008521965355612337589263916015625" lon="10.1522780000000008016058927751146256923675537109375">
                <ele>1979.753607679961760368314571678638458251953125</ele>
            </trkpt>
            <trkpt lat="47.2542049999999989040588843636214733123779296875" lon="10.152013000000000175759851117618381977081298828125">
                <ele>1985.800164800027914679958485066890716552734375</ele>
            </trkpt>
            <trkpt lat="47.25416799999999994952304405160248279571533203125" lon="10.151906000000000318550519295968115329742431640625">
                <ele>1988.868680959996481760754249989986419677734375</ele>
            </trkpt>
            <trkpt lat="47.2541709999999994806785252876579761505126953125" lon="10.1518029999999992440962159889750182628631591796875">
                <ele>1990.766298560029781583580188453197479248046875</ele>
            </trkpt>
            <trkpt lat="47.25413499999999800138539285399019718170166015625" lon="10.151616000000000639147401670925319194793701171875">
                <ele>1995.231158400027197785675525665283203125</ele>
            </trkpt>
            <trkpt lat="47.2540970000000015716068446636199951171875" lon="10.15156999999999953843143885023891925811767578125">
                <ele>1996.970409599979348058695904910564422607421875</ele>
            </trkpt>
            <trkpt lat="47.25407700000000232876118388958275318145751953125" lon="10.151467000000000240333974943496286869049072265625">
                <ele>1999.5388761599506324273534119129180908203125</ele>
            </trkpt>
            <trkpt lat="47.25403399999999720648702350445091724395751953125" lon="10.1514100000000002665956344571895897388458251953125">
                <ele>2001.5542656000479837530292570590972900390625</ele>
            </trkpt>
            <trkpt lat="47.25398799999999965848473948426544666290283203125" lon="10.1513849999999994366817190893925726413726806640625">
                <ele>2002.938931200018714662292040884494781494140625</ele>
            </trkpt>
            <trkpt lat="47.25393600000000304817149299196898937225341796875" lon="10.1513019999999993814299159566871821880340576171875">
                <ele>2005.597889279957371400087140500545501708984375</ele>
            </trkpt>
            <trkpt lat="47.253794999999996662154444493353366851806640625" lon="10.1511750000000002813749233609996736049652099609375">
                <ele>2010.649440000053800758905708789825439453125</ele>
            </trkpt>
            <trkpt lat="47.2536630000000030804585549049079418182373046875" lon="10.1513139999999992824086803011596202850341796875">
                <ele>2010.36927167995736454031430184841156005859375</ele>
            </trkpt>
            <trkpt lat="47.25358899999999806595951667986810207366943359375" lon="10.151253000000000525915311300195753574371337890625">
                <ele>2012.843182080025826508062891662120819091796875</ele>
            </trkpt>
            <trkpt lat="47.2533839999999969450072967447340488433837890625" lon="10.1512100000000007327116691158153116703033447265625">
                <ele>2017.271673600042277030297555029392242431640625</ele>
            </trkpt>
            <trkpt lat="47.25333400000000239060682361014187335968017578125" lon="10.151137999999999550482243648730218410491943359375">
                <ele>2019.370030079966682023950852453708648681640625</ele>
            </trkpt>
            <trkpt lat="47.253163000000000693034962750971317291259765625" lon="10.1510780000000000455884219263680279254913330078125">
                <ele>2026.292835519975369606981985270977020263671875</ele>
            </trkpt>
            <trkpt lat="47.2530909999999977344486978836357593536376953125" lon="10.1509440000000008552660801797173917293548583984375">
                <ele>2030.899054720063986678724177181720733642578125</ele>
            </trkpt>
            <trkpt lat="47.25308199999999914098225417546927928924560546875" lon="10.150887000000000881527739693410694599151611328125">
                <ele>2032.101469120015508451615460216999053955078125</ele>
            </trkpt>
            <trkpt lat="47.25310900000000202680894290097057819366455078125" lon="10.150726999999999833335095900110900402069091796875">
                <ele>2034.04485007993571343831717967987060546875</ele>
            </trkpt>
            <trkpt lat="47.25290400000000090585672296583652496337890625" lon="10.1506389999999999673718775738961994647979736328125">
                <ele>2042.536655359970836798311211168766021728515625</ele>
            </trkpt>
            <trkpt lat="47.25289500000000231239027925767004489898681640625" lon="10.1504799999999999471356204594485461711883544921875">
                <ele>2045.788975999925014548352919518947601318359375</ele>
            </trkpt>
            <trkpt lat="47.25294900000000097861629910767078399658203125" lon="10.150251000000000800582711235620081424713134765625">
                <ele>2048.2721134399535003467462956905364990234375</ele>
            </trkpt>
            <trkpt lat="47.25286899999999690180629841051995754241943359375" lon="10.150204999999999699866748414933681488037109375">
                <ele>2051.745471200107203912921249866485595703125</ele>
            </trkpt>
            <trkpt lat="47.252791999999999461579136550426483154296875" lon="10.1501970000000003579998519853688776493072509765625">
                <ele>2054.410365440011446480639278888702392578125</ele>
            </trkpt>
            <trkpt lat="47.25285000000000223963070311583578586578369140625" lon="10.1500509999999994903419064939953386783599853515625">
                <ele>2055.21629599993730153073556721210479736328125</ele>
            </trkpt>
            <trkpt lat="47.25285000000000223963070311583578586578369140625" lon="10.1500509999999994903419064939953386783599853515625">
                <ele>2055.21629599993730153073556721210479736328125</ele>
            </trkpt>
            <trkpt lat="47.25285900000000083309714682400226593017578125" lon="10.1500280000000007163407644839026033878326416015625">
                <ele>2055.3499251199600621475838124752044677734375</ele>
            </trkpt>
            <trkpt lat="47.2528190000000023474058252759277820587158203125" lon="10.1500190000000003465174813754856586456298828125">
                <ele>2056.81367215991804187069647014141082763671875</ele>
            </trkpt>
            <trkpt lat="47.25264899999999812507667229510843753814697265625" lon="10.150178000000000366753738489933311939239501953125">
                <ele>2059.43020832005504416883923113346099853515625</ele>
            </trkpt>
            <trkpt lat="47.2525499999999993860910763032734394073486328125" lon="10.150206000000000727823135093785822391510009765625">
                <ele>2062.15716800000745934084989130496978759765625</ele>
            </trkpt>
            <trkpt lat="47.2523359999999996716724126599729061126708984375" lon="10.15044999999999930651028989814221858978271484375">
                <ele>2070.5034560000422061420977115631103515625</ele>
            </trkpt>
            <trkpt lat="47.25209000000000258978616329841315746307373046875" lon="10.1508409999999997808117768727242946624755859375">
                <ele>2073.94269279987202025949954986572265625</ele>
            </trkpt>
            <trkpt lat="47.25213600000000013778844731859862804412841796875" lon="10.150850999999999402234607259742915630340576171875">
                <ele>2071.27301632000990139204077422618865966796875</ele>
            </trkpt>
            <trkpt lat="47.25204999999999699866748414933681488037109375" lon="10.151078999999999297187969204969704151153564453125">
                <ele>2069.35578400015583611093461513519287109375</ele>
            </trkpt>
            <trkpt lat="47.25202900000000028057911549694836139678955078125" lon="10.15126599999999967849362292326986789703369140625">
                <ele>2064.90820768000003226916305720806121826171875</ele>
            </trkpt>
            <trkpt lat="47.2519410000000021909727365709841251373291015625" lon="10.1514019999999991483718986273743212223052978515625">
                <ele>2063.9804598399541646358557045459747314453125</ele>
            </trkpt>
            <trkpt lat="47.25191000000000229874785873107612133026123046875" lon="10.151514999999999844249032321386039257049560546875">
                <ele>2061.33368799993741049547679722309112548828125</ele>
            </trkpt>
            <trkpt lat="47.2517830000000031986928661353886127471923828125" lon="10.1521070000000008803908713161945343017578125">
                <ele>2062.38202431990202967426739633083343505859375</ele>
            </trkpt>
            <trkpt lat="47.25175200000000330646798829548060894012451171875" lon="10.1523260000000004055209501530043780803680419921875">
                <ele>2064.9157734398831962607800960540771484375</ele>
            </trkpt>
            <trkpt lat="47.251721000000003414243110455572605133056640625" lon="10.15238599999999991041477187536656856536865234375">
                <ele>2066.497832319872031803242862224578857421875</ele>
            </trkpt>
            <trkpt lat="47.25172599999999789588400744833052158355712890625" lon="10.1524459999999994153085935977287590503692626953125">
                <ele>2066.752165120078643667511641979217529296875</ele>
            </trkpt>
            <trkpt lat="47.2516719999999992296579875983297824859619140625" lon="10.152511000000000507270669913850724697113037109375">
                <ele>2069.8007276800562976859509944915771484375</ele>
            </trkpt>
            <trkpt lat="47.251654999999999517967808060348033905029296875" lon="10.1526189999999996160795490141026675701141357421875">
                <ele>2075.66322560000799057888798415660858154296875</ele>
            </trkpt>
            <trkpt lat="47.25155099999999919191395747475326061248779296875" lon="10.1527860000000007545395419583655893802642822265625">
                <ele>2087.88404288006722708814777433872222900390625</ele>
            </trkpt>
            <trkpt lat="47.2516040000000003828972694464027881622314453125" lon="10.1528159999999996188080331194214522838592529296875">
                <ele>2086.91069311996807300602085888385772705078125</ele>
            </trkpt>
            <trkpt lat="47.25153900000000106729203253053128719329833984375" lon="10.152910999999999575038600596599280834197998046875">
                <ele>2093.5173363199437517323531210422515869140625</ele>
            </trkpt>
            <trkpt lat="47.25159099999999767760527902282774448394775390625" lon="10.1529159999999993857500157901085913181304931640625">
                <ele>2091.78592448006065751542337238788604736328125</ele>
            </trkpt>
            <trkpt lat="47.2516200000000026193447411060333251953125" lon="10.1529579999999999273541106958873569965362548828125">
                <ele>2092.5815167999053301173262298107147216796875</ele>
            </trkpt>
            <trkpt lat="47.25157800000000207774064620025455951690673828125" lon="10.153007999999999810825102031230926513671875">
                <ele>2096.1996339199240537709556519985198974609375</ele>
            </trkpt>
            <trkpt lat="47.2515599999999977853804011829197406768798828125" lon="10.153076999999999685542206862010061740875244140625">
                <ele>2099.68352960005358909256756305694580078125</ele>
            </trkpt>
            <trkpt lat="47.25161700000000308818925986997783184051513671875" lon="10.1531110000000008852794053382240235805511474609375">
                <ele>2099.497640959953059791587293148040771484375</ele>
            </trkpt>
            <trkpt lat="47.25158499999999861529431655071675777435302734375" lon="10.1531520000000003989271135651506483554840087890625">
                <ele>2102.16599360005420749075710773468017578125</ele>
            </trkpt>
            <trkpt lat="47.25161800000000056343196774832904338836669921875" lon="10.1532169999999997145323504810221493244171142578125">
                <ele>2104.19248447997460971237160265445709228515625</ele>
            </trkpt>
            <trkpt lat="47.251575000000002546585164964199066162109375" lon="10.1532800000000005269384928396902978420257568359375">
                <ele>2107.8792799999710041447542607784271240234375</ele>
            </trkpt>
            <trkpt lat="47.2515819999999990841388353146612644195556640625" lon="10.1535430000000008732286005397327244281768798828125">
                <ele>2117.3674995200444755028001964092254638671875</ele>
            </trkpt>
            <trkpt lat="47.25152700000000294267010758630931377410888671875" lon="10.15370300000000014506440493278205394744873046875">
                <ele>2123.7272211199642697465606033802032470703125</ele>
            </trkpt>
            <trkpt lat="47.25154400000000265436028712429106235504150390625" lon="10.1538289999999999935198502498678863048553466796875">
                <ele>2127.85156351996693047112785279750823974609375</ele>
            </trkpt>
            <trkpt lat="47.25119099999999860983734834007918834686279296875" lon="10.15461499999999972487785271368920803070068359375">
                <ele>2156.1788767999960327870212495326995849609375</ele>
            </trkpt>
            <trkpt lat="47.251182999999997491613612510263919830322265625" lon="10.1547140000000002402202881057746708393096923828125">
                <ele>2159.21714624001242555095814168453216552734375</ele>
            </trkpt>
            <trkpt lat="47.2511200000000002319211489520967006683349609375" lon="10.1547640000000001236912794411182403564453125">
                <ele>2160.83423360000278989900834858417510986328125</ele>
            </trkpt>
            <trkpt lat="47.25110500000000257614374277181923389434814453125" lon="10.154908999999999963392838253639638423919677734375">
                <ele>2165.1388063999993391917087137699127197265625</ele>
            </trkpt>
            <trkpt lat="47.251171999999996842234395444393157958984375" lon="10.1548970000000000624140739091672003269195556640625">
                <ele>2164.7853516800014403997920453548431396484375</ele>
            </trkpt>
            <trkpt lat="47.2511319999999983565430738963186740875244140625" lon="10.155060999999999893361746217124164104461669921875">
                <ele>2169.83737663999045253149233758449554443359375</ele>
            </trkpt>
            <trkpt lat="47.2511259999999992942321114242076873779296875" lon="10.1551799999999996515498423832468688488006591796875">
                <ele>2173.64725759998282228480093181133270263671875</ele>
            </trkpt>
            <trkpt lat="47.25105700000000297222868539392948150634765625" lon="10.1555429999999997647819327539764344692230224609375">
                <ele>2183.74250432006147093488834798336029052734375</ele>
            </trkpt>
            <trkpt lat="47.25102100000000149293555296026170253753662109375" lon="10.1556259999999998200337358866818249225616455078125">
                <ele>2185.23236672003395142382942140102386474609375</ele>
            </trkpt>
            <trkpt lat="47.250776000000001886292011477053165435791015625" lon="10.155855999999999994543031789362430572509765625">
                <ele>2184.38538880001169673050753772258758544921875</ele>
            </trkpt>
            <trkpt lat="47.25064900000000278623701888136565685272216796875" lon="10.155889999999999417923390865325927734375">
                <ele>2183.55032800002436488284729421138763427734375</ele>
            </trkpt>
            <trkpt lat="47.25072399999999817055140738375484943389892578125" lon="10.1560869999999994206518749706447124481201171875">
                <ele>2184.91762239995887284749187529087066650390625</ele>
            </trkpt>
            <trkpt lat="47.2505400000000008731149137020111083984375" lon="10.1557399999999997675104168592952191829681396484375">
                <ele>2183.435167999998157029040157794952392578125</ele>
            </trkpt>
            <trkpt lat="47.2503099999999989222487783990800380706787109375" lon="10.155570000000000874251782079227268695831298828125">
                <ele>2187.9275359999983265879563987255096435546875</ele>
            </trkpt>
            <trkpt lat="47.25003000000000241698216996155679225921630859375" lon="10.1550399999999996225596987642347812652587890625">
                <ele>2216.77049599987140027224086225032806396484375</ele>
            </trkpt>
            <trkpt lat="47.2499600000000015143086784519255161285400390625" lon="10.1545900000000006713207767461426556110382080078125">
                <ele>2224.3021760000328868045471608638763427734375</ele>
            </trkpt>
            <trkpt lat="47.24978999999999729197952547110617160797119140625" lon="10.1542399999999997106669979984872043132781982421875">
                <ele>2227.56166399998028282425366342067718505859375</ele>
            </trkpt>
            <trkpt lat="47.2497699999999980491338646970689296722412109375" lon="10.15381000000000000227373675443232059478759765625">
                <ele>2224.4171360000755157670937478542327880859375</ele>
            </trkpt>
            <trkpt lat="47.24958000000000168938640854321420192718505859375" lon="10.1534700000000004393996277940459549427032470703125">
                <ele>2235.3769279998587080626748502254486083984375</ele>
            </trkpt>
            <trkpt lat="47.249380000000002155502443201839923858642578125" lon="10.153529999999999944293449516408145427703857421875">
                <ele>2249.4921919998441808274947106838226318359375</ele>
            </trkpt>
            <trkpt lat="47.2492500000000035242919693700969219207763671875" lon="10.153169999999999362216840381734073162078857421875">
                <ele>2270.828799999633702100254595279693603515625</ele>
            </trkpt>
            <trkpt lat="47.248930000000001427906681783497333526611328125" lon="10.1529100000000003234390533179976046085357666015625">
                <ele>2288.19204799995850407867692410945892333984375</ele>
            </trkpt>
            <trkpt lat="47.24871999999999871988620725460350513458251953125" lon="10.15241999999999933379513095133006572723388671875">
                <ele>2316.20259200009923006291501224040985107421875</ele>
            </trkpt>
            <trkpt lat="47.24849999999999994315658113919198513031005859375" lon="10.152100000000000790123522165231406688690185546875">
                <ele>2342.70799999997279883245937526226043701171875</ele>
            </trkpt>
            <trkpt lat="47.24839999999999662350091966800391674041748046875" lon="10.1516199999999994219024301855824887752532958984375">
                <ele>2370.14416000032315423595719039440155029296875</ele>
            </trkpt>
            <trkpt lat="47.24817999999999784677129355259239673614501953125" lon="10.1513700000000000045474735088646411895751953125">
                <ele>2367.4869439998719826689921319484710693359375</ele>
            </trkpt>
            <trkpt lat="47.2477200000000010504663805477321147918701171875" lon="10.152029999999999887450030655600130558013916015625">
                <ele>2332.657920000046942732296884059906005859375</ele>
            </trkpt>
            <trkpt lat="47.24746999999999985675458447076380252838134765625" lon="10.15240000000000009094947017729282379150390625">
                <ele>2311.34447999998474188032560050487518310546875</ele>
            </trkpt>
            <trkpt lat="47.2471800000000001773514668457210063934326171875" lon="10.152699999999999391775418189354240894317626953125">
                <ele>2268.584160000058545847423374652862548828125</ele>
            </trkpt>
            <trkpt lat="47.24705999999999761485014460049569606781005859375" lon="10.15232999999999918827597866766154766082763671875">
                <ele>2276.05516799979886854998767375946044921875</ele>
            </trkpt>
            <trkpt lat="47.24680000000000035242919693700969219207763671875" lon="10.1523500000000002074784788419492542743682861328125">
                <ele>2252.2968000000282700057141482830047607421875</ele>
            </trkpt>
            <trkpt lat="47.24634999999999962483343551866710186004638671875" lon="10.1522500000000004405364961712621152400970458984375">
                <ele>2217.9779999999664141796529293060302734375</ele>
            </trkpt>
            <trkpt lat="47.24595000000000055706550483591854572296142578125" lon="10.1521799999999995378630046616308391094207763671875">
                <ele>2188.88928000004443674697540700435638427734375</ele>
            </trkpt>
            <trkpt lat="47.24597200000000185582393896766006946563720703125" lon="10.15217799999999925830707070417702198028564453125">
                <ele>2190.54809088014417284284718334674835205078125</ele>
            </trkpt>
            <trkpt lat="47.245980000000002974047674797475337982177734375" lon="10.1524330000000002627302819746546447277069091796875">
                <ele>2188.84125120021553811966441571712493896484375</ele>
            </trkpt>
            <trkpt lat="47.24614299999999644796844222582876682281494140625" lon="10.15271500000000060026650317013263702392578125">
                <ele>2193.16341599975203280337154865264892578125</ele>
            </trkpt>
            <trkpt lat="47.24615000000000009094947017729282379150390625" lon="10.1530210000000007397602530545555055141448974609375">
                <ele>2183.5495199999795659095980226993560791015625</ele>
            </trkpt>
            <trkpt lat="47.2461679999999972778823575936257839202880859375" lon="10.1531169999999999475903678103350102901458740234375">
                <ele>2181.23086079987433549831621348857879638671875</ele>
            </trkpt>
            <trkpt lat="47.24628200000000077807271736674010753631591796875" lon="10.1533239999999995717416823026724159717559814453125">
                <ele>2178.55050240004538864013738930225372314453125</ele>
            </trkpt>
            <trkpt lat="47.24631099999999861438482184894382953643798828125" lon="10.1534929999999992134007698041386902332305908203125">
                <ele>2174.446398079977370798587799072265625</ele>
            </trkpt>
            <trkpt lat="47.24636000000000279896994470618665218353271484375" lon="10.1536039999999996297219695406965911388397216796875">
                <ele>2172.61082240009864108287729322910308837890625</ele>
            </trkpt>
            <trkpt lat="47.246431000000001176886144094169139862060546875" lon="10.1538559999999993266328601748682558536529541015625">
                <ele>2166.5007545600519733852706849575042724609375</ele>
            </trkpt>
            <trkpt lat="47.2468530000000015434125089086592197418212890625" lon="10.1541060000000005203446562518365681171417236328125">
                <ele>2167.32646432001411085366271436214447021484375</ele>
            </trkpt>
            <trkpt lat="47.24710400000000021236701286397874355316162109375" lon="10.1542290000000008376446203328669071197509765625">
                <ele>2167.313559679969330318272113800048828125</ele>
            </trkpt>
            <trkpt lat="47.247287000000000034560798667371273040771484375" lon="10.1543890000000001094804247259162366390228271484375">
                <ele>2164.0395526399961454444564878940582275390625</ele>
            </trkpt>
            <trkpt lat="47.24735799999999841247699805535376071929931640625" lon="10.15438999999999936107997200451791286468505859375">
                <ele>2165.3461375999986557872034609317779541015625</ele>
            </trkpt>
            <trkpt lat="47.24743099999999884630597080104053020477294921875" lon="10.1544340000000001822400008677504956722259521484375">
                <ele>2164.7108979199701934703625738620758056640625</ele>
            </trkpt>
            <trkpt lat="47.2476970000000022764652385376393795013427734375" lon="10.1545280000000008868710210663266479969024658203125">
                <ele>2165.63979392000464940792880952358245849609375</ele>
            </trkpt>
            <trkpt lat="47.24779699999999849069354240782558917999267578125" lon="10.1546210000000005635456545860506594181060791015625">
                <ele>2163.2637814399422495625913143157958984375</ele>
            </trkpt>
            <trkpt lat="47.248075000000000045474735088646411895751953125" lon="10.154797999999999547071638517081737518310546875">
                <ele>2160.328112000022883876226842403411865234375</ele>
            </trkpt>
            <trkpt lat="47.24829199999999929104887996800243854522705078125" lon="10.1548140000000000071622707764618098735809326171875">
                <ele>2163.8354585599854544852860271930694580078125</ele>
            </trkpt>
            <trkpt lat="47.24835699999999860665411688387393951416015625" lon="10.1548379999999998091197994654066860675811767578125">
                <ele>2164.17960479996736467001028358936309814453125</ele>
            </trkpt>
            <trkpt lat="47.24861800000000044974513002671301364898681640625" lon="10.1550209999999996313135852687992155551910400390625">
                <ele>2162.74142496002923508058302104473114013671875</ele>
            </trkpt>
            <trkpt lat="47.24871999999999871988620725460350513458251953125" lon="10.1551139999999993079882187885232269763946533203125">
                <ele>2161.491225599993413197807967662811279296875</ele>
            </trkpt>
            <trkpt lat="47.248918000000003303284756839275360107421875" lon="10.15523400000000009413270163349807262420654296875">
                <ele>2161.97822784009395036264322698116302490234375</ele>
            </trkpt>
            <trkpt lat="47.2490829999999988331182976253330707550048828125" lon="10.1554470000000005569518179981969296932220458984375">
                <ele>2157.61843631993906456045806407928466796875</ele>
            </trkpt>
            <trkpt lat="47.24927799999999677993400837294757366180419921875" lon="10.15554900000000060344973462633788585662841796875">
                <ele>2160.9087372798248907201923429965972900390625</ele>
            </trkpt>
            <trkpt lat="47.24944599999999894635038799606263637542724609375" lon="10.155713999999999685996954212896525859832763671875">
                <ele>2161.2496025599657514248974621295928955078125</ele>
            </trkpt>
            <trkpt lat="47.2497019999999992023731465451419353485107421875" lon="10.155865999999999615965862176381051540374755859375">
                <ele>2166.05385087998001836240291595458984375</ele>
            </trkpt>
            <trkpt lat="47.24981199999999859073795960284769535064697265625" lon="10.155972999999999473175193998031318187713623046875">
                <ele>2166.6485478399627027101814746856689453125</ele>
            </trkpt>
            <trkpt lat="47.24994199999999722194843343459069728851318359375" lon="10.156029000000000195313987205736339092254638671875">
                <ele>2169.70078911987957326346077024936676025390625</ele>
            </trkpt>
            <trkpt lat="47.25008600000000313912096316926181316375732421875" lon="10.1561439999999993943902154569514095783233642578125">
                <ele>2169.2232832001018323353491723537445068359375</ele>
            </trkpt>
            <trkpt lat="47.25008600000000313912096316926181316375732421875" lon="10.1561439999999993943902154569514095783233642578125">
                <ele>2169.2232832001018323353491723537445068359375</ele>
            </trkpt>
            <trkpt lat="47.25054899999999946658135741017758846282958984375" lon="10.156268000000000739646566216833889484405517578125">
                <ele>2179.8209535999767467728815972805023193359375</ele>
            </trkpt>
            <trkpt lat="47.250641000000001668013283051550388336181640625" lon="10.156245999999999440888132085092365741729736328125">
                <ele>2182.89045280005348104168660938739776611328125</ele>
            </trkpt>
            <trkpt lat="47.25058299999999888996171648614108562469482421875" lon="10.15614000000000061163518694229423999786376953125">
                <ele>2181.6357759999691552366130053997039794921875</ele>
            </trkpt>
            <trkpt lat="47.250731999999999288775143213570117950439453125" lon="10.1561070000000004398543751449324190616607666015625">
                <ele>2185.17219519998570831376127898693084716796875</ele>
            </trkpt>
            <trkpt lat="47.25064900000000278623701888136565685272216796875" lon="10.155889999999999417923390865325927734375">
                <ele>2183.55032800002436488284729421138763427734375</ele>
            </trkpt>
            <trkpt lat="47.250776000000001886292011477053165435791015625" lon="10.155855999999999994543031789362430572509765625">
                <ele>2184.38538880001169673050753772258758544921875</ele>
            </trkpt>
            <trkpt lat="47.25102100000000149293555296026170253753662109375" lon="10.1556259999999998200337358866818249225616455078125">
                <ele>2185.23236672003395142382942140102386474609375</ele>
            </trkpt>
            <trkpt lat="47.25105700000000297222868539392948150634765625" lon="10.1555429999999997647819327539764344692230224609375">
                <ele>2183.74250432006147093488834798336029052734375</ele>
            </trkpt>
            <trkpt lat="47.2511259999999992942321114242076873779296875" lon="10.1551799999999996515498423832468688488006591796875">
                <ele>2173.64725759998282228480093181133270263671875</ele>
            </trkpt>
            <trkpt lat="47.2511319999999983565430738963186740875244140625" lon="10.155060999999999893361746217124164104461669921875">
                <ele>2169.83737663999045253149233758449554443359375</ele>
            </trkpt>
            <trkpt lat="47.251171999999996842234395444393157958984375" lon="10.1548970000000000624140739091672003269195556640625">
                <ele>2164.7853516800014403997920453548431396484375</ele>
            </trkpt>
            <trkpt lat="47.25110500000000257614374277181923389434814453125" lon="10.154908999999999963392838253639638423919677734375">
                <ele>2165.1388063999993391917087137699127197265625</ele>
            </trkpt>
            <trkpt lat="47.2511200000000002319211489520967006683349609375" lon="10.1547640000000001236912794411182403564453125">
                <ele>2160.83423360000278989900834858417510986328125</ele>
            </trkpt>
            <trkpt lat="47.251182999999997491613612510263919830322265625" lon="10.1547140000000002402202881057746708393096923828125">
                <ele>2159.21714624001242555095814168453216552734375</ele>
            </trkpt>
            <trkpt lat="47.25119099999999860983734834007918834686279296875" lon="10.15461499999999972487785271368920803070068359375">
                <ele>2156.1788767999960327870212495326995849609375</ele>
            </trkpt>
            <trkpt lat="47.25154400000000265436028712429106235504150390625" lon="10.1538289999999999935198502498678863048553466796875">
                <ele>2127.85156351996693047112785279750823974609375</ele>
            </trkpt>
            <trkpt lat="47.25152700000000294267010758630931377410888671875" lon="10.15370300000000014506440493278205394744873046875">
                <ele>2123.7272211199642697465606033802032470703125</ele>
            </trkpt>
            <trkpt lat="47.2515819999999990841388353146612644195556640625" lon="10.1535430000000008732286005397327244281768798828125">
                <ele>2117.3674995200444755028001964092254638671875</ele>
            </trkpt>
            <trkpt lat="47.251575000000002546585164964199066162109375" lon="10.1532800000000005269384928396902978420257568359375">
                <ele>2107.8792799999710041447542607784271240234375</ele>
            </trkpt>
            <trkpt lat="47.25161800000000056343196774832904338836669921875" lon="10.1532169999999997145323504810221493244171142578125">
                <ele>2104.19248447997460971237160265445709228515625</ele>
            </trkpt>
            <trkpt lat="47.25158499999999861529431655071675777435302734375" lon="10.1531520000000003989271135651506483554840087890625">
                <ele>2102.16599360005420749075710773468017578125</ele>
            </trkpt>
            <trkpt lat="47.25161700000000308818925986997783184051513671875" lon="10.1531110000000008852794053382240235805511474609375">
                <ele>2099.497640959953059791587293148040771484375</ele>
            </trkpt>
            <trkpt lat="47.2515599999999977853804011829197406768798828125" lon="10.153076999999999685542206862010061740875244140625">
                <ele>2099.68352960005358909256756305694580078125</ele>
            </trkpt>
            <trkpt lat="47.25157800000000207774064620025455951690673828125" lon="10.153007999999999810825102031230926513671875">
                <ele>2096.1996339199240537709556519985198974609375</ele>
            </trkpt>
            <trkpt lat="47.2516200000000026193447411060333251953125" lon="10.1529579999999999273541106958873569965362548828125">
                <ele>2092.5815167999053301173262298107147216796875</ele>
            </trkpt>
            <trkpt lat="47.25159099999999767760527902282774448394775390625" lon="10.1529159999999993857500157901085913181304931640625">
                <ele>2091.78592448006065751542337238788604736328125</ele>
            </trkpt>
            <trkpt lat="47.25153900000000106729203253053128719329833984375" lon="10.152910999999999575038600596599280834197998046875">
                <ele>2093.5173363199437517323531210422515869140625</ele>
            </trkpt>
            <trkpt lat="47.2516040000000003828972694464027881622314453125" lon="10.1528159999999996188080331194214522838592529296875">
                <ele>2086.91069311996807300602085888385772705078125</ele>
            </trkpt>
            <trkpt lat="47.25155099999999919191395747475326061248779296875" lon="10.1527860000000007545395419583655893802642822265625">
                <ele>2087.88404288006722708814777433872222900390625</ele>
            </trkpt>
            <trkpt lat="47.251654999999999517967808060348033905029296875" lon="10.1526189999999996160795490141026675701141357421875">
                <ele>2075.66322560000799057888798415660858154296875</ele>
            </trkpt>
            <trkpt lat="47.2516719999999992296579875983297824859619140625" lon="10.152511000000000507270669913850724697113037109375">
                <ele>2069.8007276800562976859509944915771484375</ele>
            </trkpt>
            <trkpt lat="47.25172599999999789588400744833052158355712890625" lon="10.1524459999999994153085935977287590503692626953125">
                <ele>2066.752165120078643667511641979217529296875</ele>
            </trkpt>
            <trkpt lat="47.251721000000003414243110455572605133056640625" lon="10.15238599999999991041477187536656856536865234375">
                <ele>2066.497832319872031803242862224578857421875</ele>
            </trkpt>
            <trkpt lat="47.25175200000000330646798829548060894012451171875" lon="10.1523260000000004055209501530043780803680419921875">
                <ele>2064.9157734398831962607800960540771484375</ele>
            </trkpt>
            <trkpt lat="47.2517830000000031986928661353886127471923828125" lon="10.1521070000000008803908713161945343017578125">
                <ele>2062.38202431990202967426739633083343505859375</ele>
            </trkpt>
            <trkpt lat="47.25191000000000229874785873107612133026123046875" lon="10.151514999999999844249032321386039257049560546875">
                <ele>2061.33368799993741049547679722309112548828125</ele>
            </trkpt>
            <trkpt lat="47.2519410000000021909727365709841251373291015625" lon="10.1514019999999991483718986273743212223052978515625">
                <ele>2063.9804598399541646358557045459747314453125</ele>
            </trkpt>
            <trkpt lat="47.25202900000000028057911549694836139678955078125" lon="10.15126599999999967849362292326986789703369140625">
                <ele>2064.90820768000003226916305720806121826171875</ele>
            </trkpt>
            <trkpt lat="47.25204999999999699866748414933681488037109375" lon="10.151078999999999297187969204969704151153564453125">
                <ele>2069.35578400015583611093461513519287109375</ele>
            </trkpt>
            <trkpt lat="47.25213600000000013778844731859862804412841796875" lon="10.150850999999999402234607259742915630340576171875">
                <ele>2071.27301632000990139204077422618865966796875</ele>
            </trkpt>
            <trkpt lat="47.25209000000000258978616329841315746307373046875" lon="10.1508409999999997808117768727242946624755859375">
                <ele>2073.94269279987202025949954986572265625</ele>
            </trkpt>
            <trkpt lat="47.2523359999999996716724126599729061126708984375" lon="10.15044999999999930651028989814221858978271484375">
                <ele>2070.5034560000422061420977115631103515625</ele>
            </trkpt>
            <trkpt lat="47.2525260000000031368472264148294925689697265625" lon="10.1502339999999993125356922973878681659698486328125">
                <ele>2062.4368390399104100652039051055908203125</ele>
            </trkpt>
            <trkpt lat="47.2526289999999988822310115210711956024169921875" lon="10.1502630000000007015614755800925195217132568359375">
                <ele>2058.5375451200243333005346357822418212890625</ele>
            </trkpt>
            <trkpt lat="47.25272199999999855890564504079520702362060546875" lon="10.150251000000000800582711235620081424713134765625">
                <ele>2055.70896032003292930312454700469970703125</ele>
            </trkpt>
            <trkpt lat="47.252791999999999461579136550426483154296875" lon="10.1501970000000003579998519853688776493072509765625">
                <ele>2054.410365440011446480639278888702392578125</ele>
            </trkpt>
            <trkpt lat="47.25286899999999690180629841051995754241943359375" lon="10.150204999999999699866748414933681488037109375">
                <ele>2051.745471200107203912921249866485595703125</ele>
            </trkpt>
            <trkpt lat="47.25294900000000097861629910767078399658203125" lon="10.150251000000000800582711235620081424713134765625">
                <ele>2048.2721134399535003467462956905364990234375</ele>
            </trkpt>
            <trkpt lat="47.25289500000000231239027925767004489898681640625" lon="10.1504799999999999471356204594485461711883544921875">
                <ele>2045.788975999925014548352919518947601318359375</ele>
            </trkpt>
            <trkpt lat="47.25290400000000090585672296583652496337890625" lon="10.1506389999999999673718775738961994647979736328125">
                <ele>2042.536655359970836798311211168766021728515625</ele>
            </trkpt>
            <trkpt lat="47.25310900000000202680894290097057819366455078125" lon="10.150726999999999833335095900110900402069091796875">
                <ele>2034.04485007993571343831717967987060546875</ele>
            </trkpt>
            <trkpt lat="47.25308199999999914098225417546927928924560546875" lon="10.150887000000000881527739693410694599151611328125">
                <ele>2032.101469120015508451615460216999053955078125</ele>
            </trkpt>
            <trkpt lat="47.2530909999999977344486978836357593536376953125" lon="10.1509440000000008552660801797173917293548583984375">
                <ele>2030.899054720063986678724177181720733642578125</ele>
            </trkpt>
            <trkpt lat="47.253163000000000693034962750971317291259765625" lon="10.1510780000000000455884219263680279254913330078125">
                <ele>2026.292835519975369606981985270977020263671875</ele>
            </trkpt>
            <trkpt lat="47.25333400000000239060682361014187335968017578125" lon="10.151137999999999550482243648730218410491943359375">
                <ele>2019.370030079966682023950852453708648681640625</ele>
            </trkpt>
            <trkpt lat="47.2533839999999969450072967447340488433837890625" lon="10.1512100000000007327116691158153116703033447265625">
                <ele>2017.271673600042277030297555029392242431640625</ele>
            </trkpt>
            <trkpt lat="47.25358899999999806595951667986810207366943359375" lon="10.151253000000000525915311300195753574371337890625">
                <ele>2012.843182080025826508062891662120819091796875</ele>
            </trkpt>
            <trkpt lat="47.2536630000000030804585549049079418182373046875" lon="10.1513139999999992824086803011596202850341796875">
                <ele>2010.36927167995736454031430184841156005859375</ele>
            </trkpt>
            <trkpt lat="47.253794999999996662154444493353366851806640625" lon="10.1511750000000002813749233609996736049652099609375">
                <ele>2010.649440000053800758905708789825439453125</ele>
            </trkpt>
            <trkpt lat="47.25393600000000304817149299196898937225341796875" lon="10.1513019999999993814299159566871821880340576171875">
                <ele>2005.597889279957371400087140500545501708984375</ele>
            </trkpt>
            <trkpt lat="47.25398799999999965848473948426544666290283203125" lon="10.1513849999999994366817190893925726413726806640625">
                <ele>2002.938931200018714662292040884494781494140625</ele>
            </trkpt>
            <trkpt lat="47.25403399999999720648702350445091724395751953125" lon="10.1514100000000002665956344571895897388458251953125">
                <ele>2001.5542656000479837530292570590972900390625</ele>
            </trkpt>
            <trkpt lat="47.25407700000000232876118388958275318145751953125" lon="10.151467000000000240333974943496286869049072265625">
                <ele>1999.5388761599506324273534119129180908203125</ele>
            </trkpt>
            <trkpt lat="47.2540970000000015716068446636199951171875" lon="10.15156999999999953843143885023891925811767578125">
                <ele>1996.970409599979348058695904910564422607421875</ele>
            </trkpt>
            <trkpt lat="47.25413499999999800138539285399019718170166015625" lon="10.151616000000000639147401670925319194793701171875">
                <ele>1995.231158400027197785675525665283203125</ele>
            </trkpt>
            <trkpt lat="47.2541709999999994806785252876579761505126953125" lon="10.1518029999999992440962159889750182628631591796875">
                <ele>1990.766298560029781583580188453197479248046875</ele>
            </trkpt>
            <trkpt lat="47.25416799999999994952304405160248279571533203125" lon="10.151906000000000318550519295968115329742431640625">
                <ele>1988.868680959996481760754249989986419677734375</ele>
            </trkpt>
            <trkpt lat="47.2542049999999989040588843636214733123779296875" lon="10.152013000000000175759851117618381977081298828125">
                <ele>1985.800164800027914679958485066890716552734375</ele>
            </trkpt>
            <trkpt lat="47.2542380000000008521965355612337589263916015625" lon="10.1522780000000008016058927751146256923675537109375">
                <ele>1979.753607679961760368314571678638458251953125</ele>
            </trkpt>
            <trkpt lat="47.2541820000000001300577423535287380218505859375" lon="10.152359000000000577301761950366199016571044921875">
                <ele>1979.77182655998649352113716304302215576171875</ele>
            </trkpt>
            <trkpt lat="47.25414500000000117552190204150974750518798828125" lon="10.1526540000000000674162947689183056354522705078125">
                <ele>1975.53765279996559911523945629596710205078125</ele>
            </trkpt>
            <trkpt lat="47.25415000000000276259015663526952266693115234375" lon="10.1527089999999997615987012977711856365203857421875">
                <ele>1974.483975999922449773293919861316680908203125</ele>
            </trkpt>
            <trkpt lat="47.25413499999999800138539285399019718170166015625" lon="10.1527329999999995635562299867160618305206298828125">
                <ele>1974.538472800067893331288360059261322021484375</ele>
            </trkpt>
            <trkpt lat="47.254131000000000994987203739583492279052734375" lon="10.152837999999999141209627850912511348724365234375">
                <ele>1972.9541564799828847753815352916717529296875</ele>
            </trkpt>
            <trkpt lat="47.25415199999999771307557239197194576263427734375" lon="10.15292600000000078352968557737767696380615234375">
                <ele>1970.8293683200636223773472011089324951171875</ele>
            </trkpt>
            <trkpt lat="47.25415799999999677538653486408293247222900390625" lon="10.1530579999999996942960933665744960308074951171875">
                <ele>1968.431002240119369162130169570446014404296875</ele>
            </trkpt>
            <trkpt lat="47.25421800000000160935087478719651699066162109375" lon="10.1531169999999999475903678103350102901458740234375">
                <ele>1965.564782719952972911414690315723419189453125</ele>
            </trkpt>
            <trkpt lat="47.25421399999999749752532807178795337677001953125" lon="10.153178000000000480440576211549341678619384765625">
                <ele>1964.653975040070008617476560175418853759765625</ele>
            </trkpt>
            <trkpt lat="47.25430000000000063664629124104976654052734375" lon="10.1532409999999995164898791699670255184173583984375">
                <ele>1960.926655999989861811627633869647979736328125</ele>
            </trkpt>
            <trkpt lat="47.25438199999999966394170769490301609039306640625" lon="10.1534899999999996822452885680831968784332275390625">
                <ele>1955.598704000014777193428017199039459228515625</ele>
            </trkpt>
            <trkpt lat="47.25442799999999721194399171508848667144775390625" lon="10.1534929999999992134007698041386902332305908203125">
                <ele>1954.0879712000978543073870241641998291015625</ele>
            </trkpt>
            <trkpt lat="47.254458999999997104168869554996490478515625" lon="10.15361299999999999954525264911353588104248046875">
                <ele>1952.112557600097716203890740871429443359375</ele>
            </trkpt>
            <trkpt lat="47.25470899999999829788066563196480274200439453125" lon="10.153862000000000165300662047229707241058349609375">
                <ele>1941.342862400059630090254358947277069091796875</ele>
            </trkpt>
            <trkpt lat="47.2550159999999976889739627949893474578857421875" lon="10.1539929999999998244675225578248500823974609375">
                <ele>1929.22000640005489913164637982845306396484375</ele>
            </trkpt>
            <trkpt lat="47.25501299999999815781848155893385410308837890625" lon="10.15417599999999964666130836121737957000732421875">
                <ele>1927.14215168004602674045599997043609619140625</ele>
            </trkpt>
            <trkpt lat="47.2549819999999982655936037190258502960205078125" lon="10.15433600000000069485395215451717376708984375">
                <ele>1927.409469440068278345279395580291748046875</ele>
            </trkpt>
            <trkpt lat="47.25503599999999693181962356902658939361572265625" lon="10.1547199999999993025312505778856575489044189453125">
                <ele>1923.8078912000919444835744798183441162109375</ele>
            </trkpt>
            <trkpt lat="47.25502300000000133195499074645340442657470703125" lon="10.154785000000000394493326894007623195648193359375">
                <ele>1923.857124799959137817495502531528472900390625</ele>
            </trkpt>
            <trkpt lat="47.2550269999999983383531798608601093292236328125" lon="10.1548929999999995033022059942595660686492919921875">
                <ele>1923.196160960053020971827208995819091796875</ele>
            </trkpt>
            <trkpt lat="47.254986999999999852661858312785625457763671875" lon="10.155151000000000038880898500792682170867919921875">
                <ele>1923.831013760009909674408845603466033935546875</ele>
            </trkpt>
            <trkpt lat="47.2549810000000007903508958406746387481689453125" lon="10.15526200000000045520209823735058307647705078125">
                <ele>1923.908946559957939825835637748241424560546875</ele>
            </trkpt>
            <trkpt lat="47.254998999999997977283783257007598876953125" lon="10.1553769999999996542783264885656535625457763671875">
                <ele>1922.651143040116267002304084599018096923828125</ele>
            </trkpt>
            <trkpt lat="47.25495000000000089812601800076663494110107421875" lon="10.1554920000000006297113941400311887264251708984375">
                <ele>1925.18259199994963637436740100383758544921875</ele>
            </trkpt>
            <trkpt lat="47.2549350000000032423486118204891681671142578125" lon="10.1555710000000001258513293578289449214935302734375">
                <ele>1925.911164799813604986411519348621368408203125</ele>
            </trkpt>
            <trkpt lat="47.2549530000000004292814992368221282958984375" lon="10.1556400000000000005684341886080801486968994140625">
                <ele>1924.735721599977068763109855353832244873046875</ele>
            </trkpt>
            <trkpt lat="47.2549470000000013669705367647111415863037109375" lon="10.1559290000000004283720045350492000579833984375">
                <ele>1925.1297871999222479644231498241424560546875</ele>
            </trkpt>
            <trkpt lat="47.25492899999999707461029174737632274627685546875" lon="10.156057000000000556383383809588849544525146484375">
                <ele>1926.690123200173957229708321392536163330078125</ele>
            </trkpt>
            <trkpt lat="47.2549580000000020163497538305819034576416015625" lon="10.1563569999999998572093318216502666473388671875">
                <ele>1926.2672863998932371032424271106719970703125</ele>
            </trkpt>
            <trkpt lat="47.25501899999999722012944403104484081268310546875" lon="10.1565290000000008063807399594224989414215087890625">
                <ele>1924.067766560116751861642114818096160888671875</ele>
            </trkpt>
            <trkpt lat="47.25508099999999700457919971086084842681884765625" lon="10.1566120000000008616325430921278893947601318359375">
                <ele>1921.93917632012608009972609579563140869140625</ele>
            </trkpt>
            <trkpt lat="47.25519899999999751116774859838187694549560546875" lon="10.1569850000000005962874638498760759830474853515625">
                <ele>1917.546129600095127898384816944599151611328125</ele>
            </trkpt>
            <trkpt lat="47.25525499999999823330654180608689785003662109375" lon="10.1570839999999993352730598417110741138458251953125">
                <ele>1915.514668800065237519447691738605499267578125</ele>
            </trkpt>
            <trkpt lat="47.255347999999997909981175325810909271240234375" lon="10.15717000000000069803718361072242259979248046875">
                <ele>1912.21098240007768254145048558712005615234375</ele>
            </trkpt>
            <trkpt lat="47.2554310000000015179466572590172290802001953125" lon="10.15777800000000041791281546466052532196044921875">
                <ele>1910.018399999949224365991540253162384033203125</ele>
            </trkpt>
            <trkpt lat="47.25548400000000270892996923066675662994384765625" lon="10.1580060000000003128661774098873138427734375">
                <ele>1908.237599999909207326709292829036712646484375</ele>
            </trkpt>
            <trkpt lat="47.255550999999996975020621903240680694580078125" lon="10.1581449999999993138999343500472605228424072265625">
                <ele>1905.986400000101866680779494345188140869140625</ele>
            </trkpt>
            <trkpt lat="47.25560500000000274667399935424327850341796875" lon="10.158179000000000513637132826261222362518310546875">
                <ele>1904.171999999907939127297140657901763916015625</ele>
            </trkpt>
            <trkpt lat="47.25562000000000040245140553452074527740478515625" lon="10.1582480000000003883542376570403575897216796875">
                <ele>1903.667999999986705006449483335018157958984375</ele>
            </trkpt>
            <trkpt lat="47.2557029999999969049895298667252063751220703125" lon="10.158319999999999794226823723874986171722412109375">
                <ele>1900.879200000104219725471921265125274658203125</ele>
            </trkpt>
            <trkpt lat="47.25569899999999989859134075231850147247314453125" lon="10.1583880000000004173443812760524451732635498046875">
                <ele>1900.46765055999958349275402724742889404296875</ele>
            </trkpt>
            <trkpt lat="47.2557479999999969777491060085594654083251953125" lon="10.1584979999999998057091943337582051753997802734375">
                <ele>1897.745931520102431022678501904010772705078125</ele>
            </trkpt>
            <trkpt lat="47.2557929999999970505086821503937244415283203125" lon="10.158505999999999147576090763323009014129638671875">
                <ele>1896.177543040106456828652881085872650146484375</ele>
            </trkpt>
            <trkpt lat="47.25581199999999881811163504607975482940673828125" lon="10.1585979999999995726511770044453442096710205078125">
                <ele>1894.65973888004327818634919822216033935546875</ele>
            </trkpt>
            <trkpt lat="47.25587399999999860256139072589576244354248046875" lon="10.1586979999999993395931596751324832439422607421875">
                <ele>1891.266839040066770394332706928253173828125</ele>
            </trkpt>
            <trkpt lat="47.25608600000000336649463861249387264251708984375" lon="10.158488999999999435885911225341260433197021484375">
                <ele>1883.633902079853442046442069113254547119140625</ele>
            </trkpt>
            <trkpt lat="47.25610499999999802867023390717804431915283203125" lon="10.1588720000000005683205017703585326671600341796875">
                <ele>1880.300611200077355533721856772899627685546875</ele>
            </trkpt>
            <trkpt lat="47.25607699999999766760083730332553386688232421875" lon="10.1588919999999998111661625443957746028900146484375">
                <ele>1881.301399680096437805332243442535400390625</ele>
            </trkpt>
            <trkpt lat="47.256135000000000445652403868734836578369140625" lon="10.159143000000000256477505899965763092041015625">
                <ele>1877.422953599982747618923895061016082763671875</ele>
            </trkpt>
        </trkseg>
    </trk>
</gpx>
