<?xml version="1.0" encoding="UTF-8" standalone="yes"?>
<gpx xmlns="http://www.topografix.com/GPX/1/1" creator="alpenkarte.eu">
    <metadata>
        <name>Jubilaeumsteig-fuerststeig</name>
        <link href="alpenkarte.eu">
            <text>Route von alpenkarte.eu</text>
        </link>
        <bounds minlat="47.74535800000000307363734464161098003387451171875" minlon="16.00712899999999905276126810349524021148681640625" maxlat="47.7488740000000007057678885757923126220703125" maxlon="16.01441700000000167847247212193906307220458984375"/>
    </metadata>
    <trk>
        <name>Jubilaeumsteig-fuerststeig</name>
        <trkseg>
            <trkpt lat="47.74535800000000307363734464161098003387451171875" lon="16.01026399999999938472683425061404705047607421875">
                <ele>537.1327782400547903307597152888774871826171875</ele>
            </trkpt>
            <trkpt lat="47.74549499999999824240148882381618022918701171875" lon="16.0112400000000008049028110690414905548095703125">
                <ele>529.3703839999596993948216550052165985107421875</ele>
            </trkpt>
            <trkpt lat="47.74553300000000177760739461518824100494384765625" lon="16.01189099999999854162524570710957050323486328125">
                <ele>527.050281920035786242806352674961090087890625</ele>
            </trkpt>
            <trkpt lat="47.74561700000000286081558442674577236175537109375" lon="16.0125799999999998135535861365497112274169921875">
                <ele>528.7354784000732479398720897734165191650390625</ele>
            </trkpt>
            <trkpt lat="47.745575999999999794454197399318218231201171875" lon="16.012778999999998319481164799071848392486572265625">
                <ele>526.9074137600015319549129344522953033447265625</ele>
            </trkpt>
            <trkpt lat="47.745575999999999794454197399318218231201171875" lon="16.012778999999998319481164799071848392486572265625">
                <ele>526.9074137600015319549129344522953033447265625</ele>
            </trkpt>
            <trkpt lat="47.74561700000000286081558442674577236175537109375" lon="16.0125799999999998135535861365497112274169921875">
                <ele>528.7354784000732479398720897734165191650390625</ele>
            </trkpt>
            <trkpt lat="47.7456770000000005893525667488574981689453125" lon="16.01290399999999891633706283755600452423095703125">
                <ele>529.0150515200194831777480430901050567626953125</ele>
            </trkpt>
            <trkpt lat="47.74596900000000232466845773160457611083984375" lon="16.01302700000000100999386631883680820465087890625">
                <ele>537.30726416007701118360273540019989013671875</ele>
            </trkpt>
            <trkpt lat="47.7461210000000022546373656950891017913818359375" lon="16.0130419999999986657712724991142749786376953125">
                <ele>542.542754240080967065296135842800140380859375</ele>
            </trkpt>
            <trkpt lat="47.74691800000000085901774582453072071075439453125" lon="16.013362999999998237399267964065074920654296875">
                <ele>575.6597891200663070776499807834625244140625</ele>
            </trkpt>
            <trkpt lat="47.7469830000000001746229827404022216796875" lon="16.013428999999998580960891558788716793060302734375">
                <ele>578.6716657600236430880613625049591064453125</ele>
            </trkpt>
            <trkpt lat="47.7471919999999983019733917899429798126220703125" lon="16.013360999999999734200173406861722469329833984375">
                <ele>591.4308121599036667248583398759365081787109375</ele>
            </trkpt>
            <trkpt lat="47.74729099999999704095898778177797794342041015625" lon="16.01346099999999950114215607754886150360107421875">
                <ele>595.8916676798354501443100161850452423095703125</ele>
            </trkpt>
            <trkpt lat="47.7473600000000004683897714130580425262451171875" lon="16.01348600000000033105607144534587860107421875">
                <ele>599.5131328000205712669412605464458465576171875</ele>
            </trkpt>
            <trkpt lat="47.74745800000000173213265952654182910919189453125" lon="16.013459999999998473185769398696720600128173828125">
                <ele>605.43178240011684465571306645870208740234375</ele>
            </trkpt>
            <trkpt lat="47.7475170000000019854269339703023433685302734375" lon="16.01352299999999928559191175736486911773681640625">
                <ele>608.18058736014381793211214244365692138671875</ele>
            </trkpt>
            <trkpt lat="47.7475840000000033569449442438781261444091796875" lon="16.013656999999998475914253504015505313873291015625">
                <ele>611.2247564802543138284818269312381744384765625</ele>
            </trkpt>
            <trkpt lat="47.7475969999999989568095770664513111114501953125" lon="16.0136380000000002610249794088304042816162109375">
                <ele>612.3798025599188576961751095950603485107421875</ele>
            </trkpt>
            <trkpt lat="47.74767299999999892179403104819357395172119140625" lon="16.013653000000001469516064389608800411224365234375">
                <ele>617.622718239903178982785902917385101318359375</ele>
            </trkpt>
            <trkpt lat="47.7476970000000022764652385376393795013427734375" lon="16.01352299999999928559191175736486911773681640625">
                <ele>620.7190417601624403687310405075550079345703125</ele>
            </trkpt>
            <trkpt lat="47.7477420000000023492248146794736385345458984375" lon="16.01348600000000033105607144534587860107421875">
                <ele>624.226011520155452672042883932590484619140625</ele>
            </trkpt>
            <trkpt lat="47.7477760000000017726051737554371356964111328125" lon="16.013397999999998688736013718880712985992431640625">
                <ele>627.4249100801295071505592204630374908447265625</ele>
            </trkpt>
            <trkpt lat="47.74781699999999773353920318186283111572265625" lon="16.013394000000001682337824604474008083343505859375">
                <ele>630.250838079826962712104432284832000732421875</ele>
            </trkpt>
            <trkpt lat="47.747872999999998455677996389567852020263671875" lon="16.013470999999999122564986464567482471466064453125">
                <ele>633.4138916798971195021294988691806793212890625</ele>
            </trkpt>
            <trkpt lat="47.7478899999999981673681759275496006011962890625" lon="16.013594000000001216221789945848286151885986328125">
                <ele>633.58471359985696835792623460292816162109375</ele>
            </trkpt>
            <trkpt lat="47.74786499999999733745426055975258350372314453125" lon="16.013760999999998801968104089610278606414794921875">
                <ele>630.4058343998125337748206220567226409912109375</ele>
            </trkpt>
            <trkpt lat="47.74788099999999957390173221938312053680419921875" lon="16.0137959999999992533048498444259166717529296875">
                <ele>631.2805369599710729744401760399341583251953125</ele>
            </trkpt>
            <trkpt lat="47.747985999999997375198290683329105377197265625" lon="16.01377000000000094814822659827768802642822265625">
                <ele>639.14557119979826893541030585765838623046875</ele>
            </trkpt>
            <trkpt lat="47.74799200000000354293661075644195079803466796875" lon="16.013816999999999524106897297315299510955810546875">
                <ele>639.2620134402595795108936727046966552734375</ele>
            </trkpt>
            <trkpt lat="47.74806000000000238969732890836894512176513671875" lon="16.01384300000000138197719934396445751190185546875">
                <ele>644.103356800164192463853396475315093994140625</ele>
            </trkpt>
            <trkpt lat="47.74807700000000210138750844635069370269775390625" lon="16.0138740000000012742020771838724613189697265625">
                <ele>645.180662080144657011260278522968292236328125</ele>
            </trkpt>
            <trkpt lat="47.748075999999997520717442966997623443603515625" lon="16.01392200000000087811713456176221370697021484375">
                <ele>644.8311731198053848856943659484386444091796875</ele>
            </trkpt>
            <trkpt lat="47.74813499999999777401171741075813770294189453125" lon="16.01402399999999914825821178965270519256591796875">
                <ele>648.7391103998305652567069046199321746826171875</ele>
            </trkpt>
            <trkpt lat="47.74816700000000224690666073001921176910400390625" lon="16.01404000000000138470568344928324222564697265625">
                <ele>651.10305280016109463758766651153564453125</ele>
            </trkpt>
            <trkpt lat="47.74818900000000354566509486176073551177978515625" lon="16.014112999999998265820977394469082355499267578125">
                <ele>652.4711867202773873941623605787754058837890625</ele>
            </trkpt>
            <trkpt lat="47.748244999999997162376530468463897705078125" lon="16.0141449999999991860022419132292270660400390625">
                <ele>656.6868039997781352212768979370594024658203125</ele>
            </trkpt>
            <trkpt lat="47.74838600000000354839357896707952022552490234375" lon="16.014330000000001064108801074326038360595703125">
                <ele>662.4202080001631429695407859981060028076171875</ele>
            </trkpt>
            <trkpt lat="47.74842000000000297177393804304301738739013671875" lon="16.01441700000000167847247212193906307220458984375">
                <ele>662.3286240001247051623067818582057952880859375</ele>
            </trkpt>
            <trkpt lat="47.7484960000000029367583920247852802276611328125" lon="16.01440099999999944202500046230852603912353515625">
                <ele>666.8977536001702901558019220829010009765625</ele>
            </trkpt>
            <trkpt lat="47.74848399999999770670910947956144809722900390625" lon="16.014374000000000108911990537308156490325927734375">
                <ele>666.792345599867985583841800689697265625</ele>
            </trkpt>
            <trkpt lat="47.74848399999999770670910947956144809722900390625" lon="16.014374000000000108911990537308156490325927734375">
                <ele>666.792345599867985583841800689697265625</ele>
            </trkpt>
            <trkpt lat="47.7483620000000001937223714776337146759033203125" lon="16.014084000000000429508872912265360355377197265625">
                <ele>665.150024960005112006911076605319976806640625</ele>
            </trkpt>
            <trkpt lat="47.74843299999999857163857086561620235443115234375" lon="16.013490999999998365410647238604724407196044921875">
                <ele>670.3387433599258429239853285253047943115234375</ele>
            </trkpt>
            <trkpt lat="47.74849499999999835608832654543220996856689453125" lon="16.013192000000000092541085905395448207855224609375">
                <ele>674.6764095999075152576551772654056549072265625</ele>
            </trkpt>
            <trkpt lat="47.74861800000000044974513002671301364898681640625" lon="16.01280200000000064619598560966551303863525390625">
                <ele>683.3144166400176118258968926966190338134765625</ele>
            </trkpt>
            <trkpt lat="47.7487560000000001991793396882712841033935546875" lon="16.012156999999998419070834643207490444183349609375">
                <ele>692.636836480006195415626280009746551513671875</ele>
            </trkpt>
            <trkpt lat="47.7487789999999989731804816983640193939208984375" lon="16.0119949999999988676790962927043437957763671875">
                <ele>693.84631119993673564749769866466522216796875</ele>
            </trkpt>
            <trkpt lat="47.748817000000002508386387489736080169677734375" lon="16.011876999999998361090547405183315277099609375">
                <ele>695.9252929601369714873726479709148406982421875</ele>
            </trkpt>
            <trkpt lat="47.7488740000000007057678885757923126220703125" lon="16.011531000000001512262315372936427593231201171875">
                <ele>698.8967014400362813830724917352199554443359375</ele>
            </trkpt>
            <trkpt lat="47.74874100000000254340193350799381732940673828125" lon="16.01099599999999867350197746418416500091552734375">
                <ele>691.527167360129851658712141215801239013671875</ele>
            </trkpt>
            <trkpt lat="47.748659000000003516106517054140567779541015625" lon="16.010574999999999334931999328546226024627685546875">
                <ele>687.803252000177735681063495576381683349609375</ele>
            </trkpt>
            <trkpt lat="47.7485309999999998353814589790999889373779296875" lon="16.01002799999999837154973647557199001312255859375">
                <ele>682.4031699199914555720170028507709503173828125</ele>
            </trkpt>
            <trkpt lat="47.74851699999999965484676067717373371124267578125" lon="16.00935700000000139198164106346666812896728515625">
                <ele>683.2212967999777220029500313103199005126953125</ele>
            </trkpt>
            <trkpt lat="47.748468000000002575688995420932769775390625" lon="16.008917000000000285808710032142698764801025390625">
                <ele>680.734753920109369573765434324741363525390625</ele>
            </trkpt>
            <trkpt lat="47.74834700000000253794496529735624790191650390625" lon="16.008632999999999668716554879210889339447021484375">
                <ele>674.79449232010301784612238407135009765625</ele>
            </trkpt>
            <trkpt lat="47.748322000000001708031049929559230804443359375" lon="16.008444999999998259454514482058584690093994140625">
                <ele>673.03808800010256163659505546092987060546875</ele>
            </trkpt>
            <trkpt lat="47.74834899999999748843038105405867099761962890625" lon="16.008058999999999372221282101236283779144287109375">
                <ele>674.4065103999054144878755323588848114013671875</ele>
            </trkpt>
            <trkpt lat="47.7484400000000022146195988170802593231201171875" lon="16.0078850000000016962076188065111637115478515625">
                <ele>677.70136000007414622814394533634185791015625</ele>
            </trkpt>
            <trkpt lat="47.7485759999999999081410351209342479705810546875" lon="16.007684000000001134367266786284744739532470703125">
                <ele>681.9109695999974292135448195040225982666015625</ele>
            </trkpt>
            <trkpt lat="47.7487569999999976744220475666224956512451171875" lon="16.007214000000001163925844593904912471771240234375">
                <ele>689.0636396799351359732099808752536773681640625</ele>
            </trkpt>
            <trkpt lat="47.7487670000000008485585567541420459747314453125" lon="16.00712899999999905276126810349524021148681640625">
                <ele>689.9788508800241970675415359437465667724609375</ele>
            </trkpt>
            <trkpt lat="47.74872400000000283171175397001206874847412109375" lon="16.00718200000000024374458007514476776123046875">
                <ele>688.5890828800596636938280425965785980224609375</ele>
            </trkpt>
            <trkpt lat="47.74869600000000247064235736615955829620361328125" lon="16.007186999999998278099155868403613567352294921875">
                <ele>687.9147443200703264665207825601100921630859375</ele>
            </trkpt>
            <trkpt lat="47.74869600000000247064235736615955829620361328125" lon="16.007186999999998278099155868403613567352294921875">
                <ele>687.9147443200703264665207825601100921630859375</ele>
            </trkpt>
            <trkpt lat="47.74856100000000225236362894065678119659423828125" lon="16.007211000000001632770363357849419116973876953125">
                <ele>684.585559360030174502753652632236480712890625</ele>
            </trkpt>
            <trkpt lat="47.7484290000000015652403817512094974517822265625" lon="16.007366000000001093894752557389438152313232421875">
                <ele>679.2479622400227299294783733785152435302734375</ele>
            </trkpt>
            <trkpt lat="47.74811299999999647525328327901661396026611328125" lon="16.00753900000000129466570797376334667205810546875">
                <ele>660.6920260797745640957145951688289642333984375</ele>
            </trkpt>
            <trkpt lat="47.74802199999999885449142311699688434600830078125" lon="16.0075649999999995998223312199115753173828125">
                <ele>654.965659199925767097738571465015411376953125</ele>
            </trkpt>
            <trkpt lat="47.74793799999999777128323330543935298919677734375" lon="16.007553000000001475200406275689601898193359375">
                <ele>649.7374281598548577676410786807537078857421875</ele>
            </trkpt>
            <trkpt lat="47.7478339999999974452293827198445796966552734375" lon="16.007605999999999113470039446838200092315673828125">
                <ele>643.1381817598386305689928121864795684814453125</ele>
            </trkpt>
            <trkpt lat="47.7476989999999972269506542943418025970458984375" lon="16.0078350000000000363797880709171295166015625">
                <ele>634.20959759982224568375386297702789306640625</ele>
            </trkpt>
            <trkpt lat="47.74755499999999841520548216067254543304443359375" lon="16.007948999999999983856469043530523777008056640625">
                <ele>624.8899607998968122046790085732936859130859375</ele>
            </trkpt>
            <trkpt lat="47.747512999999997873601387254893779754638671875" lon="16.008044000000001716443875920958817005157470703125">
                <ele>622.0157836798581456605461426079273223876953125</ele>
            </trkpt>
            <trkpt lat="47.74744100000000202044247998856008052825927734375" lon="16.007988999999998469547790591605007648468017578125">
                <ele>618.4159819201025811707950197160243988037109375</ele>
            </trkpt>
            <trkpt lat="47.74737300000000317368176183663308620452880859375" lon="16.008134999999999337205736082978546619415283203125">
                <ele>614.5242984001619106493308208882808685302734375</ele>
            </trkpt>
            <trkpt lat="47.74731799999999992678567650727927684783935546875" lon="16.00772500000000064801497501321136951446533203125">
                <ele>613.466423999992230164934881031513214111328125</ele>
            </trkpt>
            <trkpt lat="47.74722799999999978126652422361075878143310546875" lon="16.007808000000000703266778145916759967803955078125">
                <ele>608.839537919984422842389903962612152099609375</ele>
            </trkpt>
            <trkpt lat="47.74718899999999877081791055388748645782470703125" lon="16.0078969999999998208295437507331371307373046875">
                <ele>606.4942526399398730063694529235363006591796875</ele>
            </trkpt>
            <trkpt lat="47.74714999999999776036929688416421413421630859375" lon="16.0079190000000011195879778824746608734130859375">
                <ele>604.476167999882818548940122127532958984375</ele>
            </trkpt>
            <trkpt lat="47.7470349999999967849362292326986789703369140625" lon="16.00808599999999870533429202623665332794189453125">
                <ele>597.7009007998457263965974561870098114013671875</ele>
            </trkpt>
            <trkpt lat="47.7470339999999993096935213543474674224853515625" lon="16.008717000000000751924744690768420696258544921875">
                <ele>594.2565443199581523003871552646160125732421875</ele>
            </trkpt>
            <trkpt lat="47.7470110000000005356923793442547321319580078125" lon="16.009184000000001191210685647092759609222412109375">
                <ele>591.0487891200240255784592591226100921630859375</ele>
            </trkpt>
            <trkpt lat="47.7469779999999985875547281466424465179443359375" lon="16.00929500000000160753188538365066051483154296875">
                <ele>588.9650687999170486364164389669895172119140625</ele>
            </trkpt>
            <trkpt lat="47.7467079999999981509972712956368923187255859375" lon="16.0096300000000013596945791505277156829833984375">
                <ele>573.119155199891110896714963018894195556640625</ele>
            </trkpt>
            <trkpt lat="47.7465279999999978599589667282998561859130859375" lon="16.00976800000000110912878881208598613739013671875">
                <ele>566.3690227199350601949845440685749053955078125</ele>
            </trkpt>
            <trkpt lat="47.74650900000000319778337143361568450927734375" lon="16.009857000000000226691554416902363300323486328125">
                <ele>565.565799840089084682404063642024993896484375</ele>
            </trkpt>
            <trkpt lat="47.74627799999999666624717065133154392242431640625" lon="16.0098100000000016507328837178647518157958984375">
                <ele>559.137782399901652752305381000041961669921875</ele>
            </trkpt>
            <trkpt lat="47.74610500000000001818989403545856475830078125" lon="16.00985299999999966757968650199472904205322265625">
                <ele>554.17051920000039899605326354503631591796875</ele>
            </trkpt>
            <trkpt lat="47.74584300000000069985617301426827907562255859375" lon="16.009872000000001435182639397680759429931640625">
                <ele>546.77214528001923099509440362453460693359375</ele>
            </trkpt>
            <trkpt lat="47.74577000000000026602720026858150959014892578125" lon="16.009907999999999361762093030847609043121337890625">
                <ele>545.86585600000353224459104239940643310546875</ele>
            </trkpt>
            <trkpt lat="47.74563599999999752299117972142994403839111328125" lon="16.01006699999999938199835014529526233673095703125">
                <ele>543.416890239974918586085550487041473388671875</ele>
            </trkpt>
            <trkpt lat="47.745530000000002246451913379132747650146484375" lon="16.010121999999999076180756674148142337799072265625">
                <ele>541.40888320004114575567655265331268310546875</ele>
            </trkpt>
        </trkseg>
    </trk>
</gpx>
