<?xml version="1.0" encoding="UTF-8" standalone="yes"?>
<gpx xmlns="http://www.topografix.com/GPX/1/1" xmlns:gpxtrx="http://www.garmin.com/xmlschemas/GpxExtensions/v3" xmlns:rcxx="http://www.routeconverter.de/xmlschemas/RouteCatalogExtensions/1.0" xmlns:xsi="http://www.w3.org/2001/XMLSchema-instance" xmlns:gpxtpx="http://www.garmin.com/xmlschemas/TrackPointExtension/v1" xmlns:gpxx="http://www.garmin.com/xmlschemas/WaypointExtension/v1" xmlns:nmea="http://trekbuddy.net/2009/01/gpx/nmea" version="1.1" creator="Generated by Christian Pesch's RouteConverter. See http://www.routeconverter.com">
    <metadata>
        <name>2017-04-16 17:27</name>
        <desc></desc>
        <link href="http://www.oruxmaps.com">
            <text>OruxMaps</text>
        </link>
        <time>2017-04-16T15:27:47Z</time>
        <bounds minlat="50.0495768" minlon="11.1076698" maxlat="50.0510684" maxlon="11.1104740"/>
    </metadata>
    <trk>
        <name>2017-04-16 17:27</name>
        <desc>&lt;p&gt;Startzeit: 04/16/2017 17:27&lt;/p&gt;&lt;p&gt;Zielzeit: 04/16/2017 18:03&lt;/p&gt;&lt;p&gt;Strecke: 0,
7 km (00:35)&lt;/p&gt;&lt;p&gt;Bewegungszeit: 00:12&lt;/p&gt;&lt;p&gt;Ø-Geschwindigkeit: 1,
24 km/h&lt;/p&gt;&lt;p&gt;Netto-Geschwindigkeit: 3,
53 km/h&lt;/p&gt;&lt;p&gt;Max. Geschwindigkeit: 6,
77km/h&lt;/p&gt;&lt;p&gt;Minimale Höhe: 537 m&lt;/p&gt;&lt;p&gt;Maximale Höhe: 578 m&lt;/p&gt;&lt;p&gt;Steig-Geschw.: 285,
2 m/h&lt;/p&gt;&lt;p&gt;Sink-Geschw.: -248,
2 m/h&lt;/p&gt;&lt;p&gt;Aufstieg: 31 m&lt;/p&gt;&lt;p&gt;Abstieg: -25 m&lt;/p&gt;&lt;p&gt;Steigzeit: 00:06&lt;/p&gt;&lt;p&gt;Sinkzeit: 00:06&lt;/p&gt;&lt;hr align="center" width="480" style="height: 2px; width: 517px"/&gt;</desc>
        <type>Unbestimmt</type>
        <extensions>
            <om:oruxmapsextensions xmlns:om="http://www.oruxmaps.com/oruxmapsextensions/1/0">
                <om:ext subtype="0" type="TYPE">0</om:ext>
                <om:ext type="DIFFICULTY">0</om:ext>
</om:oruxmapsextensions>
        </extensions>
        <trkseg>
            <trkpt lat="50.0495768" lon="11.1076698">
                <ele>537.4</ele>
                <time>2017-04-16T15:27:55.000Z</time>
                <name>Position 1</name>
            </trkpt>
            <trkpt lat="50.0497551" lon="11.1077108">
                <ele>542.4</ele>
                <time>2017-04-16T15:28:11.000Z</time>
                <name>Position 2</name>
            </trkpt>
            <trkpt lat="50.0499113" lon="11.1078747">
                <ele>544.4</ele>
                <time>2017-04-16T15:31:01.000Z</time>
                <name>Position 3</name>
            </trkpt>
            <trkpt lat="50.0500294" lon="11.1080991">
                <ele>544.4</ele>
                <time>2017-04-16T15:31:15.000Z</time>
                <name>Position 4</name>
            </trkpt>
            <trkpt lat="50.0500616" lon="11.1083842">
                <ele>544.2</ele>
                <time>2017-04-16T15:31:30.000Z</time>
                <name>Position 5</name>
            </trkpt>
            <trkpt lat="50.0501925" lon="11.1086108">
                <ele>549.4</ele>
                <time>2017-04-16T15:31:43.000Z</time>
                <name>Position 6</name>
            </trkpt>
            <trkpt lat="50.0503168" lon="11.1088396">
                <ele>553.2</ele>
                <time>2017-04-16T15:31:56.000Z</time>
                <name>Position 7</name>
            </trkpt>
            <trkpt lat="50.0503566" lon="11.1091167">
                <ele>557.4</ele>
                <time>2017-04-16T15:32:11.000Z</time>
                <name>Position 8</name>
            </trkpt>
            <trkpt lat="50.0504583" lon="11.1093708">
                <ele>560.4</ele>
                <time>2017-04-16T15:32:24.000Z</time>
                <name>Position 9</name>
            </trkpt>
            <trkpt lat="50.0505197" lon="11.109646">
                <ele>559.6</ele>
                <time>2017-04-16T15:32:36.000Z</time>
                <name>Position 10</name>
            </trkpt>
            <trkpt lat="50.050545" lon="11.1099394">
                <ele>559.4</ele>
                <time>2017-04-16T15:32:56.000Z</time>
                <name>Position 11</name>
            </trkpt>
            <trkpt lat="50.0507164" lon="11.1100617">
                <ele>561.2</ele>
                <time>2017-04-16T15:33:13.000Z</time>
                <name>Position 12</name>
            </trkpt>
            <trkpt lat="50.0507002" lon="11.1103446">
                <ele>559.1</ele>
                <time>2017-04-16T15:33:54.000Z</time>
                <name>Position 13</name>
            </trkpt>
            <trkpt lat="50.050772" lon="11.1100859">
                <ele>565.4</ele>
                <time>2017-04-16T15:34:55.000Z</time>
                <name>Position 14</name>
            </trkpt>
            <trkpt lat="50.0508059" lon="11.1098007">
                <ele>567.4</ele>
                <time>2017-04-16T15:35:20.000Z</time>
                <name>Position 15</name>
            </trkpt>
            <trkpt lat="50.0507965" lon="11.1095133">
                <ele>566.7</ele>
                <time>2017-04-16T15:35:36.000Z</time>
                <name>Position 16</name>
            </trkpt>
            <trkpt lat="50.0508755" lon="11.1092604">
                <ele>567.6</ele>
                <time>2017-04-16T15:36:03.000Z</time>
                <name>Position 17</name>
            </trkpt>
            <trkpt lat="50.0507671" lon="11.1090358">
                <ele>565.6</ele>
                <time>2017-04-16T15:37:14.000Z</time>
                <name>Position 18</name>
            </trkpt>
            <trkpt lat="50.0509031" lon="11.1092259">
                <ele>577.2</ele>
                <time>2017-04-16T15:39:37.000Z</time>
                <name>Position 19</name>
            </trkpt>
            <trkpt lat="50.0510684" lon="11.1093574">
                <ele>576.2</ele>
                <time>2017-04-16T15:52:18.000Z</time>
                <name>Position 20</name>
            </trkpt>
            <trkpt lat="50.0509644" lon="11.1095893">
                <ele>578.8</ele>
                <time>2017-04-16T15:58:08.000Z</time>
                <name>Position 21</name>
            </trkpt>
            <trkpt lat="50.0510348" lon="11.1098611">
                <ele>574.3</ele>
                <time>2017-04-16T15:58:29.000Z</time>
                <name>Position 22</name>
            </trkpt>
            <trkpt lat="50.0510214" lon="11.1101536">
                <ele>566.7</ele>
                <time>2017-04-16T15:58:53.000Z</time>
                <name>Position 23</name>
            </trkpt>
            <trkpt lat="50.0509884" lon="11.1104345">
                <ele>567.4</ele>
                <time>2017-04-16T15:59:13.000Z</time>
                <name>Position 24</name>
            </trkpt>
            <trkpt lat="50.0507942" lon="11.11044">
                <ele>566.6</ele>
                <time>2017-04-16T15:59:39.000Z</time>
                <name>Position 25</name>
            </trkpt>
            <trkpt lat="50.0506079" lon="11.110474">
                <ele>565.4</ele>
                <time>2017-04-16T16:01:14.000Z</time>
                <name>Position 26</name>
            </trkpt>
            <trkpt lat="50.0505182" lon="11.110222">
                <ele>564.5</ele>
                <time>2017-04-16T16:01:31.000Z</time>
                <name>Position 27</name>
            </trkpt>
            <trkpt lat="50.0504712" lon="11.1099279">
                <ele>564.4</ele>
                <time>2017-04-16T16:01:45.000Z</time>
                <name>Position 28</name>
            </trkpt>
            <trkpt lat="50.050437" lon="11.1096422">
                <ele>562.5</ele>
                <time>2017-04-16T16:02:00.000Z</time>
                <name>Position 29</name>
            </trkpt>
            <trkpt lat="50.0504218" lon="11.109347">
                <ele>565.6</ele>
                <time>2017-04-16T16:02:14.000Z</time>
                <name>Position 30</name>
            </trkpt>
            <trkpt lat="50.0503671" lon="11.1090752">
                <ele>561.6</ele>
                <time>2017-04-16T16:02:30.000Z</time>
                <name>Position 31</name>
            </trkpt>
            <trkpt lat="50.0502504" lon="11.10885">
                <ele>553.5</ele>
                <time>2017-04-16T16:02:48.000Z</time>
                <name>Position 32</name>
            </trkpt>
            <trkpt lat="50.0501206" lon="11.1086422">
                <ele>549.5</ele>
                <time>2017-04-16T16:02:59.000Z</time>
                <name>Position 33</name>
            </trkpt>
            <trkpt lat="50.0500122" lon="11.1084074">
                <ele>550.5</ele>
                <time>2017-04-16T16:03:10.000Z</time>
                <name>Position 34</name>
            </trkpt>
            <trkpt lat="50.0499416" lon="11.1081412">
                <ele>550.3</ele>
                <time>2017-04-16T16:03:22.000Z</time>
                <name>Position 35</name>
            </trkpt>
            <trkpt lat="50.0498564" lon="11.1078905">
                <ele>546.4</ele>
                <time>2017-04-16T16:03:36.000Z</time>
                <name>Position 36</name>
            </trkpt>
            <trkpt lat="50.049714" lon="11.1077162">
                <ele>543.4</ele>
                <time>2017-04-16T16:03:51.000Z</time>
                <name>Position 37</name>
            </trkpt>
        </trkseg>
    </trk>
</gpx>
