<?xml version="1.0" encoding="UTF-8" standalone="yes"?>
<gpx xmlns:gpxtpx1="http://www.garmin.com/xmlschemas/TrackPointExtension/v1" xmlns="http://www.topografix.com/GPX/1/1" xmlns:trp="http://www.garmin.com/xmlschemas/TripExtensions/v1" xmlns:gpxx="http://www.garmin.com/xmlschemas/GpxExtensions/v3" xmlns:gpxtpx="http://www.garmin.com/xmlschemas/TrackPointExtension/v2" version="1.1" creator="Generated by Christian Pesch's RouteConverter. See http://www.routeconverter.com">
    <metadata>
        <name>2019-08-16 15:03</name>
        <link href="http://www.oruxmaps.com">
            <text>OruxMaps</text>
        </link>
        <time>2019-08-16T13:03:12Z</time>
        <bounds minlat="46.7980283" minlon="8.3711731" maxlat="46.9415711" maxlon="8.4683816"/>
    </metadata>
    <wpt lat="46.7987168" lon="8.4618943">
        <ele>1200.2</ele>
        <time>2019-08-16T13:32:53.000Z</time>
        <name>0000116</name>
        <sym>Waypoint</sym>
        <type>Wegpunkt</type>
        <extensions>
            <om:oruxmapsextensions xmlns:om="http://www.oruxmaps.com/oruxmapsextensions/1/0" xmlns:gpxtpx="http://www.garmin.com/xmlschemas/TrackPointExtension/v1" xmlns:xsi="http://www.w3.org/2001/XMLSchema-instance">
                <om:ext subtype="0" type="ICON">1</om:ext>
</om:oruxmapsextensions>
        </extensions>
    </wpt>
    <trk>
        <name>2019-08-16 15:03</name>
        <desc>&lt;p&gt;Startzeit: 08/16/2019 15:03&lt;br/&gt;Zielzeit: 08/16/2019 18:55&lt;br/&gt;Strecke: 25,
2 km (03:52)&lt;br/&gt;Bewegungszeit: 01:17&lt;br/&gt;Ø-Geschwindigkeit: 6,
5 km/h&lt;br/&gt;Netto-Geschwindigkeit: 19,
4 km/h&lt;br/&gt;Max. Geschwindigkeit: 91,
33 km/h&lt;br/&gt;Minimale Höhe: 478 m&lt;br/&gt;Maximale Höhe: 1844 m&lt;br/&gt;Steig-Geschw.: 358,
3 m/h&lt;br/&gt;Sink-Geschw.: -1172,
2 m/h&lt;br/&gt;Aufstieg: 914 m&lt;br/&gt;Abstieg: -1534 m&lt;br/&gt;Steigzeit: 02:33&lt;br/&gt;Sinkzeit: 01:18&lt;br/&gt;&lt;/p&gt;&lt;hr align="center" width="480" style="height: 2px; width: 517px"/&gt;</desc>
        <type>Berg/ Bergsteigen</type>
        <extensions>
            <om:oruxmapsextensions xmlns:om="http://www.oruxmaps.com/oruxmapsextensions/1/0" xmlns:gpxtpx="http://www.garmin.com/xmlschemas/TrackPointExtension/v1" xmlns:xsi="http://www.w3.org/2001/XMLSchema-instance">
                <om:ext subtype="0" type="TYPE">7</om:ext>
                <om:ext type="DIFFICULTY">0</om:ext>
</om:oruxmapsextensions>
        </extensions>
        <trkseg>
            <trkpt lat="46.8017158" lon="8.4493069">
                <ele>1089.5</ele>
                <time>2019-08-16T13:07:57.000Z</time>
                <name>Position 1</name>
            </trkpt>
            <trkpt lat="46.8017039" lon="8.4495838">
                <ele>1080.3</ele>
                <time>2019-08-16T13:09:53.000Z</time>
                <name>Position 2</name>
            </trkpt>
            <trkpt lat="46.8016453" lon="8.4498417">
                <ele>1082.2</ele>
                <time>2019-08-16T13:10:05.000Z</time>
                <name>Position 3</name>
            </trkpt>
            <trkpt lat="46.801529" lon="8.450072">
                <ele>1083.4</ele>
                <time>2019-08-16T13:10:19.000Z</time>
                <name>Position 4</name>
            </trkpt>
            <trkpt lat="46.8014072" lon="8.4502735">
                <ele>1079.2</ele>
                <time>2019-08-16T13:10:31.000Z</time>
                <name>Position 5</name>
            </trkpt>
            <trkpt lat="46.8012827" lon="8.4504693">
                <ele>1078.3</ele>
                <time>2019-08-16T13:10:43.000Z</time>
                <name>Position 6</name>
            </trkpt>
            <trkpt lat="46.8011488" lon="8.4506513">
                <ele>1081.3</ele>
                <time>2019-08-16T13:10:57.000Z</time>
                <name>Position 7</name>
            </trkpt>
            <trkpt lat="46.8010748" lon="8.4509105">
                <ele>1079.7</ele>
                <time>2019-08-16T13:11:07.000Z</time>
                <name>Position 8</name>
            </trkpt>
            <trkpt lat="46.8009837" lon="8.4511464">
                <ele>1074.0</ele>
                <time>2019-08-16T13:11:17.000Z</time>
                <name>Position 9</name>
            </trkpt>
            <trkpt lat="46.8009259" lon="8.4514329">
                <ele>1073.2</ele>
                <time>2019-08-16T13:11:27.000Z</time>
                <name>Position 10</name>
            </trkpt>
            <trkpt lat="46.8008323" lon="8.4516577">
                <ele>1081.7</ele>
                <time>2019-08-16T13:11:45.000Z</time>
                <name>Position 11</name>
            </trkpt>
            <trkpt lat="46.8007633" lon="8.4519528">
                <ele>1080.0</ele>
                <time>2019-08-16T13:11:57.000Z</time>
                <name>Position 12</name>
            </trkpt>
            <trkpt lat="46.8006754" lon="8.452215">
                <ele>1085.6</ele>
                <time>2019-08-16T13:12:13.000Z</time>
                <name>Position 13</name>
            </trkpt>
            <trkpt lat="46.8005097" lon="8.4523528">
                <ele>1088.3</ele>
                <time>2019-08-16T13:12:29.000Z</time>
                <name>Position 14</name>
            </trkpt>
            <trkpt lat="46.8003302" lon="8.4524209">
                <ele>1090.1</ele>
                <time>2019-08-16T13:12:43.000Z</time>
                <name>Position 15</name>
            </trkpt>
            <trkpt lat="46.8003344" lon="8.4526901">
                <ele>1100.4</ele>
                <time>2019-08-16T13:13:21.000Z</time>
                <name>Position 16</name>
            </trkpt>
            <trkpt lat="46.8003173" lon="8.4529709">
                <ele>1096.5</ele>
                <time>2019-08-16T13:13:33.000Z</time>
                <name>Position 17</name>
            </trkpt>
            <trkpt lat="46.8002818" lon="8.4532473">
                <ele>1094.9</ele>
                <time>2019-08-16T13:13:47.000Z</time>
                <name>Position 18</name>
            </trkpt>
            <trkpt lat="46.800304" lon="8.453523">
                <ele>1096.1</ele>
                <time>2019-08-16T13:14:01.000Z</time>
                <name>Position 19</name>
            </trkpt>
            <trkpt lat="46.8002594" lon="8.4538108">
                <ele>1103.9</ele>
                <time>2019-08-16T13:14:19.000Z</time>
                <name>Position 20</name>
            </trkpt>
            <trkpt lat="46.8002038" lon="8.4540955">
                <ele>1101.7</ele>
                <time>2019-08-16T13:14:35.000Z</time>
                <name>Position 21</name>
            </trkpt>
            <trkpt lat="46.8001322" lon="8.4543777">
                <ele>1101.6</ele>
                <time>2019-08-16T13:14:47.000Z</time>
                <name>Position 22</name>
            </trkpt>
            <trkpt lat="46.8000845" lon="8.454638">
                <ele>1100.5</ele>
                <time>2019-08-16T13:14:57.000Z</time>
                <name>Position 23</name>
            </trkpt>
            <trkpt lat="46.8000329" lon="8.4549171">
                <ele>1096.8</ele>
                <time>2019-08-16T13:15:09.000Z</time>
                <name>Position 24</name>
            </trkpt>
            <trkpt lat="46.7999672" lon="8.4551755">
                <ele>1097.9</ele>
                <time>2019-08-16T13:15:23.000Z</time>
                <name>Position 25</name>
            </trkpt>
            <trkpt lat="46.7998953" lon="8.45543">
                <ele>1102.1</ele>
                <time>2019-08-16T13:15:39.000Z</time>
                <name>Position 26</name>
            </trkpt>
            <trkpt lat="46.7997674" lon="8.4556494">
                <ele>1107.0</ele>
                <time>2019-08-16T13:15:57.000Z</time>
                <name>Position 27</name>
            </trkpt>
            <trkpt lat="46.7996484" lon="8.4558669">
                <ele>1115.8</ele>
                <time>2019-08-16T13:16:27.000Z</time>
                <name>Position 28</name>
            </trkpt>
            <trkpt lat="46.7996511" lon="8.4561609">
                <ele>1107.8</ele>
                <time>2019-08-16T13:16:41.000Z</time>
                <name>Position 29</name>
            </trkpt>
            <trkpt lat="46.7997509" lon="8.456397">
                <ele>1116.8</ele>
                <time>2019-08-16T13:16:55.000Z</time>
                <name>Position 30</name>
            </trkpt>
            <trkpt lat="46.7997388" lon="8.4567063">
                <ele>1126.0</ele>
                <time>2019-08-16T13:17:15.000Z</time>
                <name>Position 31</name>
            </trkpt>
            <trkpt lat="46.7996508" lon="8.4569439">
                <ele>1115.7</ele>
                <time>2019-08-16T13:17:29.000Z</time>
                <name>Position 32</name>
            </trkpt>
            <trkpt lat="46.7996135" lon="8.4572462">
                <ele>1124.2</ele>
                <time>2019-08-16T13:17:43.000Z</time>
                <name>Position 33</name>
            </trkpt>
            <trkpt lat="46.7995807" lon="8.4575437">
                <ele>1117.8</ele>
                <time>2019-08-16T13:17:55.000Z</time>
                <name>Position 34</name>
            </trkpt>
            <trkpt lat="46.7993582" lon="8.4575983">
                <ele>1119.4</ele>
                <time>2019-08-16T13:18:23.000Z</time>
                <name>Position 35</name>
            </trkpt>
            <trkpt lat="46.7991703" lon="8.4577124">
                <ele>1123.8</ele>
                <time>2019-08-16T13:18:35.000Z</time>
                <name>Position 36</name>
            </trkpt>
            <trkpt lat="46.7990129" lon="8.4578629">
                <ele>1130.8</ele>
                <time>2019-08-16T13:18:55.000Z</time>
                <name>Position 37</name>
            </trkpt>
            <trkpt lat="46.7988293" lon="8.4579191">
                <ele>1128.5</ele>
                <time>2019-08-16T13:19:07.000Z</time>
                <name>Position 38</name>
            </trkpt>
            <trkpt lat="46.7986423" lon="8.4579148">
                <ele>1128.3</ele>
                <time>2019-08-16T13:19:29.000Z</time>
                <name>Position 39</name>
            </trkpt>
            <trkpt lat="46.7985245" lon="8.4581234">
                <ele>1129.0</ele>
                <time>2019-08-16T13:19:43.000Z</time>
                <name>Position 40</name>
            </trkpt>
            <trkpt lat="46.7986899" lon="8.4582399">
                <ele>1131.9</ele>
                <time>2019-08-16T13:20:01.000Z</time>
                <name>Position 41</name>
            </trkpt>
            <trkpt lat="46.7987618" lon="8.458519">
                <ele>1131.8</ele>
                <time>2019-08-16T13:20:17.000Z</time>
                <name>Position 42</name>
            </trkpt>
            <trkpt lat="46.7987715" lon="8.4587826">
                <ele>1138.8</ele>
                <time>2019-08-16T13:20:33.000Z</time>
                <name>Position 43</name>
            </trkpt>
            <trkpt lat="46.7987514" lon="8.4590572">
                <ele>1136.7</ele>
                <time>2019-08-16T13:20:49.000Z</time>
                <name>Position 44</name>
            </trkpt>
            <trkpt lat="46.7987216" lon="8.4593189">
                <ele>1132.7</ele>
                <time>2019-08-16T13:20:59.000Z</time>
                <name>Position 45</name>
            </trkpt>
            <trkpt lat="46.7986914" lon="8.4595959">
                <ele>1135.5</ele>
                <time>2019-08-16T13:21:15.000Z</time>
                <name>Position 46</name>
            </trkpt>
            <trkpt lat="46.7985403" lon="8.4597766">
                <ele>1142.1</ele>
                <time>2019-08-16T13:21:51.000Z</time>
                <name>Position 47</name>
            </trkpt>
            <trkpt lat="46.7983855" lon="8.4599204">
                <ele>1146.5</ele>
                <time>2019-08-16T13:22:27.000Z</time>
                <name>Position 48</name>
            </trkpt>
            <trkpt lat="46.7982558" lon="8.4601344">
                <ele>1152.7</ele>
                <time>2019-08-16T13:22:45.000Z</time>
                <name>Position 49</name>
            </trkpt>
            <trkpt lat="46.7981093" lon="8.4603107">
                <ele>1163.5</ele>
                <time>2019-08-16T13:23:15.000Z</time>
                <name>Position 50</name>
            </trkpt>
            <trkpt lat="46.7980557" lon="8.4605619">
                <ele>1158.3</ele>
                <time>2019-08-16T13:23:41.000Z</time>
                <name>Position 51</name>
            </trkpt>
            <trkpt lat="46.7980408" lon="8.460835">
                <ele>1167.0</ele>
                <time>2019-08-16T13:24:25.000Z</time>
                <name>Position 52</name>
            </trkpt>
            <trkpt lat="46.7980283" lon="8.4611286">
                <ele>1162.1</ele>
                <time>2019-08-16T13:24:51.000Z</time>
                <name>Position 53</name>
            </trkpt>
            <trkpt lat="46.7980821" lon="8.461381">
                <ele>1173.4</ele>
                <time>2019-08-16T13:25:29.000Z</time>
                <name>Position 54</name>
            </trkpt>
            <trkpt lat="46.7982189" lon="8.4615542">
                <ele>1178.7</ele>
                <time>2019-08-16T13:26:09.000Z</time>
                <name>Position 55</name>
            </trkpt>
            <trkpt lat="46.798384" lon="8.4617078">
                <ele>1191.2</ele>
                <time>2019-08-16T13:27:01.000Z</time>
                <name>Position 56</name>
            </trkpt>
            <trkpt lat="46.7985226" lon="8.4619314">
                <ele>1195.6</ele>
                <time>2019-08-16T13:27:59.000Z</time>
                <name>Position 57</name>
            </trkpt>
            <trkpt lat="46.7987045" lon="8.4619703">
                <ele>1193.6</ele>
                <time>2019-08-16T13:31:09.000Z</time>
                <name>Position 58</name>
            </trkpt>
            <trkpt lat="46.7987837" lon="8.4622303">
                <ele>1224.3</ele>
                <time>2019-08-16T13:43:49.000Z</time>
                <name>Position 59</name>
            </trkpt>
            <trkpt lat="46.7988247" lon="8.4625073">
                <ele>1240.5</ele>
                <time>2019-08-16T13:46:15.000Z</time>
                <name>Position 60</name>
            </trkpt>
            <trkpt lat="46.7988312" lon="8.4627715">
                <ele>1248.1</ele>
                <time>2019-08-16T13:50:27.000Z</time>
                <name>Position 61</name>
            </trkpt>
            <trkpt lat="46.7988754" lon="8.4630677">
                <ele>1299.9</ele>
                <time>2019-08-16T14:04:08.000Z</time>
                <name>Position 62</name>
            </trkpt>
            <trkpt lat="46.7988697" lon="8.4630399">
                <ele>1354.9</ele>
                <time>2019-08-16T14:13:41.000Z</time>
                <name>Position 63</name>
            </trkpt>
            <trkpt lat="46.7989812" lon="8.4632499">
                <ele>1400.6</ele>
                <time>2019-08-16T14:21:59.000Z</time>
                <name>Position 64</name>
            </trkpt>
            <trkpt lat="46.7989927" lon="8.4635201">
                <ele>1420.1</ele>
                <time>2019-08-16T14:24:25.000Z</time>
                <name>Position 65</name>
            </trkpt>
            <trkpt lat="46.7991753" lon="8.4635699">
                <ele>1470.1</ele>
                <time>2019-08-16T14:31:37.000Z</time>
                <name>Position 66</name>
            </trkpt>
            <trkpt lat="46.7993572" lon="8.4635949">
                <ele>1462.1</ele>
                <time>2019-08-16T14:33:01.000Z</time>
                <name>Position 67</name>
            </trkpt>
            <trkpt lat="46.7993304" lon="8.4638572">
                <ele>1483.1</ele>
                <time>2019-08-16T14:34:33.000Z</time>
                <name>Position 68</name>
            </trkpt>
            <trkpt lat="46.7992401" lon="8.4641001">
                <ele>1496.7</ele>
                <time>2019-08-16T14:36:57.000Z</time>
                <name>Position 69</name>
            </trkpt>
            <trkpt lat="46.7990932" lon="8.4642579">
                <ele>1527.0</ele>
                <time>2019-08-16T14:39:21.000Z</time>
                <name>Position 70</name>
            </trkpt>
            <trkpt lat="46.7990006" lon="8.4644886">
                <ele>1537.5</ele>
                <time>2019-08-16T14:41:03.000Z</time>
                <name>Position 71</name>
            </trkpt>
            <trkpt lat="46.7989793" lon="8.4647604">
                <ele>1566.5</ele>
                <time>2019-08-16T14:47:49.000Z</time>
                <name>Position 72</name>
            </trkpt>
            <trkpt lat="46.7991587" lon="8.4647831">
                <ele>1603.1</ele>
                <time>2019-08-16T14:55:11.000Z</time>
                <name>Position 73</name>
            </trkpt>
            <trkpt lat="46.799343" lon="8.4647901">
                <ele>1628.7</ele>
                <time>2019-08-16T14:58:11.000Z</time>
                <name>Position 74</name>
            </trkpt>
            <trkpt lat="46.7995121" lon="8.4648852">
                <ele>1644.1</ele>
                <time>2019-08-16T15:00:45.000Z</time>
                <name>Position 75</name>
            </trkpt>
            <trkpt lat="46.7996727" lon="8.4647326">
                <ele>1656.6</ele>
                <time>2019-08-16T15:03:13.000Z</time>
                <name>Position 76</name>
            </trkpt>
            <trkpt lat="46.7998469" lon="8.4646594">
                <ele>1688.6</ele>
                <time>2019-08-16T15:16:29.000Z</time>
                <name>Position 77</name>
            </trkpt>
            <trkpt lat="46.8000024" lon="8.4648052">
                <ele>1724.2</ele>
                <time>2019-08-16T15:25:09.000Z</time>
                <name>Position 78</name>
            </trkpt>
            <trkpt lat="46.8001018" lon="8.46503">
                <ele>1753.7</ele>
                <time>2019-08-16T15:27:59.000Z</time>
                <name>Position 79</name>
            </trkpt>
            <trkpt lat="46.8002307" lon="8.4652217">
                <ele>1766.3</ele>
                <time>2019-08-16T15:30:11.000Z</time>
                <name>Position 80</name>
            </trkpt>
            <trkpt lat="46.8002925" lon="8.4654699">
                <ele>1773.8</ele>
                <time>2019-08-16T15:30:55.000Z</time>
                <name>Position 81</name>
            </trkpt>
            <trkpt lat="46.8004168" lon="8.4656646">
                <ele>1785.8</ele>
                <time>2019-08-16T15:31:55.000Z</time>
                <name>Position 82</name>
            </trkpt>
            <trkpt lat="46.8005004" lon="8.4659188">
                <ele>1803.6</ele>
                <time>2019-08-16T15:32:43.000Z</time>
                <name>Position 83</name>
            </trkpt>
            <trkpt lat="46.8005658" lon="8.4661812">
                <ele>1815.8</ele>
                <time>2019-08-16T15:33:17.000Z</time>
                <name>Position 84</name>
            </trkpt>
            <trkpt lat="46.8005772" lon="8.4664662">
                <ele>1817.7</ele>
                <time>2019-08-16T15:33:47.000Z</time>
                <name>Position 85</name>
            </trkpt>
            <trkpt lat="46.8006042" lon="8.4667553">
                <ele>1816.6</ele>
                <time>2019-08-16T15:35:25.000Z</time>
                <name>Position 86</name>
            </trkpt>
            <trkpt lat="46.8005758" lon="8.4670335">
                <ele>1825.4</ele>
                <time>2019-08-16T15:35:55.000Z</time>
                <name>Position 87</name>
            </trkpt>
            <trkpt lat="46.8006019" lon="8.4673031">
                <ele>1830.1</ele>
                <time>2019-08-16T15:36:09.000Z</time>
                <name>Position 88</name>
            </trkpt>
            <trkpt lat="46.8006154" lon="8.4675722">
                <ele>1829.6</ele>
                <time>2019-08-16T15:36:29.000Z</time>
                <name>Position 89</name>
            </trkpt>
            <trkpt lat="46.8007482" lon="8.4673856">
                <ele>1832.5</ele>
                <time>2019-08-16T15:36:59.000Z</time>
                <name>Position 90</name>
            </trkpt>
            <trkpt lat="46.8007937" lon="8.467125">
                <ele>1830.1</ele>
                <time>2019-08-16T15:37:19.000Z</time>
                <name>Position 91</name>
            </trkpt>
            <trkpt lat="46.800883" lon="8.4668839">
                <ele>1832.0</ele>
                <time>2019-08-16T15:37:37.000Z</time>
                <name>Position 92</name>
            </trkpt>
            <trkpt lat="46.800829" lon="8.4671604">
                <ele>1843.9</ele>
                <time>2019-08-16T15:38:41.000Z</time>
                <name>Position 93</name>
            </trkpt>
            <trkpt lat="46.8008822" lon="8.4674327">
                <ele>1841.3</ele>
                <time>2019-08-16T15:38:53.000Z</time>
                <name>Position 94</name>
            </trkpt>
            <trkpt lat="46.8009895" lon="8.4676728">
                <ele>1840.0</ele>
                <time>2019-08-16T15:39:03.000Z</time>
                <name>Position 95</name>
            </trkpt>
            <trkpt lat="46.8011425" lon="8.4678545">
                <ele>1839.0</ele>
                <time>2019-08-16T15:39:13.000Z</time>
                <name>Position 96</name>
            </trkpt>
            <trkpt lat="46.8012347" lon="8.4681208">
                <ele>1837.6</ele>
                <time>2019-08-16T15:39:33.000Z</time>
                <name>Position 97</name>
            </trkpt>
            <trkpt lat="46.8011993" lon="8.4683816">
                <ele>1839.0</ele>
                <time>2019-08-16T15:39:53.000Z</time>
                <name>Position 98</name>
            </trkpt>
            <trkpt lat="46.8012388" lon="8.4681063">
                <ele>1844.2</ele>
                <time>2019-08-16T15:50:39.000Z</time>
                <name>Position 99</name>
            </trkpt>
            <trkpt lat="46.8012514" lon="8.4678366">
                <ele>1842.0</ele>
                <time>2019-08-16T15:50:51.000Z</time>
                <name>Position 100</name>
            </trkpt>
            <trkpt lat="46.8012767" lon="8.4674746">
                <ele>1837.8</ele>
                <time>2019-08-16T15:50:59.000Z</time>
                <name>Position 101</name>
            </trkpt>
            <trkpt lat="46.8013001" lon="8.4671134">
                <ele>1835.9</ele>
                <time>2019-08-16T15:51:05.000Z</time>
                <name>Position 102</name>
            </trkpt>
            <trkpt lat="46.8012901" lon="8.4667263">
                <ele>1828.5</ele>
                <time>2019-08-16T15:51:11.000Z</time>
                <name>Position 103</name>
            </trkpt>
            <trkpt lat="46.8012923" lon="8.4664224">
                <ele>1826.9</ele>
                <time>2019-08-16T15:51:15.000Z</time>
                <name>Position 104</name>
            </trkpt>
            <trkpt lat="46.8012846" lon="8.4660567">
                <ele>1819.0</ele>
                <time>2019-08-16T15:51:21.000Z</time>
                <name>Position 105</name>
            </trkpt>
            <trkpt lat="46.8012917" lon="8.4657011">
                <ele>1815.7</ele>
                <time>2019-08-16T15:51:27.000Z</time>
                <name>Position 106</name>
            </trkpt>
            <trkpt lat="46.8012895" lon="8.4654183">
                <ele>1815.0</ele>
                <time>2019-08-16T15:51:31.000Z</time>
                <name>Position 107</name>
            </trkpt>
            <trkpt lat="46.8013565" lon="8.4651001">
                <ele>1809.2</ele>
                <time>2019-08-16T15:51:37.000Z</time>
                <name>Position 108</name>
            </trkpt>
            <trkpt lat="46.8013301" lon="8.4647996">
                <ele>1806.6</ele>
                <time>2019-08-16T15:51:41.000Z</time>
                <name>Position 109</name>
            </trkpt>
            <trkpt lat="46.8013729" lon="8.4644989">
                <ele>1792.6</ele>
                <time>2019-08-16T15:51:47.000Z</time>
                <name>Position 110</name>
            </trkpt>
            <trkpt lat="46.8013805" lon="8.4641755">
                <ele>1780.5</ele>
                <time>2019-08-16T15:51:53.000Z</time>
                <name>Position 111</name>
            </trkpt>
            <trkpt lat="46.8013802" lon="8.4638047">
                <ele>1777.5</ele>
                <time>2019-08-16T15:51:59.000Z</time>
                <name>Position 112</name>
            </trkpt>
            <trkpt lat="46.8014002" lon="8.4634633">
                <ele>1769.6</ele>
                <time>2019-08-16T15:52:05.000Z</time>
                <name>Position 113</name>
            </trkpt>
            <trkpt lat="46.8014216" lon="8.4631708">
                <ele>1762.0</ele>
                <time>2019-08-16T15:52:11.000Z</time>
                <name>Position 114</name>
            </trkpt>
            <trkpt lat="46.8014386" lon="8.462836">
                <ele>1757.2</ele>
                <time>2019-08-16T15:52:17.000Z</time>
                <name>Position 115</name>
            </trkpt>
            <trkpt lat="46.8014965" lon="8.462532">
                <ele>1750.8</ele>
                <time>2019-08-16T15:52:23.000Z</time>
                <name>Position 116</name>
            </trkpt>
            <trkpt lat="46.8014994" lon="8.462246">
                <ele>1723.9</ele>
                <time>2019-08-16T15:52:29.000Z</time>
                <name>Position 117</name>
            </trkpt>
            <trkpt lat="46.8014882" lon="8.4619463">
                <ele>1694.3</ele>
                <time>2019-08-16T15:52:35.000Z</time>
                <name>Position 118</name>
            </trkpt>
            <trkpt lat="46.8014771" lon="8.4616236">
                <ele>1668.4</ele>
                <time>2019-08-16T15:52:41.000Z</time>
                <name>Position 119</name>
            </trkpt>
            <trkpt lat="46.8014648" lon="8.4613053">
                <ele>1647.7</ele>
                <time>2019-08-16T15:52:47.000Z</time>
                <name>Position 120</name>
            </trkpt>
            <trkpt lat="46.8014669" lon="8.461026">
                <ele>1635.6</ele>
                <time>2019-08-16T15:52:53.000Z</time>
                <name>Position 121</name>
            </trkpt>
            <trkpt lat="46.8014786" lon="8.4607319">
                <ele>1613.8</ele>
                <time>2019-08-16T15:52:59.000Z</time>
                <name>Position 122</name>
            </trkpt>
            <trkpt lat="46.8014902" lon="8.4604422">
                <ele>1590.1</ele>
                <time>2019-08-16T15:53:05.000Z</time>
                <name>Position 123</name>
            </trkpt>
            <trkpt lat="46.8014883" lon="8.4601158">
                <ele>1577.8</ele>
                <time>2019-08-16T15:53:11.000Z</time>
                <name>Position 124</name>
            </trkpt>
            <trkpt lat="46.8014804" lon="8.4598086">
                <ele>1560.9</ele>
                <time>2019-08-16T15:53:17.000Z</time>
                <name>Position 125</name>
            </trkpt>
            <trkpt lat="46.8014966" lon="8.4595313">
                <ele>1541.6</ele>
                <time>2019-08-16T15:53:23.000Z</time>
                <name>Position 126</name>
            </trkpt>
            <trkpt lat="46.8015016" lon="8.459224">
                <ele>1537.7</ele>
                <time>2019-08-16T15:53:29.000Z</time>
                <name>Position 127</name>
            </trkpt>
            <trkpt lat="46.8015277" lon="8.4589092">
                <ele>1517.7</ele>
                <time>2019-08-16T15:53:35.000Z</time>
                <name>Position 128</name>
            </trkpt>
            <trkpt lat="46.8015423" lon="8.4585958">
                <ele>1490.8</ele>
                <time>2019-08-16T15:53:41.000Z</time>
                <name>Position 129</name>
            </trkpt>
            <trkpt lat="46.8015688" lon="8.4582923">
                <ele>1473.4</ele>
                <time>2019-08-16T15:53:47.000Z</time>
                <name>Position 130</name>
            </trkpt>
            <trkpt lat="46.8015963" lon="8.4580051">
                <ele>1459.0</ele>
                <time>2019-08-16T15:53:53.000Z</time>
                <name>Position 131</name>
            </trkpt>
            <trkpt lat="46.8016139" lon="8.4577039">
                <ele>1441.7</ele>
                <time>2019-08-16T15:53:59.000Z</time>
                <name>Position 132</name>
            </trkpt>
            <trkpt lat="46.8016357" lon="8.4573873">
                <ele>1424.9</ele>
                <time>2019-08-16T15:54:05.000Z</time>
                <name>Position 133</name>
            </trkpt>
            <trkpt lat="46.8016464" lon="8.4570629">
                <ele>1409.9</ele>
                <time>2019-08-16T15:54:11.000Z</time>
                <name>Position 134</name>
            </trkpt>
            <trkpt lat="46.8016627" lon="8.4567501">
                <ele>1391.9</ele>
                <time>2019-08-16T15:54:17.000Z</time>
                <name>Position 135</name>
            </trkpt>
            <trkpt lat="46.8016575" lon="8.4564159">
                <ele>1374.2</ele>
                <time>2019-08-16T15:54:23.000Z</time>
                <name>Position 136</name>
            </trkpt>
            <trkpt lat="46.8016537" lon="8.4560766">
                <ele>1357.6</ele>
                <time>2019-08-16T15:54:29.000Z</time>
                <name>Position 137</name>
            </trkpt>
            <trkpt lat="46.8016486" lon="8.455736">
                <ele>1341.9</ele>
                <time>2019-08-16T15:54:35.000Z</time>
                <name>Position 138</name>
            </trkpt>
            <trkpt lat="46.8016559" lon="8.4554119">
                <ele>1327.5</ele>
                <time>2019-08-16T15:54:41.000Z</time>
                <name>Position 139</name>
            </trkpt>
            <trkpt lat="46.8016704" lon="8.4550879">
                <ele>1312.1</ele>
                <time>2019-08-16T15:54:47.000Z</time>
                <name>Position 140</name>
            </trkpt>
            <trkpt lat="46.8016772" lon="8.4548206">
                <ele>1299.9</ele>
                <time>2019-08-16T15:54:52.000Z</time>
                <name>Position 141</name>
            </trkpt>
            <trkpt lat="46.8016873" lon="8.4544977">
                <ele>1285.8</ele>
                <time>2019-08-16T15:54:58.000Z</time>
                <name>Position 142</name>
            </trkpt>
            <trkpt lat="46.8017024" lon="8.4541656">
                <ele>1272.3</ele>
                <time>2019-08-16T15:55:04.000Z</time>
                <name>Position 143</name>
            </trkpt>
            <trkpt lat="46.8017183" lon="8.4538432">
                <ele>1266.0</ele>
                <time>2019-08-16T15:55:10.000Z</time>
                <name>Position 144</name>
            </trkpt>
            <trkpt lat="46.8017328" lon="8.4535281">
                <ele>1246.6</ele>
                <time>2019-08-16T15:55:16.000Z</time>
                <name>Position 145</name>
            </trkpt>
            <trkpt lat="46.801743" lon="8.4532083">
                <ele>1237.6</ele>
                <time>2019-08-16T15:55:22.000Z</time>
                <name>Position 146</name>
            </trkpt>
            <trkpt lat="46.8017574" lon="8.4528805">
                <ele>1219.7</ele>
                <time>2019-08-16T15:55:28.000Z</time>
                <name>Position 147</name>
            </trkpt>
            <trkpt lat="46.801771" lon="8.4525548">
                <ele>1205.4</ele>
                <time>2019-08-16T15:55:34.000Z</time>
                <name>Position 148</name>
            </trkpt>
            <trkpt lat="46.8017757" lon="8.4522123">
                <ele>1193.0</ele>
                <time>2019-08-16T15:55:40.000Z</time>
                <name>Position 149</name>
            </trkpt>
            <trkpt lat="46.8017819" lon="8.4518761">
                <ele>1182.6</ele>
                <time>2019-08-16T15:55:46.000Z</time>
                <name>Position 150</name>
            </trkpt>
            <trkpt lat="46.8017911" lon="8.4515399">
                <ele>1170.1</ele>
                <time>2019-08-16T15:55:52.000Z</time>
                <name>Position 151</name>
            </trkpt>
            <trkpt lat="46.8017876" lon="8.451156">
                <ele>1159.2</ele>
                <time>2019-08-16T15:55:58.000Z</time>
                <name>Position 152</name>
            </trkpt>
            <trkpt lat="46.8018165" lon="8.4508292">
                <ele>1151.8</ele>
                <time>2019-08-16T15:56:04.000Z</time>
                <name>Position 153</name>
            </trkpt>
            <trkpt lat="46.8018593" lon="8.4505254">
                <ele>1145.3</ele>
                <time>2019-08-16T15:56:10.000Z</time>
                <name>Position 154</name>
            </trkpt>
            <trkpt lat="46.801871" lon="8.4502605">
                <ele>1243.8</ele>
                <time>2019-08-16T15:56:16.000Z</time>
                <name>Position 155</name>
            </trkpt>
            <trkpt lat="46.8019073" lon="8.4499494">
                <ele>1219.0</ele>
                <time>2019-08-16T15:56:26.000Z</time>
                <name>Position 156</name>
            </trkpt>
            <trkpt lat="46.8019037" lon="8.4496535">
                <ele>1122.7</ele>
                <time>2019-08-16T15:56:36.000Z</time>
                <name>Position 157</name>
            </trkpt>
            <trkpt lat="46.8018402" lon="8.4494058">
                <ele>1109.0</ele>
                <time>2019-08-16T15:56:52.000Z</time>
                <name>Position 158</name>
            </trkpt>
            <trkpt lat="46.8019624" lon="8.4491981">
                <ele>1084.8</ele>
                <time>2019-08-16T16:00:37.000Z</time>
                <name>Position 159</name>
            </trkpt>
        </trkseg>
    </trk>
</gpx>
