<?xml version="1.0" encoding="UTF-8" standalone="yes"?>
<gpx xmlns:gpxtpx1="http://www.garmin.com/xmlschemas/TrackPointExtension/v1" xmlns="http://www.topografix.com/GPX/1/1" xmlns:trp="http://www.garmin.com/xmlschemas/TripExtensions/v1" xmlns:gpxx="http://www.garmin.com/xmlschemas/GpxExtensions/v3" xmlns:gpxtpx="http://www.garmin.com/xmlschemas/TrackPointExtension/v2" version="1.1" creator="Generated by Christian Pesch's RouteConverter. See http://www.routeconverter.com">
    <metadata>
        <name>2020-10-25 08:39</name>
        <link href="https://www.oruxmaps.com">
            <text>OruxMaps</text>
        </link>
        <time>2020-10-25T07:39:34Z</time>
        <bounds minlat="47.8137256" minlon="16.0483491" maxlat="47.8392093" maxlon="16.0977287"/>
    </metadata>
    <wpt lat="47.837988" lon="16.0621942">
        <ele>706.9</ele>
        <time>2020-10-25T07:58:40.000Z</time>
        <name>Einstieg</name>
        <sym>Waypoint</sym>
        <type>Wegpunkt</type>
        <extensions>
            <om:oruxmapsextensions xmlns:om="http://www.oruxmaps.com/oruxmapsextensions/1/0" xmlns:gpxtpx="http://www.garmin.com/xmlschemas/TrackPointExtension/v1" xmlns:xsi="http://www.w3.org/2001/XMLSchema-instance">
                <om:ext subtype="0" type="ICON">1</om:ext>
</om:oruxmapsextensions>
        </extensions>
    </wpt>
    <trk>
        <name>2020-10-25 08:39</name>
        <desc>&lt;p&gt;Startzeit: 10/25/2020 08:40&lt;br/&gt;Zielzeit: 10/25/2020 11:21&lt;br/&gt;Strecke: 10 km (02:41)&lt;br/&gt;Bewegungszeit: 00:29&lt;br/&gt;Ø-Geschwindigkeit: 3,
72 km/h&lt;br/&gt;Netto-Geschwindigkeit: 20,
63 km/h&lt;br/&gt;Max. Geschwindigkeit: 97,
97 km/h&lt;br/&gt;Minimale Höhe: 352 m&lt;br/&gt;Maximale Höhe: 817 m&lt;br/&gt;Steig-Geschw.: 179,
9 m/h&lt;br/&gt;Sink-Geschw.: -1112,
4 m/h&lt;br/&gt;Aufstieg: 407 m&lt;br/&gt;Abstieg: -464 m&lt;br/&gt;Steigzeit: 02:15&lt;br/&gt;Sinkzeit: 00:25&lt;br/&gt;&lt;/p&gt;&lt;hr align="center" width="480" style="height: 2px; width: 517px"/&gt;</desc>
        <type>Unbestimmt</type>
        <extensions>
            <om:oruxmapsextensions xmlns:om="http://www.oruxmaps.com/oruxmapsextensions/1/0" xmlns:gpxtpx="http://www.garmin.com/xmlschemas/TrackPointExtension/v1" xmlns:xsi="http://www.w3.org/2001/XMLSchema-instance">
                <om:ext subtype="0" type="TYPE">0</om:ext>
                <om:ext type="DIFFICULTY">0</om:ext>
</om:oruxmapsextensions>
        </extensions>
        <trkseg>
            <trkpt lat="47.8358631" lon="16.0629923">
                <ele>585.3</ele>
                <time>2020-10-25T07:43:34.000Z</time>
                <name>Position 1</name>
            </trkpt>
            <trkpt lat="47.835889" lon="16.0628639">
                <ele>586.2</ele>
                <time>2020-10-25T07:43:41.000Z</time>
                <name>Position 2</name>
            </trkpt>
            <trkpt lat="47.8358962" lon="16.0627244">
                <ele>587.5</ele>
                <time>2020-10-25T07:43:47.000Z</time>
                <name>Position 3</name>
            </trkpt>
            <trkpt lat="47.8359292" lon="16.0625914">
                <ele>588.9</ele>
                <time>2020-10-25T07:43:55.000Z</time>
                <name>Position 4</name>
            </trkpt>
            <trkpt lat="47.8359674" lon="16.0624645">
                <ele>590.7</ele>
                <time>2020-10-25T07:44:05.000Z</time>
                <name>Position 5</name>
            </trkpt>
            <trkpt lat="47.835982" lon="16.0623321">
                <ele>593.1</ele>
                <time>2020-10-25T07:44:17.000Z</time>
                <name>Position 6</name>
            </trkpt>
            <trkpt lat="47.8360389" lon="16.0622142">
                <ele>594.3</ele>
                <time>2020-10-25T07:44:23.000Z</time>
                <name>Position 7</name>
            </trkpt>
            <trkpt lat="47.8361192" lon="16.0621467">
                <ele>596.5</ele>
                <time>2020-10-25T07:44:33.000Z</time>
                <name>Position 8</name>
            </trkpt>
            <trkpt lat="47.8361714" lon="16.0620164">
                <ele>600.1</ele>
                <time>2020-10-25T07:44:51.000Z</time>
                <name>Position 9</name>
            </trkpt>
            <trkpt lat="47.8362138" lon="16.0618908">
                <ele>601.6</ele>
                <time>2020-10-25T07:44:59.000Z</time>
                <name>Position 10</name>
            </trkpt>
            <trkpt lat="47.8362482" lon="16.0617657">
                <ele>605.4</ele>
                <time>2020-10-25T07:45:18.000Z</time>
                <name>Position 11</name>
            </trkpt>
            <trkpt lat="47.8362925" lon="16.0616274">
                <ele>609.6</ele>
                <time>2020-10-25T07:45:38.000Z</time>
                <name>Position 12</name>
            </trkpt>
            <trkpt lat="47.8363197" lon="16.0614761">
                <ele>612.9</ele>
                <time>2020-10-25T07:45:56.000Z</time>
                <name>Position 13</name>
            </trkpt>
            <trkpt lat="47.8363836" lon="16.0613724">
                <ele>616.0</ele>
                <time>2020-10-25T07:46:11.000Z</time>
                <name>Position 14</name>
            </trkpt>
            <trkpt lat="47.8364112" lon="16.0612377">
                <ele>618.0</ele>
                <time>2020-10-25T07:46:20.000Z</time>
                <name>Position 15</name>
            </trkpt>
            <trkpt lat="47.8364933" lon="16.0611719">
                <ele>621.0</ele>
                <time>2020-10-25T07:46:34.000Z</time>
                <name>Position 16</name>
            </trkpt>
            <trkpt lat="47.836558" lon="16.0610676">
                <ele>622.8</ele>
                <time>2020-10-25T07:46:42.000Z</time>
                <name>Position 17</name>
            </trkpt>
            <trkpt lat="47.8365702" lon="16.0609337">
                <ele>627.8</ele>
                <time>2020-10-25T07:47:18.000Z</time>
                <name>Position 18</name>
            </trkpt>
            <trkpt lat="47.8365988" lon="16.0608042">
                <ele>630.6</ele>
                <time>2020-10-25T07:47:34.000Z</time>
                <name>Position 19</name>
            </trkpt>
            <trkpt lat="47.8366537" lon="16.0606929">
                <ele>634.4</ele>
                <time>2020-10-25T07:47:51.000Z</time>
                <name>Position 20</name>
            </trkpt>
            <trkpt lat="47.8367464" lon="16.0606625">
                <ele>634.7</ele>
                <time>2020-10-25T07:48:04.000Z</time>
                <name>Position 21</name>
            </trkpt>
            <trkpt lat="47.8368372" lon="16.0607308">
                <ele>636.9</ele>
                <time>2020-10-25T07:48:19.000Z</time>
                <name>Position 22</name>
            </trkpt>
            <trkpt lat="47.8369093" lon="16.0608241">
                <ele>639.7</ele>
                <time>2020-10-25T07:48:37.000Z</time>
                <name>Position 23</name>
            </trkpt>
            <trkpt lat="47.8369522" lon="16.0609431">
                <ele>641.0</ele>
                <time>2020-10-25T07:48:48.000Z</time>
                <name>Position 24</name>
            </trkpt>
            <trkpt lat="47.8370115" lon="16.0610521">
                <ele>643.9</ele>
                <time>2020-10-25T07:49:03.000Z</time>
                <name>Position 25</name>
            </trkpt>
            <trkpt lat="47.8370871" lon="16.0611447">
                <ele>646.4</ele>
                <time>2020-10-25T07:49:18.000Z</time>
                <name>Position 26</name>
            </trkpt>
            <trkpt lat="47.8371107" lon="16.0612763">
                <ele>648.4</ele>
                <time>2020-10-25T07:49:30.000Z</time>
                <name>Position 27</name>
            </trkpt>
            <trkpt lat="47.8371815" lon="16.0613702">
                <ele>651.7</ele>
                <time>2020-10-25T07:49:46.000Z</time>
                <name>Position 28</name>
            </trkpt>
            <trkpt lat="47.837266" lon="16.0614247">
                <ele>655.4</ele>
                <time>2020-10-25T07:50:03.000Z</time>
                <name>Position 29</name>
            </trkpt>
            <trkpt lat="47.837356" lon="16.0613996">
                <ele>659.6</ele>
                <time>2020-10-25T07:50:26.000Z</time>
                <name>Position 30</name>
            </trkpt>
            <trkpt lat="47.8374427" lon="16.0614725">
                <ele>663.5</ele>
                <time>2020-10-25T07:50:56.000Z</time>
                <name>Position 31</name>
            </trkpt>
            <trkpt lat="47.8374471" lon="16.0616186">
                <ele>664.0</ele>
                <time>2020-10-25T07:51:09.000Z</time>
                <name>Position 32</name>
            </trkpt>
            <trkpt lat="47.8374581" lon="16.0617641">
                <ele>662.7</ele>
                <time>2020-10-25T07:51:29.000Z</time>
                <name>Position 33</name>
            </trkpt>
            <trkpt lat="47.8375074" lon="16.0618824">
                <ele>666.3</ele>
                <time>2020-10-25T07:51:44.000Z</time>
                <name>Position 34</name>
            </trkpt>
            <trkpt lat="47.8375416" lon="16.0620098">
                <ele>670.0</ele>
                <time>2020-10-25T07:52:00.000Z</time>
                <name>Position 35</name>
            </trkpt>
            <trkpt lat="47.8376186" lon="16.0620844">
                <ele>673.6</ele>
                <time>2020-10-25T07:52:18.000Z</time>
                <name>Position 36</name>
            </trkpt>
            <trkpt lat="47.8377073" lon="16.0621088">
                <ele>680.9</ele>
                <time>2020-10-25T07:52:49.000Z</time>
                <name>Position 37</name>
            </trkpt>
            <trkpt lat="47.8378" lon="16.0621171">
                <ele>687.8</ele>
                <time>2020-10-25T07:53:43.000Z</time>
                <name>Position 38</name>
            </trkpt>
            <trkpt lat="47.8378946" lon="16.0620961">
                <ele>692.5</ele>
                <time>2020-10-25T07:54:19.000Z</time>
                <name>Position 39</name>
            </trkpt>
            <trkpt lat="47.8379655" lon="16.0621848">
                <ele>696.2</ele>
                <time>2020-10-25T07:54:33.000Z</time>
                <name>Position 40</name>
            </trkpt>
            <trkpt lat="47.8380036" lon="16.0620603">
                <ele>706.8</ele>
                <time>2020-10-25T07:57:38.000Z</time>
                <name>Position 41</name>
            </trkpt>
            <trkpt lat="47.837988" lon="16.0621929">
                <ele>706.7</ele>
                <time>2020-10-25T07:58:40.000Z</time>
                <name>Position 42</name>
            </trkpt>
            <trkpt lat="47.8380772" lon="16.0621648">
                <ele>720.9</ele>
                <time>2020-10-25T08:09:07.000Z</time>
                <name>Position 43</name>
            </trkpt>
            <trkpt lat="47.8381083" lon="16.0620356">
                <ele>733.3</ele>
                <time>2020-10-25T08:11:16.000Z</time>
                <name>Position 44</name>
            </trkpt>
            <trkpt lat="47.8380406" lon="16.0619475">
                <ele>734.7</ele>
                <time>2020-10-25T08:17:40.000Z</time>
                <name>Position 45</name>
            </trkpt>
            <trkpt lat="47.8380982" lon="16.0620515">
                <ele>734.6</ele>
                <time>2020-10-25T08:20:51.000Z</time>
                <name>Position 46</name>
            </trkpt>
            <trkpt lat="47.8381139" lon="16.0619191">
                <ele>739.5</ele>
                <time>2020-10-25T08:34:12.000Z</time>
                <name>Position 47</name>
            </trkpt>
            <trkpt lat="47.8381868" lon="16.0618399">
                <ele>783.7</ele>
                <time>2020-10-25T09:03:49.000Z</time>
                <name>Position 48</name>
            </trkpt>
            <trkpt lat="47.8382762" lon="16.061819">
                <ele>799.1</ele>
                <time>2020-10-25T09:11:17.000Z</time>
                <name>Position 49</name>
            </trkpt>
            <trkpt lat="47.8381905" lon="16.0618608">
                <ele>798.3</ele>
                <time>2020-10-25T09:12:43.000Z</time>
                <name>Position 50</name>
            </trkpt>
            <trkpt lat="47.8382593" lon="16.0617745">
                <ele>800.1</ele>
                <time>2020-10-25T09:17:36.000Z</time>
                <name>Position 51</name>
            </trkpt>
            <trkpt lat="47.8383505" lon="16.0617389">
                <ele>806.8</ele>
                <time>2020-10-25T09:22:13.000Z</time>
                <name>Position 52</name>
            </trkpt>
            <trkpt lat="47.8384256" lon="16.061817">
                <ele>810.3</ele>
                <time>2020-10-25T09:23:36.000Z</time>
                <name>Position 53</name>
            </trkpt>
            <trkpt lat="47.8384337" lon="16.0619593">
                <ele>809.4</ele>
                <time>2020-10-25T09:29:58.000Z</time>
                <name>Position 54</name>
            </trkpt>
            <trkpt lat="47.8385199" lon="16.0618842">
                <ele>808.8</ele>
                <time>2020-10-25T09:47:52.000Z</time>
                <name>Position 55</name>
            </trkpt>
            <trkpt lat="47.8385755" lon="16.0617533">
                <ele>807.9</ele>
                <time>2020-10-25T09:47:58.000Z</time>
                <name>Position 56</name>
            </trkpt>
            <trkpt lat="47.8386476" lon="16.061665">
                <ele>807.6</ele>
                <time>2020-10-25T09:48:03.000Z</time>
                <name>Position 57</name>
            </trkpt>
            <trkpt lat="47.8387069" lon="16.0615526">
                <ele>807.2</ele>
                <time>2020-10-25T09:48:09.000Z</time>
                <name>Position 58</name>
            </trkpt>
            <trkpt lat="47.8387702" lon="16.0614365">
                <ele>805.0</ele>
                <time>2020-10-25T09:48:28.000Z</time>
                <name>Position 59</name>
            </trkpt>
            <trkpt lat="47.8387506" lon="16.061302">
                <ele>801.9</ele>
                <time>2020-10-25T09:48:43.000Z</time>
                <name>Position 60</name>
            </trkpt>
            <trkpt lat="47.8386969" lon="16.0611942">
                <ele>797.1</ele>
                <time>2020-10-25T09:49:07.000Z</time>
                <name>Position 61</name>
            </trkpt>
            <trkpt lat="47.8387058" lon="16.0610468">
                <ele>794.5</ele>
                <time>2020-10-25T09:49:17.000Z</time>
                <name>Position 62</name>
            </trkpt>
            <trkpt lat="47.8386558" lon="16.0609264">
                <ele>792.6</ele>
                <time>2020-10-25T09:49:28.000Z</time>
                <name>Position 63</name>
            </trkpt>
            <trkpt lat="47.838704" lon="16.0608025">
                <ele>790.0</ele>
                <time>2020-10-25T09:49:50.000Z</time>
                <name>Position 64</name>
            </trkpt>
            <trkpt lat="47.8387883" lon="16.0607296">
                <ele>786.3</ele>
                <time>2020-10-25T09:50:06.000Z</time>
                <name>Position 65</name>
            </trkpt>
            <trkpt lat="47.8388589" lon="16.0606456">
                <ele>785.4</ele>
                <time>2020-10-25T09:50:16.000Z</time>
                <name>Position 66</name>
            </trkpt>
            <trkpt lat="47.83894" lon="16.0605871">
                <ele>783.7</ele>
                <time>2020-10-25T09:50:23.000Z</time>
                <name>Position 67</name>
            </trkpt>
            <trkpt lat="47.8390224" lon="16.0605153">
                <ele>781.1</ele>
                <time>2020-10-25T09:50:33.000Z</time>
                <name>Position 68</name>
            </trkpt>
            <trkpt lat="47.8391" lon="16.060444">
                <ele>779.2</ele>
                <time>2020-10-25T09:50:44.000Z</time>
                <name>Position 69</name>
            </trkpt>
            <trkpt lat="47.8391501" lon="16.0603184">
                <ele>772.9</ele>
                <time>2020-10-25T09:51:08.000Z</time>
                <name>Position 70</name>
            </trkpt>
            <trkpt lat="47.8391993" lon="16.060203">
                <ele>771.0</ele>
                <time>2020-10-25T09:51:17.000Z</time>
                <name>Position 71</name>
            </trkpt>
            <trkpt lat="47.8392093" lon="16.0600692">
                <ele>768.8</ele>
                <time>2020-10-25T09:51:26.000Z</time>
                <name>Position 72</name>
            </trkpt>
            <trkpt lat="47.8391602" lon="16.0599437">
                <ele>761.5</ele>
                <time>2020-10-25T09:51:43.000Z</time>
                <name>Position 73</name>
            </trkpt>
            <trkpt lat="47.8391744" lon="16.0598105">
                <ele>758.6</ele>
                <time>2020-10-25T09:51:50.000Z</time>
                <name>Position 74</name>
            </trkpt>
            <trkpt lat="47.8391076" lon="16.0597161">
                <ele>754.6</ele>
                <time>2020-10-25T09:52:05.000Z</time>
                <name>Position 75</name>
            </trkpt>
            <trkpt lat="47.8390189" lon="16.0596891">
                <ele>752.4</ele>
                <time>2020-10-25T09:52:12.000Z</time>
                <name>Position 76</name>
            </trkpt>
            <trkpt lat="47.8389546" lon="16.0595937">
                <ele>750.4</ele>
                <time>2020-10-25T09:52:21.000Z</time>
                <name>Position 77</name>
            </trkpt>
            <trkpt lat="47.8388687" lon="16.0595416">
                <ele>747.1</ele>
                <time>2020-10-25T09:52:37.000Z</time>
                <name>Position 78</name>
            </trkpt>
            <trkpt lat="47.8387788" lon="16.0594712">
                <ele>743.7</ele>
                <time>2020-10-25T09:52:51.000Z</time>
                <name>Position 79</name>
            </trkpt>
            <trkpt lat="47.8387067" lon="16.0593759">
                <ele>740.7</ele>
                <time>2020-10-25T09:53:09.000Z</time>
                <name>Position 80</name>
            </trkpt>
            <trkpt lat="47.8386292" lon="16.0593053">
                <ele>739.8</ele>
                <time>2020-10-25T09:53:13.000Z</time>
                <name>Position 81</name>
            </trkpt>
            <trkpt lat="47.8385338" lon="16.059264">
                <ele>738.8</ele>
                <time>2020-10-25T09:53:18.000Z</time>
                <name>Position 82</name>
            </trkpt>
            <trkpt lat="47.8384293" lon="16.0592522">
                <ele>737.4</ele>
                <time>2020-10-25T09:53:24.000Z</time>
                <name>Position 83</name>
            </trkpt>
            <trkpt lat="47.8383348" lon="16.0592152">
                <ele>735.3</ele>
                <time>2020-10-25T09:53:34.000Z</time>
                <name>Position 84</name>
            </trkpt>
            <trkpt lat="47.8383042" lon="16.0590733">
                <ele>732.6</ele>
                <time>2020-10-25T09:53:46.000Z</time>
                <name>Position 85</name>
            </trkpt>
            <trkpt lat="47.8382478" lon="16.0589589">
                <ele>731.0</ele>
                <time>2020-10-25T09:53:56.000Z</time>
                <name>Position 86</name>
            </trkpt>
            <trkpt lat="47.8381604" lon="16.0589176">
                <ele>729.0</ele>
                <time>2020-10-25T09:54:06.000Z</time>
                <name>Position 87</name>
            </trkpt>
            <trkpt lat="47.8380716" lon="16.0588544">
                <ele>726.8</ele>
                <time>2020-10-25T09:54:14.000Z</time>
                <name>Position 88</name>
            </trkpt>
            <trkpt lat="47.8380169" lon="16.0587464">
                <ele>725.8</ele>
                <time>2020-10-25T09:54:23.000Z</time>
                <name>Position 89</name>
            </trkpt>
            <trkpt lat="47.837923" lon="16.0587342">
                <ele>720.2</ele>
                <time>2020-10-25T09:55:01.000Z</time>
                <name>Position 90</name>
            </trkpt>
            <trkpt lat="47.8378438" lon="16.0588202">
                <ele>717.6</ele>
                <time>2020-10-25T09:55:11.000Z</time>
                <name>Position 91</name>
            </trkpt>
            <trkpt lat="47.8377573" lon="16.0588668">
                <ele>714.8</ele>
                <time>2020-10-25T09:55:21.000Z</time>
                <name>Position 92</name>
            </trkpt>
            <trkpt lat="47.8376731" lon="16.0589222">
                <ele>712.2</ele>
                <time>2020-10-25T09:55:29.000Z</time>
                <name>Position 93</name>
            </trkpt>
            <trkpt lat="47.8376153" lon="16.0590298">
                <ele>709.1</ele>
                <time>2020-10-25T09:55:40.000Z</time>
                <name>Position 94</name>
            </trkpt>
            <trkpt lat="47.8375581" lon="16.0591451">
                <ele>706.0</ele>
                <time>2020-10-25T09:55:51.000Z</time>
                <name>Position 95</name>
            </trkpt>
            <trkpt lat="47.8374979" lon="16.0592452">
                <ele>702.8</ele>
                <time>2020-10-25T09:56:03.000Z</time>
                <name>Position 96</name>
            </trkpt>
            <trkpt lat="47.8374207" lon="16.0593245">
                <ele>700.4</ele>
                <time>2020-10-25T09:56:15.000Z</time>
                <name>Position 97</name>
            </trkpt>
            <trkpt lat="47.8373354" lon="16.0593817">
                <ele>698.4</ele>
                <time>2020-10-25T09:56:26.000Z</time>
                <name>Position 98</name>
            </trkpt>
            <trkpt lat="47.8372418" lon="16.0594012">
                <ele>695.9</ele>
                <time>2020-10-25T09:56:36.000Z</time>
                <name>Position 99</name>
            </trkpt>
            <trkpt lat="47.8371541" lon="16.0594342">
                <ele>694.5</ele>
                <time>2020-10-25T09:56:43.000Z</time>
                <name>Position 100</name>
            </trkpt>
            <trkpt lat="47.8370625" lon="16.0594837">
                <ele>691.4</ele>
                <time>2020-10-25T09:56:52.000Z</time>
                <name>Position 101</name>
            </trkpt>
            <trkpt lat="47.836981" lon="16.0595468">
                <ele>688.6</ele>
                <time>2020-10-25T09:57:01.000Z</time>
                <name>Position 102</name>
            </trkpt>
            <trkpt lat="47.8369059" lon="16.0596421">
                <ele>680.3</ele>
                <time>2020-10-25T09:57:37.000Z</time>
                <name>Position 103</name>
            </trkpt>
            <trkpt lat="47.8368606" lon="16.0597723">
                <ele>674.4</ele>
                <time>2020-10-25T09:57:55.000Z</time>
                <name>Position 104</name>
            </trkpt>
            <trkpt lat="47.8368033" lon="16.0598802">
                <ele>668.6</ele>
                <time>2020-10-25T09:58:13.000Z</time>
                <name>Position 105</name>
            </trkpt>
            <trkpt lat="47.8368424" lon="16.0600016">
                <ele>666.0</ele>
                <time>2020-10-25T09:58:20.000Z</time>
                <name>Position 106</name>
            </trkpt>
            <trkpt lat="47.8368123" lon="16.060136">
                <ele>663.2</ele>
                <time>2020-10-25T09:58:26.000Z</time>
                <name>Position 107</name>
            </trkpt>
            <trkpt lat="47.8367757" lon="16.0602633">
                <ele>662.3</ele>
                <time>2020-10-25T09:58:45.000Z</time>
                <name>Position 108</name>
            </trkpt>
            <trkpt lat="47.8367276" lon="16.0603794">
                <ele>658.0</ele>
                <time>2020-10-25T09:59:05.000Z</time>
                <name>Position 109</name>
            </trkpt>
            <trkpt lat="47.8366977" lon="16.0605186">
                <ele>641.9</ele>
                <time>2020-10-25T10:00:22.000Z</time>
                <name>Position 110</name>
            </trkpt>
            <trkpt lat="47.8367405" lon="16.0606447">
                <ele>637.0</ele>
                <time>2020-10-25T10:00:39.000Z</time>
                <name>Position 111</name>
            </trkpt>
            <trkpt lat="47.8366854" lon="16.0607647">
                <ele>629.8</ele>
                <time>2020-10-25T10:01:01.000Z</time>
                <name>Position 112</name>
            </trkpt>
            <trkpt lat="47.8366223" lon="16.0608892">
                <ele>622.3</ele>
                <time>2020-10-25T10:01:25.000Z</time>
                <name>Position 113</name>
            </trkpt>
            <trkpt lat="47.8365891" lon="16.0610177">
                <ele>619.8</ele>
                <time>2020-10-25T10:01:39.000Z</time>
                <name>Position 114</name>
            </trkpt>
            <trkpt lat="47.8365329" lon="16.0611417">
                <ele>616.8</ele>
                <time>2020-10-25T10:01:57.000Z</time>
                <name>Position 115</name>
            </trkpt>
            <trkpt lat="47.8364562" lon="16.0612302">
                <ele>613.4</ele>
                <time>2020-10-25T10:02:08.000Z</time>
                <name>Position 116</name>
            </trkpt>
            <trkpt lat="47.8363812" lon="16.0613169">
                <ele>610.1</ele>
                <time>2020-10-25T10:02:20.000Z</time>
                <name>Position 117</name>
            </trkpt>
            <trkpt lat="47.8363408" lon="16.0614503">
                <ele>604.4</ele>
                <time>2020-10-25T10:02:38.000Z</time>
                <name>Position 118</name>
            </trkpt>
            <trkpt lat="47.8363303" lon="16.0615893">
                <ele>602.2</ele>
                <time>2020-10-25T10:02:47.000Z</time>
                <name>Position 119</name>
            </trkpt>
            <trkpt lat="47.8363092" lon="16.0617318">
                <ele>599.1</ele>
                <time>2020-10-25T10:02:57.000Z</time>
                <name>Position 120</name>
            </trkpt>
            <trkpt lat="47.836273" lon="16.0618611">
                <ele>596.8</ele>
                <time>2020-10-25T10:03:05.000Z</time>
                <name>Position 121</name>
            </trkpt>
            <trkpt lat="47.8362238" lon="16.0619868">
                <ele>594.0</ele>
                <time>2020-10-25T10:03:15.000Z</time>
                <name>Position 122</name>
            </trkpt>
            <trkpt lat="47.8361635" lon="16.0621116">
                <ele>592.4</ele>
                <time>2020-10-25T10:03:21.000Z</time>
                <name>Position 123</name>
            </trkpt>
            <trkpt lat="47.8360847" lon="16.062197">
                <ele>591.2</ele>
                <time>2020-10-25T10:03:28.000Z</time>
                <name>Position 124</name>
            </trkpt>
            <trkpt lat="47.8360213" lon="16.0623166">
                <ele>588.2</ele>
                <time>2020-10-25T10:03:44.000Z</time>
                <name>Position 125</name>
            </trkpt>
            <trkpt lat="47.8359645" lon="16.0624258">
                <ele>586.6</ele>
                <time>2020-10-25T10:03:53.000Z</time>
                <name>Position 126</name>
            </trkpt>
            <trkpt lat="47.8359259" lon="16.0625506">
                <ele>584.7</ele>
                <time>2020-10-25T10:04:05.000Z</time>
                <name>Position 127</name>
            </trkpt>
            <trkpt lat="47.835935" lon="16.0626874">
                <ele>583.4</ele>
                <time>2020-10-25T10:04:14.000Z</time>
                <name>Position 128</name>
            </trkpt>
            <trkpt lat="47.8359495" lon="16.0628304">
                <ele>582.0</ele>
                <time>2020-10-25T10:04:22.000Z</time>
                <name>Position 129</name>
            </trkpt>
            <trkpt lat="47.8359127" lon="16.0629579">
                <ele>580.4</ele>
                <time>2020-10-25T10:04:33.000Z</time>
                <name>Position 130</name>
            </trkpt>
            <trkpt lat="47.835868" lon="16.0630871">
                <ele>579.1</ele>
                <time>2020-10-25T10:04:41.000Z</time>
                <name>Position 131</name>
            </trkpt>
            <trkpt lat="47.8358642" lon="16.0632217">
                <ele>577.8</ele>
                <time>2020-10-25T10:05:16.000Z</time>
                <name>Position 132</name>
            </trkpt>
        </trkseg>
    </trk>
</gpx>
