<?xml version="1.0" encoding="UTF-8" standalone="yes"?>
<gpx xmlns:gpxtpx1="http://www.garmin.com/xmlschemas/TrackPointExtension/v1" xmlns="http://www.topografix.com/GPX/1/1" xmlns:trp="http://www.garmin.com/xmlschemas/TripExtensions/v1" xmlns:gpxx="http://www.garmin.com/xmlschemas/GpxExtensions/v3" xmlns:gpxtpx="http://www.garmin.com/xmlschemas/TrackPointExtension/v2" version="1.1" creator="RouteConverter 2.27.2">
    <metadata>
        <name>31286_230707014124</name>
        <link href="https://www.gpsies.com/">
            <text>31286_230707014124 on AllTrails</text>
        </link>
        <time>2023-08-11T06:27:26Z</time>
    </metadata>
    <trk>
        <name>31286_230707014124 on AllTrails</name>
        <trkseg>
            <trkpt lat="47.3597188" lon="13.5957952">
                <ele>1737.0</ele>
                <name>Position 1</name>
            </trkpt>
            <trkpt lat="47.359588" lon="13.5952158">
                <ele>1736.0</ele>
                <name>Position 2</name>
            </trkpt>
            <trkpt lat="47.3594281" lon="13.5951085">
                <ele>1737.0</ele>
                <name>Position 3</name>
            </trkpt>
            <trkpt lat="47.3591664" lon="13.59513">
                <ele>1739.0</ele>
                <name>Position 4</name>
            </trkpt>
            <trkpt lat="47.3591228" lon="13.5955377">
                <ele>1735.0</ele>
                <name>Position 5</name>
            </trkpt>
            <trkpt lat="47.3588903" lon="13.5961385">
                <ele>1725.0</ele>
                <name>Position 6</name>
            </trkpt>
            <trkpt lat="47.358585" lon="13.5961814">
                <ele>1725.0</ele>
                <name>Position 7</name>
            </trkpt>
            <trkpt lat="47.3580908" lon="13.5957094">
                <ele>1733.0</ele>
                <name>Position 8</name>
            </trkpt>
            <trkpt lat="47.3577129" lon="13.5952802">
                <ele>1740.0</ele>
                <name>Position 9</name>
            </trkpt>
            <trkpt lat="47.3573495" lon="13.5960312">
                <ele>1747.0</ele>
                <name>Position 10</name>
            </trkpt>
            <trkpt lat="47.3573059" lon="13.5964175">
                <ele>1743.0</ele>
                <name>Position 11</name>
            </trkpt>
            <trkpt lat="47.3568553" lon="13.596396">
                <ele>1749.0</ele>
                <name>Position 12</name>
            </trkpt>
            <trkpt lat="47.356332" lon="13.5958596">
                <ele>1766.0</ele>
                <name>Position 13</name>
            </trkpt>
            <trkpt lat="47.3556633" lon="13.5958596">
                <ele>1759.0</ele>
                <name>Position 14</name>
            </trkpt>
            <trkpt lat="47.3554379" lon="13.5958861">
                <ele>1757.0</ele>
                <name>Position 15</name>
            </trkpt>
            <trkpt lat="47.3551326" lon="13.5956071">
                <ele>1767.0</ele>
                <name>Position 16</name>
            </trkpt>
            <trkpt lat="47.3546093" lon="13.5955213">
                <ele>1771.0</ele>
                <name>Position 17</name>
            </trkpt>
            <trkpt lat="47.354573" lon="13.5953067">
                <ele>1771.0</ele>
                <name>Position 18</name>
            </trkpt>
            <trkpt lat="47.3545148" lon="13.5951994">
                <ele>1762.0</ele>
                <name>Position 19</name>
            </trkpt>
            <trkpt lat="47.3547038" lon="13.5951887">
                <ele>1756.0</ele>
                <name>Position 20</name>
            </trkpt>
            <trkpt lat="47.3548201" lon="13.5952316">
                <ele>1759.0</ele>
                <name>Position 21</name>
            </trkpt>
            <trkpt lat="47.35498" lon="13.5952853">
                <ele>1768.0</ele>
                <name>Position 22</name>
            </trkpt>
            <trkpt lat="47.3551544" lon="13.5953174">
                <ele>1774.0</ele>
                <name>Position 23</name>
            </trkpt>
            <trkpt lat="47.3552998" lon="13.595532">
                <ele>1769.0</ele>
                <name>Position 24</name>
            </trkpt>
            <trkpt lat="47.3553434" lon="13.5956608">
                <ele>1766.0</ele>
                <name>Position 25</name>
            </trkpt>
            <trkpt lat="47.3553943" lon="13.5957681">
                <ele>1759.0</ele>
                <name>Position 26</name>
            </trkpt>
            <trkpt lat="47.3555106" lon="13.5959504">
                <ele>1754.0</ele>
                <name>Position 27</name>
            </trkpt>
            <trkpt lat="47.3563338" lon="13.5959934">
                <ele>1762.0</ele>
                <name>Position 28</name>
            </trkpt>
            <trkpt lat="47.3569153" lon="13.5964869">
                <ele>1745.0</ele>
                <name>Position 29</name>
            </trkpt>
            <trkpt lat="47.3573804" lon="13.5964654">
                <ele>1741.0</ele>
                <name>Position 30</name>
            </trkpt>
            <trkpt lat="47.3574676" lon="13.5961006">
                <ele>1743.0</ele>
                <name>Position 31</name>
            </trkpt>
            <trkpt lat="47.3577729" lon="13.595178">
                <ele>1740.0</ele>
                <name>Position 32</name>
            </trkpt>
            <trkpt lat="47.3577729" lon="13.5945557">
                <ele>1746.0</ele>
                <name>Position 33</name>
            </trkpt>
            <trkpt lat="47.3583689" lon="13.5944699">
                <ele>1741.0</ele>
                <name>Position 34</name>
            </trkpt>
            <trkpt lat="47.3587177" lon="13.5945342">
                <ele>1741.0</ele>
                <name>Position 35</name>
            </trkpt>
            <trkpt lat="47.3589212" lon="13.594663">
                <ele>1741.0</ele>
                <name>Position 36</name>
            </trkpt>
            <trkpt lat="47.3590825" lon="13.5938038">
                <ele>1743.0</ele>
                <name>Position 37</name>
            </trkpt>
            <trkpt lat="47.3591697" lon="13.5930314">
                <ele>1753.0</ele>
                <name>Position 38</name>
            </trkpt>
            <trkpt lat="47.3587918" lon="13.5921301">
                <ele>1768.0</ele>
                <name>Position 39</name>
            </trkpt>
            <trkpt lat="47.3584139" lon="13.5913148">
                <ele>1778.0</ele>
                <name>Position 40</name>
            </trkpt>
            <trkpt lat="47.3579342" lon="13.590671">
                <ele>1798.0</ele>
                <name>Position 41</name>
            </trkpt>
            <trkpt lat="47.3575563" lon="13.5903921">
                <ele>1816.0</ele>
                <name>Position 42</name>
            </trkpt>
            <trkpt lat="47.3574255" lon="13.5902204">
                <ele>1825.0</ele>
                <name>Position 43</name>
            </trkpt>
            <trkpt lat="47.3575127" lon="13.5899629">
                <ele>1833.0</ele>
                <name>Position 44</name>
            </trkpt>
            <trkpt lat="47.3573237" lon="13.5900273">
                <ele>1833.0</ele>
                <name>Position 45</name>
            </trkpt>
            <trkpt lat="47.3570766" lon="13.5896196">
                <ele>1850.0</ele>
                <name>Position 46</name>
            </trkpt>
            <trkpt lat="47.356736" lon="13.5897056">
                <ele>1854.0</ele>
                <name>Position 47</name>
            </trkpt>
            <trkpt lat="47.3562854" lon="13.5893837">
                <ele>1867.0</ele>
                <name>Position 48</name>
            </trkpt>
            <trkpt lat="47.355922" lon="13.5895339">
                <ele>1880.0</ele>
                <name>Position 49</name>
            </trkpt>
            <trkpt lat="47.3554568" lon="13.5899845">
                <ele>1889.0</ele>
                <name>Position 50</name>
            </trkpt>
            <trkpt lat="47.3550207" lon="13.5899631">
                <ele>1899.0</ele>
                <name>Position 51</name>
            </trkpt>
            <trkpt lat="47.3543956" lon="13.5903279">
                <ele>1915.0</ele>
                <name>Position 52</name>
            </trkpt>
            <trkpt lat="47.3540758" lon="13.5902635">
                <ele>1925.0</ele>
                <name>Position 53</name>
            </trkpt>
            <trkpt lat="47.3536397" lon="13.5915939">
                <ele>1947.0</ele>
                <name>Position 54</name>
            </trkpt>
            <trkpt lat="47.3532356" lon="13.5917029">
                <ele>1964.0</ele>
                <name>Position 55</name>
            </trkpt>
            <trkpt lat="47.3530466" lon="13.5920033">
                <ele>1969.0</ele>
                <name>Position 56</name>
            </trkpt>
            <trkpt lat="47.3528867" lon="13.5921106">
                <ele>1977.0</ele>
                <name>Position 57</name>
            </trkpt>
            <trkpt lat="47.3525669" lon="13.592411">
                <ele>1986.0</ele>
                <name>Position 58</name>
            </trkpt>
            <trkpt lat="47.3531047" lon="13.5920676">
                <ele>1967.0</ele>
                <name>Position 59</name>
            </trkpt>
            <trkpt lat="47.3533083" lon="13.5915956">
                <ele>1962.0</ele>
                <name>Position 60</name>
            </trkpt>
            <trkpt lat="47.3537589" lon="13.5916385">
                <ele>1940.0</ele>
                <name>Position 61</name>
            </trkpt>
            <trkpt lat="47.3542241" lon="13.5901365">
                <ele>1918.0</ele>
                <name>Position 62</name>
            </trkpt>
            <trkpt lat="47.3544421" lon="13.5904583">
                <ele>1912.0</ele>
                <name>Position 63</name>
            </trkpt>
            <trkpt lat="47.3550963" lon="13.5898575">
                <ele>1898.0</ele>
                <name>Position 64</name>
            </trkpt>
            <trkpt lat="47.3555615" lon="13.5900292">
                <ele>1884.0</ele>
                <name>Position 65</name>
            </trkpt>
            <trkpt lat="47.3559353" lon="13.589364">
                <ele>1880.0</ele>
                <name>Position 66</name>
            </trkpt>
            <trkpt lat="47.356386" lon="13.5892352">
                <ele>1864.0</ele>
                <name>Position 67</name>
            </trkpt>
            <trkpt lat="47.3568947" lon="13.5897502">
                <ele>1851.0</ele>
                <name>Position 68</name>
            </trkpt>
            <trkpt lat="47.3572145" lon="13.5895571">
                <ele>1848.0</ele>
                <name>Position 69</name>
            </trkpt>
            <trkpt lat="47.3576215" lon="13.5890636">
                <ele>1846.0</ele>
                <name>Position 70</name>
            </trkpt>
            <trkpt lat="47.3580285" lon="13.5890636">
                <ele>1844.0</ele>
                <name>Position 71</name>
            </trkpt>
            <trkpt lat="47.3584937" lon="13.5894498">
                <ele>1845.0</ele>
                <name>Position 72</name>
            </trkpt>
            <trkpt lat="47.3588521" lon="13.5899266">
                <ele>1840.0</ele>
                <name>Position 73</name>
            </trkpt>
            <trkpt lat="47.3597096" lon="13.5908278">
                <ele>1825.0</ele>
                <name>Position 74</name>
            </trkpt>
            <trkpt lat="47.360262" lon="13.5915359">
                <ele>1811.0</ele>
                <name>Position 75</name>
            </trkpt>
            <trkpt lat="47.3610033" lon="13.5920938">
                <ele>1796.0</ele>
                <name>Position 76</name>
            </trkpt>
            <trkpt lat="47.3612358" lon="13.5925444">
                <ele>1784.0</ele>
                <name>Position 77</name>
            </trkpt>
            <trkpt lat="47.361105" lon="13.5927161">
                <ele>1780.0</ele>
                <name>Position 78</name>
            </trkpt>
            <trkpt lat="47.360698" lon="13.5926088">
                <ele>1782.0</ele>
                <name>Position 79</name>
            </trkpt>
            <trkpt lat="47.3601166" lon="13.5926088">
                <ele>1769.0</ele>
                <name>Position 80</name>
            </trkpt>
            <trkpt lat="47.3594771" lon="13.5927161">
                <ele>1759.0</ele>
                <name>Position 81</name>
            </trkpt>
            <trkpt lat="47.3591864" lon="13.5928448">
                <ele>1756.0</ele>
                <name>Position 82</name>
            </trkpt>
            <trkpt lat="47.3592154" lon="13.5938748">
                <ele>1741.0</ele>
                <name>Position 83</name>
            </trkpt>
            <trkpt lat="47.3593753" lon="13.5943039">
                <ele>1738.0</ele>
                <name>Position 84</name>
            </trkpt>
            <trkpt lat="47.3593899" lon="13.594776">
                <ele>1738.0</ele>
                <name>Position 85</name>
            </trkpt>
            <trkpt lat="47.3595643" lon="13.5949477">
                <ele>1735.0</ele>
                <name>Position 86</name>
            </trkpt>
            <trkpt lat="47.3597533" lon="13.5960635">
                <ele>1735.0</ele>
                <name>Position 87</name>
            </trkpt>
        </trkseg>
    </trk>
</gpx>
