<?xml version="1.0" encoding="UTF-8" standalone="yes"?>
<gpx xmlns="http://www.topografix.com/GPX/1/1" creator="RouteConverter 2.27.2" version="1.1">
  <wpt lat="46.7988055" lon="12.7453323">
    <ele>762.1</ele>
    <time>2022-10-23T13:32:16.000Z</time>
    <name>0000283</name>
    <sym>Waypoint</sym>
    <type>Wegpunkt</type>
    <extensions>
      <om:oruxmapsextensions xmlns:om="http://www.oruxmaps.com/oruxmapsextensions/1/0" xmlns:gpxtpx="http://www.garmin.com/xmlschemas/TrackPointExtension/v1" xmlns:xsi="http://www.w3.org/2001/XMLSchema-instance">
        <om:ext subtype="0" type="ICON">1</om:ext>
      </om:oruxmapsextensions>
    </extensions>
  </wpt>
  <trk>
    <name>2022-10-23 08:49 (rev)</name>
    <desc>&lt;p&gt;Startzeit: 08:49 23.10.2022&lt;br/&gt;Zielzeit: 17:36 23.10.2022&lt;br/&gt;Strecke: 109,
3 km (08:47)&lt;br/&gt;Bewegungszeit: 04:11&lt;br/&gt;Ø-Geschwindigkeit: 12,
43 km/h&lt;br/&gt;Netto-Geschwindigkeit: 26,
1 km/h&lt;br/&gt;Max. Geschwindigkeit: 119,
09 km/h&lt;br/&gt;Minimale Höhe: 693 m&lt;br/&gt;Maximale Höhe: 1737 m&lt;br/&gt;Steig-Geschw.: 715,
5 m/h&lt;br/&gt;Sink-Geschw.: -483,
3 m/h&lt;br/&gt;Aufstieg: 2347 m&lt;br/&gt;Abstieg: -2626 m&lt;br/&gt;Steigzeit: 03:16&lt;br/&gt;Sinkzeit: 05:26&lt;br/&gt;&lt;/p&gt;&lt;hr align="center" width="480" style="height: 2px; width: 517px"/&gt;</desc>
    <type>Berg/ Bergsteigen</type>
    <trkseg>
      <trkpt lat="46.8000437" lon="12.7447318">
        <ele>723.6</ele>
        <name>Position 1</name>
      </trkpt>
      <trkpt lat="46.7998909" lon="12.7445592">
        <ele>725.2</ele>
        <name>Position 2</name>
      </trkpt>
      <trkpt lat="46.7997494" lon="12.7443559">
        <ele>725.1</ele>
        <name>Position 3</name>
      </trkpt>
      <trkpt lat="46.7995588" lon="12.7443243">
        <ele>726.0</ele>
        <name>Position 4</name>
      </trkpt>
      <trkpt lat="46.7993631" lon="12.7443132">
        <ele>727.1</ele>
        <name>Position 5</name>
      </trkpt>
      <trkpt lat="46.7991875" lon="12.7443781">
        <ele>729.8</ele>
        <name>Position 6</name>
      </trkpt>
      <trkpt lat="46.7990338" lon="12.7445344">
        <ele>734.3</ele>
        <name>Position 7</name>
      </trkpt>
      <trkpt lat="46.7990022" lon="12.7447981">
        <ele>738.5</ele>
        <name>Position 8</name>
      </trkpt>
      <trkpt lat="46.7991237" lon="12.7449988">
        <ele>739.2</ele>
        <name>Position 9</name>
      </trkpt>
      <trkpt lat="46.7989265" lon="12.7450192">
        <ele>742.9</ele>
        <name>Position 10</name>
      </trkpt>
      <trkpt lat="46.7987364" lon="12.745035">
        <ele>750.0</ele>
        <name>Position 11</name>
      </trkpt>
      <trkpt lat="46.7988409" lon="12.7452657">
        <ele>758.9</ele>
        <name>Position 12</name>
      </trkpt>
      <trkpt lat="46.7988409" lon="12.7452657">
        <ele>758.9</ele>
        <name>Position 13</name>
      </trkpt>
      <trkpt lat="46.7987364" lon="12.745035">
        <ele>750.0</ele>
        <name>Position 14</name>
      </trkpt>
      <trkpt lat="46.7989265" lon="12.7450192">
        <ele>742.9</ele>
        <name>Position 15</name>
      </trkpt>
      <trkpt lat="46.7991237" lon="12.7449988">
        <ele>739.2</ele>
        <name>Position 16</name>
      </trkpt>
      <trkpt lat="46.7990022" lon="12.7447981">
        <ele>738.5</ele>
        <name>Position 17</name>
      </trkpt>
      <trkpt lat="46.7990338" lon="12.7445344">
        <ele>734.3</ele>
        <name>Position 18</name>
      </trkpt>
      <trkpt lat="46.7991875" lon="12.7443781">
        <ele>729.8</ele>
        <name>Position 19</name>
      </trkpt>
      <trkpt lat="46.7993631" lon="12.7443132">
        <ele>727.1</ele>
        <name>Position 20</name>
      </trkpt>
      <trkpt lat="46.7995588" lon="12.7443243">
        <ele>726.0</ele>
        <name>Position 21</name>
      </trkpt>
      <trkpt lat="46.7997494" lon="12.7443559">
        <ele>725.1</ele>
        <name>Position 22</name>
      </trkpt>
      <trkpt lat="46.7998909" lon="12.7445592">
        <ele>725.2</ele>
        <name>Position 23</name>
      </trkpt>
      <trkpt lat="46.8000437" lon="12.7447318">
        <ele>723.6</ele>
        <name>Position 24</name>
      </trkpt>
    </trkseg>
  </trk>
</gpx>