<?xml version="1.0" encoding="UTF-8"?>
<gpx xmlns="http://www.topografix.com/GPX/1/1" xmlns:gpsies="https://www.gpsies.com/GPX/1/0" creator="GPSies https://www.gpsies.com - DQWE" version="1.1" xmlns:xsi="http://www.w3.org/2001/XMLSchema-instance" xsi:schemaLocation="http://www.topografix.com/GPX/1/1 http://www.topografix.com/GPX/1/1/gpx.xsd https://www.gpsies.com/GPX/1/0 https://www.gpsies.com/gpsies.xsd">
  <metadata>
    <name>DQWE</name>
    <author>
      <name>andreas23</name>
      <link href="https://www.gpsies.com/mapUser.do?username=andreas23">
        <text>andreas23 on GPSies.com</text>
        <type>GPSiesUserOnWeb</type>
      </link>
    </author>
    <link href="https://www.gpsies.com/map.do?fileId=oxoiassodozbuujb">
      <text>DQWE on GPSies.com</text>
      <type>trackOnWeb</type>
    </link>
    <time>2019-05-27T11:02:01Z</time>
    <extensions>
      <gpsies:property>round trip</gpsies:property>
      <gpsies:trackLengthMeter>1021.7331774298437</gpsies:trackLengthMeter>
      <gpsies:totalAscentMeter>59.0</gpsies:totalAscentMeter>
      <gpsies:totalDescentMeter>57.0</gpsies:totalDescentMeter>
      <gpsies:minHeightMeter>148.0</gpsies:minHeightMeter>
      <gpsies:maxHeightMeter>210.0</gpsies:maxHeightMeter>
    </extensions>
  </metadata>
  <trk>
    <name>DQWE on GPSies.com</name>
    <link href="https://www.gpsies.com/map.do?fileId=oxoiassodozbuujb">
      <type>trackOnWeb</type>
    </link>
    <link href="https://www.gpsies.com/charts/ox/map/oxoiassodozbuujb_map.png">
      <type>elevationChartUrlMap</type>
    </link>
    <link href="https://www.gpsies.com/charts/ox/mapThumb/oxoiassodozbuujb_mapThumb.png">
      <type>elevationChartUrlMapThumb</type>
    </link>
    <link href="https://www.gpsies.com/charts/ox/tab/oxoiassodozbuujb_tab.png">
      <type>elevationChartUrlTab</type>
    </link>
    <trkseg>
      <trkpt lat="50.94288080" lon="14.13732820">
        <ele>149.00000</ele>
        <time>2010-01-01T00:00:00Z</time>
      </trkpt>
      <trkpt lat="50.94288000" lon="14.13733000">
        <ele>149.00000</ele>
        <time>2010-01-01T00:00:00Z</time>
      </trkpt>
      <trkpt lat="50.94283000" lon="14.13743000">
        <ele>151.00000</ele>
        <time>2010-01-01T00:00:03Z</time>
      </trkpt>
      <trkpt lat="50.94261000" lon="14.13811000">
        <ele>160.00000</ele>
        <time>2010-01-01T00:00:22Z</time>
      </trkpt>
      <trkpt lat="50.94249000" lon="14.13852000">
        <ele>169.00000</ele>
        <time>2010-01-01T00:00:33Z</time>
      </trkpt>
      <trkpt lat="50.94242000" lon="14.13889000">
        <ele>179.00000</ele>
        <time>2010-01-01T00:00:43Z</time>
      </trkpt>
      <trkpt lat="50.94240000" lon="14.13917000">
        <ele>184.00000</ele>
        <time>2010-01-01T00:00:50Z</time>
      </trkpt>
      <trkpt lat="50.94244000" lon="14.13973000">
        <ele>178.00000</ele>
        <time>2010-01-01T00:01:05Z</time>
      </trkpt>
      <trkpt lat="50.94249000" lon="14.13998000">
        <ele>165.00000</ele>
        <time>2010-01-01T00:01:11Z</time>
      </trkpt>
      <trkpt lat="50.94262000" lon="14.14027000">
        <ele>156.00000</ele>
        <time>2010-01-01T00:01:20Z</time>
      </trkpt>
      <trkpt lat="50.94275000" lon="14.14045000">
        <ele>150.00000</ele>
        <time>2010-01-01T00:01:27Z</time>
      </trkpt>
      <trkpt lat="50.94261720" lon="14.14062730">
        <ele>165.00000</ele>
        <time>2010-01-01T00:01:34Z</time>
      </trkpt>
      <trkpt lat="50.94237380" lon="14.14084190">
        <ele>186.00000</ele>
        <time>2010-01-01T00:01:45Z</time>
      </trkpt>
      <trkpt lat="50.94228590" lon="14.14085260">
        <ele>191.00000</ele>
        <time>2010-01-01T00:01:49Z</time>
      </trkpt>
      <trkpt lat="50.94222510" lon="14.14070240">
        <ele>194.00000</ele>
        <time>2010-01-01T00:01:53Z</time>
      </trkpt>
      <trkpt lat="50.94228590" lon="14.14035910">
        <ele>190.00000</ele>
        <time>2010-01-01T00:02:02Z</time>
      </trkpt>
      <trkpt lat="50.94230620" lon="14.14003720">
        <ele>188.00000</ele>
        <time>2010-01-01T00:02:10Z</time>
      </trkpt>
      <trkpt lat="50.94220480" lon="14.13971540">
        <ele>200.00000</ele>
        <time>2010-01-01T00:02:19Z</time>
      </trkpt>
      <trkpt lat="50.94204930" lon="14.13987630">
        <ele>204.00000</ele>
        <time>2010-01-01T00:02:27Z</time>
      </trkpt>
      <trkpt lat="50.94181270" lon="14.14021960">
        <ele>207.00000</ele>
        <time>2010-01-01T00:02:40Z</time>
      </trkpt>
      <trkpt lat="50.94163700" lon="14.14034840">
        <ele>208.00000</ele>
        <time>2010-01-01T00:02:47Z</time>
      </trkpt>
      <trkpt lat="50.94152200" lon="14.14052000">
        <ele>209.00000</ele>
        <time>2010-01-01T00:02:54Z</time>
      </trkpt>
      <trkpt lat="50.94131250" lon="14.14080970">
        <ele>210.00000</ele>
        <time>2010-01-01T00:03:05Z</time>
      </trkpt>
      <trkpt lat="50.94104200" lon="14.14106720">
        <ele>209.00000</ele>
        <time>2010-01-01T00:03:17Z</time>
      </trkpt>
      <trkpt lat="50.94102180" lon="14.14133540">
        <ele>209.00000</ele>
        <time>2010-01-01T00:03:24Z</time>
      </trkpt>
      <trkpt lat="50.94108260" lon="14.14144270">
        <ele>208.00000</ele>
        <time>2010-01-01T00:03:28Z</time>
      </trkpt>
      <trkpt lat="50.94140710" lon="14.14120670">
        <ele>208.00000</ele>
        <time>2010-01-01T00:03:42Z</time>
      </trkpt>
      <trkpt lat="50.94164370" lon="14.14104580">
        <ele>205.00000</ele>
        <time>2010-01-01T00:03:52Z</time>
      </trkpt>
      <trkpt lat="50.94223190" lon="14.14093850">
        <ele>195.00000</ele>
        <time>2010-01-01T00:04:16Z</time>
      </trkpt>
      <trkpt lat="50.94277940" lon="14.14050930">
        <ele>148.00000</ele>
        <time>2010-01-01T00:04:41Z</time>
      </trkpt>
      <trkpt lat="50.94278000" lon="14.14050000">
        <ele>148.00000</ele>
        <time>2010-01-01T00:04:41Z</time>
      </trkpt>
      <trkpt lat="50.94272000" lon="14.14039000">
        <ele>151.00000</ele>
        <time>2010-01-01T00:04:45Z</time>
      </trkpt>
      <trkpt lat="50.94262000" lon="14.14027000">
        <ele>156.00000</ele>
        <time>2010-01-01T00:04:50Z</time>
      </trkpt>
      <trkpt lat="50.94249000" lon="14.13998000">
        <ele>165.00000</ele>
        <time>2010-01-01T00:04:59Z</time>
      </trkpt>
      <trkpt lat="50.94244000" lon="14.13973000">
        <ele>178.00000</ele>
        <time>2010-01-01T00:05:05Z</time>
      </trkpt>
      <trkpt lat="50.94240000" lon="14.13917000">
        <ele>184.00000</ele>
        <time>2010-01-01T00:05:19Z</time>
      </trkpt>
      <trkpt lat="50.94242000" lon="14.13889000">
        <ele>179.00000</ele>
        <time>2010-01-01T00:05:26Z</time>
      </trkpt>
      <trkpt lat="50.94249000" lon="14.13852000">
        <ele>169.00000</ele>
        <time>2010-01-01T00:05:36Z</time>
      </trkpt>
      <trkpt lat="50.94261000" lon="14.13811000">
        <ele>160.00000</ele>
        <time>2010-01-01T00:05:48Z</time>
      </trkpt>
      <trkpt lat="50.94284000" lon="14.13742000">
        <ele>151.00000</ele>
        <time>2010-01-01T00:06:07Z</time>
      </trkpt>
    </trkseg>
  </trk>
</gpx>

