<?xml version="1.0" encoding="UTF-8" standalone="yes"?>
<gpx xmlns:gpxtpx1="http://www.garmin.com/xmlschemas/TrackPointExtension/v1" xmlns="http://www.topografix.com/GPX/1/1" xmlns:trp="http://www.garmin.com/xmlschemas/TripExtensions/v1" xmlns:gpxx="http://www.garmin.com/xmlschemas/GpxExtensions/v3" xmlns:gpxtpx="http://www.garmin.com/xmlschemas/TrackPointExtension/v2" version="1.1" creator="RouteConverter 2.27.2">
    <metadata>
        <name>2025-03-20 08:28</name>
        <desc>&lt;p&gt;Startzeit: 08:28 20.03.2025&lt;br/&gt;Zielzeit: 16:56 20.03.2025&lt;br/&gt;Strecke: 275,
9 km (08:28)&lt;br/&gt;Bewegungszeit: 03:47&lt;br/&gt;Ø-Geschwindigkeit: 32,
59 km/h&lt;br/&gt;Netto-Geschwindigkeit: 72,
77 km/h&lt;br/&gt;Max. Geschwindigkeit: 138,
06 km/h&lt;br/&gt;Minimale Höhe: 83 m&lt;br/&gt;Maximale Höhe: 1375 m&lt;br/&gt;Steig-Geschw.: 462 m/h&lt;br/&gt;Sink-Geschw.: -674,
7 m/h&lt;br/&gt;Aufstieg: 2429 m&lt;br/&gt;Abstieg: -1965 m&lt;br/&gt;Steigzeit: 05:15&lt;br/&gt;Sinkzeit: 02:54&lt;br/&gt;&lt;/p&gt;&lt;hr align="center" width="480" style="height: 2px; width: 517px"/&gt;</desc>
        <link href="https://www.oruxmaps.com">
            <text>OruxMaps</text>
        </link>
        <time>2025-03-20T07:28:50Z</time>
        <bounds minlat="45.9352395" minlon="10.8912735" maxlat="47.5197480" maxlon="12.1151852"/>
    </metadata>
    <trk>
        <name>2025-03-20 08:28</name>
        <desc>&lt;p&gt;Startzeit: 08:28 20.03.2025&lt;br/&gt;Zielzeit: 16:56 20.03.2025&lt;br/&gt;Strecke: 275,
9 km (08:28)&lt;br/&gt;Bewegungszeit: 03:47&lt;br/&gt;Ø-Geschwindigkeit: 32,
59 km/h&lt;br/&gt;Netto-Geschwindigkeit: 72,
77 km/h&lt;br/&gt;Max. Geschwindigkeit: 138,
06 km/h&lt;br/&gt;Minimale Höhe: 83 m&lt;br/&gt;Maximale Höhe: 1375 m&lt;br/&gt;Steig-Geschw.: 462 m/h&lt;br/&gt;Sink-Geschw.: -674,
7 m/h&lt;br/&gt;Aufstieg: 2429 m&lt;br/&gt;Abstieg: -1965 m&lt;br/&gt;Steigzeit: 05:15&lt;br/&gt;Sinkzeit: 02:54&lt;br/&gt;&lt;/p&gt;&lt;hr align="center" width="480" style="height: 2px; width: 517px"/&gt;</desc>
        <trkseg>
            <trkpt lat="45.9370412" lon="10.8952455">
                <ele>108.6</ele>
                <time>2025-03-20T07:28:53.000Z</time>
                <name>0000385</name>
            </trkpt>
            <trkpt lat="45.9372286" lon="10.8953054">
                <ele>98.0</ele>
                <time>2025-03-20T07:29:51.000Z</time>
                <name>Position 2</name>
            </trkpt>
            <trkpt lat="45.9375877" lon="10.8953812">
                <ele>102.8</ele>
                <time>2025-03-20T07:30:24.000Z</time>
                <name>Position 3</name>
            </trkpt>
            <trkpt lat="45.9377502" lon="10.8955068">
                <ele>102.4</ele>
                <time>2025-03-20T07:30:40.000Z</time>
                <name>Position 4</name>
            </trkpt>
            <trkpt lat="45.9379345" lon="10.895495">
                <ele>109.3</ele>
                <time>2025-03-20T07:31:26.000Z</time>
                <name>Position 5</name>
            </trkpt>
            <trkpt lat="45.9381136" lon="10.8954616">
                <ele>105.8</ele>
                <time>2025-03-20T07:31:54.000Z</time>
                <name>Position 6</name>
            </trkpt>
            <trkpt lat="45.9382853" lon="10.895382">
                <ele>115.9</ele>
                <time>2025-03-20T07:32:35.000Z</time>
                <name>Position 7</name>
            </trkpt>
            <trkpt lat="45.9384439" lon="10.895243">
                <ele>119.8</ele>
                <time>2025-03-20T07:33:15.000Z</time>
                <name>Position 8</name>
            </trkpt>
            <trkpt lat="45.9386238" lon="10.8953367">
                <ele>127.7</ele>
                <time>2025-03-20T07:34:12.000Z</time>
                <name>Position 9</name>
            </trkpt>
            <trkpt lat="45.9386841" lon="10.8950923">
                <ele>152.3</ele>
                <time>2025-03-20T08:05:10.000Z</time>
                <name>Position 10</name>
            </trkpt>
            <trkpt lat="45.9387689" lon="10.8948612">
                <ele>189.4</ele>
                <time>2025-03-20T09:32:01.000Z</time>
                <name>Position 11</name>
            </trkpt>
            <trkpt lat="45.938902" lon="10.8946851">
                <ele>297.0</ele>
                <time>2025-03-20T10:38:22.000Z</time>
                <name>Position 12</name>
            </trkpt>
            <trkpt lat="45.9389582" lon="10.8944354">
                <ele>307.1</ele>
                <time>2025-03-20T10:47:40.000Z</time>
                <name>Position 13</name>
            </trkpt>
            <trkpt lat="45.9388875" lon="10.8941912">
                <ele>310.1</ele>
                <time>2025-03-20T10:48:06.000Z</time>
                <name>Position 14</name>
            </trkpt>
            <trkpt lat="45.9387232" lon="10.8940842">
                <ele>307.6</ele>
                <time>2025-03-20T10:48:27.000Z</time>
                <name>Position 15</name>
            </trkpt>
            <trkpt lat="45.938542" lon="10.8940054">
                <ele>314.2</ele>
                <time>2025-03-20T10:48:46.000Z</time>
                <name>Position 16</name>
            </trkpt>
            <trkpt lat="45.9383799" lon="10.8938872">
                <ele>295.4</ele>
                <time>2025-03-20T10:49:38.000Z</time>
                <name>Position 17</name>
            </trkpt>
            <trkpt lat="45.9383005" lon="10.893645">
                <ele>288.0</ele>
                <time>2025-03-20T10:50:27.000Z</time>
                <name>Position 18</name>
            </trkpt>
            <trkpt lat="45.9381585" lon="10.8934641">
                <ele>282.0</ele>
                <time>2025-03-20T10:50:46.000Z</time>
                <name>Position 19</name>
            </trkpt>
            <trkpt lat="45.9380014" lon="10.8933094">
                <ele>279.0</ele>
                <time>2025-03-20T10:50:57.000Z</time>
                <name>Position 20</name>
            </trkpt>
            <trkpt lat="45.9379014" lon="10.8930817">
                <ele>278.1</ele>
                <time>2025-03-20T10:51:15.000Z</time>
                <name>Position 21</name>
            </trkpt>
            <trkpt lat="45.9377334" lon="10.8929562">
                <ele>283.3</ele>
                <time>2025-03-20T10:51:38.000Z</time>
                <name>Position 22</name>
            </trkpt>
            <trkpt lat="45.9375507" lon="10.8929231">
                <ele>287.9</ele>
                <time>2025-03-20T10:51:50.000Z</time>
                <name>Position 23</name>
            </trkpt>
            <trkpt lat="45.9373732" lon="10.8929694">
                <ele>293.0</ele>
                <time>2025-03-20T10:52:08.000Z</time>
                <name>Position 24</name>
            </trkpt>
            <trkpt lat="45.9372161" lon="10.8928399">
                <ele>290.8</ele>
                <time>2025-03-20T10:52:48.000Z</time>
                <name>Position 25</name>
            </trkpt>
            <trkpt lat="45.9370575" lon="10.892707">
                <ele>290.5</ele>
                <time>2025-03-20T10:53:07.000Z</time>
                <name>Position 26</name>
            </trkpt>
            <trkpt lat="45.936915" lon="10.8925365">
                <ele>286.2</ele>
                <time>2025-03-20T10:53:24.000Z</time>
                <name>Position 27</name>
            </trkpt>
            <trkpt lat="45.9367384" lon="10.892435">
                <ele>281.5</ele>
                <time>2025-03-20T10:53:39.000Z</time>
                <name>Position 28</name>
            </trkpt>
            <trkpt lat="45.9365642" lon="10.8923172">
                <ele>280.9</ele>
                <time>2025-03-20T10:53:54.000Z</time>
                <name>Position 29</name>
            </trkpt>
            <trkpt lat="45.9364001" lon="10.8921951">
                <ele>280.1</ele>
                <time>2025-03-20T10:54:22.000Z</time>
                <name>Position 30</name>
            </trkpt>
            <trkpt lat="45.9362646" lon="10.8920089">
                <ele>265.9</ele>
                <time>2025-03-20T10:54:54.000Z</time>
                <name>Position 31</name>
            </trkpt>
            <trkpt lat="45.9361074" lon="10.8918526">
                <ele>260.0</ele>
                <time>2025-03-20T10:55:09.000Z</time>
                <name>Position 32</name>
            </trkpt>
            <trkpt lat="45.9361671" lon="10.8921023">
                <ele>259.2</ele>
                <time>2025-03-20T10:55:49.000Z</time>
                <name>Position 33</name>
            </trkpt>
            <trkpt lat="45.9359916" lon="10.8920344">
                <ele>240.2</ele>
                <time>2025-03-20T10:57:18.000Z</time>
                <name>Position 34</name>
            </trkpt>
            <trkpt lat="45.9358374" lon="10.8918813">
                <ele>229.4</ele>
                <time>2025-03-20T10:58:24.000Z</time>
                <name>Position 35</name>
            </trkpt>
            <trkpt lat="45.9356904" lon="10.8917189">
                <ele>219.3</ele>
                <time>2025-03-20T10:59:07.000Z</time>
                <name>Position 36</name>
            </trkpt>
            <trkpt lat="45.9355339" lon="10.8915671">
                <ele>208.6</ele>
                <time>2025-03-20T11:01:18.000Z</time>
                <name>Position 37</name>
            </trkpt>
            <trkpt lat="45.9353988" lon="10.8913953">
                <ele>196.2</ele>
                <time>2025-03-20T11:02:17.000Z</time>
                <name>Position 38</name>
            </trkpt>
            <trkpt lat="45.9352395" lon="10.8912735">
                <ele>182.1</ele>
                <time>2025-03-20T11:03:19.000Z</time>
                <name>Position 39</name>
            </trkpt>
            <trkpt lat="45.9353041" lon="10.8915175">
                <ele>171.1</ele>
                <time>2025-03-20T11:04:10.000Z</time>
                <name>Position 40</name>
            </trkpt>
            <trkpt lat="45.9353557" lon="10.8917666">
                <ele>167.0</ele>
                <time>2025-03-20T11:04:41.000Z</time>
                <name>Position 41</name>
            </trkpt>
            <trkpt lat="45.9355148" lon="10.8919055">
                <ele>154.8</ele>
                <time>2025-03-20T11:05:12.000Z</time>
                <name>Position 42</name>
            </trkpt>
            <trkpt lat="45.935598" lon="10.8921351">
                <ele>155.6</ele>
                <time>2025-03-20T11:05:34.000Z</time>
                <name>Position 43</name>
            </trkpt>
            <trkpt lat="45.9356727" lon="10.8923743">
                <ele>149.2</ele>
                <time>2025-03-20T11:06:02.000Z</time>
                <name>Position 44</name>
            </trkpt>
            <trkpt lat="45.935754" lon="10.89261">
                <ele>137.2</ele>
                <time>2025-03-20T11:06:36.000Z</time>
                <name>Position 45</name>
            </trkpt>
            <trkpt lat="45.9358766" lon="10.8928035">
                <ele>128.3</ele>
                <time>2025-03-20T11:06:58.000Z</time>
                <name>Position 46</name>
            </trkpt>
            <trkpt lat="45.9360181" lon="10.892967">
                <ele>128.1</ele>
                <time>2025-03-20T11:07:28.000Z</time>
                <name>Position 47</name>
            </trkpt>
            <trkpt lat="45.9361348" lon="10.8931669">
                <ele>125.7</ele>
                <time>2025-03-20T11:07:55.000Z</time>
                <name>Position 48</name>
            </trkpt>
            <trkpt lat="45.9362742" lon="10.8933416">
                <ele>129.2</ele>
                <time>2025-03-20T11:08:24.000Z</time>
                <name>Position 49</name>
            </trkpt>
            <trkpt lat="45.9363898" lon="10.8935432">
                <ele>130.0</ele>
                <time>2025-03-20T11:08:39.000Z</time>
                <name>Position 50</name>
            </trkpt>
            <trkpt lat="45.9365266" lon="10.8937312">
                <ele>131.5</ele>
                <time>2025-03-20T11:08:56.000Z</time>
                <name>Position 51</name>
            </trkpt>
            <trkpt lat="45.9373063" lon="10.8945236">
                <ele>130.0</ele>
                <time>2025-03-20T11:24:43.000Z</time>
                <name>Position 52</name>
            </trkpt>
            <trkpt lat="45.9372922" lon="10.8947858">
                <ele>126.0</ele>
                <time>2025-03-20T11:25:21.000Z</time>
                <name>Position 53</name>
            </trkpt>
            <trkpt lat="45.9372343" lon="10.8950402">
                <ele>115.3</ele>
                <time>2025-03-20T11:25:41.000Z</time>
                <name>Position 54</name>
            </trkpt>
            <trkpt lat="45.9370631" lon="10.8951521">
                <ele>99.4</ele>
                <time>2025-03-20T11:28:33.000Z</time>
                <name>Position 55</name>
            </trkpt>
            <trkpt lat="45.9370044" lon="10.8951358">
                <ele>98.8</ele>
                <time>2025-03-20T11:37:25.000Z</time>
                <name>Position 56</name>
            </trkpt>
            <trkpt lat="45.9372298" lon="10.8952438">
                <ele>100.7</ele>
                <time>2025-03-20T11:39:56.000Z</time>
                <name>Position 57</name>
            </trkpt>
            <trkpt lat="45.9374105" lon="10.8953357">
                <ele>100.2</ele>
                <time>2025-03-20T11:39:59.000Z</time>
                <name>Position 58</name>
            </trkpt>
            <trkpt lat="45.9375956" lon="10.8954167">
                <ele>100.9</ele>
                <time>2025-03-20T11:40:02.000Z</time>
                <name>Position 59</name>
            </trkpt>
        </trkseg>
    </trk>
</gpx>
