<?xml version="1.0" encoding="UTF-8" standalone="yes"?>
<gpx xmlns:gpxtpx1="http://www.garmin.com/xmlschemas/TrackPointExtension/v1" xmlns="http://www.topografix.com/GPX/1/1" xmlns:trp="http://www.garmin.com/xmlschemas/TripExtensions/v1" xmlns:gpxx="http://www.garmin.com/xmlschemas/GpxExtensions/v3" xmlns:gpxtpx="http://www.garmin.com/xmlschemas/TrackPointExtension/v2" version="1.1" creator="RouteConverter 2.27.2">
    <metadata>
        <name>2021-09-25 08:47</name>
        <link href="https://www.oruxmaps.com">
            <text>OruxMaps</text>
        </link>
        <time>2021-09-25T06:47:11Z</time>
        <bounds minlat="46.5081845" minlon="11.7389370" maxlat="46.5148001" maxlon="11.7627039"/>
    </metadata>
    <trk>
        <name>2021-09-25 08:47</name>
        <desc>&lt;p&gt;Startzeit: 08:47 25.09.2021&lt;br/&gt;Zielzeit: 12:28 25.09.2021&lt;br/&gt;Strecke: 5,
1 km (03:41)&lt;br/&gt;Bewegungszeit: 01:52&lt;br/&gt;Ø-Geschwindigkeit: 1,
37 km/h&lt;br/&gt;Netto-Geschwindigkeit: 2,
69 km/h&lt;br/&gt;Max. Geschwindigkeit: 6,
12 km/h&lt;br/&gt;Minimale Höhe: 2172 m&lt;br/&gt;Maximale Höhe: 2685 m&lt;br/&gt;Steig-Geschw.: 233,
3 m/h&lt;br/&gt;Sink-Geschw.: -385,
7 m/h&lt;br/&gt;Aufstieg: 533 m&lt;br/&gt;Abstieg: -543 m&lt;br/&gt;Steigzeit: 02:17&lt;br/&gt;Sinkzeit: 01:24&lt;br/&gt;&lt;/p&gt;&lt;hr align="center" width="480" style="height: 2px; width: 517px"/&gt;</desc>
        <type>Berg/ Bergsteigen</type>
        <extensions>
            <om:oruxmapsextensions xmlns:om="http://www.oruxmaps.com/oruxmapsextensions/1/0" xmlns:gpxtpx="http://www.garmin.com/xmlschemas/TrackPointExtension/v1" xmlns:xsi="http://www.w3.org/2001/XMLSchema-instance">
                <om:ext subtype="0" type="TYPE">7</om:ext>
                <om:ext type="DIFFICULTY">0</om:ext>
</om:oruxmapsextensions>
        </extensions>
        <trkseg>
            <trkpt lat="46.5084691" lon="11.7575683">
                <ele>2186.4</ele>
                <time>2021-09-25T06:57:55.000Z</time>
                <name>Position 1</name>
            </trkpt>
            <trkpt lat="46.5085755" lon="11.7573235">
                <ele>2183.7</ele>
                <time>2021-09-25T06:58:11.000Z</time>
                <name>Position 2</name>
            </trkpt>
            <trkpt lat="46.5086523" lon="11.7570588">
                <ele>2183.8</ele>
                <time>2021-09-25T06:58:29.000Z</time>
                <name>Position 3</name>
            </trkpt>
            <trkpt lat="46.5087076" lon="11.7567816">
                <ele>2184.2</ele>
                <time>2021-09-25T06:58:47.000Z</time>
                <name>Position 4</name>
            </trkpt>
            <trkpt lat="46.5087696" lon="11.7565207">
                <ele>2185.4</ele>
                <time>2021-09-25T06:59:03.000Z</time>
                <name>Position 5</name>
            </trkpt>
            <trkpt lat="46.5088821" lon="11.7562855">
                <ele>2185.5</ele>
                <time>2021-09-25T06:59:19.000Z</time>
                <name>Position 6</name>
            </trkpt>
            <trkpt lat="46.508981" lon="11.7560326">
                <ele>2184.8</ele>
                <time>2021-09-25T06:59:51.000Z</time>
                <name>Position 7</name>
            </trkpt>
            <trkpt lat="46.5090514" lon="11.7557656">
                <ele>2184.0</ele>
                <time>2021-09-25T07:00:07.000Z</time>
                <name>Position 8</name>
            </trkpt>
            <trkpt lat="46.5091031" lon="11.7554898">
                <ele>2183.7</ele>
                <time>2021-09-25T07:00:25.000Z</time>
                <name>Position 9</name>
            </trkpt>
            <trkpt lat="46.5090269" lon="11.7552266">
                <ele>2184.5</ele>
                <time>2021-09-25T07:01:53.000Z</time>
                <name>Position 10</name>
            </trkpt>
            <trkpt lat="46.5090052" lon="11.7549502">
                <ele>2188.7</ele>
                <time>2021-09-25T07:02:17.000Z</time>
                <name>Position 11</name>
            </trkpt>
            <trkpt lat="46.5089885" lon="11.7546683">
                <ele>2189.3</ele>
                <time>2021-09-25T07:02:35.000Z</time>
                <name>Position 12</name>
            </trkpt>
            <trkpt lat="46.5089394" lon="11.7543876">
                <ele>2191.4</ele>
                <time>2021-09-25T07:02:53.000Z</time>
                <name>Position 13</name>
            </trkpt>
            <trkpt lat="46.5088722" lon="11.7541173">
                <ele>2194.1</ele>
                <time>2021-09-25T07:03:13.000Z</time>
                <name>Position 14</name>
            </trkpt>
            <trkpt lat="46.5088657" lon="11.7538291">
                <ele>2196.9</ele>
                <time>2021-09-25T07:03:33.000Z</time>
                <name>Position 15</name>
            </trkpt>
            <trkpt lat="46.5087796" lon="11.7535884">
                <ele>2199.9</ele>
                <time>2021-09-25T07:03:53.000Z</time>
                <name>Position 16</name>
            </trkpt>
            <trkpt lat="46.508728" lon="11.7533267">
                <ele>2202.6</ele>
                <time>2021-09-25T07:04:15.000Z</time>
                <name>Position 17</name>
            </trkpt>
            <trkpt lat="46.5087415" lon="11.7530498">
                <ele>2205.2</ele>
                <time>2021-09-25T07:04:37.000Z</time>
                <name>Position 18</name>
            </trkpt>
            <trkpt lat="46.5087447" lon="11.7527739">
                <ele>2207.8</ele>
                <time>2021-09-25T07:04:59.000Z</time>
                <name>Position 19</name>
            </trkpt>
            <trkpt lat="46.508823" lon="11.7525378">
                <ele>2212.6</ele>
                <time>2021-09-25T07:05:23.000Z</time>
                <name>Position 20</name>
            </trkpt>
            <trkpt lat="46.5089405" lon="11.7523328">
                <ele>2217.3</ele>
                <time>2021-09-25T07:05:55.000Z</time>
                <name>Position 21</name>
            </trkpt>
            <trkpt lat="46.5090794" lon="11.752146">
                <ele>2220.6</ele>
                <time>2021-09-25T07:06:22.000Z</time>
                <name>Position 22</name>
            </trkpt>
            <trkpt lat="46.5091272" lon="11.7518812">
                <ele>2227.2</ele>
                <time>2021-09-25T07:06:56.000Z</time>
                <name>Position 23</name>
            </trkpt>
            <trkpt lat="46.5091345" lon="11.7516142">
                <ele>2231.0</ele>
                <time>2021-09-25T07:07:22.000Z</time>
                <name>Position 24</name>
            </trkpt>
            <trkpt lat="46.5091204" lon="11.7513424">
                <ele>2231.9</ele>
                <time>2021-09-25T07:07:46.000Z</time>
                <name>Position 25</name>
            </trkpt>
            <trkpt lat="46.5091855" lon="11.7510714">
                <ele>2232.4</ele>
                <time>2021-09-25T07:08:04.000Z</time>
                <name>Position 26</name>
            </trkpt>
            <trkpt lat="46.5092421" lon="11.7508007">
                <ele>2232.9</ele>
                <time>2021-09-25T07:08:22.000Z</time>
                <name>Position 27</name>
            </trkpt>
            <trkpt lat="46.5092638" lon="11.7505393">
                <ele>2236.8</ele>
                <time>2021-09-25T07:08:46.000Z</time>
                <name>Position 28</name>
            </trkpt>
            <trkpt lat="46.5093653" lon="11.750302">
                <ele>2240.7</ele>
                <time>2021-09-25T07:09:14.000Z</time>
                <name>Position 29</name>
            </trkpt>
            <trkpt lat="46.5095073" lon="11.750123">
                <ele>2242.0</ele>
                <time>2021-09-25T07:09:34.000Z</time>
                <name>Position 30</name>
            </trkpt>
            <trkpt lat="46.5096086" lon="11.7498968">
                <ele>2243.4</ele>
                <time>2021-09-25T07:09:52.000Z</time>
                <name>Position 31</name>
            </trkpt>
            <trkpt lat="46.5097226" lon="11.7496863">
                <ele>2245.9</ele>
                <time>2021-09-25T07:10:14.000Z</time>
                <name>Position 32</name>
            </trkpt>
            <trkpt lat="46.5097545" lon="11.7494088">
                <ele>2250.2</ele>
                <time>2021-09-25T07:10:42.000Z</time>
                <name>Position 33</name>
            </trkpt>
            <trkpt lat="46.5098424" lon="11.7491588">
                <ele>2252.8</ele>
                <time>2021-09-25T07:11:04.000Z</time>
                <name>Position 34</name>
            </trkpt>
            <trkpt lat="46.5099669" lon="11.7489523">
                <ele>2253.7</ele>
                <time>2021-09-25T07:11:30.000Z</time>
                <name>Position 35</name>
            </trkpt>
            <trkpt lat="46.5100552" lon="11.7487013">
                <ele>2256.1</ele>
                <time>2021-09-25T07:11:52.000Z</time>
                <name>Position 36</name>
            </trkpt>
            <trkpt lat="46.5100764" lon="11.7484262">
                <ele>2259.9</ele>
                <time>2021-09-25T07:12:16.000Z</time>
                <name>Position 37</name>
            </trkpt>
            <trkpt lat="46.5101669" lon="11.7481836">
                <ele>2264.7</ele>
                <time>2021-09-25T07:12:50.000Z</time>
                <name>Position 38</name>
            </trkpt>
            <trkpt lat="46.5101862" lon="11.7479182">
                <ele>2267.7</ele>
                <time>2021-09-25T07:13:18.000Z</time>
                <name>Position 39</name>
            </trkpt>
            <trkpt lat="46.5102463" lon="11.7476556">
                <ele>2269.3</ele>
                <time>2021-09-25T07:13:46.000Z</time>
                <name>Position 40</name>
            </trkpt>
            <trkpt lat="46.5103519" lon="11.7474296">
                <ele>2275.6</ele>
                <time>2021-09-25T07:15:02.000Z</time>
                <name>Position 41</name>
            </trkpt>
            <trkpt lat="46.5104682" lon="11.7472027">
                <ele>2280.1</ele>
                <time>2021-09-25T07:15:40.000Z</time>
                <name>Position 42</name>
            </trkpt>
            <trkpt lat="46.5105463" lon="11.7469456">
                <ele>2284.7</ele>
                <time>2021-09-25T07:16:08.000Z</time>
                <name>Position 43</name>
            </trkpt>
            <trkpt lat="46.5106988" lon="11.7467882">
                <ele>2291.3</ele>
                <time>2021-09-25T07:16:42.000Z</time>
                <name>Position 44</name>
            </trkpt>
            <trkpt lat="46.5108203" lon="11.7465806">
                <ele>2297.0</ele>
                <time>2021-09-25T07:17:14.000Z</time>
                <name>Position 45</name>
            </trkpt>
            <trkpt lat="46.5109561" lon="11.746391">
                <ele>2302.1</ele>
                <time>2021-09-25T07:17:52.000Z</time>
                <name>Position 46</name>
            </trkpt>
            <trkpt lat="46.5111254" lon="11.7462821">
                <ele>2307.0</ele>
                <time>2021-09-25T07:18:30.000Z</time>
                <name>Position 47</name>
            </trkpt>
            <trkpt lat="46.5112008" lon="11.7460346">
                <ele>2314.6</ele>
                <time>2021-09-25T07:19:30.000Z</time>
                <name>Position 48</name>
            </trkpt>
            <trkpt lat="46.5112556" lon="11.7457788">
                <ele>2320.5</ele>
                <time>2021-09-25T07:19:58.000Z</time>
                <name>Position 49</name>
            </trkpt>
            <trkpt lat="46.51127" lon="11.7455042">
                <ele>2325.8</ele>
                <time>2021-09-25T07:20:26.000Z</time>
                <name>Position 50</name>
            </trkpt>
            <trkpt lat="46.5114508" lon="11.7454125">
                <ele>2338.2</ele>
                <time>2021-09-25T07:21:50.000Z</time>
                <name>Position 51</name>
            </trkpt>
            <trkpt lat="46.5116371" lon="11.7453562">
                <ele>2346.7</ele>
                <time>2021-09-25T07:22:26.000Z</time>
                <name>Position 52</name>
            </trkpt>
            <trkpt lat="46.5118192" lon="11.7454313">
                <ele>2354.7</ele>
                <time>2021-09-25T07:23:14.000Z</time>
                <name>Position 53</name>
            </trkpt>
            <trkpt lat="46.5119947" lon="11.7453671">
                <ele>2361.3</ele>
                <time>2021-09-25T07:24:04.000Z</time>
                <name>Position 54</name>
            </trkpt>
            <trkpt lat="46.5120742" lon="11.7451168">
                <ele>2373.7</ele>
                <time>2021-09-25T07:25:22.000Z</time>
                <name>Position 55</name>
            </trkpt>
            <trkpt lat="46.5122329" lon="11.7449907">
                <ele>2381.8</ele>
                <time>2021-09-25T07:26:16.000Z</time>
                <name>Position 56</name>
            </trkpt>
            <trkpt lat="46.5122001" lon="11.7447254">
                <ele>2387.2</ele>
                <time>2021-09-25T07:26:47.000Z</time>
                <name>Position 57</name>
            </trkpt>
            <trkpt lat="46.5122495" lon="11.7444657">
                <ele>2393.9</ele>
                <time>2021-09-25T07:27:21.000Z</time>
                <name>Position 58</name>
            </trkpt>
            <trkpt lat="46.5122688" lon="11.7441893">
                <ele>2399.6</ele>
                <time>2021-09-25T07:27:55.000Z</time>
                <name>Position 59</name>
            </trkpt>
            <trkpt lat="46.5124268" lon="11.7443375">
                <ele>2403.5</ele>
                <time>2021-09-25T07:28:23.000Z</time>
                <name>Position 60</name>
            </trkpt>
            <trkpt lat="46.5125138" lon="11.7440991">
                <ele>2414.5</ele>
                <time>2021-09-25T07:29:23.000Z</time>
                <name>Position 61</name>
            </trkpt>
            <trkpt lat="46.5124855" lon="11.7438203">
                <ele>2418.7</ele>
                <time>2021-09-25T07:29:51.000Z</time>
                <name>Position 62</name>
            </trkpt>
            <trkpt lat="46.5124798" lon="11.7435515">
                <ele>2423.4</ele>
                <time>2021-09-25T07:30:17.000Z</time>
                <name>Position 63</name>
            </trkpt>
            <trkpt lat="46.5124439" lon="11.7432898">
                <ele>2428.3</ele>
                <time>2021-09-25T07:30:43.000Z</time>
                <name>Position 64</name>
            </trkpt>
            <trkpt lat="46.5124433" lon="11.7430156">
                <ele>2432.8</ele>
                <time>2021-09-25T07:31:13.000Z</time>
                <name>Position 65</name>
            </trkpt>
            <trkpt lat="46.5124145" lon="11.7427507">
                <ele>2439.0</ele>
                <time>2021-09-25T07:31:43.000Z</time>
                <name>Position 66</name>
            </trkpt>
            <trkpt lat="46.512604" lon="11.7427625">
                <ele>2445.3</ele>
                <time>2021-09-25T07:32:25.000Z</time>
                <name>Position 67</name>
            </trkpt>
            <trkpt lat="46.5125709" lon="11.7424984">
                <ele>2452.7</ele>
                <time>2021-09-25T07:32:59.000Z</time>
                <name>Position 68</name>
            </trkpt>
            <trkpt lat="46.5127608" lon="11.7425187">
                <ele>2461.8</ele>
                <time>2021-09-25T07:33:47.000Z</time>
                <name>Position 69</name>
            </trkpt>
            <trkpt lat="46.512941" lon="11.7424745">
                <ele>2471.4</ele>
                <time>2021-09-25T07:34:44.000Z</time>
                <name>Position 70</name>
            </trkpt>
            <trkpt lat="46.5129118" lon="11.7422129">
                <ele>2478.9</ele>
                <time>2021-09-25T07:35:22.000Z</time>
                <name>Position 71</name>
            </trkpt>
            <trkpt lat="46.5130917" lon="11.7422293">
                <ele>2488.1</ele>
                <time>2021-09-25T07:36:10.000Z</time>
                <name>Position 72</name>
            </trkpt>
            <trkpt lat="46.5130426" lon="11.7419536">
                <ele>2494.2</ele>
                <time>2021-09-25T07:36:42.000Z</time>
                <name>Position 73</name>
            </trkpt>
            <trkpt lat="46.5132277" lon="11.7420465">
                <ele>2501.2</ele>
                <time>2021-09-25T07:37:14.000Z</time>
                <name>Position 74</name>
            </trkpt>
            <trkpt lat="46.513261" lon="11.7417815">
                <ele>2510.0</ele>
                <time>2021-09-25T07:38:10.000Z</time>
                <name>Position 75</name>
            </trkpt>
            <trkpt lat="46.5133237" lon="11.7415301">
                <ele>2517.9</ele>
                <time>2021-09-25T07:38:54.000Z</time>
                <name>Position 76</name>
            </trkpt>
            <trkpt lat="46.5132531" lon="11.7412865">
                <ele>2520.9</ele>
                <time>2021-09-25T07:39:20.000Z</time>
                <name>Position 77</name>
            </trkpt>
            <trkpt lat="46.5131948" lon="11.7410303">
                <ele>2524.7</ele>
                <time>2021-09-25T07:39:56.000Z</time>
                <name>Position 78</name>
            </trkpt>
            <trkpt lat="46.513137" lon="11.7407823">
                <ele>2528.8</ele>
                <time>2021-09-25T07:40:38.000Z</time>
                <name>Position 79</name>
            </trkpt>
            <trkpt lat="46.5130682" lon="11.7405266">
                <ele>2532.8</ele>
                <time>2021-09-25T07:41:04.000Z</time>
                <name>Position 80</name>
            </trkpt>
            <trkpt lat="46.5129575" lon="11.7403135">
                <ele>2535.8</ele>
                <time>2021-09-25T07:41:38.000Z</time>
                <name>Position 81</name>
            </trkpt>
            <trkpt lat="46.5131427" lon="11.7403181">
                <ele>2548.4</ele>
                <time>2021-09-25T07:53:32.000Z</time>
                <name>Position 82</name>
            </trkpt>
            <trkpt lat="46.5133025" lon="11.7404573">
                <ele>2556.9</ele>
                <time>2021-09-25T08:03:35.000Z</time>
                <name>Position 83</name>
            </trkpt>
            <trkpt lat="46.5131746" lon="11.7402719">
                <ele>2567.5</ele>
                <time>2021-09-25T08:08:05.000Z</time>
                <name>Position 84</name>
            </trkpt>
            <trkpt lat="46.5133375" lon="11.7401583">
                <ele>2581.9</ele>
                <time>2021-09-25T08:15:47.000Z</time>
                <name>Position 85</name>
            </trkpt>
            <trkpt lat="46.5135274" lon="11.7401867">
                <ele>2581.4</ele>
                <time>2021-09-25T08:16:41.000Z</time>
                <name>Position 86</name>
            </trkpt>
            <trkpt lat="46.5133894" lon="11.7403604">
                <ele>2591.8</ele>
                <time>2021-09-25T08:19:05.000Z</time>
                <name>Position 87</name>
            </trkpt>
            <trkpt lat="46.5132124" lon="11.740302">
                <ele>2610.7</ele>
                <time>2021-09-25T08:25:38.000Z</time>
                <name>Position 88</name>
            </trkpt>
            <trkpt lat="46.5133845" lon="11.7402197">
                <ele>2616.0</ele>
                <time>2021-09-25T08:28:36.000Z</time>
                <name>Position 89</name>
            </trkpt>
            <trkpt lat="46.5135055" lon="11.7400203">
                <ele>2623.7</ele>
                <time>2021-09-25T08:31:42.000Z</time>
                <name>Position 90</name>
            </trkpt>
            <trkpt lat="46.51362" lon="11.7398118">
                <ele>2626.0</ele>
                <time>2021-09-25T08:35:42.000Z</time>
                <name>Position 91</name>
            </trkpt>
            <trkpt lat="46.5137164" lon="11.7395815">
                <ele>2635.2</ele>
                <time>2021-09-25T08:39:39.000Z</time>
                <name>Position 92</name>
            </trkpt>
            <trkpt lat="46.5138925" lon="11.7395205">
                <ele>2666.7</ele>
                <time>2021-09-25T08:52:49.000Z</time>
                <name>Position 93</name>
            </trkpt>
            <trkpt lat="46.5140801" lon="11.7394579">
                <ele>2675.0</ele>
                <time>2021-09-25T08:54:31.000Z</time>
                <name>Position 94</name>
            </trkpt>
            <trkpt lat="46.5142439" lon="11.7393492">
                <ele>2677.4</ele>
                <time>2021-09-25T08:57:07.000Z</time>
                <name>Position 95</name>
            </trkpt>
            <trkpt lat="46.5143795" lon="11.7391772">
                <ele>2685.9</ele>
                <time>2021-09-25T09:04:49.000Z</time>
                <name>Position 96</name>
            </trkpt>
            <trkpt lat="46.5143068" lon="11.738937">
                <ele>2671.5</ele>
                <time>2021-09-25T09:07:13.000Z</time>
                <name>Position 97</name>
            </trkpt>
            <trkpt lat="46.5144452" lon="11.7391267">
                <ele>2656.3</ele>
                <time>2021-09-25T09:08:33.000Z</time>
                <name>Position 98</name>
            </trkpt>
            <trkpt lat="46.514606" lon="11.7392629">
                <ele>2653.7</ele>
                <time>2021-09-25T09:09:11.000Z</time>
                <name>Position 99</name>
            </trkpt>
            <trkpt lat="46.5145217" lon="11.7395066">
                <ele>2654.1</ele>
                <time>2021-09-25T09:09:52.000Z</time>
                <name>Position 100</name>
            </trkpt>
            <trkpt lat="46.5146882" lon="11.7396154">
                <ele>2651.0</ele>
                <time>2021-09-25T09:12:58.000Z</time>
                <name>Position 101</name>
            </trkpt>
            <trkpt lat="46.5148001" lon="11.7394049">
                <ele>2650.7</ele>
                <time>2021-09-25T09:18:42.000Z</time>
                <name>Position 102</name>
            </trkpt>
            <trkpt lat="46.5146531" lon="11.7395567">
                <ele>2655.8</ele>
                <time>2021-09-25T09:26:08.000Z</time>
                <name>Position 103</name>
            </trkpt>
            <trkpt lat="46.5146827" lon="11.7398221">
                <ele>2651.3</ele>
                <time>2021-09-25T09:27:10.000Z</time>
                <name>Position 104</name>
            </trkpt>
            <trkpt lat="46.5147937" lon="11.740028">
                <ele>2650.7</ele>
                <time>2021-09-25T09:29:49.000Z</time>
                <name>Position 105</name>
            </trkpt>
            <trkpt lat="46.5146194" lon="11.739917">
                <ele>2643.9</ele>
                <time>2021-09-25T09:31:43.000Z</time>
                <name>Position 106</name>
            </trkpt>
            <trkpt lat="46.5143982" lon="11.739952">
                <ele>2634.3</ele>
                <time>2021-09-25T09:32:25.000Z</time>
                <name>Position 107</name>
            </trkpt>
            <trkpt lat="46.5142332" lon="11.7400741">
                <ele>2618.9</ele>
                <time>2021-09-25T09:33:31.000Z</time>
                <name>Position 108</name>
            </trkpt>
            <trkpt lat="46.5141158" lon="11.7402793">
                <ele>2606.9</ele>
                <time>2021-09-25T09:34:13.000Z</time>
                <name>Position 109</name>
            </trkpt>
            <trkpt lat="46.5139479" lon="11.7403815">
                <ele>2591.7</ele>
                <time>2021-09-25T09:35:01.000Z</time>
                <name>Position 110</name>
            </trkpt>
            <trkpt lat="46.5137976" lon="11.7405394">
                <ele>2577.4</ele>
                <time>2021-09-25T09:35:45.000Z</time>
                <name>Position 111</name>
            </trkpt>
            <trkpt lat="46.5137488" lon="11.7407967">
                <ele>2569.3</ele>
                <time>2021-09-25T09:36:19.000Z</time>
                <name>Position 112</name>
            </trkpt>
            <trkpt lat="46.5136005" lon="11.740953">
                <ele>2552.6</ele>
                <time>2021-09-25T09:37:33.000Z</time>
                <name>Position 113</name>
            </trkpt>
            <trkpt lat="46.5134346" lon="11.7408382">
                <ele>2546.5</ele>
                <time>2021-09-25T09:37:57.000Z</time>
                <name>Position 114</name>
            </trkpt>
            <trkpt lat="46.5133147" lon="11.740627">
                <ele>2542.6</ele>
                <time>2021-09-25T09:38:17.000Z</time>
                <name>Position 115</name>
            </trkpt>
            <trkpt lat="46.5132343" lon="11.7403905">
                <ele>2531.8</ele>
                <time>2021-09-25T09:38:41.000Z</time>
                <name>Position 116</name>
            </trkpt>
            <trkpt lat="46.5130598" lon="11.740287">
                <ele>2533.8</ele>
                <time>2021-09-25T09:38:57.000Z</time>
                <name>Position 117</name>
            </trkpt>
            <trkpt lat="46.5131693" lon="11.7405254">
                <ele>2533.3</ele>
                <time>2021-09-25T09:49:00.000Z</time>
                <name>Position 118</name>
            </trkpt>
            <trkpt lat="46.5132255" lon="11.7407995">
                <ele>2529.4</ele>
                <time>2021-09-25T09:49:22.000Z</time>
                <name>Position 119</name>
            </trkpt>
            <trkpt lat="46.5133066" lon="11.7410365">
                <ele>2524.1</ele>
                <time>2021-09-25T09:50:14.000Z</time>
                <name>Position 120</name>
            </trkpt>
            <trkpt lat="46.5133377" lon="11.7413027">
                <ele>2522.0</ele>
                <time>2021-09-25T09:50:44.000Z</time>
                <name>Position 121</name>
            </trkpt>
            <trkpt lat="46.5134167" lon="11.7415469">
                <ele>2518.5</ele>
                <time>2021-09-25T09:51:08.000Z</time>
                <name>Position 122</name>
            </trkpt>
            <trkpt lat="46.5133378" lon="11.7418103">
                <ele>2511.1</ele>
                <time>2021-09-25T09:51:32.000Z</time>
                <name>Position 123</name>
            </trkpt>
            <trkpt lat="46.5133664" lon="11.7420755">
                <ele>2503.5</ele>
                <time>2021-09-25T09:53:13.000Z</time>
                <name>Position 124</name>
            </trkpt>
            <trkpt lat="46.5131792" lon="11.7420929">
                <ele>2499.3</ele>
                <time>2021-09-25T09:54:21.000Z</time>
                <name>Position 125</name>
            </trkpt>
            <trkpt lat="46.5130074" lon="11.7422121">
                <ele>2486.0</ele>
                <time>2021-09-25T09:55:29.000Z</time>
                <name>Position 126</name>
            </trkpt>
            <trkpt lat="46.5130169" lon="11.742502">
                <ele>2476.7</ele>
                <time>2021-09-25T09:56:07.000Z</time>
                <name>Position 127</name>
            </trkpt>
            <trkpt lat="46.5128253" lon="11.7424599">
                <ele>2470.1</ele>
                <time>2021-09-25T09:56:33.000Z</time>
                <name>Position 128</name>
            </trkpt>
            <trkpt lat="46.5126229" lon="11.7424464">
                <ele>2461.0</ele>
                <time>2021-09-25T09:57:07.000Z</time>
                <name>Position 129</name>
            </trkpt>
            <trkpt lat="46.51261" lon="11.7427134">
                <ele>2449.7</ele>
                <time>2021-09-25T09:57:45.000Z</time>
                <name>Position 130</name>
            </trkpt>
            <trkpt lat="46.5124204" lon="11.7426971">
                <ele>2445.6</ele>
                <time>2021-09-25T09:58:05.000Z</time>
                <name>Position 131</name>
            </trkpt>
            <trkpt lat="46.5124583" lon="11.7429535">
                <ele>2437.7</ele>
                <time>2021-09-25T09:58:31.000Z</time>
                <name>Position 132</name>
            </trkpt>
            <trkpt lat="46.5124493" lon="11.7432283">
                <ele>2434.2</ele>
                <time>2021-09-25T09:58:47.000Z</time>
                <name>Position 133</name>
            </trkpt>
            <trkpt lat="46.5125194" lon="11.7434914">
                <ele>2428.6</ele>
                <time>2021-09-25T09:59:03.000Z</time>
                <name>Position 134</name>
            </trkpt>
            <trkpt lat="46.5124858" lon="11.7437576">
                <ele>2422.6</ele>
                <time>2021-09-25T09:59:35.000Z</time>
                <name>Position 135</name>
            </trkpt>
            <trkpt lat="46.5124971" lon="11.7440407">
                <ele>2420.6</ele>
                <time>2021-09-25T09:59:51.000Z</time>
                <name>Position 136</name>
            </trkpt>
            <trkpt lat="46.5124871" lon="11.744323">
                <ele>2414.6</ele>
                <time>2021-09-25T10:00:13.000Z</time>
                <name>Position 137</name>
            </trkpt>
            <trkpt lat="46.5122893" lon="11.7442969">
                <ele>2406.5</ele>
                <time>2021-09-25T10:01:49.000Z</time>
                <name>Position 138</name>
            </trkpt>
            <trkpt lat="46.5122356" lon="11.7445732">
                <ele>2394.6</ele>
                <time>2021-09-25T10:02:28.000Z</time>
                <name>Position 139</name>
            </trkpt>
            <trkpt lat="46.5121972" lon="11.7448522">
                <ele>2389.8</ele>
                <time>2021-09-25T10:02:48.000Z</time>
                <name>Position 140</name>
            </trkpt>
            <trkpt lat="46.5120529" lon="11.7450427">
                <ele>2379.8</ele>
                <time>2021-09-25T10:03:34.000Z</time>
                <name>Position 141</name>
            </trkpt>
            <trkpt lat="46.5120387" lon="11.7453161">
                <ele>2366.9</ele>
                <time>2021-09-25T10:04:10.000Z</time>
                <name>Position 142</name>
            </trkpt>
            <trkpt lat="46.5118631" lon="11.7454097">
                <ele>2360.9</ele>
                <time>2021-09-25T10:04:38.000Z</time>
                <name>Position 143</name>
            </trkpt>
            <trkpt lat="46.5116882" lon="11.7453473">
                <ele>2353.2</ele>
                <time>2021-09-25T10:05:10.000Z</time>
                <name>Position 144</name>
            </trkpt>
            <trkpt lat="46.5115252" lon="11.7454765">
                <ele>2344.2</ele>
                <time>2021-09-25T10:05:30.000Z</time>
                <name>Position 145</name>
            </trkpt>
            <trkpt lat="46.5113543" lon="11.7453681">
                <ele>2337.8</ele>
                <time>2021-09-25T10:05:50.000Z</time>
                <name>Position 146</name>
            </trkpt>
            <trkpt lat="46.5111529" lon="11.7449856">
                <ele>2329.6</ele>
                <time>2021-09-25T10:06:10.000Z</time>
                <name>Position 147</name>
            </trkpt>
            <trkpt lat="46.5112675" lon="11.7454207">
                <ele>2325.4</ele>
                <time>2021-09-25T10:06:26.000Z</time>
                <name>Position 148</name>
            </trkpt>
            <trkpt lat="46.5112727" lon="11.7456984">
                <ele>2320.3</ele>
                <time>2021-09-25T10:06:42.000Z</time>
                <name>Position 149</name>
            </trkpt>
            <trkpt lat="46.5112327" lon="11.745957">
                <ele>2315.3</ele>
                <time>2021-09-25T10:06:58.000Z</time>
                <name>Position 150</name>
            </trkpt>
            <trkpt lat="46.5112296" lon="11.7462343">
                <ele>2311.1</ele>
                <time>2021-09-25T10:07:14.000Z</time>
                <name>Position 151</name>
            </trkpt>
            <trkpt lat="46.5110399" lon="11.7462657">
                <ele>2302.6</ele>
                <time>2021-09-25T10:07:50.000Z</time>
                <name>Position 152</name>
            </trkpt>
            <trkpt lat="46.5109111" lon="11.7464739">
                <ele>2296.4</ele>
                <time>2021-09-25T10:08:08.000Z</time>
                <name>Position 153</name>
            </trkpt>
            <trkpt lat="46.5107711" lon="11.7466523">
                <ele>2291.4</ele>
                <time>2021-09-25T10:08:32.000Z</time>
                <name>Position 154</name>
            </trkpt>
            <trkpt lat="46.5106373" lon="11.7468455">
                <ele>2287.6</ele>
                <time>2021-09-25T10:08:52.000Z</time>
                <name>Position 155</name>
            </trkpt>
            <trkpt lat="46.5104962" lon="11.7470325">
                <ele>2282.1</ele>
                <time>2021-09-25T10:09:14.000Z</time>
                <name>Position 156</name>
            </trkpt>
            <trkpt lat="46.5104571" lon="11.7473007">
                <ele>2276.7</ele>
                <time>2021-09-25T10:09:34.000Z</time>
                <name>Position 157</name>
            </trkpt>
            <trkpt lat="46.5103163" lon="11.7474718">
                <ele>2268.9</ele>
                <time>2021-09-25T10:10:04.000Z</time>
                <name>Position 158</name>
            </trkpt>
            <trkpt lat="46.5102168" lon="11.7476918">
                <ele>2266.5</ele>
                <time>2021-09-25T10:10:22.000Z</time>
                <name>Position 159</name>
            </trkpt>
            <trkpt lat="46.5101932" lon="11.7479594">
                <ele>2265.0</ele>
                <time>2021-09-25T10:10:44.000Z</time>
                <name>Position 160</name>
            </trkpt>
            <trkpt lat="46.5101451" lon="11.7482153">
                <ele>2261.4</ele>
                <time>2021-09-25T10:11:04.000Z</time>
                <name>Position 161</name>
            </trkpt>
            <trkpt lat="46.5100405" lon="11.7484557">
                <ele>2257.1</ele>
                <time>2021-09-25T10:11:28.000Z</time>
                <name>Position 162</name>
            </trkpt>
            <trkpt lat="46.5100214" lon="11.7487401">
                <ele>2254.5</ele>
                <time>2021-09-25T10:11:46.000Z</time>
                <name>Position 163</name>
            </trkpt>
            <trkpt lat="46.5099284" lon="11.7490047">
                <ele>2250.3</ele>
                <time>2021-09-25T10:12:04.000Z</time>
                <name>Position 164</name>
            </trkpt>
            <trkpt lat="46.5098134" lon="11.7492227">
                <ele>2248.4</ele>
                <time>2021-09-25T10:12:22.000Z</time>
                <name>Position 165</name>
            </trkpt>
            <trkpt lat="46.5097356" lon="11.7494635">
                <ele>2246.5</ele>
                <time>2021-09-25T10:12:38.000Z</time>
                <name>Position 166</name>
            </trkpt>
            <trkpt lat="46.5096624" lon="11.7497398">
                <ele>2242.4</ele>
                <time>2021-09-25T10:13:30.000Z</time>
                <name>Position 167</name>
            </trkpt>
            <trkpt lat="46.509556" lon="11.7499672">
                <ele>2239.2</ele>
                <time>2021-09-25T10:13:46.000Z</time>
                <name>Position 168</name>
            </trkpt>
            <trkpt lat="46.509436" lon="11.7501796">
                <ele>2236.0</ele>
                <time>2021-09-25T10:14:00.000Z</time>
                <name>Position 169</name>
            </trkpt>
            <trkpt lat="46.5092933" lon="11.7503561">
                <ele>2235.0</ele>
                <time>2021-09-25T10:14:16.000Z</time>
                <name>Position 170</name>
            </trkpt>
            <trkpt lat="46.5092599" lon="11.7506418">
                <ele>2231.3</ele>
                <time>2021-09-25T10:14:34.000Z</time>
                <name>Position 171</name>
            </trkpt>
            <trkpt lat="46.5091984" lon="11.7509293">
                <ele>2228.2</ele>
                <time>2021-09-25T10:14:50.000Z</time>
                <name>Position 172</name>
            </trkpt>
            <trkpt lat="46.5091177" lon="11.7511847">
                <ele>2226.6</ele>
                <time>2021-09-25T10:15:36.000Z</time>
                <name>Position 173</name>
            </trkpt>
            <trkpt lat="46.5090923" lon="11.7514702">
                <ele>2227.1</ele>
                <time>2021-09-25T10:17:26.000Z</time>
                <name>Position 174</name>
            </trkpt>
            <trkpt lat="46.5091767" lon="11.7517098">
                <ele>2226.1</ele>
                <time>2021-09-25T10:17:44.000Z</time>
                <name>Position 175</name>
            </trkpt>
            <trkpt lat="46.5091531" lon="11.7519747">
                <ele>2222.7</ele>
                <time>2021-09-25T10:18:00.000Z</time>
                <name>Position 176</name>
            </trkpt>
            <trkpt lat="46.5090381" lon="11.7522005">
                <ele>2218.9</ele>
                <time>2021-09-25T10:18:20.000Z</time>
                <name>Position 177</name>
            </trkpt>
            <trkpt lat="46.5088899" lon="11.7523822">
                <ele>2214.7</ele>
                <time>2021-09-25T10:18:36.000Z</time>
                <name>Position 178</name>
            </trkpt>
            <trkpt lat="46.5087834" lon="11.7526227">
                <ele>2208.5</ele>
                <time>2021-09-25T10:18:55.000Z</time>
                <name>Position 179</name>
            </trkpt>
            <trkpt lat="46.5087244" lon="11.7528867">
                <ele>2203.9</ele>
                <time>2021-09-25T10:19:11.000Z</time>
                <name>Position 180</name>
            </trkpt>
            <trkpt lat="46.5087389" lon="11.7531876">
                <ele>2200.2</ele>
                <time>2021-09-25T10:19:27.000Z</time>
                <name>Position 181</name>
            </trkpt>
            <trkpt lat="46.5087255" lon="11.7534759">
                <ele>2196.7</ele>
                <time>2021-09-25T10:19:43.000Z</time>
                <name>Position 182</name>
            </trkpt>
            <trkpt lat="46.5087593" lon="11.7537412">
                <ele>2193.9</ele>
                <time>2021-09-25T10:19:57.000Z</time>
                <name>Position 183</name>
            </trkpt>
            <trkpt lat="46.5087598" lon="11.754015">
                <ele>2190.8</ele>
                <time>2021-09-25T10:20:11.000Z</time>
                <name>Position 184</name>
            </trkpt>
            <trkpt lat="46.5088084" lon="11.7542729">
                <ele>2188.7</ele>
                <time>2021-09-25T10:20:25.000Z</time>
                <name>Position 185</name>
            </trkpt>
            <trkpt lat="46.5088769" lon="11.7545318">
                <ele>2185.7</ele>
                <time>2021-09-25T10:20:39.000Z</time>
                <name>Position 186</name>
            </trkpt>
            <trkpt lat="46.5089556" lon="11.7548067">
                <ele>2183.3</ele>
                <time>2021-09-25T10:20:53.000Z</time>
                <name>Position 187</name>
            </trkpt>
            <trkpt lat="46.5090277" lon="11.7550681">
                <ele>2180.2</ele>
                <time>2021-09-25T10:21:07.000Z</time>
                <name>Position 188</name>
            </trkpt>
            <trkpt lat="46.5090653" lon="11.755355">
                <ele>2177.8</ele>
                <time>2021-09-25T10:21:21.000Z</time>
                <name>Position 189</name>
            </trkpt>
            <trkpt lat="46.50907" lon="11.7556174">
                <ele>2176.4</ele>
                <time>2021-09-25T10:21:35.000Z</time>
                <name>Position 190</name>
            </trkpt>
            <trkpt lat="46.5090183" lon="11.7558808">
                <ele>2177.1</ele>
                <time>2021-09-25T10:21:49.000Z</time>
                <name>Position 191</name>
            </trkpt>
            <trkpt lat="46.5089195" lon="11.7561057">
                <ele>2176.1</ele>
                <time>2021-09-25T10:22:01.000Z</time>
                <name>Position 192</name>
            </trkpt>
            <trkpt lat="46.5088155" lon="11.7563337">
                <ele>2177.1</ele>
                <time>2021-09-25T10:22:17.000Z</time>
                <name>Position 193</name>
            </trkpt>
            <trkpt lat="46.508728" lon="11.756593">
                <ele>2177.3</ele>
                <time>2021-09-25T10:22:31.000Z</time>
                <name>Position 194</name>
            </trkpt>
            <trkpt lat="46.5086814" lon="11.7568824">
                <ele>2176.1</ele>
                <time>2021-09-25T10:22:45.000Z</time>
                <name>Position 195</name>
            </trkpt>
        </trkseg>
    </trk>
</gpx>
