<?xml version="1.0" encoding="UTF-8" standalone="no"?>
<gpx xmlns="http://www.topografix.com/GPX/1/1" creator="OruxMaps v.7.4.22" version="1.1">
  <wpt lat="45.7578322" lon="10.8304179">
    <ele>602.80</ele>
    <time>2020-06-21T09:15:37Z</time>
    <name><![CDATA[0000043]]></name>
    <sym>Waypoint</sym>
    <type>Wegpunkt</type>
    <extensions>
      <om:oruxmapsextensions xmlns:om="http://www.oruxmaps.com/oruxmapsextensions/1/0">
        <om:ext type="ICON" subtype="0">1</om:ext>
      </om:oruxmapsextensions>
    </extensions>
  </wpt>
  <trk>
    <name><![CDATA[2020-06-21 10:03]]></name>
    <desc><![CDATA[<p>Startzeit: 10:03 21.06.2020<br/>Zielzeit: 15:01 21.06.2020<br/>Strecke: 6,3 km (04:57)<br/>Bewegungszeit: 01:48<br/>Ø-Geschwindigkeit: 1,26 km/h<br/>Netto-Geschwindigkeit: 3,48 km/h<br/>Max. Geschwindigkeit: 7,67 km/h<br/>Minimale Höhe: 428 m<br/>Maximale Höhe: 1132 m<br/>Steig-Geschw.: 188,1 m/h<br/>Sink-Geschw.: -620,6 m/h<br/>Aufstieg: 715 m<br/>Abstieg: -721 m<br/>Steigzeit: 03:48<br/>Sinkzeit: 01:09<br/></p><hr align="center" width="480" style="height: 2px; width: 517px"/>]]></desc>
    <type>Berg/ Bergsteigen</type>
    <trkseg>
      <trkpt lat="45.7693091" lon="10.8317728">
        <ele>560.23</ele>
      </trkpt>
      <trkpt lat="45.7691713" lon="10.8315892">
        <ele>556.64</ele>
      </trkpt>
      <trkpt lat="45.7690037" lon="10.8317369">
        <ele>556.47</ele>
      </trkpt>
      <trkpt lat="45.7689827" lon="10.8320166">
        <ele>556.68</ele>
      </trkpt>
      <trkpt lat="45.7688729" lon="10.8322315">
        <ele>561.94</ele>
      </trkpt>
      <trkpt lat="45.7687561" lon="10.8324502">
        <ele>564.82</ele>
      </trkpt>
      <trkpt lat="45.7687153" lon="10.8327119">
        <ele>567.23</ele>
      </trkpt>
      <trkpt lat="45.7687037" lon="10.8330002">
        <ele>570.63</ele>
      </trkpt>
      <trkpt lat="45.7687141" lon="10.8332661">
        <ele>572.85</ele>
      </trkpt>
      <trkpt lat="45.7687350" lon="10.8335419">
        <ele>573.73</ele>
      </trkpt>
      <trkpt lat="45.7687218" lon="10.8338138">
        <ele>573.31</ele>
      </trkpt>
      <trkpt lat="45.7685832" lon="10.8340036">
        <ele>575.16</ele>
      </trkpt>
      <trkpt lat="45.7684179" lon="10.8341543">
        <ele>574.02</ele>
      </trkpt>
      <trkpt lat="45.7682513" lon="10.8342523">
        <ele>573.52</ele>
      </trkpt>
      <trkpt lat="45.7680771" lon="10.8341475">
        <ele>570.80</ele>
      </trkpt>
      <trkpt lat="45.7679945" lon="10.8339169">
        <ele>569.27</ele>
      </trkpt>
      <trkpt lat="45.7678829" lon="10.8337134">
        <ele>568.51</ele>
      </trkpt>
      <trkpt lat="45.7677047" lon="10.8335862">
        <ele>564.81</ele>
      </trkpt>
      <trkpt lat="45.7675051" lon="10.8336553">
        <ele>559.83</ele>
      </trkpt>
      <trkpt lat="45.7673188" lon="10.8336338">
        <ele>556.67</ele>
      </trkpt>
      <trkpt lat="45.7672082" lon="10.8333959">
        <ele>555.55</ele>
      </trkpt>
      <trkpt lat="45.7670742" lon="10.8332192">
        <ele>555.68</ele>
      </trkpt>
      <trkpt lat="45.7668902" lon="10.8332728">
        <ele>553.81</ele>
      </trkpt>
      <trkpt lat="45.7667029" lon="10.8334059">
        <ele>551.13</ele>
      </trkpt>
      <trkpt lat="45.7665481" lon="10.8335415">
        <ele>551.51</ele>
      </trkpt>
      <trkpt lat="45.7663619" lon="10.8336765">
        <ele>551.70</ele>
      </trkpt>
      <trkpt lat="45.7661801" lon="10.8336936">
        <ele>553.69</ele>
      </trkpt>
      <trkpt lat="45.7659768" lon="10.8337297">
        <ele>554.98</ele>
      </trkpt>
      <trkpt lat="45.7661646" lon="10.8337304">
        <ele>558.23</ele>
      </trkpt>
      <trkpt lat="45.7662267" lon="10.8334787">
        <ele>551.81</ele>
      </trkpt>
      <trkpt lat="45.7660505" lon="10.8334231">
        <ele>547.51</ele>
      </trkpt>
      <trkpt lat="45.7662316" lon="10.8334498">
        <ele>547.81</ele>
      </trkpt>
      <trkpt lat="45.7663339" lon="10.8336622">
        <ele>550.23</ele>
      </trkpt>
      <trkpt lat="45.7661715" lon="10.8337958">
        <ele>554.87</ele>
      </trkpt>
      <trkpt lat="45.7659770" lon="10.8337915">
        <ele>554.84</ele>
      </trkpt>
      <trkpt lat="45.7658066" lon="10.8336996">
        <ele>557.47</ele>
      </trkpt>
      <trkpt lat="45.7657294" lon="10.8334520">
        <ele>558.93</ele>
      </trkpt>
      <trkpt lat="45.7656355" lon="10.8332199">
        <ele>558.88</ele>
      </trkpt>
      <trkpt lat="45.7654604" lon="10.8330827">
        <ele>557.94</ele>
      </trkpt>
      <trkpt lat="45.7652668" lon="10.8330405">
        <ele>556.83</ele>
      </trkpt>
      <trkpt lat="45.7651182" lon="10.8328654">
        <ele>557.32</ele>
      </trkpt>
      <trkpt lat="45.7649032" lon="10.8327690">
        <ele>555.57</ele>
      </trkpt>
      <trkpt lat="45.7647060" lon="10.8327269">
        <ele>555.57</ele>
      </trkpt>
      <trkpt lat="45.7644904" lon="10.8327336">
        <ele>555.35</ele>
      </trkpt>
      <trkpt lat="45.7646242" lon="10.8325285">
        <ele>543.20</ele>
      </trkpt>
      <trkpt lat="45.7647632" lon="10.8323312">
        <ele>540.27</ele>
      </trkpt>
      <trkpt lat="45.7646370" lon="10.8321417">
        <ele>535.73</ele>
      </trkpt>
      <trkpt lat="45.7644542" lon="10.8321359">
        <ele>530.24</ele>
      </trkpt>
      <trkpt lat="45.7643534" lon="10.8319016">
        <ele>530.41</ele>
      </trkpt>
      <trkpt lat="45.7642409" lon="10.8316659">
        <ele>527.49</ele>
      </trkpt>
      <trkpt lat="45.7641992" lon="10.8313978">
        <ele>523.36</ele>
      </trkpt>
      <trkpt lat="45.7641212" lon="10.8311571">
        <ele>516.72</ele>
      </trkpt>
      <trkpt lat="45.7639515" lon="10.8309996">
        <ele>514.83</ele>
      </trkpt>
      <trkpt lat="45.7638594" lon="10.8307617">
        <ele>513.21</ele>
      </trkpt>
      <trkpt lat="45.7639706" lon="10.8305430">
        <ele>505.56</ele>
      </trkpt>
      <trkpt lat="45.7638117" lon="10.8304043">
        <ele>501.41</ele>
      </trkpt>
      <trkpt lat="45.7636226" lon="10.8304423">
        <ele>497.21</ele>
      </trkpt>
      <trkpt lat="45.7634253" lon="10.8304368">
        <ele>491.57</ele>
      </trkpt>
      <trkpt lat="45.7632284" lon="10.8303677">
        <ele>487.42</ele>
      </trkpt>
      <trkpt lat="45.7632656" lon="10.8301058">
        <ele>483.09</ele>
      </trkpt>
      <trkpt lat="45.7632838" lon="10.8298401">
        <ele>477.87</ele>
      </trkpt>
      <trkpt lat="45.7631311" lon="10.8296625">
        <ele>477.57</ele>
      </trkpt>
      <trkpt lat="45.7629454" lon="10.8296241">
        <ele>478.03</ele>
      </trkpt>
      <trkpt lat="45.7627557" lon="10.8295543">
        <ele>479.11</ele>
      </trkpt>
      <trkpt lat="45.7625739" lon="10.8295660">
        <ele>479.39</ele>
      </trkpt>
      <trkpt lat="45.7623924" lon="10.8295623">
        <ele>477.18</ele>
      </trkpt>
      <trkpt lat="45.7622025" lon="10.8294631">
        <ele>474.95</ele>
      </trkpt>
      <trkpt lat="45.7620218" lon="10.8294104">
        <ele>469.13</ele>
      </trkpt>
      <trkpt lat="45.7618781" lon="10.8292442">
        <ele>465.40</ele>
      </trkpt>
      <trkpt lat="45.7617219" lon="10.8290893">
        <ele>459.74</ele>
      </trkpt>
      <trkpt lat="45.7615887" lon="10.8288951">
        <ele>459.92</ele>
      </trkpt>
      <trkpt lat="45.7614434" lon="10.8286969">
        <ele>456.72</ele>
      </trkpt>
      <trkpt lat="45.7613143" lon="10.8285007">
        <ele>451.72</ele>
      </trkpt>
      <trkpt lat="45.7611497" lon="10.8283850">
        <ele>450.89</ele>
      </trkpt>
      <trkpt lat="45.7610449" lon="10.8281751">
        <ele>450.68</ele>
      </trkpt>
      <trkpt lat="45.7609139" lon="10.8279894">
        <ele>448.29</ele>
      </trkpt>
      <trkpt lat="45.7607299" lon="10.8280222">
        <ele>443.32</ele>
      </trkpt>
      <trkpt lat="45.7605955" lon="10.8278429">
        <ele>440.24</ele>
      </trkpt>
      <trkpt lat="45.7605794" lon="10.8275526">
        <ele>435.93</ele>
      </trkpt>
      <trkpt lat="45.7606897" lon="10.8273294">
        <ele>428.88</ele>
      </trkpt>
      <trkpt lat="45.7606129" lon="10.8270833">
        <ele>432.25</ele>
      </trkpt>
      <trkpt lat="45.7604329" lon="10.8269959">
        <ele>434.71</ele>
      </trkpt>
      <trkpt lat="45.7602457" lon="10.8270077">
        <ele>435.93</ele>
      </trkpt>
      <trkpt lat="45.7600697" lon="10.8270793">
        <ele>437.52</ele>
      </trkpt>
      <trkpt lat="45.7598962" lon="10.8271925">
        <ele>442.04</ele>
      </trkpt>
      <trkpt lat="45.7597361" lon="10.8273424">
        <ele>446.41</ele>
      </trkpt>
      <trkpt lat="45.7595917" lon="10.8274977">
        <ele>453.24</ele>
      </trkpt>
      <trkpt lat="45.7593990" lon="10.8275363">
        <ele>460.72</ele>
      </trkpt>
      <trkpt lat="45.7592071" lon="10.8275932">
        <ele>464.14</ele>
      </trkpt>
      <trkpt lat="45.7590199" lon="10.8275202">
        <ele>467.85</ele>
      </trkpt>
      <trkpt lat="45.7588358" lon="10.8275332">
        <ele>471.00</ele>
      </trkpt>
      <trkpt lat="45.7586604" lon="10.8275999">
        <ele>475.86</ele>
      </trkpt>
      <trkpt lat="45.7585877" lon="10.8278362">
        <ele>480.31</ele>
      </trkpt>
      <trkpt lat="45.7584651" lon="10.8280413">
        <ele>487.90</ele>
      </trkpt>
      <trkpt lat="45.7583370" lon="10.8282482">
        <ele>499.15</ele>
      </trkpt>
      <trkpt lat="45.7582673" lon="10.8285009">
        <ele>512.05</ele>
      </trkpt>
      <trkpt lat="45.7581793" lon="10.8287458">
        <ele>519.49</ele>
      </trkpt>
      <trkpt lat="45.7581763" lon="10.8290143">
        <ele>530.15</ele>
      </trkpt>
      <trkpt lat="45.7581703" lon="10.8292810">
        <ele>540.80</ele>
      </trkpt>
      <trkpt lat="45.7581197" lon="10.8295340">
        <ele>552.86</ele>
      </trkpt>
      <trkpt lat="45.7580095" lon="10.8297393">
        <ele>566.52</ele>
      </trkpt>
      <trkpt lat="45.7579071" lon="10.8299666">
        <ele>579.46</ele>
      </trkpt>
      <trkpt lat="45.7578141" lon="10.8301883">
        <ele>595.20</ele>
      </trkpt>
      <trkpt lat="45.7578694" lon="10.8304392">
        <ele>602.89</ele>
      </trkpt>
      <trkpt lat="45.7579683" lon="10.8306562">
        <ele>621.87</ele>
      </trkpt>
      <trkpt lat="45.7580182" lon="10.8309043">
        <ele>642.49</ele>
      </trkpt>
      <trkpt lat="45.7579351" lon="10.8311340">
        <ele>654.46</ele>
      </trkpt>
      <trkpt lat="45.7579971" lon="10.8313771">
        <ele>674.44</ele>
      </trkpt>
      <trkpt lat="45.7579862" lon="10.8316378">
        <ele>694.81</ele>
      </trkpt>
      <trkpt lat="45.7580048" lon="10.8318950">
        <ele>716.61</ele>
      </trkpt>
      <trkpt lat="45.7580837" lon="10.8321296">
        <ele>738.90</ele>
      </trkpt>
      <trkpt lat="45.7580899" lon="10.8323927">
        <ele>758.46</ele>
      </trkpt>
      <trkpt lat="45.7582031" lon="10.8325985">
        <ele>777.92</ele>
      </trkpt>
      <trkpt lat="45.7583111" lon="10.8328165">
        <ele>790.28</ele>
      </trkpt>
      <trkpt lat="45.7583811" lon="10.8330598">
        <ele>811.81</ele>
      </trkpt>
      <trkpt lat="45.7584423" lon="10.8333026">
        <ele>830.99</ele>
      </trkpt>
      <trkpt lat="45.7584917" lon="10.8335588">
        <ele>849.98</ele>
      </trkpt>
      <trkpt lat="45.7584301" lon="10.8338018">
        <ele>866.29</ele>
      </trkpt>
      <trkpt lat="45.7584823" lon="10.8340491">
        <ele>890.82</ele>
      </trkpt>
      <trkpt lat="45.7585133" lon="10.8343056">
        <ele>904.46</ele>
      </trkpt>
      <trkpt lat="45.7586730" lon="10.8344455">
        <ele>917.50</ele>
      </trkpt>
      <trkpt lat="45.7587512" lon="10.8346781">
        <ele>926.06</ele>
      </trkpt>
      <trkpt lat="45.7588614" lon="10.8344724">
        <ele>939.98</ele>
      </trkpt>
      <trkpt lat="45.7586900" lon="10.8345553">
        <ele>950.91</ele>
      </trkpt>
      <trkpt lat="45.7587412" lon="10.8348151">
        <ele>979.25</ele>
      </trkpt>
      <trkpt lat="45.7587092" lon="10.8350725">
        <ele>967.63</ele>
      </trkpt>
      <trkpt lat="45.7586459" lon="10.8353187">
        <ele>977.79</ele>
      </trkpt>
      <trkpt lat="45.7586322" lon="10.8355827">
        <ele>987.40</ele>
      </trkpt>
      <trkpt lat="45.7584904" lon="10.8357486">
        <ele>1011.44</ele>
      </trkpt>
      <trkpt lat="45.7583853" lon="10.8359640">
        <ele>1013.18</ele>
      </trkpt>
      <trkpt lat="45.7581996" lon="10.8359692">
        <ele>1044.64</ele>
      </trkpt>
      <trkpt lat="45.7580208" lon="10.8360685">
        <ele>1058.88</ele>
      </trkpt>
      <trkpt lat="45.7578388" lon="10.8360387">
        <ele>1071.19</ele>
      </trkpt>
      <trkpt lat="45.7576563" lon="10.8360301">
        <ele>1086.98</ele>
      </trkpt>
      <trkpt lat="45.7574854" lon="10.8358891">
        <ele>1100.35</ele>
      </trkpt>
      <trkpt lat="45.7572982" lon="10.8358953">
        <ele>1107.72</ele>
      </trkpt>
      <trkpt lat="45.7572200" lon="10.8361412">
        <ele>1123.32</ele>
      </trkpt>
      <trkpt lat="45.7570591" lon="10.8362970">
        <ele>1132.45</ele>
      </trkpt>
      <trkpt lat="45.7572399" lon="10.8362848">
        <ele>1128.26</ele>
      </trkpt>
      <trkpt lat="45.7573846" lon="10.8364510">
        <ele>1124.41</ele>
      </trkpt>
      <trkpt lat="45.7574707" lon="10.8367035">
        <ele>1120.45</ele>
      </trkpt>
      <trkpt lat="45.7575570" lon="10.8369413">
        <ele>1116.68</ele>
      </trkpt>
      <trkpt lat="45.7576811" lon="10.8371657">
        <ele>1113.28</ele>
      </trkpt>
      <trkpt lat="45.7578347" lon="10.8373485">
        <ele>1108.21</ele>
      </trkpt>
      <trkpt lat="45.7580122" lon="10.8374305">
        <ele>1102.89</ele>
      </trkpt>
      <trkpt lat="45.7581834" lon="10.8376227">
        <ele>1096.75</ele>
      </trkpt>
      <trkpt lat="45.7582424" lon="10.8378865">
        <ele>1091.39</ele>
      </trkpt>
      <trkpt lat="45.7582890" lon="10.8381623">
        <ele>1088.08</ele>
      </trkpt>
      <trkpt lat="45.7583458" lon="10.8384242">
        <ele>1084.61</ele>
      </trkpt>
      <trkpt lat="45.7584113" lon="10.8386686">
        <ele>1082.13</ele>
      </trkpt>
      <trkpt lat="45.7584129" lon="10.8389394">
        <ele>1078.92</ele>
      </trkpt>
      <trkpt lat="45.7584024" lon="10.8392199">
        <ele>1075.17</ele>
      </trkpt>
      <trkpt lat="45.7584233" lon="10.8394817">
        <ele>1071.50</ele>
      </trkpt>
      <trkpt lat="45.7585283" lon="10.8397036">
        <ele>1068.68</ele>
      </trkpt>
      <trkpt lat="45.7586848" lon="10.8398972">
        <ele>1063.86</ele>
      </trkpt>
      <trkpt lat="45.7588705" lon="10.8399187">
        <ele>1059.60</ele>
      </trkpt>
      <trkpt lat="45.7590583" lon="10.8399321">
        <ele>1053.82</ele>
      </trkpt>
      <trkpt lat="45.7592405" lon="10.8399099">
        <ele>1049.39</ele>
      </trkpt>
      <trkpt lat="45.7594166" lon="10.8398464">
        <ele>1045.28</ele>
      </trkpt>
      <trkpt lat="45.7595962" lon="10.8398000">
        <ele>1040.35</ele>
      </trkpt>
      <trkpt lat="45.7597794" lon="10.8398098">
        <ele>1037.41</ele>
      </trkpt>
      <trkpt lat="45.7599628" lon="10.8398180">
        <ele>1032.56</ele>
      </trkpt>
      <trkpt lat="45.7601722" lon="10.8398467">
        <ele>1028.97</ele>
      </trkpt>
      <trkpt lat="45.7603609" lon="10.8398748">
        <ele>1025.66</ele>
      </trkpt>
      <trkpt lat="45.7605676" lon="10.8398377">
        <ele>1021.85</ele>
      </trkpt>
      <trkpt lat="45.7607607" lon="10.8398109">
        <ele>1017.30</ele>
      </trkpt>
      <trkpt lat="45.7609610" lon="10.8398277">
        <ele>1015.06</ele>
      </trkpt>
      <trkpt lat="45.7611292" lon="10.8399254">
        <ele>1010.53</ele>
      </trkpt>
      <trkpt lat="45.7611412" lon="10.8402006">
        <ele>1004.32</ele>
      </trkpt>
      <trkpt lat="45.7611584" lon="10.8404841">
        <ele>999.92</ele>
      </trkpt>
      <trkpt lat="45.7612035" lon="10.8407389">
        <ele>996.04</ele>
      </trkpt>
      <trkpt lat="45.7613704" lon="10.8408771">
        <ele>992.52</ele>
      </trkpt>
      <trkpt lat="45.7615448" lon="10.8409590">
        <ele>991.42</ele>
      </trkpt>
      <trkpt lat="45.7617367" lon="10.8410175">
        <ele>989.31</ele>
      </trkpt>
      <trkpt lat="45.7619243" lon="10.8410954">
        <ele>989.17</ele>
      </trkpt>
      <trkpt lat="45.7621070" lon="10.8409948">
        <ele>988.35</ele>
      </trkpt>
      <trkpt lat="45.7622937" lon="10.8409182">
        <ele>988.10</ele>
      </trkpt>
      <trkpt lat="45.7624904" lon="10.8408325">
        <ele>987.33</ele>
      </trkpt>
      <trkpt lat="45.7626585" lon="10.8407326">
        <ele>986.46</ele>
      </trkpt>
      <trkpt lat="45.7628658" lon="10.8408250">
        <ele>985.03</ele>
      </trkpt>
      <trkpt lat="45.7630582" lon="10.8409369">
        <ele>982.36</ele>
      </trkpt>
      <trkpt lat="45.7632057" lon="10.8411148">
        <ele>981.62</ele>
      </trkpt>
      <trkpt lat="45.7632838" lon="10.8413529">
        <ele>979.46</ele>
      </trkpt>
      <trkpt lat="45.7633373" lon="10.8416032">
        <ele>976.08</ele>
      </trkpt>
      <trkpt lat="45.7633583" lon="10.8418671">
        <ele>972.37</ele>
      </trkpt>
      <trkpt lat="45.7632864" lon="10.8421425">
        <ele>970.58</ele>
      </trkpt>
      <trkpt lat="45.7632624" lon="10.8424288">
        <ele>968.38</ele>
      </trkpt>
      <trkpt lat="45.7632110" lon="10.8426884">
        <ele>964.93</ele>
      </trkpt>
      <trkpt lat="45.7632294" lon="10.8429486">
        <ele>962.73</ele>
      </trkpt>
      <trkpt lat="45.7633225" lon="10.8431826">
        <ele>960.57</ele>
      </trkpt>
      <trkpt lat="45.7634579" lon="10.8433623">
        <ele>957.45</ele>
      </trkpt>
      <trkpt lat="45.7636279" lon="10.8435022">
        <ele>955.64</ele>
      </trkpt>
      <trkpt lat="45.7638005" lon="10.8436375">
        <ele>951.37</ele>
      </trkpt>
      <trkpt lat="45.7639667" lon="10.8437425">
        <ele>946.29</ele>
      </trkpt>
      <trkpt lat="45.7641604" lon="10.8438085">
        <ele>942.37</ele>
      </trkpt>
      <trkpt lat="45.7643389" lon="10.8437250">
        <ele>938.63</ele>
      </trkpt>
      <trkpt lat="45.7645112" lon="10.8436096">
        <ele>934.41</ele>
      </trkpt>
      <trkpt lat="45.7646561" lon="10.8434351">
        <ele>930.77</ele>
      </trkpt>
      <trkpt lat="45.7648432" lon="10.8434418">
        <ele>925.91</ele>
      </trkpt>
      <trkpt lat="45.7650499" lon="10.8434274">
        <ele>918.26</ele>
      </trkpt>
      <trkpt lat="45.7652318" lon="10.8433515">
        <ele>917.00</ele>
      </trkpt>
      <trkpt lat="45.7654206" lon="10.8433627">
        <ele>913.94</ele>
      </trkpt>
      <trkpt lat="45.7656075" lon="10.8433479">
        <ele>908.53</ele>
      </trkpt>
      <trkpt lat="45.7658002" lon="10.8432602">
        <ele>904.04</ele>
      </trkpt>
      <trkpt lat="45.7659857" lon="10.8431932">
        <ele>900.40</ele>
      </trkpt>
      <trkpt lat="45.7661749" lon="10.8431704">
        <ele>897.78</ele>
      </trkpt>
      <trkpt lat="45.7663278" lon="10.8430215">
        <ele>895.64</ele>
      </trkpt>
      <trkpt lat="45.7664779" lon="10.8428637">
        <ele>892.94</ele>
      </trkpt>
      <trkpt lat="45.7666320" lon="10.8426968">
        <ele>888.99</ele>
      </trkpt>
      <trkpt lat="45.7667962" lon="10.8425785">
        <ele>885.01</ele>
      </trkpt>
      <trkpt lat="45.7669815" lon="10.8425150">
        <ele>881.29</ele>
      </trkpt>
      <trkpt lat="45.7671671" lon="10.8424762">
        <ele>877.03</ele>
      </trkpt>
      <trkpt lat="45.7673669" lon="10.8424623">
        <ele>872.73</ele>
      </trkpt>
      <trkpt lat="45.7675530" lon="10.8424360">
        <ele>868.97</ele>
      </trkpt>
      <trkpt lat="45.7677369" lon="10.8423385">
        <ele>865.44</ele>
      </trkpt>
      <trkpt lat="45.7677322" lon="10.8420765">
        <ele>861.76</ele>
      </trkpt>
      <trkpt lat="45.7675646" lon="10.8419323">
        <ele>857.65</ele>
      </trkpt>
      <trkpt lat="45.7674499" lon="10.8417054">
        <ele>853.18</ele>
      </trkpt>
      <trkpt lat="45.7673120" lon="10.8414943">
        <ele>849.53</ele>
      </trkpt>
      <trkpt lat="45.7671282" lon="10.8413658">
        <ele>844.67</ele>
      </trkpt>
      <trkpt lat="45.7669362" lon="10.8413395">
        <ele>841.87</ele>
      </trkpt>
      <trkpt lat="45.7667413" lon="10.8412956">
        <ele>837.31</ele>
      </trkpt>
      <trkpt lat="45.7665496" lon="10.8412286">
        <ele>833.36</ele>
      </trkpt>
      <trkpt lat="45.7663820" lon="10.8411066">
        <ele>829.51</ele>
      </trkpt>
      <trkpt lat="45.7664587" lon="10.8408575">
        <ele>822.94</ele>
      </trkpt>
      <trkpt lat="45.7666537" lon="10.8407515">
        <ele>817.91</ele>
      </trkpt>
      <trkpt lat="45.7668147" lon="10.8406144">
        <ele>813.07</ele>
      </trkpt>
      <trkpt lat="45.7669162" lon="10.8404009">
        <ele>807.40</ele>
      </trkpt>
      <trkpt lat="45.7668444" lon="10.8401605">
        <ele>804.91</ele>
      </trkpt>
      <trkpt lat="45.7667100" lon="10.8399633">
        <ele>801.41</ele>
      </trkpt>
      <trkpt lat="45.7665545" lon="10.8397914">
        <ele>798.03</ele>
      </trkpt>
      <trkpt lat="45.7664706" lon="10.8395214">
        <ele>794.04</ele>
      </trkpt>
      <trkpt lat="45.7664883" lon="10.8392560">
        <ele>789.47</ele>
      </trkpt>
      <trkpt lat="45.7665434" lon="10.8389710">
        <ele>786.25</ele>
      </trkpt>
      <trkpt lat="45.7665481" lon="10.8386911">
        <ele>783.93</ele>
      </trkpt>
      <trkpt lat="45.7665652" lon="10.8384280">
        <ele>779.27</ele>
      </trkpt>
      <trkpt lat="45.7665454" lon="10.8381699">
        <ele>776.06</ele>
      </trkpt>
      <trkpt lat="45.7667148" lon="10.8380553">
        <ele>769.46</ele>
      </trkpt>
      <trkpt lat="45.7668286" lon="10.8382612">
        <ele>764.54</ele>
      </trkpt>
      <trkpt lat="45.7670178" lon="10.8383807">
        <ele>760.65</ele>
      </trkpt>
      <trkpt lat="45.7672023" lon="10.8384604">
        <ele>756.66</ele>
      </trkpt>
      <trkpt lat="45.7673976" lon="10.8384467">
        <ele>752.19</ele>
      </trkpt>
      <trkpt lat="45.7675816" lon="10.8384115">
        <ele>746.45</ele>
      </trkpt>
      <trkpt lat="45.7677232" lon="10.8382265">
        <ele>743.39</ele>
      </trkpt>
      <trkpt lat="45.7678778" lon="10.8380127">
        <ele>739.58</ele>
      </trkpt>
      <trkpt lat="45.7680368" lon="10.8378583">
        <ele>735.10</ele>
      </trkpt>
      <trkpt lat="45.7682296" lon="10.8378409">
        <ele>729.87</ele>
      </trkpt>
      <trkpt lat="45.7684176" lon="10.8378182">
        <ele>725.17</ele>
      </trkpt>
      <trkpt lat="45.7685998" lon="10.8378548">
        <ele>721.48</ele>
      </trkpt>
      <trkpt lat="45.7687861" lon="10.8379381">
        <ele>719.10</ele>
      </trkpt>
      <trkpt lat="45.7688994" lon="10.8381536">
        <ele>716.82</ele>
      </trkpt>
      <trkpt lat="45.7690282" lon="10.8383755">
        <ele>713.07</ele>
      </trkpt>
      <trkpt lat="45.7692182" lon="10.8382744">
        <ele>710.31</ele>
      </trkpt>
      <trkpt lat="45.7694048" lon="10.8381245">
        <ele>707.87</ele>
      </trkpt>
      <trkpt lat="45.7695531" lon="10.8379763">
        <ele>704.46</ele>
      </trkpt>
      <trkpt lat="45.7697282" lon="10.8379132">
        <ele>701.40</ele>
      </trkpt>
      <trkpt lat="45.7699043" lon="10.8378306">
        <ele>696.52</ele>
      </trkpt>
      <trkpt lat="45.7700988" lon="10.8377230">
        <ele>691.78</ele>
      </trkpt>
      <trkpt lat="45.7702739" lon="10.8376386">
        <ele>687.69</ele>
      </trkpt>
      <trkpt lat="45.7704328" lon="10.8374883">
        <ele>684.19</ele>
      </trkpt>
      <trkpt lat="45.7706145" lon="10.8373956">
        <ele>680.10</ele>
      </trkpt>
      <trkpt lat="45.7708043" lon="10.8372882">
        <ele>675.08</ele>
      </trkpt>
      <trkpt lat="45.7710112" lon="10.8372370">
        <ele>670.65</ele>
      </trkpt>
      <trkpt lat="45.7712053" lon="10.8371742">
        <ele>667.71</ele>
      </trkpt>
      <trkpt lat="45.7713636" lon="10.8370034">
        <ele>664.85</ele>
      </trkpt>
      <trkpt lat="45.7715150" lon="10.8368311">
        <ele>661.57</ele>
      </trkpt>
      <trkpt lat="45.7716792" lon="10.8366769">
        <ele>656.42</ele>
      </trkpt>
      <trkpt lat="45.7717613" lon="10.8364129">
        <ele>652.61</ele>
      </trkpt>
      <trkpt lat="45.7717097" lon="10.8361658">
        <ele>648.78</ele>
      </trkpt>
      <trkpt lat="45.7715745" lon="10.8359925">
        <ele>645.15</ele>
      </trkpt>
      <trkpt lat="45.7714608" lon="10.8357860">
        <ele>641.22</ele>
      </trkpt>
      <trkpt lat="45.7713177" lon="10.8356051">
        <ele>638.24</ele>
      </trkpt>
      <trkpt lat="45.7711736" lon="10.8354450">
        <ele>634.63</ele>
      </trkpt>
      <trkpt lat="45.7709930" lon="10.8354751">
        <ele>628.54</ele>
      </trkpt>
      <trkpt lat="45.7707911" lon="10.8354551">
        <ele>624.39</ele>
      </trkpt>
      <trkpt lat="45.7705960" lon="10.8353799">
        <ele>618.85</ele>
      </trkpt>
      <trkpt lat="45.7703955" lon="10.8353151">
        <ele>615.32</ele>
      </trkpt>
      <trkpt lat="45.7702214" lon="10.8351886">
        <ele>613.03</ele>
      </trkpt>
      <trkpt lat="45.7700382" lon="10.8350812">
        <ele>608.63</ele>
      </trkpt>
      <trkpt lat="45.7698670" lon="10.8349563">
        <ele>605.65</ele>
      </trkpt>
      <trkpt lat="45.7697024" lon="10.8347919">
        <ele>601.44</ele>
      </trkpt>
      <trkpt lat="45.7695337" lon="10.8346799">
        <ele>596.45</ele>
      </trkpt>
      <trkpt lat="45.7693795" lon="10.8345367">
        <ele>593.62</ele>
      </trkpt>
      <trkpt lat="45.7692834" lon="10.8342900">
        <ele>590.22</ele>
      </trkpt>
      <trkpt lat="45.7691413" lon="10.8340743">
        <ele>587.20</ele>
      </trkpt>
      <trkpt lat="45.7690263" lon="10.8338593">
        <ele>583.48</ele>
      </trkpt>
      <trkpt lat="45.7689131" lon="10.8336453">
        <ele>579.96</ele>
      </trkpt>
      <trkpt lat="45.7687987" lon="10.8333971">
        <ele>577.05</ele>
      </trkpt>
      <trkpt lat="45.7687546" lon="10.8331436">
        <ele>574.55</ele>
      </trkpt>
      <trkpt lat="45.7687567" lon="10.8328536">
        <ele>571.63</ele>
      </trkpt>
      <trkpt lat="45.7687678" lon="10.8325646">
        <ele>569.68</ele>
      </trkpt>
      <trkpt lat="45.7689553" lon="10.8324100">
        <ele>565.32</ele>
      </trkpt>
      <trkpt lat="45.7690121" lon="10.8321553">
        <ele>561.68</ele>
      </trkpt>
      <trkpt lat="45.7690474" lon="10.8318710">
        <ele>557.17</ele>
      </trkpt>
      <trkpt lat="45.7691371" lon="10.8316056">
        <ele>554.15</ele>
      </trkpt>
      <trkpt lat="45.7692150" lon="10.8318464">
        <ele>550.69</ele>
      </trkpt>
    </trkseg>
  </trk>
</gpx>