<?xml version="1.0" encoding="UTF-8" standalone="yes"?>
<gpx xmlns:gpxtpx1="http://www.garmin.com/xmlschemas/TrackPointExtension/v1" xmlns="http://www.topografix.com/GPX/1/1" xmlns:trp="http://www.garmin.com/xmlschemas/TripExtensions/v1" xmlns:gpxx="http://www.garmin.com/xmlschemas/GpxExtensions/v3" xmlns:gpxtpx="http://www.garmin.com/xmlschemas/TrackPointExtension/v2" version="1.1" creator="RouteConverter 2.27.2">
    <metadata>
        <name>2020-08-01 07:40</name>
        <link href="https://www.oruxmaps.com">
            <text>OruxMaps</text>
        </link>
        <time>2020-08-01T05:40:00Z</time>
        <bounds minlat="46.8962162" minlon="10.0326997" maxlat="46.9258737" maxlon="10.0517820"/>
    </metadata>
    <trk>
        <name>2020-08-01 07:40</name>
        <desc>&lt;p&gt;Startzeit: 07:39 01.08.2020&lt;br/&gt;Zielzeit: 14:28 01.08.2020&lt;br/&gt;Strecke: 10,
7 km (06:48)&lt;br/&gt;Bewegungszeit: 03:08&lt;br/&gt;Ø-Geschwindigkeit: 1,
57 km/h&lt;br/&gt;Netto-Geschwindigkeit: 3,
39 km/h&lt;br/&gt;Max. Geschwindigkeit: 6,
88 km/h&lt;br/&gt;Minimale Höhe: 1757 m&lt;br/&gt;Maximale Höhe: 2720 m&lt;br/&gt;Steig-Geschw.: 221,
3 m/h&lt;br/&gt;Sink-Geschw.: -343,
8 m/h&lt;br/&gt;Aufstieg: 919 m&lt;br/&gt;Abstieg: -906 m&lt;br/&gt;Steigzeit: 04:09&lt;br/&gt;Sinkzeit: 02:38&lt;br/&gt;&lt;/p&gt;&lt;hr align="center" width="480" style="height: 2px; width: 517px"/&gt;</desc>
        <type>Berg/ Bergsteigen</type>
        <extensions>
            <om:oruxmapsextensions xmlns:om="http://www.oruxmaps.com/oruxmapsextensions/1/0" xmlns:gpxtpx="http://www.garmin.com/xmlschemas/TrackPointExtension/v1" xmlns:xsi="http://www.w3.org/2001/XMLSchema-instance">
                <om:ext subtype="0" type="TYPE">7</om:ext>
                <om:ext type="DIFFICULTY">0</om:ext>
</om:oruxmapsextensions>
        </extensions>
        <trkseg>
            <trkpt lat="46.9244364" lon="10.051782">
                <ele>1764.0</ele>
                <time>2020-08-01T05:39:56.000Z</time>
                <name>Position 1</name>
            </trkpt>
            <trkpt lat="46.9247238" lon="10.051469">
                <ele>1761.6</ele>
                <time>2020-08-01T05:47:58.000Z</time>
                <name>Position 2</name>
            </trkpt>
            <trkpt lat="46.9250772" lon="10.0512771">
                <ele>1760.4</ele>
                <time>2020-08-01T05:48:30.000Z</time>
                <name>Position 3</name>
            </trkpt>
            <trkpt lat="46.9254273" lon="10.0510904">
                <ele>1757.8</ele>
                <time>2020-08-01T05:49:02.000Z</time>
                <name>Position 4</name>
            </trkpt>
            <trkpt lat="46.9256457" lon="10.0506799">
                <ele>1762.9</ele>
                <time>2020-08-01T05:49:42.000Z</time>
                <name>Position 5</name>
            </trkpt>
            <trkpt lat="46.9258737" lon="10.0502429">
                <ele>1768.5</ele>
                <time>2020-08-01T05:50:26.000Z</time>
                <name>Position 6</name>
            </trkpt>
            <trkpt lat="46.925625" lon="10.0498676">
                <ele>1775.6</ele>
                <time>2020-08-01T05:52:30.000Z</time>
                <name>Position 7</name>
            </trkpt>
            <trkpt lat="46.9253008" lon="10.0496103">
                <ele>1779.8</ele>
                <time>2020-08-01T05:53:16.000Z</time>
                <name>Position 8</name>
            </trkpt>
            <trkpt lat="46.9256724" lon="10.0495527">
                <ele>1785.5</ele>
                <time>2020-08-01T05:54:02.000Z</time>
                <name>Position 9</name>
            </trkpt>
            <trkpt lat="46.925554" lon="10.0490856">
                <ele>1792.9</ele>
                <time>2020-08-01T05:55:08.000Z</time>
                <name>Position 10</name>
            </trkpt>
            <trkpt lat="46.9252748" lon="10.048726">
                <ele>1795.8</ele>
                <time>2020-08-01T05:55:44.000Z</time>
                <name>Position 11</name>
            </trkpt>
            <trkpt lat="46.9249153" lon="10.048758">
                <ele>1800.4</ele>
                <time>2020-08-01T05:56:22.000Z</time>
                <name>Position 12</name>
            </trkpt>
            <trkpt lat="46.9245292" lon="10.0488688">
                <ele>1807.1</ele>
                <time>2020-08-01T05:57:06.000Z</time>
                <name>Position 13</name>
            </trkpt>
            <trkpt lat="46.9241535" lon="10.0490188">
                <ele>1811.7</ele>
                <time>2020-08-01T05:57:46.000Z</time>
                <name>Position 14</name>
            </trkpt>
            <trkpt lat="46.924124" lon="10.0484872">
                <ele>1819.7</ele>
                <time>2020-08-01T05:58:42.000Z</time>
                <name>Position 15</name>
            </trkpt>
            <trkpt lat="46.9237649" lon="10.0485765">
                <ele>1825.8</ele>
                <time>2020-08-01T05:59:20.000Z</time>
                <name>Position 16</name>
            </trkpt>
            <trkpt lat="46.9234053" lon="10.0487152">
                <ele>1828.2</ele>
                <time>2020-08-01T05:59:54.000Z</time>
                <name>Position 17</name>
            </trkpt>
            <trkpt lat="46.9230877" lon="10.0490106">
                <ele>1828.1</ele>
                <time>2020-08-01T06:00:26.000Z</time>
                <name>Position 18</name>
            </trkpt>
            <trkpt lat="46.9227381" lon="10.0492738">
                <ele>1832.4</ele>
                <time>2020-08-01T06:01:14.000Z</time>
                <name>Position 19</name>
            </trkpt>
            <trkpt lat="46.9224661" lon="10.0496359">
                <ele>1834.5</ele>
                <time>2020-08-01T06:01:46.000Z</time>
                <name>Position 20</name>
            </trkpt>
            <trkpt lat="46.9221722" lon="10.0499883">
                <ele>1835.7</ele>
                <time>2020-08-01T06:02:18.000Z</time>
                <name>Position 21</name>
            </trkpt>
            <trkpt lat="46.9218215" lon="10.0502064">
                <ele>1841.8</ele>
                <time>2020-08-01T06:03:00.000Z</time>
                <name>Position 22</name>
            </trkpt>
            <trkpt lat="46.9214345" lon="10.0503279">
                <ele>1847.2</ele>
                <time>2020-08-01T06:03:40.000Z</time>
                <name>Position 23</name>
            </trkpt>
            <trkpt lat="46.9210763" lon="10.0505593">
                <ele>1850.7</ele>
                <time>2020-08-01T06:04:16.000Z</time>
                <name>Position 24</name>
            </trkpt>
            <trkpt lat="46.9208623" lon="10.050992">
                <ele>1855.1</ele>
                <time>2020-08-01T06:04:50.000Z</time>
                <name>Position 25</name>
            </trkpt>
            <trkpt lat="46.9205195" lon="10.0509197">
                <ele>1863.9</ele>
                <time>2020-08-01T06:08:31.000Z</time>
                <name>Position 26</name>
            </trkpt>
            <trkpt lat="46.9201514" lon="10.0510331">
                <ele>1867.5</ele>
                <time>2020-08-01T06:09:11.000Z</time>
                <name>Position 27</name>
            </trkpt>
            <trkpt lat="46.9197999" lon="10.050929">
                <ele>1872.4</ele>
                <time>2020-08-01T06:09:51.000Z</time>
                <name>Position 28</name>
            </trkpt>
            <trkpt lat="46.9194359" lon="10.0507995">
                <ele>1879.4</ele>
                <time>2020-08-01T06:10:33.000Z</time>
                <name>Position 29</name>
            </trkpt>
            <trkpt lat="46.9190683" lon="10.0507632">
                <ele>1886.9</ele>
                <time>2020-08-01T06:11:19.000Z</time>
                <name>Position 30</name>
            </trkpt>
            <trkpt lat="46.9188067" lon="10.0503508">
                <ele>1895.0</ele>
                <time>2020-08-01T06:12:11.000Z</time>
                <name>Position 31</name>
            </trkpt>
            <trkpt lat="46.9184781" lon="10.0500832">
                <ele>1902.8</ele>
                <time>2020-08-01T06:12:53.000Z</time>
                <name>Position 32</name>
            </trkpt>
            <trkpt lat="46.9181566" lon="10.0498205">
                <ele>1905.6</ele>
                <time>2020-08-01T06:13:31.000Z</time>
                <name>Position 33</name>
            </trkpt>
            <trkpt lat="46.9178223" lon="10.0495107">
                <ele>1909.2</ele>
                <time>2020-08-01T06:14:09.000Z</time>
                <name>Position 34</name>
            </trkpt>
            <trkpt lat="46.9176615" lon="10.049064">
                <ele>1916.5</ele>
                <time>2020-08-01T06:14:49.000Z</time>
                <name>Position 35</name>
            </trkpt>
            <trkpt lat="46.9174989" lon="10.0486491">
                <ele>1922.9</ele>
                <time>2020-08-01T06:15:31.000Z</time>
                <name>Position 36</name>
            </trkpt>
            <trkpt lat="46.9171793" lon="10.0483657">
                <ele>1929.3</ele>
                <time>2020-08-01T06:16:07.000Z</time>
                <name>Position 37</name>
            </trkpt>
            <trkpt lat="46.9168959" lon="10.0479992">
                <ele>1935.9</ele>
                <time>2020-08-01T06:16:49.000Z</time>
                <name>Position 38</name>
            </trkpt>
            <trkpt lat="46.9167091" lon="10.0475127">
                <ele>1944.0</ele>
                <time>2020-08-01T06:17:39.000Z</time>
                <name>Position 39</name>
            </trkpt>
            <trkpt lat="46.9164384" lon="10.0471422">
                <ele>1950.9</ele>
                <time>2020-08-01T06:18:27.000Z</time>
                <name>Position 40</name>
            </trkpt>
            <trkpt lat="46.9161125" lon="10.0468306">
                <ele>1962.2</ele>
                <time>2020-08-01T06:19:15.000Z</time>
                <name>Position 41</name>
            </trkpt>
            <trkpt lat="46.9158326" lon="10.0464864">
                <ele>1970.8</ele>
                <time>2020-08-01T06:20:01.000Z</time>
                <name>Position 42</name>
            </trkpt>
            <trkpt lat="46.9155474" lon="10.0461597">
                <ele>1978.5</ele>
                <time>2020-08-01T06:20:51.000Z</time>
                <name>Position 43</name>
            </trkpt>
            <trkpt lat="46.9153047" lon="10.0457593">
                <ele>1987.3</ele>
                <time>2020-08-01T06:21:37.000Z</time>
                <name>Position 44</name>
            </trkpt>
            <trkpt lat="46.9150957" lon="10.04529">
                <ele>1994.1</ele>
                <time>2020-08-01T06:22:25.000Z</time>
                <name>Position 45</name>
            </trkpt>
            <trkpt lat="46.9149083" lon="10.0448166">
                <ele>2001.3</ele>
                <time>2020-08-01T06:23:11.000Z</time>
                <name>Position 46</name>
            </trkpt>
            <trkpt lat="46.9147139" lon="10.0443448">
                <ele>2008.1</ele>
                <time>2020-08-01T06:23:55.000Z</time>
                <name>Position 47</name>
            </trkpt>
            <trkpt lat="46.9145033" lon="10.0438895">
                <ele>2012.3</ele>
                <time>2020-08-01T06:24:35.000Z</time>
                <name>Position 48</name>
            </trkpt>
            <trkpt lat="46.9142661" lon="10.0434588">
                <ele>2015.5</ele>
                <time>2020-08-01T06:25:19.000Z</time>
                <name>Position 49</name>
            </trkpt>
            <trkpt lat="46.9140593" lon="10.0430196">
                <ele>2019.5</ele>
                <time>2020-08-01T06:25:57.000Z</time>
                <name>Position 50</name>
            </trkpt>
            <trkpt lat="46.9137978" lon="10.042599">
                <ele>2025.8</ele>
                <time>2020-08-01T06:26:37.000Z</time>
                <name>Position 51</name>
            </trkpt>
            <trkpt lat="46.9135131" lon="10.0422316">
                <ele>2031.2</ele>
                <time>2020-08-01T06:27:15.000Z</time>
                <name>Position 52</name>
            </trkpt>
            <trkpt lat="46.9132495" lon="10.0418178">
                <ele>2036.6</ele>
                <time>2020-08-01T06:27:53.000Z</time>
                <name>Position 53</name>
            </trkpt>
            <trkpt lat="46.9130679" lon="10.0413057">
                <ele>2042.7</ele>
                <time>2020-08-01T06:28:37.000Z</time>
                <name>Position 54</name>
            </trkpt>
            <trkpt lat="46.912808" lon="10.0408964">
                <ele>2051.2</ele>
                <time>2020-08-01T06:29:21.000Z</time>
                <name>Position 55</name>
            </trkpt>
            <trkpt lat="46.9130445" lon="10.0405592">
                <ele>2057.2</ele>
                <time>2020-08-01T06:30:13.000Z</time>
                <name>Position 56</name>
            </trkpt>
            <trkpt lat="46.9132826" lon="10.0403391">
                <ele>2075.6</ele>
                <time>2020-08-01T06:30:59.000Z</time>
                <name>Position 57</name>
            </trkpt>
            <trkpt lat="46.9131418" lon="10.0398475">
                <ele>2073.9</ele>
                <time>2020-08-01T06:31:47.000Z</time>
                <name>Position 58</name>
            </trkpt>
            <trkpt lat="46.9128483" lon="10.0394854">
                <ele>2084.7</ele>
                <time>2020-08-01T06:32:33.000Z</time>
                <name>Position 59</name>
            </trkpt>
            <trkpt lat="46.9126088" lon="10.0390772">
                <ele>2089.4</ele>
                <time>2020-08-01T06:33:17.000Z</time>
                <name>Position 60</name>
            </trkpt>
            <trkpt lat="46.9124082" lon="10.0394773">
                <ele>2096.6</ele>
                <time>2020-08-01T06:33:59.000Z</time>
                <name>Position 61</name>
            </trkpt>
            <trkpt lat="46.9120874" lon="10.0392704">
                <ele>2102.6</ele>
                <time>2020-08-01T06:34:41.000Z</time>
                <name>Position 62</name>
            </trkpt>
            <trkpt lat="46.9117369" lon="10.0390372">
                <ele>2109.9</ele>
                <time>2020-08-01T06:35:21.000Z</time>
                <name>Position 63</name>
            </trkpt>
            <trkpt lat="46.9113953" lon="10.0391987">
                <ele>2117.8</ele>
                <time>2020-08-01T06:36:03.000Z</time>
                <name>Position 64</name>
            </trkpt>
            <trkpt lat="46.9113115" lon="10.039754">
                <ele>2118.4</ele>
                <time>2020-08-01T06:36:37.000Z</time>
                <name>Position 65</name>
            </trkpt>
            <trkpt lat="46.9109389" lon="10.0398745">
                <ele>2127.1</ele>
                <time>2020-08-01T06:37:21.000Z</time>
                <name>Position 66</name>
            </trkpt>
            <trkpt lat="46.9107038" lon="10.0394598">
                <ele>2135.5</ele>
                <time>2020-08-01T06:38:13.000Z</time>
                <name>Position 67</name>
            </trkpt>
            <trkpt lat="46.9103652" lon="10.039531">
                <ele>2141.3</ele>
                <time>2020-08-01T06:38:54.000Z</time>
                <name>Position 68</name>
            </trkpt>
            <trkpt lat="46.9100275" lon="10.0397268">
                <ele>2152.5</ele>
                <time>2020-08-01T06:39:46.000Z</time>
                <name>Position 69</name>
            </trkpt>
            <trkpt lat="46.9096642" lon="10.0395782">
                <ele>2159.5</ele>
                <time>2020-08-01T06:40:32.000Z</time>
                <name>Position 70</name>
            </trkpt>
            <trkpt lat="46.9093158" lon="10.0393699">
                <ele>2168.0</ele>
                <time>2020-08-01T06:41:26.000Z</time>
                <name>Position 71</name>
            </trkpt>
            <trkpt lat="46.9091076" lon="10.0389098">
                <ele>2174.9</ele>
                <time>2020-08-01T06:42:24.000Z</time>
                <name>Position 72</name>
            </trkpt>
            <trkpt lat="46.9088215" lon="10.0386436">
                <ele>2184.2</ele>
                <time>2020-08-01T06:43:10.000Z</time>
                <name>Position 73</name>
            </trkpt>
            <trkpt lat="46.9084482" lon="10.0388154">
                <ele>2191.0</ele>
                <time>2020-08-01T06:44:00.000Z</time>
                <name>Position 74</name>
            </trkpt>
            <trkpt lat="46.9080821" lon="10.0389161">
                <ele>2198.0</ele>
                <time>2020-08-01T06:44:44.000Z</time>
                <name>Position 75</name>
            </trkpt>
            <trkpt lat="46.9076897" lon="10.0389631">
                <ele>2205.5</ele>
                <time>2020-08-01T06:45:26.000Z</time>
                <name>Position 76</name>
            </trkpt>
            <trkpt lat="46.9073068" lon="10.0390051">
                <ele>2209.4</ele>
                <time>2020-08-01T06:46:02.000Z</time>
                <name>Position 77</name>
            </trkpt>
            <trkpt lat="46.9069461" lon="10.0391495">
                <ele>2210.0</ele>
                <time>2020-08-01T06:46:36.000Z</time>
                <name>Position 78</name>
            </trkpt>
            <trkpt lat="46.9066094" lon="10.0394757">
                <ele>2210.9</ele>
                <time>2020-08-01T06:47:10.000Z</time>
                <name>Position 79</name>
            </trkpt>
            <trkpt lat="46.9063096" lon="10.0398404">
                <ele>2214.4</ele>
                <time>2020-08-01T06:48:00.000Z</time>
                <name>Position 80</name>
            </trkpt>
            <trkpt lat="46.9059978" lon="10.0401669">
                <ele>2214.7</ele>
                <time>2020-08-01T06:48:28.000Z</time>
                <name>Position 81</name>
            </trkpt>
            <trkpt lat="46.9056417" lon="10.0404092">
                <ele>2215.3</ele>
                <time>2020-08-01T06:49:00.000Z</time>
                <name>Position 82</name>
            </trkpt>
            <trkpt lat="46.9052956" lon="10.0405896">
                <ele>2216.8</ele>
                <time>2020-08-01T06:49:34.000Z</time>
                <name>Position 83</name>
            </trkpt>
            <trkpt lat="46.9049313" lon="10.0407608">
                <ele>2221.0</ele>
                <time>2020-08-01T06:50:12.000Z</time>
                <name>Position 84</name>
            </trkpt>
            <trkpt lat="46.9045873" lon="10.0409817">
                <ele>2226.5</ele>
                <time>2020-08-01T06:50:50.000Z</time>
                <name>Position 85</name>
            </trkpt>
            <trkpt lat="46.904244" lon="10.041181">
                <ele>2236.8</ele>
                <time>2020-08-01T06:51:42.000Z</time>
                <name>Position 86</name>
            </trkpt>
            <trkpt lat="46.9039034" lon="10.0414248">
                <ele>2246.7</ele>
                <time>2020-08-01T06:52:30.000Z</time>
                <name>Position 87</name>
            </trkpt>
            <trkpt lat="46.9035509" lon="10.0416453">
                <ele>2254.1</ele>
                <time>2020-08-01T06:53:16.000Z</time>
                <name>Position 88</name>
            </trkpt>
            <trkpt lat="46.9032071" lon="10.0418378">
                <ele>2259.0</ele>
                <time>2020-08-01T06:53:56.000Z</time>
                <name>Position 89</name>
            </trkpt>
            <trkpt lat="46.9028709" lon="10.0420182">
                <ele>2263.8</ele>
                <time>2020-08-01T06:54:38.000Z</time>
                <name>Position 90</name>
            </trkpt>
            <trkpt lat="46.9024884" lon="10.0421171">
                <ele>2266.2</ele>
                <time>2020-08-01T06:55:12.000Z</time>
                <name>Position 91</name>
            </trkpt>
            <trkpt lat="46.9022685" lon="10.0417107">
                <ele>2267.9</ele>
                <time>2020-08-01T06:56:00.000Z</time>
                <name>Position 92</name>
            </trkpt>
            <trkpt lat="46.901993" lon="10.0413463">
                <ele>2275.0</ele>
                <time>2020-08-01T06:57:02.000Z</time>
                <name>Position 93</name>
            </trkpt>
            <trkpt lat="46.9017252" lon="10.0409839">
                <ele>2284.1</ele>
                <time>2020-08-01T06:58:00.000Z</time>
                <name>Position 94</name>
            </trkpt>
            <trkpt lat="46.9013594" lon="10.0408766">
                <ele>2292.1</ele>
                <time>2020-08-01T06:59:04.000Z</time>
                <name>Position 95</name>
            </trkpt>
            <trkpt lat="46.9010172" lon="10.0407854">
                <ele>2302.3</ele>
                <time>2020-08-01T07:00:18.000Z</time>
                <name>Position 96</name>
            </trkpt>
            <trkpt lat="46.9007522" lon="10.0404205">
                <ele>2319.0</ele>
                <time>2020-08-01T07:01:54.000Z</time>
                <name>Position 97</name>
            </trkpt>
            <trkpt lat="46.9004008" lon="10.0403015">
                <ele>2337.6</ele>
                <time>2020-08-01T07:03:48.000Z</time>
                <name>Position 98</name>
            </trkpt>
            <trkpt lat="46.9000414" lon="10.0402558">
                <ele>2346.0</ele>
                <time>2020-08-01T07:05:14.000Z</time>
                <name>Position 99</name>
            </trkpt>
            <trkpt lat="46.8996635" lon="10.040188">
                <ele>2355.8</ele>
                <time>2020-08-01T07:06:04.000Z</time>
                <name>Position 100</name>
            </trkpt>
            <trkpt lat="46.8993325" lon="10.0399785">
                <ele>2363.2</ele>
                <time>2020-08-01T07:06:56.000Z</time>
                <name>Position 101</name>
            </trkpt>
            <trkpt lat="46.8989668" lon="10.0400107">
                <ele>2377.2</ele>
                <time>2020-08-01T07:08:18.000Z</time>
                <name>Position 102</name>
            </trkpt>
            <trkpt lat="46.8986216" lon="10.0401037">
                <ele>2390.2</ele>
                <time>2020-08-01T07:09:46.000Z</time>
                <name>Position 103</name>
            </trkpt>
            <trkpt lat="46.8982804" lon="10.039954">
                <ele>2401.2</ele>
                <time>2020-08-01T07:11:02.000Z</time>
                <name>Position 104</name>
            </trkpt>
            <trkpt lat="46.8980396" lon="10.039553">
                <ele>2417.8</ele>
                <time>2020-08-01T07:12:46.000Z</time>
                <name>Position 105</name>
            </trkpt>
            <trkpt lat="46.8979124" lon="10.0390626">
                <ele>2424.6</ele>
                <time>2020-08-01T07:14:22.000Z</time>
                <name>Position 106</name>
            </trkpt>
            <trkpt lat="46.8978306" lon="10.0385232">
                <ele>2433.5</ele>
                <time>2020-08-01T07:31:53.000Z</time>
                <name>Position 107</name>
            </trkpt>
            <trkpt lat="46.8976944" lon="10.0380096">
                <ele>2442.1</ele>
                <time>2020-08-01T07:32:43.000Z</time>
                <name>Position 108</name>
            </trkpt>
            <trkpt lat="46.897497" lon="10.0375408">
                <ele>2449.0</ele>
                <time>2020-08-01T07:33:27.000Z</time>
                <name>Position 109</name>
            </trkpt>
            <trkpt lat="46.8972821" lon="10.0370918">
                <ele>2456.9</ele>
                <time>2020-08-01T07:34:11.000Z</time>
                <name>Position 110</name>
            </trkpt>
            <trkpt lat="46.8969861" lon="10.0367634">
                <ele>2462.9</ele>
                <time>2020-08-01T07:34:51.000Z</time>
                <name>Position 111</name>
            </trkpt>
            <trkpt lat="46.8966949" lon="10.0364311">
                <ele>2470.3</ele>
                <time>2020-08-01T07:35:31.000Z</time>
                <name>Position 112</name>
            </trkpt>
            <trkpt lat="46.8964186" lon="10.0360291">
                <ele>2477.7</ele>
                <time>2020-08-01T07:36:13.000Z</time>
                <name>Position 113</name>
            </trkpt>
            <trkpt lat="46.8964485" lon="10.0355471">
                <ele>2483.8</ele>
                <time>2020-08-01T07:37:19.000Z</time>
                <name>Position 114</name>
            </trkpt>
            <trkpt lat="46.8967645" lon="10.0352217">
                <ele>2485.7</ele>
                <time>2020-08-01T07:37:55.000Z</time>
                <name>Position 115</name>
            </trkpt>
            <trkpt lat="46.8971373" lon="10.0350918">
                <ele>2487.4</ele>
                <time>2020-08-01T07:38:29.000Z</time>
                <name>Position 116</name>
            </trkpt>
            <trkpt lat="46.8975199" lon="10.0349728">
                <ele>2490.9</ele>
                <time>2020-08-01T07:39:05.000Z</time>
                <name>Position 117</name>
            </trkpt>
            <trkpt lat="46.8978736" lon="10.0347765">
                <ele>2494.2</ele>
                <time>2020-08-01T07:39:39.000Z</time>
                <name>Position 118</name>
            </trkpt>
            <trkpt lat="46.8981257" lon="10.0351229">
                <ele>2496.6</ele>
                <time>2020-08-01T07:40:13.000Z</time>
                <name>Position 119</name>
            </trkpt>
            <trkpt lat="46.8982591" lon="10.0356693">
                <ele>2496.0</ele>
                <time>2020-08-01T07:40:39.000Z</time>
                <name>Position 120</name>
            </trkpt>
            <trkpt lat="46.8983992" lon="10.0362078">
                <ele>2495.5</ele>
                <time>2020-08-01T07:41:09.000Z</time>
                <name>Position 121</name>
            </trkpt>
            <trkpt lat="46.8984333" lon="10.036775">
                <ele>2497.0</ele>
                <time>2020-08-01T07:41:49.000Z</time>
                <name>Position 122</name>
            </trkpt>
            <trkpt lat="46.8986737" lon="10.0369861">
                <ele>2498.5</ele>
                <time>2020-08-01T07:53:39.000Z</time>
                <name>Position 123</name>
            </trkpt>
            <trkpt lat="46.8986232" lon="10.0364933">
                <ele>2509.8</ele>
                <time>2020-08-01T08:17:56.000Z</time>
                <name>Position 124</name>
            </trkpt>
            <trkpt lat="46.898815" lon="10.0360584">
                <ele>2541.8</ele>
                <time>2020-08-01T08:23:49.000Z</time>
                <name>Position 125</name>
            </trkpt>
            <trkpt lat="46.8988747" lon="10.0355828">
                <ele>2547.4</ele>
                <time>2020-08-01T08:28:57.000Z</time>
                <name>Position 126</name>
            </trkpt>
            <trkpt lat="46.8991897" lon="10.0352191">
                <ele>2598.3</ele>
                <time>2020-08-01T09:04:44.000Z</time>
                <name>Position 127</name>
            </trkpt>
            <trkpt lat="46.8994916" lon="10.0349421">
                <ele>2631.9</ele>
                <time>2020-08-01T09:22:02.000Z</time>
                <name>Position 128</name>
            </trkpt>
            <trkpt lat="46.8994629" lon="10.0344401">
                <ele>2644.1</ele>
                <time>2020-08-01T09:50:17.000Z</time>
                <name>Position 129</name>
            </trkpt>
            <trkpt lat="46.8995797" lon="10.0339074">
                <ele>2653.8</ele>
                <time>2020-08-01T09:56:25.000Z</time>
                <name>Position 130</name>
            </trkpt>
            <trkpt lat="46.8998005" lon="10.0334755">
                <ele>2673.9</ele>
                <time>2020-08-01T09:59:07.000Z</time>
                <name>Position 131</name>
            </trkpt>
            <trkpt lat="46.8997613" lon="10.0329539">
                <ele>2720.8</ele>
                <time>2020-08-01T10:38:59.000Z</time>
                <name>Position 132</name>
            </trkpt>
            <trkpt lat="46.8994841" lon="10.0329189">
                <ele>2652.8</ele>
                <time>2020-08-01T10:51:09.000Z</time>
                <name>Position 133</name>
            </trkpt>
            <trkpt lat="46.8991666" lon="10.0328841">
                <ele>2622.0</ele>
                <time>2020-08-01T11:00:28.000Z</time>
                <name>Position 134</name>
            </trkpt>
            <trkpt lat="46.8988065" lon="10.0330114">
                <ele>2593.9</ele>
                <time>2020-08-01T11:07:00.000Z</time>
                <name>Position 135</name>
            </trkpt>
            <trkpt lat="46.8984859" lon="10.0329842">
                <ele>2572.0</ele>
                <time>2020-08-01T11:09:20.000Z</time>
                <name>Position 136</name>
            </trkpt>
            <trkpt lat="46.8982278" lon="10.0330666">
                <ele>2565.0</ele>
                <time>2020-08-01T11:10:26.000Z</time>
                <name>Position 137</name>
            </trkpt>
            <trkpt lat="46.8983394" lon="10.033588">
                <ele>2548.8</ele>
                <time>2020-08-01T11:11:34.000Z</time>
                <name>Position 138</name>
            </trkpt>
            <trkpt lat="46.8985061" lon="10.0341119">
                <ele>2541.5</ele>
                <time>2020-08-01T11:12:34.000Z</time>
                <name>Position 139</name>
            </trkpt>
            <trkpt lat="46.8986473" lon="10.034625">
                <ele>2532.9</ele>
                <time>2020-08-01T11:13:18.000Z</time>
                <name>Position 140</name>
            </trkpt>
            <trkpt lat="46.898761" lon="10.0351574">
                <ele>2528.8</ele>
                <time>2020-08-01T11:13:54.000Z</time>
                <name>Position 141</name>
            </trkpt>
            <trkpt lat="46.8987396" lon="10.0356935">
                <ele>2521.9</ele>
                <time>2020-08-01T11:14:44.000Z</time>
                <name>Position 142</name>
            </trkpt>
            <trkpt lat="46.8986487" lon="10.0362105">
                <ele>2513.6</ele>
                <time>2020-08-01T11:15:38.000Z</time>
                <name>Position 143</name>
            </trkpt>
            <trkpt lat="46.89853" lon="10.0367149">
                <ele>2504.9</ele>
                <time>2020-08-01T11:16:46.000Z</time>
                <name>Position 144</name>
            </trkpt>
            <trkpt lat="46.8984492" lon="10.0362509">
                <ele>2502.7</ele>
                <time>2020-08-01T11:22:24.000Z</time>
                <name>Position 145</name>
            </trkpt>
            <trkpt lat="46.8983587" lon="10.0356902">
                <ele>2498.9</ele>
                <time>2020-08-01T11:22:54.000Z</time>
                <name>Position 146</name>
            </trkpt>
            <trkpt lat="46.8982021" lon="10.0351587">
                <ele>2498.4</ele>
                <time>2020-08-01T11:23:22.000Z</time>
                <name>Position 147</name>
            </trkpt>
            <trkpt lat="46.8979474" lon="10.0347794">
                <ele>2497.8</ele>
                <time>2020-08-01T11:23:58.000Z</time>
                <name>Position 148</name>
            </trkpt>
            <trkpt lat="46.8975868" lon="10.035048">
                <ele>2493.4</ele>
                <time>2020-08-01T11:24:30.000Z</time>
                <name>Position 149</name>
            </trkpt>
            <trkpt lat="46.8972164" lon="10.035244">
                <ele>2490.7</ele>
                <time>2020-08-01T11:25:00.000Z</time>
                <name>Position 150</name>
            </trkpt>
            <trkpt lat="46.89684" lon="10.035314">
                <ele>2484.6</ele>
                <time>2020-08-01T11:25:28.000Z</time>
                <name>Position 151</name>
            </trkpt>
            <trkpt lat="46.8965093" lon="10.0355521">
                <ele>2485.3</ele>
                <time>2020-08-01T11:26:18.000Z</time>
                <name>Position 152</name>
            </trkpt>
            <trkpt lat="46.8962162" lon="10.0359167">
                <ele>2481.8</ele>
                <time>2020-08-01T11:26:50.000Z</time>
                <name>Position 153</name>
            </trkpt>
            <trkpt lat="46.8964915" lon="10.0362525">
                <ele>2477.1</ele>
                <time>2020-08-01T11:27:35.000Z</time>
                <name>Position 154</name>
            </trkpt>
            <trkpt lat="46.8967982" lon="10.0365489">
                <ele>2469.3</ele>
                <time>2020-08-01T11:28:19.000Z</time>
                <name>Position 155</name>
            </trkpt>
            <trkpt lat="46.8971062" lon="10.0368936">
                <ele>2461.7</ele>
                <time>2020-08-01T11:28:51.000Z</time>
                <name>Position 156</name>
            </trkpt>
            <trkpt lat="46.897371" lon="10.0373126">
                <ele>2457.2</ele>
                <time>2020-08-01T11:29:25.000Z</time>
                <name>Position 157</name>
            </trkpt>
            <trkpt lat="46.8976079" lon="10.0377555">
                <ele>2451.2</ele>
                <time>2020-08-01T11:30:01.000Z</time>
                <name>Position 158</name>
            </trkpt>
            <trkpt lat="46.897809" lon="10.0382008">
                <ele>2445.7</ele>
                <time>2020-08-01T11:30:37.000Z</time>
                <name>Position 159</name>
            </trkpt>
            <trkpt lat="46.8978938" lon="10.0387373">
                <ele>2438.8</ele>
                <time>2020-08-01T11:31:25.000Z</time>
                <name>Position 160</name>
            </trkpt>
            <trkpt lat="46.8980082" lon="10.0392512">
                <ele>2431.7</ele>
                <time>2020-08-01T11:32:11.000Z</time>
                <name>Position 161</name>
            </trkpt>
            <trkpt lat="46.8981865" lon="10.0397512">
                <ele>2420.2</ele>
                <time>2020-08-01T11:33:21.000Z</time>
                <name>Position 162</name>
            </trkpt>
            <trkpt lat="46.8985453" lon="10.039936">
                <ele>2407.2</ele>
                <time>2020-08-01T11:34:27.000Z</time>
                <name>Position 163</name>
            </trkpt>
            <trkpt lat="46.8988638" lon="10.0400887">
                <ele>2393.8</ele>
                <time>2020-08-01T11:35:15.000Z</time>
                <name>Position 164</name>
            </trkpt>
            <trkpt lat="46.8992247" lon="10.0399316">
                <ele>2381.7</ele>
                <time>2020-08-01T11:36:13.000Z</time>
                <name>Position 165</name>
            </trkpt>
            <trkpt lat="46.8995827" lon="10.039979">
                <ele>2366.1</ele>
                <time>2020-08-01T11:37:09.000Z</time>
                <name>Position 166</name>
            </trkpt>
            <trkpt lat="46.8999471" lon="10.0401695">
                <ele>2359.1</ele>
                <time>2020-08-01T11:37:45.000Z</time>
                <name>Position 167</name>
            </trkpt>
            <trkpt lat="46.9003014" lon="10.0403231">
                <ele>2350.7</ele>
                <time>2020-08-01T11:38:21.000Z</time>
                <name>Position 168</name>
            </trkpt>
            <trkpt lat="46.9006593" lon="10.0403142">
                <ele>2334.3</ele>
                <time>2020-08-01T11:39:49.000Z</time>
                <name>Position 169</name>
            </trkpt>
            <trkpt lat="46.900941" lon="10.0406764">
                <ele>2311.8</ele>
                <time>2020-08-01T11:41:09.000Z</time>
                <name>Position 170</name>
            </trkpt>
            <trkpt lat="46.9012501" lon="10.0408611">
                <ele>2301.0</ele>
                <time>2020-08-01T11:41:55.000Z</time>
                <name>Position 171</name>
            </trkpt>
            <trkpt lat="46.9016123" lon="10.0409755">
                <ele>2290.2</ele>
                <time>2020-08-01T11:42:43.000Z</time>
                <name>Position 172</name>
            </trkpt>
            <trkpt lat="46.9019367" lon="10.0412605">
                <ele>2281.2</ele>
                <time>2020-08-01T11:43:31.000Z</time>
                <name>Position 173</name>
            </trkpt>
            <trkpt lat="46.9021833" lon="10.0416778">
                <ele>2274.0</ele>
                <time>2020-08-01T11:44:17.000Z</time>
                <name>Position 174</name>
            </trkpt>
            <trkpt lat="46.9024253" lon="10.0420339">
                <ele>2270.9</ele>
                <time>2020-08-01T11:44:53.000Z</time>
                <name>Position 175</name>
            </trkpt>
            <trkpt lat="46.9028048" lon="10.0419684">
                <ele>2269.6</ele>
                <time>2020-08-01T11:45:19.000Z</time>
                <name>Position 176</name>
            </trkpt>
            <trkpt lat="46.9031537" lon="10.0418144">
                <ele>2270.4</ele>
                <time>2020-08-01T11:45:47.000Z</time>
                <name>Position 177</name>
            </trkpt>
            <trkpt lat="46.9035329" lon="10.0416138">
                <ele>2263.6</ele>
                <time>2020-08-01T11:46:19.000Z</time>
                <name>Position 178</name>
            </trkpt>
            <trkpt lat="46.9038949" lon="10.0413986">
                <ele>2258.6</ele>
                <time>2020-08-01T11:46:55.000Z</time>
                <name>Position 179</name>
            </trkpt>
            <trkpt lat="46.9042191" lon="10.0411294">
                <ele>2249.3</ele>
                <time>2020-08-01T11:47:29.000Z</time>
                <name>Position 180</name>
            </trkpt>
            <trkpt lat="46.9045513" lon="10.0408945">
                <ele>2237.4</ele>
                <time>2020-08-01T11:48:01.000Z</time>
                <name>Position 181</name>
            </trkpt>
            <trkpt lat="46.9049011" lon="10.040753">
                <ele>2231.2</ele>
                <time>2020-08-01T11:48:33.000Z</time>
                <name>Position 182</name>
            </trkpt>
            <trkpt lat="46.905251" lon="10.0405443">
                <ele>2225.7</ele>
                <time>2020-08-01T11:49:03.000Z</time>
                <name>Position 183</name>
            </trkpt>
            <trkpt lat="46.9056323" lon="10.0404003">
                <ele>2220.5</ele>
                <time>2020-08-01T11:49:33.000Z</time>
                <name>Position 184</name>
            </trkpt>
            <trkpt lat="46.9059732" lon="10.0401672">
                <ele>2218.8</ele>
                <time>2020-08-01T11:50:01.000Z</time>
                <name>Position 185</name>
            </trkpt>
            <trkpt lat="46.9062797" lon="10.0398344">
                <ele>2217.1</ele>
                <time>2020-08-01T11:50:29.000Z</time>
                <name>Position 186</name>
            </trkpt>
            <trkpt lat="46.9065947" lon="10.0394942">
                <ele>2217.5</ele>
                <time>2020-08-01T11:51:01.000Z</time>
                <name>Position 187</name>
            </trkpt>
            <trkpt lat="46.9069107" lon="10.0391631">
                <ele>2216.9</ele>
                <time>2020-08-01T11:51:31.000Z</time>
                <name>Position 188</name>
            </trkpt>
            <trkpt lat="46.9072904" lon="10.0390134">
                <ele>2216.0</ele>
                <time>2020-08-01T11:52:01.000Z</time>
                <name>Position 189</name>
            </trkpt>
            <trkpt lat="46.9076779" lon="10.0389728">
                <ele>2212.8</ele>
                <time>2020-08-01T11:52:31.000Z</time>
                <name>Position 190</name>
            </trkpt>
            <trkpt lat="46.9080394" lon="10.0389009">
                <ele>2205.5</ele>
                <time>2020-08-01T11:53:05.000Z</time>
                <name>Position 191</name>
            </trkpt>
            <trkpt lat="46.9084344" lon="10.0388171">
                <ele>2201.6</ele>
                <time>2020-08-01T11:53:39.000Z</time>
                <name>Position 192</name>
            </trkpt>
            <trkpt lat="46.9087777" lon="10.0386536">
                <ele>2194.9</ele>
                <time>2020-08-01T11:54:13.000Z</time>
                <name>Position 193</name>
            </trkpt>
            <trkpt lat="46.9091029" lon="10.0388985">
                <ele>2187.3</ele>
                <time>2020-08-01T11:54:49.000Z</time>
                <name>Position 194</name>
            </trkpt>
            <trkpt lat="46.9093097" lon="10.0393909">
                <ele>2176.5</ele>
                <time>2020-08-01T11:55:25.000Z</time>
                <name>Position 195</name>
            </trkpt>
            <trkpt lat="46.9096658" lon="10.0395842">
                <ele>2164.7</ele>
                <time>2020-08-01T11:55:57.000Z</time>
                <name>Position 196</name>
            </trkpt>
            <trkpt lat="46.9100447" lon="10.0397167">
                <ele>2161.1</ele>
                <time>2020-08-01T11:56:29.000Z</time>
                <name>Position 197</name>
            </trkpt>
            <trkpt lat="46.9103963" lon="10.0395589">
                <ele>2154.7</ele>
                <time>2020-08-01T11:57:07.000Z</time>
                <name>Position 198</name>
            </trkpt>
            <trkpt lat="46.9106614" lon="10.0392345">
                <ele>2145.3</ele>
                <time>2020-08-01T11:57:51.000Z</time>
                <name>Position 199</name>
            </trkpt>
            <trkpt lat="46.9110418" lon="10.039235">
                <ele>2132.3</ele>
                <time>2020-08-01T11:59:13.000Z</time>
                <name>Position 200</name>
            </trkpt>
            <trkpt lat="46.9114183" lon="10.0390914">
                <ele>2126.0</ele>
                <time>2020-08-01T12:00:09.000Z</time>
                <name>Position 201</name>
            </trkpt>
            <trkpt lat="46.9117826" lon="10.0390419">
                <ele>2119.5</ele>
                <time>2020-08-01T12:00:39.000Z</time>
                <name>Position 202</name>
            </trkpt>
            <trkpt lat="46.9121377" lon="10.03923">
                <ele>2113.6</ele>
                <time>2020-08-01T12:01:07.000Z</time>
                <name>Position 203</name>
            </trkpt>
            <trkpt lat="46.9124715" lon="10.0392403">
                <ele>2105.0</ele>
                <time>2020-08-01T12:01:41.000Z</time>
                <name>Position 204</name>
            </trkpt>
            <trkpt lat="46.9128014" lon="10.0393727">
                <ele>2093.7</ele>
                <time>2020-08-01T12:02:25.000Z</time>
                <name>Position 205</name>
            </trkpt>
            <trkpt lat="46.9131087" lon="10.0397348">
                <ele>2086.9</ele>
                <time>2020-08-01T12:02:55.000Z</time>
                <name>Position 206</name>
            </trkpt>
            <trkpt lat="46.9132243" lon="10.040277">
                <ele>2076.8</ele>
                <time>2020-08-01T12:03:28.000Z</time>
                <name>Position 207</name>
            </trkpt>
            <trkpt lat="46.9130531" lon="10.0406099">
                <ele>2069.8</ele>
                <time>2020-08-01T12:03:54.000Z</time>
                <name>Position 208</name>
            </trkpt>
            <trkpt lat="46.9126903" lon="10.0407414">
                <ele>2063.2</ele>
                <time>2020-08-01T12:04:24.000Z</time>
                <name>Position 209</name>
            </trkpt>
            <trkpt lat="46.912985" lon="10.0410232">
                <ele>2057.2</ele>
                <time>2020-08-01T12:04:54.000Z</time>
                <name>Position 210</name>
            </trkpt>
            <trkpt lat="46.9131566" lon="10.0415209">
                <ele>2049.9</ele>
                <time>2020-08-01T12:05:22.000Z</time>
                <name>Position 211</name>
            </trkpt>
            <trkpt lat="46.9134245" lon="10.0419597">
                <ele>2044.0</ele>
                <time>2020-08-01T12:05:52.000Z</time>
                <name>Position 212</name>
            </trkpt>
            <trkpt lat="46.913698" lon="10.0423538">
                <ele>2038.7</ele>
                <time>2020-08-01T12:06:20.000Z</time>
                <name>Position 213</name>
            </trkpt>
            <trkpt lat="46.9139397" lon="10.0427561">
                <ele>2033.9</ele>
                <time>2020-08-01T12:06:46.000Z</time>
                <name>Position 214</name>
            </trkpt>
            <trkpt lat="46.9141992" lon="10.0432059">
                <ele>2028.3</ele>
                <time>2020-08-01T12:07:14.000Z</time>
                <name>Position 215</name>
            </trkpt>
            <trkpt lat="46.9144243" lon="10.0436852">
                <ele>2022.3</ele>
                <time>2020-08-01T12:07:42.000Z</time>
                <name>Position 216</name>
            </trkpt>
            <trkpt lat="46.9146448" lon="10.0441321">
                <ele>2018.8</ele>
                <time>2020-08-01T12:08:08.000Z</time>
                <name>Position 217</name>
            </trkpt>
            <trkpt lat="46.9148149" lon="10.0446242">
                <ele>2014.3</ele>
                <time>2020-08-01T12:08:36.000Z</time>
                <name>Position 218</name>
            </trkpt>
            <trkpt lat="46.9150466" lon="10.0450818">
                <ele>2006.9</ele>
                <time>2020-08-01T12:09:06.000Z</time>
                <name>Position 219</name>
            </trkpt>
            <trkpt lat="46.91524" lon="10.0455854">
                <ele>1998.7</ele>
                <time>2020-08-01T12:09:46.000Z</time>
                <name>Position 220</name>
            </trkpt>
            <trkpt lat="46.91551" lon="10.0460198">
                <ele>1990.7</ele>
                <time>2020-08-01T12:10:16.000Z</time>
                <name>Position 221</name>
            </trkpt>
            <trkpt lat="46.9157965" lon="10.0463638">
                <ele>1983.1</ele>
                <time>2020-08-01T12:10:44.000Z</time>
                <name>Position 222</name>
            </trkpt>
            <trkpt lat="46.9160911" lon="10.0467347">
                <ele>1973.0</ele>
                <time>2020-08-01T12:11:16.000Z</time>
                <name>Position 223</name>
            </trkpt>
            <trkpt lat="46.9164148" lon="10.0470317">
                <ele>1964.0</ele>
                <time>2020-08-01T12:11:46.000Z</time>
                <name>Position 224</name>
            </trkpt>
            <trkpt lat="46.9166732" lon="10.0474343">
                <ele>1955.3</ele>
                <time>2020-08-01T12:12:18.000Z</time>
                <name>Position 225</name>
            </trkpt>
            <trkpt lat="46.9168822" lon="10.0478989">
                <ele>1946.7</ele>
                <time>2020-08-01T12:12:50.000Z</time>
                <name>Position 226</name>
            </trkpt>
            <trkpt lat="46.9171601" lon="10.0482873">
                <ele>1938.0</ele>
                <time>2020-08-01T12:13:20.000Z</time>
                <name>Position 227</name>
            </trkpt>
            <trkpt lat="46.9174719" lon="10.0485967">
                <ele>1932.5</ele>
                <time>2020-08-01T12:13:48.000Z</time>
                <name>Position 228</name>
            </trkpt>
            <trkpt lat="46.9176513" lon="10.0490342">
                <ele>1925.7</ele>
                <time>2020-08-01T12:14:18.000Z</time>
                <name>Position 229</name>
            </trkpt>
            <trkpt lat="46.9178282" lon="10.0494855">
                <ele>1920.2</ele>
                <time>2020-08-01T12:14:50.000Z</time>
                <name>Position 230</name>
            </trkpt>
            <trkpt lat="46.9181614" lon="10.0498118">
                <ele>1916.3</ele>
                <time>2020-08-01T12:15:18.000Z</time>
                <name>Position 231</name>
            </trkpt>
            <trkpt lat="46.9185117" lon="10.0500903">
                <ele>1912.0</ele>
                <time>2020-08-01T12:15:48.000Z</time>
                <name>Position 232</name>
            </trkpt>
            <trkpt lat="46.9188265" lon="10.0503532">
                <ele>1903.1</ele>
                <time>2020-08-01T12:16:16.000Z</time>
                <name>Position 233</name>
            </trkpt>
            <trkpt lat="46.9191033" lon="10.0507721">
                <ele>1896.7</ele>
                <time>2020-08-01T12:16:50.000Z</time>
                <name>Position 234</name>
            </trkpt>
            <trkpt lat="46.919498" lon="10.0507658">
                <ele>1889.0</ele>
                <time>2020-08-01T12:17:22.000Z</time>
                <name>Position 235</name>
            </trkpt>
            <trkpt lat="46.9198588" lon="10.0509348">
                <ele>1881.3</ele>
                <time>2020-08-01T12:17:52.000Z</time>
                <name>Position 236</name>
            </trkpt>
            <trkpt lat="46.9202115" lon="10.0509898">
                <ele>1875.5</ele>
                <time>2020-08-01T12:18:20.000Z</time>
                <name>Position 237</name>
            </trkpt>
            <trkpt lat="46.9205849" lon="10.050901">
                <ele>1863.3</ele>
                <time>2020-08-01T12:18:50.000Z</time>
                <name>Position 238</name>
            </trkpt>
            <trkpt lat="46.9209073" lon="10.0509287">
                <ele>1863.2</ele>
                <time>2020-08-01T12:19:22.000Z</time>
                <name>Position 239</name>
            </trkpt>
            <trkpt lat="46.9211389" lon="10.0504912">
                <ele>1858.6</ele>
                <time>2020-08-01T12:19:52.000Z</time>
                <name>Position 240</name>
            </trkpt>
            <trkpt lat="46.9214849" lon="10.0502894">
                <ele>1855.6</ele>
                <time>2020-08-01T12:20:20.000Z</time>
                <name>Position 241</name>
            </trkpt>
            <trkpt lat="46.9218646" lon="10.0501649">
                <ele>1852.0</ele>
                <time>2020-08-01T12:20:52.000Z</time>
                <name>Position 242</name>
            </trkpt>
            <trkpt lat="46.9222228" lon="10.0499259">
                <ele>1848.0</ele>
                <time>2020-08-01T12:21:24.000Z</time>
                <name>Position 243</name>
            </trkpt>
            <trkpt lat="46.9225686" lon="10.0498392">
                <ele>1840.2</ele>
                <time>2020-08-01T12:22:10.000Z</time>
                <name>Position 244</name>
            </trkpt>
            <trkpt lat="46.9228687" lon="10.0501669">
                <ele>1831.3</ele>
                <time>2020-08-01T12:22:50.000Z</time>
                <name>Position 245</name>
            </trkpt>
            <trkpt lat="46.9231623" lon="10.0504759">
                <ele>1820.4</ele>
                <time>2020-08-01T12:23:51.000Z</time>
                <name>Position 246</name>
            </trkpt>
            <trkpt lat="46.9235205" lon="10.0505144">
                <ele>1809.3</ele>
                <time>2020-08-01T12:24:45.000Z</time>
                <name>Position 247</name>
            </trkpt>
            <trkpt lat="46.923871" lon="10.0506814">
                <ele>1798.4</ele>
                <time>2020-08-01T12:25:41.000Z</time>
                <name>Position 248</name>
            </trkpt>
            <trkpt lat="46.9241583" lon="10.051042">
                <ele>1786.2</ele>
                <time>2020-08-01T12:26:31.000Z</time>
                <name>Position 249</name>
            </trkpt>
            <trkpt lat="46.9243558" lon="10.051487">
                <ele>1776.8</ele>
                <time>2020-08-01T12:27:27.000Z</time>
                <name>Position 250</name>
            </trkpt>
            <trkpt lat="46.9244059" lon="10.051751">
                <ele>1775.9</ele>
                <time>2020-08-01T12:28:09.000Z</time>
                <name>Position 251</name>
            </trkpt>
        </trkseg>
    </trk>
</gpx>
