<?xml version="1.0" encoding="UTF-8" standalone="yes"?>
<gpx xmlns:gpxtpx1="http://www.garmin.com/xmlschemas/TrackPointExtension/v1" xmlns="http://www.topografix.com/GPX/1/1" xmlns:trp="http://www.garmin.com/xmlschemas/TripExtensions/v1" xmlns:gpxx="http://www.garmin.com/xmlschemas/GpxExtensions/v3" xmlns:gpxtpx="http://www.garmin.com/xmlschemas/TrackPointExtension/v2" version="1.1" creator="RouteConverter 2.29">
    <metadata>
        <name>2022-08-11 09:15</name>
        <link href="https://www.oruxmaps.com">
            <text>OruxMaps</text>
        </link>
        <time>2022-08-12T09:37:43.988Z</time>
        <bounds minlat="47.3200024" minlon="15.3688051" maxlat="47.3261465" maxlon="15.3812421"/>
    </metadata>
    <trk>
        <name>2022-08-11 09:15</name>
        <desc>&lt;p&gt;Startzeit: 08/11/2022 09:16&lt;br/&gt;Zielzeit: 08/11/2022 16:21&lt;br/&gt;Strecke: 4,
6 km (07:05)&lt;br/&gt;Bewegungszeit: 01:50&lt;br/&gt;Ø-Geschwindigkeit: 0,
65 km/h&lt;br/&gt;Netto-Geschwindigkeit: 2,
49 km/h&lt;br/&gt;Max. Geschwindigkeit: 7,
06 km/h&lt;br/&gt;Minimale Höhe: 443 m&lt;br/&gt;Maximale Höhe: 1090 m&lt;br/&gt;Steig-Geschw.: 106,
8 m/h&lt;br/&gt;Sink-Geschw.: -706,
5 m/h&lt;br/&gt;Aufstieg: 663 m&lt;br/&gt;Abstieg: -619 m&lt;br/&gt;Steigzeit: 06:12&lt;br/&gt;Sinkzeit: 00:52&lt;br/&gt;&lt;/p&gt;&lt;hr align="center" width="480" style="height: 2px; width: 517px"/&gt;</desc>
        <type>Unbestimmt</type>
        <extensions>
            <om:oruxmapsextensions xmlns:om="http://www.oruxmaps.com/oruxmapsextensions/1/0" xmlns:gpxtpx="http://www.garmin.com/xmlschemas/TrackPointExtension/v1" xmlns:xsi="http://www.w3.org/2001/XMLSchema-instance">
                <om:ext subtype="0" type="TYPE">0</om:ext>
                <om:ext type="DIFFICULTY">0</om:ext>
</om:oruxmapsextensions>
        </extensions>
        <trkseg>
            <trkpt lat="47.3224267" lon="15.3690399">
                <ele>443.0</ele>
                <time>2022-08-11T07:16:19.000Z</time>
                <name>0000762</name>
            </trkpt>
            <trkpt lat="47.3223921" lon="15.3691727">
                <ele>455.4</ele>
                <time>2022-08-11T07:16:50.000Z</time>
                <name>Position 2</name>
            </trkpt>
            <trkpt lat="47.3223142" lon="15.3692518">
                <ele>455.5</ele>
                <time>2022-08-11T07:16:58.000Z</time>
                <name>Position 3</name>
            </trkpt>
            <trkpt lat="47.3222304" lon="15.3693259">
                <ele>455.3</ele>
                <time>2022-08-11T07:17:08.000Z</time>
                <name>Position 4</name>
            </trkpt>
            <trkpt lat="47.3221587" lon="15.3694086">
                <ele>455.3</ele>
                <time>2022-08-11T07:17:18.000Z</time>
                <name>Position 5</name>
            </trkpt>
            <trkpt lat="47.3220753" lon="15.3694869">
                <ele>455.2</ele>
                <time>2022-08-11T07:17:26.000Z</time>
                <name>Position 6</name>
            </trkpt>
            <trkpt lat="47.3219856" lon="15.3695616">
                <ele>455.3</ele>
                <time>2022-08-11T07:17:35.000Z</time>
                <name>Position 7</name>
            </trkpt>
            <trkpt lat="47.3218976" lon="15.3696227">
                <ele>455.3</ele>
                <time>2022-08-11T07:17:42.000Z</time>
                <name>Position 8</name>
            </trkpt>
            <trkpt lat="47.321812" lon="15.3696685">
                <ele>455.2</ele>
                <time>2022-08-11T07:17:47.000Z</time>
                <name>Position 9</name>
            </trkpt>
            <trkpt lat="47.3217195" lon="15.3696781">
                <ele>455.4</ele>
                <time>2022-08-11T07:17:53.000Z</time>
                <name>Position 10</name>
            </trkpt>
            <trkpt lat="47.3216258" lon="15.369702">
                <ele>455.5</ele>
                <time>2022-08-11T07:18:00.000Z</time>
                <name>Position 11</name>
            </trkpt>
            <trkpt lat="47.3215392" lon="15.3697479">
                <ele>456.0</ele>
                <time>2022-08-11T07:18:07.000Z</time>
                <name>Position 12</name>
            </trkpt>
            <trkpt lat="47.3214628" lon="15.3698348">
                <ele>457.0</ele>
                <time>2022-08-11T07:18:15.000Z</time>
                <name>Position 13</name>
            </trkpt>
            <trkpt lat="47.3213831" lon="15.3699142">
                <ele>458.5</ele>
                <time>2022-08-11T07:18:23.000Z</time>
                <name>Position 14</name>
            </trkpt>
            <trkpt lat="47.321313" lon="15.3700097">
                <ele>460.7</ele>
                <time>2022-08-11T07:18:34.000Z</time>
                <name>Position 15</name>
            </trkpt>
            <trkpt lat="47.3212631" lon="15.370128">
                <ele>463.8</ele>
                <time>2022-08-11T07:18:46.000Z</time>
                <name>Position 16</name>
            </trkpt>
            <trkpt lat="47.321205" lon="15.3702323">
                <ele>465.1</ele>
                <time>2022-08-11T07:18:52.000Z</time>
                <name>Position 17</name>
            </trkpt>
            <trkpt lat="47.3211488" lon="15.3703557">
                <ele>469.3</ele>
                <time>2022-08-11T07:19:08.000Z</time>
                <name>Position 18</name>
            </trkpt>
            <trkpt lat="47.3211296" lon="15.3705051">
                <ele>471.9</ele>
                <time>2022-08-11T07:19:19.000Z</time>
                <name>Position 19</name>
            </trkpt>
            <trkpt lat="47.3211173" lon="15.3706487">
                <ele>473.4</ele>
                <time>2022-08-11T07:19:28.000Z</time>
                <name>Position 20</name>
            </trkpt>
            <trkpt lat="47.3211826" lon="15.3707465">
                <ele>476.6</ele>
                <time>2022-08-11T07:19:44.000Z</time>
                <name>Position 21</name>
            </trkpt>
            <trkpt lat="47.3212251" lon="15.3708692">
                <ele>479.3</ele>
                <time>2022-08-11T07:19:58.000Z</time>
                <name>Position 22</name>
            </trkpt>
            <trkpt lat="47.3212484" lon="15.37101">
                <ele>482.4</ele>
                <time>2022-08-11T07:20:16.000Z</time>
                <name>Position 23</name>
            </trkpt>
            <trkpt lat="47.3212756" lon="15.3711496">
                <ele>485.4</ele>
                <time>2022-08-11T07:20:30.000Z</time>
                <name>Position 24</name>
            </trkpt>
            <trkpt lat="47.3213355" lon="15.3712556">
                <ele>487.5</ele>
                <time>2022-08-11T07:20:41.000Z</time>
                <name>Position 25</name>
            </trkpt>
            <trkpt lat="47.3213896" lon="15.3713772">
                <ele>490.7</ele>
                <time>2022-08-11T07:20:56.000Z</time>
                <name>Position 26</name>
            </trkpt>
            <trkpt lat="47.3213974" lon="15.3715149">
                <ele>493.8</ele>
                <time>2022-08-11T07:21:08.000Z</time>
                <name>Position 27</name>
            </trkpt>
            <trkpt lat="47.3213416" lon="15.3716237">
                <ele>497.8</ele>
                <time>2022-08-11T07:21:25.000Z</time>
                <name>Position 28</name>
            </trkpt>
            <trkpt lat="47.3212506" lon="15.3716308">
                <ele>501.6</ele>
                <time>2022-08-11T07:21:42.000Z</time>
                <name>Position 29</name>
            </trkpt>
            <trkpt lat="47.3211561" lon="15.3716705">
                <ele>503.3</ele>
                <time>2022-08-11T07:21:54.000Z</time>
                <name>Position 30</name>
            </trkpt>
            <trkpt lat="47.3210719" lon="15.3717221">
                <ele>503.6</ele>
                <time>2022-08-11T07:22:04.000Z</time>
                <name>Position 31</name>
            </trkpt>
            <trkpt lat="47.3209828" lon="15.3717632">
                <ele>505.9</ele>
                <time>2022-08-11T07:22:29.000Z</time>
                <name>Position 32</name>
            </trkpt>
            <trkpt lat="47.3209394" lon="15.3718804">
                <ele>508.6</ele>
                <time>2022-08-11T07:22:40.000Z</time>
                <name>Position 33</name>
            </trkpt>
            <trkpt lat="47.3208808" lon="15.3720023">
                <ele>510.9</ele>
                <time>2022-08-11T07:22:51.000Z</time>
                <name>Position 34</name>
            </trkpt>
            <trkpt lat="47.3208224" lon="15.3721248">
                <ele>512.6</ele>
                <time>2022-08-11T07:23:01.000Z</time>
                <name>Position 35</name>
            </trkpt>
            <trkpt lat="47.320769" lon="15.3722398">
                <ele>514.1</ele>
                <time>2022-08-11T07:23:10.000Z</time>
                <name>Position 36</name>
            </trkpt>
            <trkpt lat="47.3207028" lon="15.3723345">
                <ele>516.0</ele>
                <time>2022-08-11T07:23:20.000Z</time>
                <name>Position 37</name>
            </trkpt>
            <trkpt lat="47.3206674" lon="15.3724576">
                <ele>518.0</ele>
                <time>2022-08-11T07:23:31.000Z</time>
                <name>Position 38</name>
            </trkpt>
            <trkpt lat="47.3205882" lon="15.3725307">
                <ele>521.0</ele>
                <time>2022-08-11T07:23:45.000Z</time>
                <name>Position 39</name>
            </trkpt>
            <trkpt lat="47.3205304" lon="15.3726416">
                <ele>523.5</ele>
                <time>2022-08-11T07:23:59.000Z</time>
                <name>Position 40</name>
            </trkpt>
            <trkpt lat="47.3204751" lon="15.3727522">
                <ele>526.0</ele>
                <time>2022-08-11T07:24:12.000Z</time>
                <name>Position 41</name>
            </trkpt>
            <trkpt lat="47.320429" lon="15.3728692">
                <ele>528.8</ele>
                <time>2022-08-11T07:24:25.000Z</time>
                <name>Position 42</name>
            </trkpt>
            <trkpt lat="47.3203556" lon="15.3729677">
                <ele>531.7</ele>
                <time>2022-08-11T07:24:42.000Z</time>
                <name>Position 43</name>
            </trkpt>
            <trkpt lat="47.3203031" lon="15.373077">
                <ele>534.1</ele>
                <time>2022-08-11T07:24:57.000Z</time>
                <name>Position 44</name>
            </trkpt>
            <trkpt lat="47.3202264" lon="15.373156">
                <ele>536.5</ele>
                <time>2022-08-11T07:25:10.000Z</time>
                <name>Position 45</name>
            </trkpt>
            <trkpt lat="47.3201653" lon="15.3732612">
                <ele>538.9</ele>
                <time>2022-08-11T07:25:21.000Z</time>
                <name>Position 46</name>
            </trkpt>
            <trkpt lat="47.3201107" lon="15.3733809">
                <ele>541.5</ele>
                <time>2022-08-11T07:25:35.000Z</time>
                <name>Position 47</name>
            </trkpt>
            <trkpt lat="47.3200779" lon="15.3735383">
                <ele>543.4</ele>
                <time>2022-08-11T07:25:46.000Z</time>
                <name>Position 48</name>
            </trkpt>
            <trkpt lat="47.3200449" lon="15.3736741">
                <ele>546.2</ele>
                <time>2022-08-11T07:25:58.000Z</time>
                <name>Position 49</name>
            </trkpt>
            <trkpt lat="47.3200024" lon="15.3737959">
                <ele>548.9</ele>
                <time>2022-08-11T07:26:11.000Z</time>
                <name>Position 50</name>
            </trkpt>
            <trkpt lat="47.3200935" lon="15.3737939">
                <ele>554.0</ele>
                <time>2022-08-11T07:26:38.000Z</time>
                <name>Position 51</name>
            </trkpt>
            <trkpt lat="47.3201866" lon="15.373775">
                <ele>556.4</ele>
                <time>2022-08-11T07:26:52.000Z</time>
                <name>Position 52</name>
            </trkpt>
            <trkpt lat="47.3202744" lon="15.3737391">
                <ele>558.2</ele>
                <time>2022-08-11T07:27:02.000Z</time>
                <name>Position 53</name>
            </trkpt>
            <trkpt lat="47.3203676" lon="15.3737339">
                <ele>559.3</ele>
                <time>2022-08-11T07:27:08.000Z</time>
                <name>Position 54</name>
            </trkpt>
            <trkpt lat="47.3204597" lon="15.3736964">
                <ele>560.9</ele>
                <time>2022-08-11T07:27:26.000Z</time>
                <name>Position 55</name>
            </trkpt>
            <trkpt lat="47.3205531" lon="15.3736602">
                <ele>563.3</ele>
                <time>2022-08-11T07:27:36.000Z</time>
                <name>Position 56</name>
            </trkpt>
            <trkpt lat="47.3206493" lon="15.3736508">
                <ele>566.0</ele>
                <time>2022-08-11T07:27:51.000Z</time>
                <name>Position 57</name>
            </trkpt>
            <trkpt lat="47.320742" lon="15.3736585">
                <ele>567.2</ele>
                <time>2022-08-11T07:28:00.000Z</time>
                <name>Position 58</name>
            </trkpt>
            <trkpt lat="47.320833" lon="15.3736543">
                <ele>571.4</ele>
                <time>2022-08-11T07:28:20.000Z</time>
                <name>Position 59</name>
            </trkpt>
            <trkpt lat="47.320926" lon="15.3736663">
                <ele>574.5</ele>
                <time>2022-08-11T07:28:35.000Z</time>
                <name>Position 60</name>
            </trkpt>
            <trkpt lat="47.321022" lon="15.3736607">
                <ele>576.8</ele>
                <time>2022-08-11T07:28:47.000Z</time>
                <name>Position 61</name>
            </trkpt>
            <trkpt lat="47.321116" lon="15.3736411">
                <ele>580.0</ele>
                <time>2022-08-11T07:29:02.000Z</time>
                <name>Position 62</name>
            </trkpt>
            <trkpt lat="47.3212094" lon="15.3736654">
                <ele>582.0</ele>
                <time>2022-08-11T07:29:14.000Z</time>
                <name>Position 63</name>
            </trkpt>
            <trkpt lat="47.3212977" lon="15.373705">
                <ele>584.0</ele>
                <time>2022-08-11T07:29:26.000Z</time>
                <name>Position 64</name>
            </trkpt>
            <trkpt lat="47.3213925" lon="15.3737244">
                <ele>586.9</ele>
                <time>2022-08-11T07:29:42.000Z</time>
                <name>Position 65</name>
            </trkpt>
            <trkpt lat="47.3214904" lon="15.373737">
                <ele>589.2</ele>
                <time>2022-08-11T07:29:53.000Z</time>
                <name>Position 66</name>
            </trkpt>
            <trkpt lat="47.3215831" lon="15.3737281">
                <ele>590.8</ele>
                <time>2022-08-11T07:30:03.000Z</time>
                <name>Position 67</name>
            </trkpt>
            <trkpt lat="47.3216771" lon="15.3737149">
                <ele>592.4</ele>
                <time>2022-08-11T07:30:15.000Z</time>
                <name>Position 68</name>
            </trkpt>
            <trkpt lat="47.321766" lon="15.373754">
                <ele>595.7</ele>
                <time>2022-08-11T07:30:30.000Z</time>
                <name>Position 69</name>
            </trkpt>
            <trkpt lat="47.3218548" lon="15.3737791">
                <ele>598.0</ele>
                <time>2022-08-11T07:30:42.000Z</time>
                <name>Position 70</name>
            </trkpt>
            <trkpt lat="47.3219605" lon="15.3737983">
                <ele>599.0</ele>
                <time>2022-08-11T07:30:49.000Z</time>
                <name>Position 71</name>
            </trkpt>
            <trkpt lat="47.3220514" lon="15.3737745">
                <ele>601.5</ele>
                <time>2022-08-11T07:31:02.000Z</time>
                <name>Position 72</name>
            </trkpt>
            <trkpt lat="47.3221469" lon="15.3737495">
                <ele>603.4</ele>
                <time>2022-08-11T07:31:15.000Z</time>
                <name>Position 73</name>
            </trkpt>
            <trkpt lat="47.322235" lon="15.3737837">
                <ele>605.4</ele>
                <time>2022-08-11T07:31:26.000Z</time>
                <name>Position 74</name>
            </trkpt>
            <trkpt lat="47.3223287" lon="15.3737986">
                <ele>607.6</ele>
                <time>2022-08-11T07:31:38.000Z</time>
                <name>Position 75</name>
            </trkpt>
            <trkpt lat="47.3223847" lon="15.3739063">
                <ele>611.0</ele>
                <time>2022-08-11T07:31:54.000Z</time>
                <name>Position 76</name>
            </trkpt>
            <trkpt lat="47.32246" lon="15.3739914">
                <ele>612.8</ele>
                <time>2022-08-11T07:32:04.000Z</time>
                <name>Position 77</name>
            </trkpt>
            <trkpt lat="47.3225356" lon="15.3740667">
                <ele>615.8</ele>
                <time>2022-08-11T07:32:21.000Z</time>
                <name>Position 78</name>
            </trkpt>
            <trkpt lat="47.3226231" lon="15.3741104">
                <ele>618.7</ele>
                <time>2022-08-11T07:32:36.000Z</time>
                <name>Position 79</name>
            </trkpt>
            <trkpt lat="47.3226916" lon="15.3741974">
                <ele>621.1</ele>
                <time>2022-08-11T07:32:49.000Z</time>
                <name>Position 80</name>
            </trkpt>
            <trkpt lat="47.3227806" lon="15.3742521">
                <ele>624.1</ele>
                <time>2022-08-11T07:33:06.000Z</time>
                <name>Position 81</name>
            </trkpt>
            <trkpt lat="47.3228594" lon="15.3743162">
                <ele>627.7</ele>
                <time>2022-08-11T07:33:25.000Z</time>
                <name>Position 82</name>
            </trkpt>
            <trkpt lat="47.3229482" lon="15.3742942">
                <ele>628.5</ele>
                <time>2022-08-11T07:33:38.000Z</time>
                <name>Position 83</name>
            </trkpt>
            <trkpt lat="47.3230457" lon="15.3742961">
                <ele>629.1</ele>
                <time>2022-08-11T07:33:46.000Z</time>
                <name>Position 84</name>
            </trkpt>
            <trkpt lat="47.3231287" lon="15.374245">
                <ele>629.6</ele>
                <time>2022-08-11T07:33:55.000Z</time>
                <name>Position 85</name>
            </trkpt>
            <trkpt lat="47.3232185" lon="15.3741797">
                <ele>630.3</ele>
                <time>2022-08-11T07:34:06.000Z</time>
                <name>Position 86</name>
            </trkpt>
            <trkpt lat="47.3232736" lon="15.374067">
                <ele>630.5</ele>
                <time>2022-08-11T07:34:12.000Z</time>
                <name>Position 87</name>
            </trkpt>
            <trkpt lat="47.3233273" lon="15.373952">
                <ele>631.0</ele>
                <time>2022-08-11T07:34:19.000Z</time>
                <name>Position 88</name>
            </trkpt>
            <trkpt lat="47.3233939" lon="15.3738466">
                <ele>631.3</ele>
                <time>2022-08-11T07:34:26.000Z</time>
                <name>Position 89</name>
            </trkpt>
            <trkpt lat="47.32347" lon="15.3737454">
                <ele>631.6</ele>
                <time>2022-08-11T07:34:33.000Z</time>
                <name>Position 90</name>
            </trkpt>
            <trkpt lat="47.3235401" lon="15.3736463">
                <ele>632.0</ele>
                <time>2022-08-11T07:34:41.000Z</time>
                <name>Position 91</name>
            </trkpt>
            <trkpt lat="47.3236094" lon="15.3735536">
                <ele>632.1</ele>
                <time>2022-08-11T07:34:48.000Z</time>
                <name>Position 92</name>
            </trkpt>
            <trkpt lat="47.3236972" lon="15.3735039">
                <ele>632.2</ele>
                <time>2022-08-11T07:34:56.000Z</time>
                <name>Position 93</name>
            </trkpt>
            <trkpt lat="47.3237847" lon="15.3735533">
                <ele>634.5</ele>
                <time>2022-08-11T07:35:13.000Z</time>
                <name>Position 94</name>
            </trkpt>
            <trkpt lat="47.3238352" lon="15.3736732">
                <ele>636.7</ele>
                <time>2022-08-11T07:35:23.000Z</time>
                <name>Position 95</name>
            </trkpt>
            <trkpt lat="47.3239124" lon="15.3737531">
                <ele>639.5</ele>
                <time>2022-08-11T07:35:40.000Z</time>
                <name>Position 96</name>
            </trkpt>
            <trkpt lat="47.3240066" lon="15.3737762">
                <ele>641.2</ele>
                <time>2022-08-11T07:35:50.000Z</time>
                <name>Position 97</name>
            </trkpt>
            <trkpt lat="47.3240956" lon="15.3738368">
                <ele>643.7</ele>
                <time>2022-08-11T07:36:03.000Z</time>
                <name>Position 98</name>
            </trkpt>
            <trkpt lat="47.3241855" lon="15.3738735">
                <ele>647.1</ele>
                <time>2022-08-11T07:36:21.000Z</time>
                <name>Position 99</name>
            </trkpt>
            <trkpt lat="47.3242745" lon="15.3739133">
                <ele>650.5</ele>
                <time>2022-08-11T07:36:37.000Z</time>
                <name>Position 100</name>
            </trkpt>
            <trkpt lat="47.3243651" lon="15.3739508">
                <ele>653.9</ele>
                <time>2022-08-11T07:36:54.000Z</time>
                <name>Position 101</name>
            </trkpt>
            <trkpt lat="47.3244577" lon="15.3739912">
                <ele>656.2</ele>
                <time>2022-08-11T07:37:06.000Z</time>
                <name>Position 102</name>
            </trkpt>
            <trkpt lat="47.3245519" lon="15.3740111">
                <ele>660.5</ele>
                <time>2022-08-11T07:37:28.000Z</time>
                <name>Position 103</name>
            </trkpt>
            <trkpt lat="47.3246479" lon="15.3740207">
                <ele>663.5</ele>
                <time>2022-08-11T07:37:42.000Z</time>
                <name>Position 104</name>
            </trkpt>
            <trkpt lat="47.3247121" lon="15.3741153">
                <ele>667.7</ele>
                <time>2022-08-11T07:38:02.000Z</time>
                <name>Position 105</name>
            </trkpt>
            <trkpt lat="47.324662" lon="15.3742256">
                <ele>671.4</ele>
                <time>2022-08-11T07:38:20.000Z</time>
                <name>Position 106</name>
            </trkpt>
            <trkpt lat="47.3246062" lon="15.3743313">
                <ele>675.5</ele>
                <time>2022-08-11T07:38:39.000Z</time>
                <name>Position 107</name>
            </trkpt>
            <trkpt lat="47.3245562" lon="15.3744432">
                <ele>678.3</ele>
                <time>2022-08-11T07:38:53.000Z</time>
                <name>Position 108</name>
            </trkpt>
            <trkpt lat="47.3244886" lon="15.3745372">
                <ele>681.3</ele>
                <time>2022-08-11T07:39:08.000Z</time>
                <name>Position 109</name>
            </trkpt>
            <trkpt lat="47.3244372" lon="15.3746476">
                <ele>685.2</ele>
                <time>2022-08-11T07:39:27.000Z</time>
                <name>Position 110</name>
            </trkpt>
            <trkpt lat="47.3243684" lon="15.3747368">
                <ele>689.0</ele>
                <time>2022-08-11T07:39:46.000Z</time>
                <name>Position 111</name>
            </trkpt>
            <trkpt lat="47.3243075" lon="15.3748351">
                <ele>692.4</ele>
                <time>2022-08-11T07:40:02.000Z</time>
                <name>Position 112</name>
            </trkpt>
            <trkpt lat="47.3242654" lon="15.3749527">
                <ele>695.0</ele>
                <time>2022-08-11T07:40:16.000Z</time>
                <name>Position 113</name>
            </trkpt>
            <trkpt lat="47.3242343" lon="15.3750831">
                <ele>699.3</ele>
                <time>2022-08-11T07:40:37.000Z</time>
                <name>Position 114</name>
            </trkpt>
            <trkpt lat="47.3242193" lon="15.3752203">
                <ele>703.9</ele>
                <time>2022-08-11T07:40:58.000Z</time>
                <name>Position 115</name>
            </trkpt>
            <trkpt lat="47.3242059" lon="15.3753555">
                <ele>707.9</ele>
                <time>2022-08-11T07:41:17.000Z</time>
                <name>Position 116</name>
            </trkpt>
            <trkpt lat="47.3241603" lon="15.3754731">
                <ele>712.3</ele>
                <time>2022-08-11T07:41:39.000Z</time>
                <name>Position 117</name>
            </trkpt>
            <trkpt lat="47.3241291" lon="15.3755978">
                <ele>715.7</ele>
                <time>2022-08-11T07:41:59.000Z</time>
                <name>Position 118</name>
            </trkpt>
            <trkpt lat="47.3241017" lon="15.3757333">
                <ele>719.4</ele>
                <time>2022-08-11T07:42:17.000Z</time>
                <name>Position 119</name>
            </trkpt>
            <trkpt lat="47.3240528" lon="15.3758466">
                <ele>723.3</ele>
                <time>2022-08-11T07:42:36.000Z</time>
                <name>Position 120</name>
            </trkpt>
            <trkpt lat="47.3240197" lon="15.3759721">
                <ele>727.4</ele>
                <time>2022-08-11T07:42:56.000Z</time>
                <name>Position 121</name>
            </trkpt>
            <trkpt lat="47.3240148" lon="15.3761052">
                <ele>732.7</ele>
                <time>2022-08-11T07:43:22.000Z</time>
                <name>Position 122</name>
            </trkpt>
            <trkpt lat="47.3240453" lon="15.3762364">
                <ele>740.2</ele>
                <time>2022-08-11T07:43:57.000Z</time>
                <name>Position 123</name>
            </trkpt>
            <trkpt lat="47.3241227" lon="15.376304">
                <ele>743.4</ele>
                <time>2022-08-11T07:44:15.000Z</time>
                <name>Position 124</name>
            </trkpt>
            <trkpt lat="47.3240511" lon="15.376391">
                <ele>748.6</ele>
                <time>2022-08-11T07:44:42.000Z</time>
                <name>Position 125</name>
            </trkpt>
            <trkpt lat="47.3239826" lon="15.3764865">
                <ele>748.9</ele>
                <time>2022-08-11T07:44:57.000Z</time>
                <name>Position 126</name>
            </trkpt>
            <trkpt lat="47.3239341" lon="15.3766196">
                <ele>752.8</ele>
                <time>2022-08-11T07:45:21.000Z</time>
                <name>Position 127</name>
            </trkpt>
            <trkpt lat="47.3238448" lon="15.376671">
                <ele>755.6</ele>
                <time>2022-08-11T07:45:36.000Z</time>
                <name>Position 128</name>
            </trkpt>
            <trkpt lat="47.323805" lon="15.3768011">
                <ele>757.3</ele>
                <time>2022-08-11T07:45:45.000Z</time>
                <name>Position 129</name>
            </trkpt>
            <trkpt lat="47.3237565" lon="15.3769179">
                <ele>761.2</ele>
                <time>2022-08-11T07:46:06.000Z</time>
                <name>Position 130</name>
            </trkpt>
            <trkpt lat="47.3237179" lon="15.3770393">
                <ele>763.8</ele>
                <time>2022-08-11T07:46:24.000Z</time>
                <name>Position 131</name>
            </trkpt>
            <trkpt lat="47.3236439" lon="15.3771176">
                <ele>766.7</ele>
                <time>2022-08-11T07:46:38.000Z</time>
                <name>Position 132</name>
            </trkpt>
            <trkpt lat="47.3235688" lon="15.3771908">
                <ele>770.8</ele>
                <time>2022-08-11T07:46:55.000Z</time>
                <name>Position 133</name>
            </trkpt>
            <trkpt lat="47.3234711" lon="15.3771778">
                <ele>772.5</ele>
                <time>2022-08-11T07:47:11.000Z</time>
                <name>Position 134</name>
            </trkpt>
            <trkpt lat="47.3233907" lon="15.3771111">
                <ele>772.7</ele>
                <time>2022-08-11T07:47:26.000Z</time>
                <name>Position 135</name>
            </trkpt>
            <trkpt lat="47.3233056" lon="15.3770632">
                <ele>774.1</ele>
                <time>2022-08-11T07:47:34.000Z</time>
                <name>Position 136</name>
            </trkpt>
            <trkpt lat="47.3232135" lon="15.3770376">
                <ele>774.4</ele>
                <time>2022-08-11T07:47:46.000Z</time>
                <name>Position 137</name>
            </trkpt>
            <trkpt lat="47.3231205" lon="15.3770216">
                <ele>775.1</ele>
                <time>2022-08-11T07:47:56.000Z</time>
                <name>Position 138</name>
            </trkpt>
            <trkpt lat="47.3230261" lon="15.3770035">
                <ele>776.1</ele>
                <time>2022-08-11T07:48:07.000Z</time>
                <name>Position 139</name>
            </trkpt>
            <trkpt lat="47.3229254" lon="15.3770212">
                <ele>777.4</ele>
                <time>2022-08-11T07:48:18.000Z</time>
                <name>Position 140</name>
            </trkpt>
            <trkpt lat="47.3228402" lon="15.376964">
                <ele>776.8</ele>
                <time>2022-08-11T07:48:37.000Z</time>
                <name>Position 141</name>
            </trkpt>
            <trkpt lat="47.322751" lon="15.376911">
                <ele>777.7</ele>
                <time>2022-08-11T07:48:48.000Z</time>
                <name>Position 142</name>
            </trkpt>
            <trkpt lat="47.3226574" lon="15.3768889">
                <ele>776.3</ele>
                <time>2022-08-11T07:49:01.000Z</time>
                <name>Position 143</name>
            </trkpt>
            <trkpt lat="47.3225645" lon="15.3768601">
                <ele>776.7</ele>
                <time>2022-08-11T07:49:13.000Z</time>
                <name>Position 144</name>
            </trkpt>
            <trkpt lat="47.3224714" lon="15.3768224">
                <ele>777.6</ele>
                <time>2022-08-11T07:49:23.000Z</time>
                <name>Position 145</name>
            </trkpt>
            <trkpt lat="47.3223766" lon="15.3767955">
                <ele>776.4</ele>
                <time>2022-08-11T07:49:32.000Z</time>
                <name>Position 146</name>
            </trkpt>
            <trkpt lat="47.3222811" lon="15.3768279">
                <ele>776.8</ele>
                <time>2022-08-11T07:49:41.000Z</time>
                <name>Position 147</name>
            </trkpt>
            <trkpt lat="47.32223" lon="15.3769419">
                <ele>775.8</ele>
                <time>2022-08-11T07:50:03.000Z</time>
                <name>Position 148</name>
            </trkpt>
            <trkpt lat="47.3221782" lon="15.3770526">
                <ele>772.0</ele>
                <time>2022-08-11T07:50:24.000Z</time>
                <name>Position 149</name>
            </trkpt>
            <trkpt lat="47.3221641" lon="15.3771967">
                <ele>772.1</ele>
                <time>2022-08-11T07:50:37.000Z</time>
                <name>Position 150</name>
            </trkpt>
            <trkpt lat="47.3221378" lon="15.3773244">
                <ele>772.4</ele>
                <time>2022-08-11T07:50:47.000Z</time>
                <name>Position 151</name>
            </trkpt>
            <trkpt lat="47.3220633" lon="15.3774075">
                <ele>772.0</ele>
                <time>2022-08-11T07:51:08.000Z</time>
                <name>Position 152</name>
            </trkpt>
            <trkpt lat="47.321997" lon="15.3775131">
                <ele>772.0</ele>
                <time>2022-08-11T07:51:17.000Z</time>
                <name>Position 153</name>
            </trkpt>
            <trkpt lat="47.3219418" lon="15.3776295">
                <ele>773.1</ele>
                <time>2022-08-11T07:51:35.000Z</time>
                <name>Position 154</name>
            </trkpt>
            <trkpt lat="47.3219094" lon="15.3777656">
                <ele>774.0</ele>
                <time>2022-08-11T07:51:43.000Z</time>
                <name>Position 155</name>
            </trkpt>
            <trkpt lat="47.3218653" lon="15.3778824">
                <ele>776.4</ele>
                <time>2022-08-11T07:51:56.000Z</time>
                <name>Position 156</name>
            </trkpt>
            <trkpt lat="47.3218412" lon="15.3780127">
                <ele>778.4</ele>
                <time>2022-08-11T07:52:12.000Z</time>
                <name>Position 157</name>
            </trkpt>
            <trkpt lat="47.3217905" lon="15.3781234">
                <ele>781.2</ele>
                <time>2022-08-11T07:52:27.000Z</time>
                <name>Position 158</name>
            </trkpt>
            <trkpt lat="47.3218113" lon="15.3782586">
                <ele>786.9</ele>
                <time>2022-08-11T07:52:52.000Z</time>
                <name>Position 159</name>
            </trkpt>
            <trkpt lat="47.3218397" lon="15.3783885">
                <ele>792.2</ele>
                <time>2022-08-11T07:53:18.000Z</time>
                <name>Position 160</name>
            </trkpt>
            <trkpt lat="47.3219235" lon="15.3783345">
                <ele>797.4</ele>
                <time>2022-08-11T07:54:15.000Z</time>
                <name>Position 161</name>
            </trkpt>
            <trkpt lat="47.3220102" lon="15.3782787">
                <ele>806.1</ele>
                <time>2022-08-11T08:07:43.000Z</time>
                <name>Position 162</name>
            </trkpt>
            <trkpt lat="47.321937" lon="15.3783589">
                <ele>814.1</ele>
                <time>2022-08-11T08:08:40.000Z</time>
                <name>Position 163</name>
            </trkpt>
            <trkpt lat="47.3220072" lon="15.3784496">
                <ele>822.2</ele>
                <time>2022-08-11T08:10:04.000Z</time>
                <name>Position 164</name>
            </trkpt>
            <trkpt lat="47.3220891" lon="15.3783835">
                <ele>824.7</ele>
                <time>2022-08-11T08:10:51.000Z</time>
                <name>Position 165</name>
            </trkpt>
            <trkpt lat="47.3221265" lon="15.3782604">
                <ele>824.4</ele>
                <time>2022-08-11T08:12:09.000Z</time>
                <name>Position 166</name>
            </trkpt>
            <trkpt lat="47.3221113" lon="15.3783957">
                <ele>824.8</ele>
                <time>2022-08-11T08:17:02.000Z</time>
                <name>Position 167</name>
            </trkpt>
            <trkpt lat="47.3221835" lon="15.3783145">
                <ele>825.1</ele>
                <time>2022-08-11T08:21:55.000Z</time>
                <name>Position 168</name>
            </trkpt>
            <trkpt lat="47.3221086" lon="15.3783949">
                <ele>826.8</ele>
                <time>2022-08-11T08:34:00.000Z</time>
                <name>Position 169</name>
            </trkpt>
            <trkpt lat="47.3221938" lon="15.3783188">
                <ele>835.4</ele>
                <time>2022-08-11T08:37:20.000Z</time>
                <name>Position 170</name>
            </trkpt>
            <trkpt lat="47.3222908" lon="15.378334">
                <ele>836.0</ele>
                <time>2022-08-11T08:37:32.000Z</time>
                <name>Position 171</name>
            </trkpt>
            <trkpt lat="47.3222008" lon="15.3783007">
                <ele>837.3</ele>
                <time>2022-08-11T08:38:17.000Z</time>
                <name>Position 172</name>
            </trkpt>
            <trkpt lat="47.3221221" lon="15.3783844">
                <ele>839.3</ele>
                <time>2022-08-11T08:40:00.000Z</time>
                <name>Position 173</name>
            </trkpt>
            <trkpt lat="47.3221953" lon="15.3782994">
                <ele>847.9</ele>
                <time>2022-08-11T08:42:51.000Z</time>
                <name>Position 174</name>
            </trkpt>
            <trkpt lat="47.3222493" lon="15.3781932">
                <ele>848.9</ele>
                <time>2022-08-11T08:43:59.000Z</time>
                <name>Position 175</name>
            </trkpt>
            <trkpt lat="47.3223352" lon="15.3782359">
                <ele>853.9</ele>
                <time>2022-08-11T08:46:40.000Z</time>
                <name>Position 176</name>
            </trkpt>
            <trkpt lat="47.3222893" lon="15.3783538">
                <ele>854.4</ele>
                <time>2022-08-11T08:48:03.000Z</time>
                <name>Position 177</name>
            </trkpt>
            <trkpt lat="47.3223778" lon="15.3783013">
                <ele>857.0</ele>
                <time>2022-08-11T08:50:16.000Z</time>
                <name>Position 178</name>
            </trkpt>
            <trkpt lat="47.322465" lon="15.3782547">
                <ele>858.7</ele>
                <time>2022-08-11T08:51:12.000Z</time>
                <name>Position 179</name>
            </trkpt>
            <trkpt lat="47.3223753" lon="15.3782424">
                <ele>858.9</ele>
                <time>2022-08-11T08:51:40.000Z</time>
                <name>Position 180</name>
            </trkpt>
            <trkpt lat="47.3222912" lon="15.3782902">
                <ele>861.0</ele>
                <time>2022-08-11T08:52:18.000Z</time>
                <name>Position 181</name>
            </trkpt>
            <trkpt lat="47.3222029" lon="15.3782561">
                <ele>860.7</ele>
                <time>2022-08-11T08:54:58.000Z</time>
                <name>Position 182</name>
            </trkpt>
            <trkpt lat="47.3221149" lon="15.3783011">
                <ele>861.2</ele>
                <time>2022-08-11T09:08:16.000Z</time>
                <name>Position 183</name>
            </trkpt>
            <trkpt lat="47.322204" lon="15.3782738">
                <ele>861.5</ele>
                <time>2022-08-11T09:21:09.000Z</time>
                <name>Position 184</name>
            </trkpt>
            <trkpt lat="47.3222491" lon="15.3783893">
                <ele>885.3</ele>
                <time>2022-08-11T09:30:07.000Z</time>
                <name>Position 185</name>
            </trkpt>
            <trkpt lat="47.3223244" lon="15.3783128">
                <ele>887.6</ele>
                <time>2022-08-11T09:31:45.000Z</time>
                <name>Position 186</name>
            </trkpt>
            <trkpt lat="47.3222512" lon="15.3784096">
                <ele>891.2</ele>
                <time>2022-08-11T09:33:34.000Z</time>
                <name>Position 187</name>
            </trkpt>
            <trkpt lat="47.322285" lon="15.3782746">
                <ele>896.5</ele>
                <time>2022-08-11T09:36:26.000Z</time>
                <name>Position 188</name>
            </trkpt>
            <trkpt lat="47.3223696" lon="15.378326">
                <ele>905.5</ele>
                <time>2022-08-11T09:55:31.000Z</time>
                <name>Position 189</name>
            </trkpt>
            <trkpt lat="47.32246" lon="15.3783181">
                <ele>918.8</ele>
                <time>2022-08-11T10:00:54.000Z</time>
                <name>Position 190</name>
            </trkpt>
            <trkpt lat="47.3225498" lon="15.3783304">
                <ele>922.2</ele>
                <time>2022-08-11T10:01:36.000Z</time>
                <name>Position 191</name>
            </trkpt>
            <trkpt lat="47.3224936" lon="15.3784372">
                <ele>920.8</ele>
                <time>2022-08-11T10:04:26.000Z</time>
                <name>Position 192</name>
            </trkpt>
            <trkpt lat="47.3225805" lon="15.3783939">
                <ele>936.8</ele>
                <time>2022-08-11T10:14:08.000Z</time>
                <name>Position 193</name>
            </trkpt>
            <trkpt lat="47.3226144" lon="15.3785183">
                <ele>948.1</ele>
                <time>2022-08-11T10:16:46.000Z</time>
                <name>Position 194</name>
            </trkpt>
            <trkpt lat="47.322682" lon="15.3786066">
                <ele>951.4</ele>
                <time>2022-08-11T10:30:25.000Z</time>
                <name>Position 195</name>
            </trkpt>
            <trkpt lat="47.3227621" lon="15.3786895">
                <ele>951.9</ele>
                <time>2022-08-11T10:30:52.000Z</time>
                <name>Position 196</name>
            </trkpt>
            <trkpt lat="47.3227776" lon="15.3788295">
                <ele>949.5</ele>
                <time>2022-08-11T10:31:04.000Z</time>
                <name>Position 197</name>
            </trkpt>
            <trkpt lat="47.3227665" lon="15.378976">
                <ele>946.7</ele>
                <time>2022-08-11T10:31:18.000Z</time>
                <name>Position 198</name>
            </trkpt>
            <trkpt lat="47.322783" lon="15.3791144">
                <ele>946.0</ele>
                <time>2022-08-11T10:31:29.000Z</time>
                <name>Position 199</name>
            </trkpt>
            <trkpt lat="47.3227811" lon="15.3792591">
                <ele>942.8</ele>
                <time>2022-08-11T10:31:48.000Z</time>
                <name>Position 200</name>
            </trkpt>
            <trkpt lat="47.3227738" lon="15.3793921">
                <ele>938.9</ele>
                <time>2022-08-11T10:32:05.000Z</time>
                <name>Position 201</name>
            </trkpt>
            <trkpt lat="47.3227659" lon="15.3795251">
                <ele>934.7</ele>
                <time>2022-08-11T10:32:23.000Z</time>
                <name>Position 202</name>
            </trkpt>
            <trkpt lat="47.3227822" lon="15.3796584">
                <ele>932.7</ele>
                <time>2022-08-11T10:32:59.000Z</time>
                <name>Position 203</name>
            </trkpt>
            <trkpt lat="47.3227499" lon="15.3797826">
                <ele>929.6</ele>
                <time>2022-08-11T10:33:42.000Z</time>
                <name>Position 204</name>
            </trkpt>
            <trkpt lat="47.3227264" lon="15.3799177">
                <ele>929.7</ele>
                <time>2022-08-11T10:34:12.000Z</time>
                <name>Position 205</name>
            </trkpt>
            <trkpt lat="47.3225232" lon="15.3802661">
                <ele>929.9</ele>
                <time>2022-08-11T10:37:21.000Z</time>
                <name>Position 206</name>
            </trkpt>
            <trkpt lat="47.3226693" lon="15.3802096">
                <ele>934.4</ele>
                <time>2022-08-11T10:50:12.000Z</time>
                <name>Position 207</name>
            </trkpt>
            <trkpt lat="47.3226995" lon="15.3801415">
                <ele>950.6</ele>
                <time>2022-08-11T10:55:14.000Z</time>
                <name>Position 208</name>
            </trkpt>
            <trkpt lat="47.3226889" lon="15.3801827">
                <ele>959.6</ele>
                <time>2022-08-11T10:58:12.000Z</time>
                <name>Position 209</name>
            </trkpt>
            <trkpt lat="47.3227704" lon="15.3800746">
                <ele>965.5</ele>
                <time>2022-08-11T10:59:31.000Z</time>
                <name>Position 210</name>
            </trkpt>
            <trkpt lat="47.3229019" lon="15.3800727">
                <ele>971.1</ele>
                <time>2022-08-11T11:02:23.000Z</time>
                <name>Position 211</name>
            </trkpt>
            <trkpt lat="47.3229507" lon="15.3800698">
                <ele>968.0</ele>
                <time>2022-08-11T11:24:06.000Z</time>
                <name>Position 212</name>
            </trkpt>
            <trkpt lat="47.3229398" lon="15.3801686">
                <ele>967.6</ele>
                <time>2022-08-11T11:28:42.000Z</time>
                <name>Position 213</name>
            </trkpt>
            <trkpt lat="47.32297" lon="15.3801339">
                <ele>968.0</ele>
                <time>2022-08-11T11:38:05.000Z</time>
                <name>Position 214</name>
            </trkpt>
            <trkpt lat="47.32301" lon="15.3801537">
                <ele>968.2</ele>
                <time>2022-08-11T11:38:48.000Z</time>
                <name>Position 215</name>
            </trkpt>
            <trkpt lat="47.323096" lon="15.3801132">
                <ele>978.5</ele>
                <time>2022-08-11T11:41:09.000Z</time>
                <name>Position 216</name>
            </trkpt>
            <trkpt lat="47.3231364" lon="15.3802333">
                <ele>986.6</ele>
                <time>2022-08-11T11:43:33.000Z</time>
                <name>Position 217</name>
            </trkpt>
            <trkpt lat="47.3231544" lon="15.3803669">
                <ele>991.5</ele>
                <time>2022-08-11T11:43:55.000Z</time>
                <name>Position 218</name>
            </trkpt>
            <trkpt lat="47.3230977" lon="15.3804726">
                <ele>998.3</ele>
                <time>2022-08-11T11:49:11.000Z</time>
                <name>Position 219</name>
            </trkpt>
            <trkpt lat="47.323189" lon="15.380457">
                <ele>1011.6</ele>
                <time>2022-08-11T11:53:05.000Z</time>
                <name>Position 220</name>
            </trkpt>
            <trkpt lat="47.3232297" lon="15.3805795">
                <ele>1024.7</ele>
                <time>2022-08-11T12:15:12.000Z</time>
                <name>Position 221</name>
            </trkpt>
            <trkpt lat="47.3232225" lon="15.380447">
                <ele>1025.2</ele>
                <time>2022-08-11T12:18:34.000Z</time>
                <name>Position 222</name>
            </trkpt>
            <trkpt lat="47.3231962" lon="15.3805826">
                <ele>1028.6</ele>
                <time>2022-08-11T12:29:05.000Z</time>
                <name>Position 223</name>
            </trkpt>
            <trkpt lat="47.3232867" lon="15.3805603">
                <ele>1048.4</ele>
                <time>2022-08-11T12:43:04.000Z</time>
                <name>Position 224</name>
            </trkpt>
            <trkpt lat="47.3233321" lon="15.3806792">
                <ele>1059.2</ele>
                <time>2022-08-11T12:47:44.000Z</time>
                <name>Position 225</name>
            </trkpt>
            <trkpt lat="47.3234214" lon="15.3807288">
                <ele>1079.6</ele>
                <time>2022-08-11T13:18:58.000Z</time>
                <name>Position 226</name>
            </trkpt>
            <trkpt lat="47.3234822" lon="15.3808311">
                <ele>1083.8</ele>
                <time>2022-08-11T13:20:06.000Z</time>
                <name>Position 227</name>
            </trkpt>
            <trkpt lat="47.3235044" lon="15.38096">
                <ele>1086.3</ele>
                <time>2022-08-11T13:20:51.000Z</time>
                <name>Position 228</name>
            </trkpt>
            <trkpt lat="47.3235973" lon="15.3809315">
                <ele>1089.6</ele>
                <time>2022-08-11T13:31:58.000Z</time>
                <name>Position 229</name>
            </trkpt>
            <trkpt lat="47.3236872" lon="15.3808971">
                <ele>1090.2</ele>
                <time>2022-08-11T13:32:09.000Z</time>
                <name>Position 230</name>
            </trkpt>
            <trkpt lat="47.3237347" lon="15.3807838">
                <ele>1086.3</ele>
                <time>2022-08-11T13:32:28.000Z</time>
                <name>Position 231</name>
            </trkpt>
            <trkpt lat="47.3238251" lon="15.3807809">
                <ele>1084.0</ele>
                <time>2022-08-11T13:32:39.000Z</time>
                <name>Position 232</name>
            </trkpt>
            <trkpt lat="47.3238849" lon="15.3808934">
                <ele>1081.6</ele>
                <time>2022-08-11T13:32:51.000Z</time>
                <name>Position 233</name>
            </trkpt>
            <trkpt lat="47.3239719" lon="15.3809294">
                <ele>1079.2</ele>
                <time>2022-08-11T13:33:06.000Z</time>
                <name>Position 234</name>
            </trkpt>
            <trkpt lat="47.3240592" lon="15.3810029">
                <ele>1077.1</ele>
                <time>2022-08-11T13:33:16.000Z</time>
                <name>Position 235</name>
            </trkpt>
            <trkpt lat="47.3241325" lon="15.3810943">
                <ele>1074.9</ele>
                <time>2022-08-11T13:33:25.000Z</time>
                <name>Position 236</name>
            </trkpt>
            <trkpt lat="47.324178" lon="15.3812179">
                <ele>1073.0</ele>
                <time>2022-08-11T13:33:44.000Z</time>
                <name>Position 237</name>
            </trkpt>
            <trkpt lat="47.3242712" lon="15.3812421">
                <ele>1068.4</ele>
                <time>2022-08-11T13:34:01.000Z</time>
                <name>Position 238</name>
            </trkpt>
            <trkpt lat="47.3243377" lon="15.3811447">
                <ele>1062.5</ele>
                <time>2022-08-11T13:34:29.000Z</time>
                <name>Position 239</name>
            </trkpt>
            <trkpt lat="47.324396" lon="15.3810349">
                <ele>1054.7</ele>
                <time>2022-08-11T13:34:53.000Z</time>
                <name>Position 240</name>
            </trkpt>
            <trkpt lat="47.3244483" lon="15.3809213">
                <ele>1053.1</ele>
                <time>2022-08-11T13:35:10.000Z</time>
                <name>Position 241</name>
            </trkpt>
            <trkpt lat="47.3245346" lon="15.3808837">
                <ele>1045.9</ele>
                <time>2022-08-11T13:35:34.000Z</time>
                <name>Position 242</name>
            </trkpt>
            <trkpt lat="47.324564" lon="15.3807534">
                <ele>1040.2</ele>
                <time>2022-08-11T13:35:55.000Z</time>
                <name>Position 243</name>
            </trkpt>
            <trkpt lat="47.3245935" lon="15.380625">
                <ele>1034.2</ele>
                <time>2022-08-11T13:36:24.000Z</time>
                <name>Position 244</name>
            </trkpt>
            <trkpt lat="47.3246763" lon="15.3805477">
                <ele>1028.8</ele>
                <time>2022-08-11T13:36:45.000Z</time>
                <name>Position 245</name>
            </trkpt>
            <trkpt lat="47.3247602" lon="15.3806">
                <ele>1022.7</ele>
                <time>2022-08-11T13:37:09.000Z</time>
                <name>Position 246</name>
            </trkpt>
            <trkpt lat="47.3248458" lon="15.3805423">
                <ele>1020.7</ele>
                <time>2022-08-11T13:37:21.000Z</time>
                <name>Position 247</name>
            </trkpt>
            <trkpt lat="47.3249137" lon="15.3804495">
                <ele>1017.7</ele>
                <time>2022-08-11T13:37:32.000Z</time>
                <name>Position 248</name>
            </trkpt>
            <trkpt lat="47.3249562" lon="15.3803317">
                <ele>1013.1</ele>
                <time>2022-08-11T13:37:49.000Z</time>
                <name>Position 249</name>
            </trkpt>
            <trkpt lat="47.3249777" lon="15.3801966">
                <ele>1008.2</ele>
                <time>2022-08-11T13:38:10.000Z</time>
                <name>Position 250</name>
            </trkpt>
            <trkpt lat="47.3249609" lon="15.3800626">
                <ele>1004.9</ele>
                <time>2022-08-11T13:38:27.000Z</time>
                <name>Position 251</name>
            </trkpt>
            <trkpt lat="47.3250281" lon="15.3799554">
                <ele>999.3</ele>
                <time>2022-08-11T13:38:49.000Z</time>
                <name>Position 252</name>
            </trkpt>
            <trkpt lat="47.3251047" lon="15.3798835">
                <ele>996.7</ele>
                <time>2022-08-11T13:39:04.000Z</time>
                <name>Position 253</name>
            </trkpt>
            <trkpt lat="47.3251965" lon="15.3798543">
                <ele>991.3</ele>
                <time>2022-08-11T13:39:25.000Z</time>
                <name>Position 254</name>
            </trkpt>
            <trkpt lat="47.3252567" lon="15.3797406">
                <ele>985.4</ele>
                <time>2022-08-11T13:39:46.000Z</time>
                <name>Position 255</name>
            </trkpt>
            <trkpt lat="47.3252979" lon="15.3796154">
                <ele>980.6</ele>
                <time>2022-08-11T13:40:10.000Z</time>
                <name>Position 256</name>
            </trkpt>
            <trkpt lat="47.3253691" lon="15.3795275">
                <ele>976.7</ele>
                <time>2022-08-11T13:40:26.000Z</time>
                <name>Position 257</name>
            </trkpt>
            <trkpt lat="47.3254551" lon="15.37945">
                <ele>974.8</ele>
                <time>2022-08-11T13:40:37.000Z</time>
                <name>Position 258</name>
            </trkpt>
            <trkpt lat="47.325549" lon="15.3794185">
                <ele>969.4</ele>
                <time>2022-08-11T13:40:55.000Z</time>
                <name>Position 259</name>
            </trkpt>
            <trkpt lat="47.3256466" lon="15.3794202">
                <ele>966.7</ele>
                <time>2022-08-11T13:41:11.000Z</time>
                <name>Position 260</name>
            </trkpt>
            <trkpt lat="47.3257412" lon="15.3794489">
                <ele>964.8</ele>
                <time>2022-08-11T13:41:22.000Z</time>
                <name>Position 261</name>
            </trkpt>
            <trkpt lat="47.325801" lon="15.3793424">
                <ele>959.8</ele>
                <time>2022-08-11T13:41:40.000Z</time>
                <name>Position 262</name>
            </trkpt>
            <trkpt lat="47.3258354" lon="15.3792125">
                <ele>954.7</ele>
                <time>2022-08-11T13:42:02.000Z</time>
                <name>Position 263</name>
            </trkpt>
            <trkpt lat="47.3258428" lon="15.3790746">
                <ele>949.3</ele>
                <time>2022-08-11T13:42:20.000Z</time>
                <name>Position 264</name>
            </trkpt>
            <trkpt lat="47.3257775" lon="15.3789747">
                <ele>945.9</ele>
                <time>2022-08-11T13:42:33.000Z</time>
                <name>Position 265</name>
            </trkpt>
            <trkpt lat="47.3257537" lon="15.3788409">
                <ele>940.4</ele>
                <time>2022-08-11T13:42:58.000Z</time>
                <name>Position 266</name>
            </trkpt>
            <trkpt lat="47.3256851" lon="15.3787513">
                <ele>931.4</ele>
                <time>2022-08-11T13:43:22.000Z</time>
                <name>Position 267</name>
            </trkpt>
            <trkpt lat="47.3257062" lon="15.3786155">
                <ele>926.4</ele>
                <time>2022-08-11T13:43:50.000Z</time>
                <name>Position 268</name>
            </trkpt>
            <trkpt lat="47.3256393" lon="15.3785267">
                <ele>923.7</ele>
                <time>2022-08-11T13:44:01.000Z</time>
                <name>Position 269</name>
            </trkpt>
            <trkpt lat="47.3255791" lon="15.3784266">
                <ele>921.3</ele>
                <time>2022-08-11T13:44:17.000Z</time>
                <name>Position 270</name>
            </trkpt>
            <trkpt lat="47.3256028" lon="15.3782956">
                <ele>903.8</ele>
                <time>2022-08-11T13:45:24.000Z</time>
                <name>Position 271</name>
            </trkpt>
            <trkpt lat="47.3255661" lon="15.3781683">
                <ele>899.8</ele>
                <time>2022-08-11T13:45:52.000Z</time>
                <name>Position 272</name>
            </trkpt>
            <trkpt lat="47.3255327" lon="15.3780448">
                <ele>891.8</ele>
                <time>2022-08-11T13:46:26.000Z</time>
                <name>Position 273</name>
            </trkpt>
            <trkpt lat="47.3255153" lon="15.3779117">
                <ele>885.7</ele>
                <time>2022-08-11T13:47:02.000Z</time>
                <name>Position 274</name>
            </trkpt>
            <trkpt lat="47.3254882" lon="15.3777782">
                <ele>874.5</ele>
                <time>2022-08-11T13:47:49.000Z</time>
                <name>Position 275</name>
            </trkpt>
            <trkpt lat="47.3255294" lon="15.3776503">
                <ele>865.9</ele>
                <time>2022-08-11T13:48:18.000Z</time>
                <name>Position 276</name>
            </trkpt>
            <trkpt lat="47.3254965" lon="15.3775242">
                <ele>861.8</ele>
                <time>2022-08-11T13:48:34.000Z</time>
                <name>Position 277</name>
            </trkpt>
            <trkpt lat="47.3254412" lon="15.3774188">
                <ele>857.2</ele>
                <time>2022-08-11T13:48:53.000Z</time>
                <name>Position 278</name>
            </trkpt>
            <trkpt lat="47.3254039" lon="15.3772981">
                <ele>854.3</ele>
                <time>2022-08-11T13:49:07.000Z</time>
                <name>Position 279</name>
            </trkpt>
            <trkpt lat="47.3253475" lon="15.3771705">
                <ele>851.1</ele>
                <time>2022-08-11T13:49:20.000Z</time>
                <name>Position 280</name>
            </trkpt>
            <trkpt lat="47.3253112" lon="15.3770333">
                <ele>848.0</ele>
                <time>2022-08-11T13:49:32.000Z</time>
                <name>Position 281</name>
            </trkpt>
            <trkpt lat="47.3253312" lon="15.3768942">
                <ele>845.7</ele>
                <time>2022-08-11T13:49:39.000Z</time>
                <name>Position 282</name>
            </trkpt>
            <trkpt lat="47.3254144" lon="15.3768381">
                <ele>842.4</ele>
                <time>2022-08-11T13:49:55.000Z</time>
                <name>Position 283</name>
            </trkpt>
            <trkpt lat="47.3255124" lon="15.3768321">
                <ele>835.8</ele>
                <time>2022-08-11T13:50:19.000Z</time>
                <name>Position 284</name>
            </trkpt>
            <trkpt lat="47.3255999" lon="15.3768824">
                <ele>832.5</ele>
                <time>2022-08-11T13:50:30.000Z</time>
                <name>Position 285</name>
            </trkpt>
            <trkpt lat="47.325683" lon="15.3768279">
                <ele>828.9</ele>
                <time>2022-08-11T13:50:48.000Z</time>
                <name>Position 286</name>
            </trkpt>
            <trkpt lat="47.3257517" lon="15.3767272">
                <ele>825.2</ele>
                <time>2022-08-11T13:51:03.000Z</time>
                <name>Position 287</name>
            </trkpt>
            <trkpt lat="47.3258358" lon="15.3767787">
                <ele>822.3</ele>
                <time>2022-08-11T13:51:19.000Z</time>
                <name>Position 288</name>
            </trkpt>
            <trkpt lat="47.3259188" lon="15.3768433">
                <ele>819.5</ele>
                <time>2022-08-11T13:51:32.000Z</time>
                <name>Position 289</name>
            </trkpt>
            <trkpt lat="47.3260113" lon="15.3768533">
                <ele>812.9</ele>
                <time>2022-08-11T13:52:02.000Z</time>
                <name>Position 290</name>
            </trkpt>
            <trkpt lat="47.3260744" lon="15.3767577">
                <ele>808.1</ele>
                <time>2022-08-11T13:52:24.000Z</time>
                <name>Position 291</name>
            </trkpt>
            <trkpt lat="47.3261465" lon="15.3766625">
                <ele>805.5</ele>
                <time>2022-08-11T13:52:34.000Z</time>
                <name>Position 292</name>
            </trkpt>
            <trkpt lat="47.3261316" lon="15.3765274">
                <ele>800.5</ele>
                <time>2022-08-11T13:52:51.000Z</time>
                <name>Position 293</name>
            </trkpt>
            <trkpt lat="47.3260717" lon="15.3764095">
                <ele>795.7</ele>
                <time>2022-08-11T13:53:07.000Z</time>
                <name>Position 294</name>
            </trkpt>
            <trkpt lat="47.3260164" lon="15.3762963">
                <ele>785.7</ele>
                <time>2022-08-11T13:53:43.000Z</time>
                <name>Position 295</name>
            </trkpt>
            <trkpt lat="47.3259387" lon="15.3762244">
                <ele>787.2</ele>
                <time>2022-08-11T13:53:52.000Z</time>
                <name>Position 296</name>
            </trkpt>
            <trkpt lat="47.3258717" lon="15.3761258">
                <ele>784.7</ele>
                <time>2022-08-11T13:54:01.000Z</time>
                <name>Position 297</name>
            </trkpt>
            <trkpt lat="47.3257987" lon="15.3760397">
                <ele>781.6</ele>
                <time>2022-08-11T13:54:13.000Z</time>
                <name>Position 298</name>
            </trkpt>
            <trkpt lat="47.3257428" lon="15.3759306">
                <ele>780.3</ele>
                <time>2022-08-11T13:54:22.000Z</time>
                <name>Position 299</name>
            </trkpt>
            <trkpt lat="47.3256848" lon="15.375824">
                <ele>779.7</ele>
                <time>2022-08-11T13:54:32.000Z</time>
                <name>Position 300</name>
            </trkpt>
            <trkpt lat="47.3255981" lon="15.3757433">
                <ele>778.2</ele>
                <time>2022-08-11T13:54:41.000Z</time>
                <name>Position 301</name>
            </trkpt>
            <trkpt lat="47.3255142" lon="15.3756659">
                <ele>774.7</ele>
                <time>2022-08-11T13:54:56.000Z</time>
                <name>Position 302</name>
            </trkpt>
            <trkpt lat="47.32545" lon="15.375572">
                <ele>773.4</ele>
                <time>2022-08-11T13:55:02.000Z</time>
                <name>Position 303</name>
            </trkpt>
            <trkpt lat="47.3253566" lon="15.3755338">
                <ele>769.6</ele>
                <time>2022-08-11T13:55:17.000Z</time>
                <name>Position 304</name>
            </trkpt>
            <trkpt lat="47.325263" lon="15.3755005">
                <ele>767.3</ele>
                <time>2022-08-11T13:55:24.000Z</time>
                <name>Position 305</name>
            </trkpt>
            <trkpt lat="47.3252103" lon="15.3753928">
                <ele>764.5</ele>
                <time>2022-08-11T13:55:34.000Z</time>
                <name>Position 306</name>
            </trkpt>
            <trkpt lat="47.3251225" lon="15.3753403">
                <ele>762.5</ele>
                <time>2022-08-11T13:55:44.000Z</time>
                <name>Position 307</name>
            </trkpt>
            <trkpt lat="47.3250293" lon="15.3753356">
                <ele>759.1</ele>
                <time>2022-08-11T13:56:01.000Z</time>
                <name>Position 308</name>
            </trkpt>
            <trkpt lat="47.324939" lon="15.3753386">
                <ele>756.2</ele>
                <time>2022-08-11T13:56:10.000Z</time>
                <name>Position 309</name>
            </trkpt>
            <trkpt lat="47.3248472" lon="15.3753651">
                <ele>752.6</ele>
                <time>2022-08-11T13:56:23.000Z</time>
                <name>Position 310</name>
            </trkpt>
            <trkpt lat="47.3247515" lon="15.3753488">
                <ele>750.3</ele>
                <time>2022-08-11T13:56:34.000Z</time>
                <name>Position 311</name>
            </trkpt>
            <trkpt lat="47.3246658" lon="15.3752902">
                <ele>748.3</ele>
                <time>2022-08-11T13:56:46.000Z</time>
                <name>Position 312</name>
            </trkpt>
            <trkpt lat="47.324584" lon="15.3752234">
                <ele>745.7</ele>
                <time>2022-08-11T13:56:58.000Z</time>
                <name>Position 313</name>
            </trkpt>
            <trkpt lat="47.3244935" lon="15.3752422">
                <ele>741.2</ele>
                <time>2022-08-11T13:57:13.000Z</time>
                <name>Position 314</name>
            </trkpt>
            <trkpt lat="47.3243948" lon="15.3752654">
                <ele>722.9</ele>
                <time>2022-08-11T13:57:28.000Z</time>
                <name>Position 315</name>
            </trkpt>
            <trkpt lat="47.324307" lon="15.3752236">
                <ele>733.7</ele>
                <time>2022-08-11T13:57:41.000Z</time>
                <name>Position 316</name>
            </trkpt>
            <trkpt lat="47.3242578" lon="15.3751081">
                <ele>729.5</ele>
                <time>2022-08-11T13:57:56.000Z</time>
                <name>Position 317</name>
            </trkpt>
            <trkpt lat="47.3242389" lon="15.3749713">
                <ele>726.1</ele>
                <time>2022-08-11T13:58:10.000Z</time>
                <name>Position 318</name>
            </trkpt>
            <trkpt lat="47.3242281" lon="15.3748338">
                <ele>721.3</ele>
                <time>2022-08-11T13:58:30.000Z</time>
                <name>Position 319</name>
            </trkpt>
            <trkpt lat="47.3242669" lon="15.3747064">
                <ele>714.7</ele>
                <time>2022-08-11T13:58:53.000Z</time>
                <name>Position 320</name>
            </trkpt>
            <trkpt lat="47.324331" lon="15.3746095">
                <ele>712.5</ele>
                <time>2022-08-11T13:59:03.000Z</time>
                <name>Position 321</name>
            </trkpt>
            <trkpt lat="47.3244077" lon="15.3745173">
                <ele>709.3</ele>
                <time>2022-08-11T13:59:15.000Z</time>
                <name>Position 322</name>
            </trkpt>
            <trkpt lat="47.3244816" lon="15.3744404">
                <ele>704.6</ele>
                <time>2022-08-11T13:59:37.000Z</time>
                <name>Position 323</name>
            </trkpt>
            <trkpt lat="47.324514" lon="15.3743156">
                <ele>699.7</ele>
                <time>2022-08-11T13:59:53.000Z</time>
                <name>Position 324</name>
            </trkpt>
            <trkpt lat="47.3245721" lon="15.3742097">
                <ele>698.3</ele>
                <time>2022-08-11T14:00:01.000Z</time>
                <name>Position 325</name>
            </trkpt>
            <trkpt lat="47.3246233" lon="15.3740988">
                <ele>692.8</ele>
                <time>2022-08-11T14:00:18.000Z</time>
                <name>Position 326</name>
            </trkpt>
            <trkpt lat="47.3246559" lon="15.37397">
                <ele>689.6</ele>
                <time>2022-08-11T14:00:29.000Z</time>
                <name>Position 327</name>
            </trkpt>
            <trkpt lat="47.3245779" lon="15.3738965">
                <ele>686.1</ele>
                <time>2022-08-11T14:00:42.000Z</time>
                <name>Position 328</name>
            </trkpt>
            <trkpt lat="47.3244955" lon="15.3738272">
                <ele>682.2</ele>
                <time>2022-08-11T14:00:58.000Z</time>
                <name>Position 329</name>
            </trkpt>
            <trkpt lat="47.3243997" lon="15.3738252">
                <ele>677.5</ele>
                <time>2022-08-11T14:01:11.000Z</time>
                <name>Position 330</name>
            </trkpt>
            <trkpt lat="47.3243116" lon="15.3737911">
                <ele>675.5</ele>
                <time>2022-08-11T14:01:23.000Z</time>
                <name>Position 331</name>
            </trkpt>
            <trkpt lat="47.324224" lon="15.373757">
                <ele>670.9</ele>
                <time>2022-08-11T14:01:40.000Z</time>
                <name>Position 332</name>
            </trkpt>
            <trkpt lat="47.3241333" lon="15.373717">
                <ele>668.7</ele>
                <time>2022-08-11T14:01:47.000Z</time>
                <name>Position 333</name>
            </trkpt>
            <trkpt lat="47.3240342" lon="15.3736643">
                <ele>666.6</ele>
                <time>2022-08-11T14:01:56.000Z</time>
                <name>Position 334</name>
            </trkpt>
            <trkpt lat="47.3239374" lon="15.3736132">
                <ele>665.2</ele>
                <time>2022-08-11T14:02:03.000Z</time>
                <name>Position 335</name>
            </trkpt>
            <trkpt lat="47.3238584" lon="15.3735264">
                <ele>662.8</ele>
                <time>2022-08-11T14:02:12.000Z</time>
                <name>Position 336</name>
            </trkpt>
            <trkpt lat="47.3237666" lon="15.3734723">
                <ele>662.4</ele>
                <time>2022-08-11T14:02:19.000Z</time>
                <name>Position 337</name>
            </trkpt>
            <trkpt lat="47.3236716" lon="15.3735067">
                <ele>661.3</ele>
                <time>2022-08-11T14:02:27.000Z</time>
                <name>Position 338</name>
            </trkpt>
            <trkpt lat="47.323576" lon="15.3735492">
                <ele>662.7</ele>
                <time>2022-08-11T14:02:34.000Z</time>
                <name>Position 339</name>
            </trkpt>
            <trkpt lat="47.3234918" lon="15.3736335">
                <ele>660.8</ele>
                <time>2022-08-11T14:02:43.000Z</time>
                <name>Position 340</name>
            </trkpt>
            <trkpt lat="47.3234185" lon="15.3737155">
                <ele>661.2</ele>
                <time>2022-08-11T14:02:52.000Z</time>
                <name>Position 341</name>
            </trkpt>
            <trkpt lat="47.3233551" lon="15.3738181">
                <ele>660.5</ele>
                <time>2022-08-11T14:03:01.000Z</time>
                <name>Position 342</name>
            </trkpt>
            <trkpt lat="47.3233078" lon="15.3739341">
                <ele>660.7</ele>
                <time>2022-08-11T14:03:09.000Z</time>
                <name>Position 343</name>
            </trkpt>
            <trkpt lat="47.3232583" lon="15.3740471">
                <ele>659.6</ele>
                <time>2022-08-11T14:03:18.000Z</time>
                <name>Position 344</name>
            </trkpt>
            <trkpt lat="47.3231843" lon="15.3741418">
                <ele>659.1</ele>
                <time>2022-08-11T14:03:27.000Z</time>
                <name>Position 345</name>
            </trkpt>
            <trkpt lat="47.3230899" lon="15.374196">
                <ele>658.7</ele>
                <time>2022-08-11T14:03:36.000Z</time>
                <name>Position 346</name>
            </trkpt>
            <trkpt lat="47.3229961" lon="15.3742425">
                <ele>657.4</ele>
                <time>2022-08-11T14:03:44.000Z</time>
                <name>Position 347</name>
            </trkpt>
            <trkpt lat="47.3229067" lon="15.3742143">
                <ele>655.2</ele>
                <time>2022-08-11T14:03:57.000Z</time>
                <name>Position 348</name>
            </trkpt>
            <trkpt lat="47.3228316" lon="15.374141">
                <ele>652.3</ele>
                <time>2022-08-11T14:04:09.000Z</time>
                <name>Position 349</name>
            </trkpt>
            <trkpt lat="47.3227464" lon="15.3740851">
                <ele>648.8</ele>
                <time>2022-08-11T14:04:24.000Z</time>
                <name>Position 350</name>
            </trkpt>
            <trkpt lat="47.3226695" lon="15.3740019">
                <ele>644.4</ele>
                <time>2022-08-11T14:04:38.000Z</time>
                <name>Position 351</name>
            </trkpt>
            <trkpt lat="47.3225932" lon="15.373931">
                <ele>642.2</ele>
                <time>2022-08-11T14:04:49.000Z</time>
                <name>Position 352</name>
            </trkpt>
            <trkpt lat="47.3225373" lon="15.3738016">
                <ele>638.5</ele>
                <time>2022-08-11T14:05:01.000Z</time>
                <name>Position 353</name>
            </trkpt>
            <trkpt lat="47.3224584" lon="15.3737236">
                <ele>637.7</ele>
                <time>2022-08-11T14:05:08.000Z</time>
                <name>Position 354</name>
            </trkpt>
            <trkpt lat="47.3223705" lon="15.3736623">
                <ele>635.1</ele>
                <time>2022-08-11T14:05:18.000Z</time>
                <name>Position 355</name>
            </trkpt>
            <trkpt lat="47.3222792" lon="15.3736325">
                <ele>634.3</ele>
                <time>2022-08-11T14:05:26.000Z</time>
                <name>Position 356</name>
            </trkpt>
            <trkpt lat="47.3221872" lon="15.3736187">
                <ele>633.6</ele>
                <time>2022-08-11T14:05:34.000Z</time>
                <name>Position 357</name>
            </trkpt>
            <trkpt lat="47.3220909" lon="15.3736124">
                <ele>630.7</ele>
                <time>2022-08-11T14:05:45.000Z</time>
                <name>Position 358</name>
            </trkpt>
            <trkpt lat="47.3219998" lon="15.3736231">
                <ele>628.2</ele>
                <time>2022-08-11T14:05:56.000Z</time>
                <name>Position 359</name>
            </trkpt>
            <trkpt lat="47.3219102" lon="15.3735616">
                <ele>625.4</ele>
                <time>2022-08-11T14:06:10.000Z</time>
                <name>Position 360</name>
            </trkpt>
            <trkpt lat="47.3218263" lon="15.3736098">
                <ele>623.5</ele>
                <time>2022-08-11T14:06:19.000Z</time>
                <name>Position 361</name>
            </trkpt>
            <trkpt lat="47.3217301" lon="15.3736148">
                <ele>622.5</ele>
                <time>2022-08-11T14:06:29.000Z</time>
                <name>Position 362</name>
            </trkpt>
            <trkpt lat="47.3216342" lon="15.373639">
                <ele>619.0</ele>
                <time>2022-08-11T14:06:43.000Z</time>
                <name>Position 363</name>
            </trkpt>
            <trkpt lat="47.3215371" lon="15.3736797">
                <ele>617.0</ele>
                <time>2022-08-11T14:06:51.000Z</time>
                <name>Position 364</name>
            </trkpt>
            <trkpt lat="47.321445" lon="15.3736835">
                <ele>616.8</ele>
                <time>2022-08-11T14:06:58.000Z</time>
                <name>Position 365</name>
            </trkpt>
            <trkpt lat="47.321353" lon="15.3736294">
                <ele>614.1</ele>
                <time>2022-08-11T14:07:09.000Z</time>
                <name>Position 366</name>
            </trkpt>
            <trkpt lat="47.3212633" lon="15.3735855">
                <ele>612.4</ele>
                <time>2022-08-11T14:07:17.000Z</time>
                <name>Position 367</name>
            </trkpt>
            <trkpt lat="47.3211711" lon="15.3736002">
                <ele>609.0</ele>
                <time>2022-08-11T14:07:28.000Z</time>
                <name>Position 368</name>
            </trkpt>
            <trkpt lat="47.3210805" lon="15.373599">
                <ele>607.0</ele>
                <time>2022-08-11T14:07:36.000Z</time>
                <name>Position 369</name>
            </trkpt>
            <trkpt lat="47.3209881" lon="15.3735521">
                <ele>603.8</ele>
                <time>2022-08-11T14:07:47.000Z</time>
                <name>Position 370</name>
            </trkpt>
            <trkpt lat="47.3208902" lon="15.3735473">
                <ele>600.5</ele>
                <time>2022-08-11T14:08:01.000Z</time>
                <name>Position 371</name>
            </trkpt>
            <trkpt lat="47.3207948" lon="15.3735538">
                <ele>599.3</ele>
                <time>2022-08-11T14:08:11.000Z</time>
                <name>Position 372</name>
            </trkpt>
            <trkpt lat="47.3206981" lon="15.3735752">
                <ele>597.0</ele>
                <time>2022-08-11T14:08:20.000Z</time>
                <name>Position 373</name>
            </trkpt>
            <trkpt lat="47.3206024" lon="15.3735785">
                <ele>593.5</ele>
                <time>2022-08-11T14:08:32.000Z</time>
                <name>Position 374</name>
            </trkpt>
            <trkpt lat="47.3205028" lon="15.3736019">
                <ele>584.7</ele>
                <time>2022-08-11T14:08:39.000Z</time>
                <name>Position 375</name>
            </trkpt>
            <trkpt lat="47.320407" lon="15.373572">
                <ele>591.2</ele>
                <time>2022-08-11T14:08:52.000Z</time>
                <name>Position 376</name>
            </trkpt>
            <trkpt lat="47.3203173" lon="15.3735589">
                <ele>589.4</ele>
                <time>2022-08-11T14:09:01.000Z</time>
                <name>Position 377</name>
            </trkpt>
            <trkpt lat="47.320229" lon="15.373619">
                <ele>587.2</ele>
                <time>2022-08-11T14:09:10.000Z</time>
                <name>Position 378</name>
            </trkpt>
            <trkpt lat="47.3201321" lon="15.3736644">
                <ele>585.7</ele>
                <time>2022-08-11T14:09:19.000Z</time>
                <name>Position 379</name>
            </trkpt>
            <trkpt lat="47.3200316" lon="15.3736951">
                <ele>583.7</ele>
                <time>2022-08-11T14:09:28.000Z</time>
                <name>Position 380</name>
            </trkpt>
            <trkpt lat="47.3200115" lon="15.3735623">
                <ele>576.5</ele>
                <time>2022-08-11T14:10:01.000Z</time>
                <name>Position 381</name>
            </trkpt>
            <trkpt lat="47.320033" lon="15.3734327">
                <ele>574.1</ele>
                <time>2022-08-11T14:10:12.000Z</time>
                <name>Position 382</name>
            </trkpt>
            <trkpt lat="47.3200835" lon="15.3733064">
                <ele>572.0</ele>
                <time>2022-08-11T14:10:19.000Z</time>
                <name>Position 383</name>
            </trkpt>
            <trkpt lat="47.3201506" lon="15.3732022">
                <ele>570.1</ele>
                <time>2022-08-11T14:10:24.000Z</time>
                <name>Position 384</name>
            </trkpt>
            <trkpt lat="47.3202109" lon="15.3730865">
                <ele>569.0</ele>
                <time>2022-08-11T14:10:32.000Z</time>
                <name>Position 385</name>
            </trkpt>
            <trkpt lat="47.3202836" lon="15.3729979">
                <ele>565.0</ele>
                <time>2022-08-11T14:10:50.000Z</time>
                <name>Position 386</name>
            </trkpt>
            <trkpt lat="47.3203087" lon="15.3728686">
                <ele>562.9</ele>
                <time>2022-08-11T14:10:57.000Z</time>
                <name>Position 387</name>
            </trkpt>
            <trkpt lat="47.3203907" lon="15.3727908">
                <ele>561.9</ele>
                <time>2022-08-11T14:11:03.000Z</time>
                <name>Position 388</name>
            </trkpt>
            <trkpt lat="47.3204579" lon="15.3726845">
                <ele>559.4</ele>
                <time>2022-08-11T14:11:12.000Z</time>
                <name>Position 389</name>
            </trkpt>
            <trkpt lat="47.3205133" lon="15.3725698">
                <ele>557.8</ele>
                <time>2022-08-11T14:11:19.000Z</time>
                <name>Position 390</name>
            </trkpt>
            <trkpt lat="47.3205802" lon="15.3724679">
                <ele>554.6</ele>
                <time>2022-08-11T14:11:28.000Z</time>
                <name>Position 391</name>
            </trkpt>
            <trkpt lat="47.3206497" lon="15.3723798">
                <ele>553.4</ele>
                <time>2022-08-11T14:11:38.000Z</time>
                <name>Position 392</name>
            </trkpt>
            <trkpt lat="47.3206948" lon="15.3722598">
                <ele>550.8</ele>
                <time>2022-08-11T14:11:51.000Z</time>
                <name>Position 393</name>
            </trkpt>
            <trkpt lat="47.3207505" lon="15.372141">
                <ele>548.2</ele>
                <time>2022-08-11T14:12:03.000Z</time>
                <name>Position 394</name>
            </trkpt>
            <trkpt lat="47.3208052" lon="15.3720251">
                <ele>547.5</ele>
                <time>2022-08-11T14:12:10.000Z</time>
                <name>Position 395</name>
            </trkpt>
            <trkpt lat="47.3208512" lon="15.3719095">
                <ele>545.2</ele>
                <time>2022-08-11T14:12:20.000Z</time>
                <name>Position 396</name>
            </trkpt>
            <trkpt lat="47.3209011" lon="15.3717835">
                <ele>542.5</ele>
                <time>2022-08-11T14:12:34.000Z</time>
                <name>Position 397</name>
            </trkpt>
            <trkpt lat="47.3209526" lon="15.3716711">
                <ele>540.4</ele>
                <time>2022-08-11T14:12:45.000Z</time>
                <name>Position 398</name>
            </trkpt>
            <trkpt lat="47.3210251" lon="15.3715813">
                <ele>537.4</ele>
                <time>2022-08-11T14:12:54.000Z</time>
                <name>Position 399</name>
            </trkpt>
            <trkpt lat="47.32111" lon="15.3715203">
                <ele>536.6</ele>
                <time>2022-08-11T14:13:01.000Z</time>
                <name>Position 400</name>
            </trkpt>
            <trkpt lat="47.3212011" lon="15.3715006">
                <ele>532.5</ele>
                <time>2022-08-11T14:13:11.000Z</time>
                <name>Position 401</name>
            </trkpt>
            <trkpt lat="47.3212985" lon="15.3714956">
                <ele>531.5</ele>
                <time>2022-08-11T14:13:21.000Z</time>
                <name>Position 402</name>
            </trkpt>
            <trkpt lat="47.3213573" lon="15.3713944">
                <ele>526.5</ele>
                <time>2022-08-11T14:13:37.000Z</time>
                <name>Position 403</name>
            </trkpt>
            <trkpt lat="47.3213639" lon="15.3712601">
                <ele>525.1</ele>
                <time>2022-08-11T14:13:46.000Z</time>
                <name>Position 404</name>
            </trkpt>
            <trkpt lat="47.3213738" lon="15.371128">
                <ele>521.5</ele>
                <time>2022-08-11T14:14:02.000Z</time>
                <name>Position 405</name>
            </trkpt>
            <trkpt lat="47.3213098" lon="15.371018">
                <ele>518.9</ele>
                <time>2022-08-11T14:14:12.000Z</time>
                <name>Position 406</name>
            </trkpt>
            <trkpt lat="47.3212248" lon="15.3709681">
                <ele>517.1</ele>
                <time>2022-08-11T14:14:18.000Z</time>
                <name>Position 407</name>
            </trkpt>
            <trkpt lat="47.3211816" lon="15.3708494">
                <ele>515.8</ele>
                <time>2022-08-11T14:14:27.000Z</time>
                <name>Position 408</name>
            </trkpt>
            <trkpt lat="47.3211122" lon="15.3707546">
                <ele>513.5</ele>
                <time>2022-08-11T14:14:36.000Z</time>
                <name>Position 409</name>
            </trkpt>
            <trkpt lat="47.3210382" lon="15.3706642">
                <ele>512.5</ele>
                <time>2022-08-11T14:14:42.000Z</time>
                <name>Position 410</name>
            </trkpt>
            <trkpt lat="47.3209927" lon="15.3705495">
                <ele>510.4</ele>
                <time>2022-08-11T14:14:50.000Z</time>
                <name>Position 411</name>
            </trkpt>
            <trkpt lat="47.3209822" lon="15.370408">
                <ele>507.9</ele>
                <time>2022-08-11T14:14:59.000Z</time>
                <name>Position 412</name>
            </trkpt>
            <trkpt lat="47.3209937" lon="15.3702706">
                <ele>505.6</ele>
                <time>2022-08-11T14:15:06.000Z</time>
                <name>Position 413</name>
            </trkpt>
            <trkpt lat="47.3210349" lon="15.3701456">
                <ele>503.1</ele>
                <time>2022-08-11T14:15:15.000Z</time>
                <name>Position 414</name>
            </trkpt>
            <trkpt lat="47.3211133" lon="15.3700476">
                <ele>500.0</ele>
                <time>2022-08-11T14:15:25.000Z</time>
                <name>Position 415</name>
            </trkpt>
            <trkpt lat="47.3211796" lon="15.3699372">
                <ele>499.6</ele>
                <time>2022-08-11T14:15:30.000Z</time>
                <name>Position 416</name>
            </trkpt>
            <trkpt lat="47.3212378" lon="15.3698283">
                <ele>497.5</ele>
                <time>2022-08-11T14:15:36.000Z</time>
                <name>Position 417</name>
            </trkpt>
            <trkpt lat="47.3213184" lon="15.3697508">
                <ele>496.4</ele>
                <time>2022-08-11T14:15:42.000Z</time>
                <name>Position 418</name>
            </trkpt>
            <trkpt lat="47.3214079" lon="15.3697003">
                <ele>495.9</ele>
                <time>2022-08-11T14:15:49.000Z</time>
                <name>Position 419</name>
            </trkpt>
            <trkpt lat="47.3214918" lon="15.3696499">
                <ele>495.6</ele>
                <time>2022-08-11T14:15:57.000Z</time>
                <name>Position 420</name>
            </trkpt>
            <trkpt lat="47.321585" lon="15.3696378">
                <ele>495.6</ele>
                <time>2022-08-11T14:16:09.000Z</time>
                <name>Position 421</name>
            </trkpt>
            <trkpt lat="47.3216678" lon="15.3695704">
                <ele>492.4</ele>
                <time>2022-08-11T14:16:19.000Z</time>
                <name>Position 422</name>
            </trkpt>
            <trkpt lat="47.3217499" lon="15.3694982">
                <ele>488.3</ele>
                <time>2022-08-11T14:16:26.000Z</time>
                <name>Position 423</name>
            </trkpt>
            <trkpt lat="47.3218226" lon="15.3694185">
                <ele>495.0</ele>
                <time>2022-08-11T14:16:32.000Z</time>
                <name>Position 424</name>
            </trkpt>
            <trkpt lat="47.3219036" lon="15.3693495">
                <ele>494.7</ele>
                <time>2022-08-11T14:16:37.000Z</time>
                <name>Position 425</name>
            </trkpt>
            <trkpt lat="47.3219938" lon="15.3693253">
                <ele>488.7</ele>
                <time>2022-08-11T14:16:43.000Z</time>
                <name>Position 426</name>
            </trkpt>
            <trkpt lat="47.3220747" lon="15.3692434">
                <ele>495.8</ele>
                <time>2022-08-11T14:16:50.000Z</time>
                <name>Position 427</name>
            </trkpt>
            <trkpt lat="47.3221615" lon="15.3691771">
                <ele>492.2</ele>
                <time>2022-08-11T14:16:58.000Z</time>
                <name>Position 428</name>
            </trkpt>
            <trkpt lat="47.3222407" lon="15.3690936">
                <ele>494.3</ele>
                <time>2022-08-11T14:17:06.000Z</time>
                <name>Position 429</name>
            </trkpt>
            <trkpt lat="47.3223237" lon="15.3690217">
                <ele>495.0</ele>
                <time>2022-08-11T14:17:15.000Z</time>
                <name>Position 430</name>
            </trkpt>
            <trkpt lat="47.3223767" lon="15.3689094">
                <ele>495.2</ele>
                <time>2022-08-11T14:17:24.000Z</time>
                <name>Position 431</name>
            </trkpt>
            <trkpt lat="47.3224732" lon="15.368954">
                <ele>494.8</ele>
                <time>2022-08-11T14:20:56.000Z</time>
                <name>Position 432</name>
            </trkpt>
            <trkpt lat="47.3225655" lon="15.3688995">
                <ele>494.6</ele>
                <time>2022-08-11T14:21:02.000Z</time>
                <name>Position 433</name>
            </trkpt>
            <trkpt lat="47.322493" lon="15.3688051">
                <ele>494.1</ele>
                <time>2022-08-11T14:21:13.000Z</time>
                <name>Position 434</name>
            </trkpt>
            <trkpt lat="47.3224048" lon="15.3688421">
                <ele>492.6</ele>
                <time>2022-08-11T14:21:22.000Z</time>
                <name>0000764</name>
                <desc>&lt;p&gt;&lt;br /&gt;&lt;h3&gt;Name: Segment: 1&lt;/h3&gt;&lt;br /&gt;Startzeit: 08/11/2022 09:16&lt;br/&gt;Zielzeit: 08/11/2022 16:21&lt;br/&gt;Strecke: 4,6km (07:05)&lt;br/&gt;Bewegungszeit: 01:50&lt;br/&gt;Ø-Geschwindigkeit: 0,65 km/h&lt;br/&gt;Netto-Geschwindigkeit: 2,46 km/h&lt;br/&gt;Max. Geschwindigkeit: 7,06 km/h&lt;br/&gt;Minimale Höhe: 443 m&lt;br/&gt;Maximale Höhe: 1090 m&lt;br/&gt;Steig-Geschw.: 108,6 m/h&lt;br/&gt;Sink-Geschw.: -773,7 m/h&lt;br/&gt;Aufstieg: 674 m&lt;br/&gt;Abstieg: -622 m&lt;br/&gt;Steigzeit: 06:12&lt;br/&gt;Sinkzeit: 00:48&lt;br/&gt;&lt;/p&gt;</desc>
            </trkpt>
        </trkseg>
    </trk>
</gpx>
