<?xml version="1.0" encoding="UTF-8"?>
<gpx xmlns="http://www.topografix.com/GPX/1/1" xmlns:gpsies="https://www.gpsies.com/GPX/1/0" creator="GPSies https://www.gpsies.com - erla" version="1.1" xmlns:xsi="http://www.w3.org/2001/XMLSchema-instance" xsi:schemaLocation="http://www.topografix.com/GPX/1/1 http://www.topografix.com/GPX/1/1/gpx.xsd https://www.gpsies.com/GPX/1/0 https://www.gpsies.com/gpsies.xsd">
  <metadata>
    <name>erla</name>
    <author>
      <name>andreas23</name>
      <link href="https://www.gpsies.com/mapUser.do?username=andreas23">
        <text>andreas23 on GPSies.com</text>
        <type>GPSiesUserOnWeb</type>
      </link>
    </author>
    <link href="https://www.gpsies.com/map.do?fileId=immatgrsofhidkyp">
      <text>erla on GPSies.com</text>
      <type>trackOnWeb</type>
    </link>
    <time>2019-05-27T08:54:34Z</time>
    <extensions>
      <gpsies:property>one-way trip</gpsies:property>
      <gpsies:trackLengthMeter>713.5116404115433</gpsies:trackLengthMeter>
      <gpsies:totalAscentMeter>20.0</gpsies:totalAscentMeter>
      <gpsies:totalDescentMeter>20.0</gpsies:totalDescentMeter>
      <gpsies:minHeightMeter>607.0</gpsies:minHeightMeter>
      <gpsies:maxHeightMeter>632.0</gpsies:maxHeightMeter>
    </extensions>
  </metadata>
  <trk>
    <name>erla on GPSies.com</name>
    <link href="https://www.gpsies.com/map.do?fileId=immatgrsofhidkyp">
      <type>trackOnWeb</type>
    </link>
    <link href="https://www.gpsies.com/charts/im/map/immatgrsofhidkyp_map.png">
      <type>elevationChartUrlMap</type>
    </link>
    <link href="https://www.gpsies.com/charts/im/mapThumb/immatgrsofhidkyp_mapThumb.png">
      <type>elevationChartUrlMapThumb</type>
    </link>
    <link href="https://www.gpsies.com/charts/im/tab/immatgrsofhidkyp_tab.png">
      <type>elevationChartUrlTab</type>
    </link>
    <trkseg>
      <trkpt lat="50.47259020" lon="12.71904050">
        <ele>608.00000</ele>
        <time>2010-01-01T00:00:00Z</time>
      </trkpt>
      <trkpt lat="50.47248090" lon="12.71902970">
        <ele>608.00000</ele>
        <time>2010-01-01T00:00:04Z</time>
      </trkpt>
      <trkpt lat="50.47232390" lon="12.72012410">
        <ele>607.00000</ele>
        <time>2010-01-01T00:00:32Z</time>
      </trkpt>
      <trkpt lat="50.47188000" lon="12.72001680">
        <ele>610.00000</ele>
        <time>2010-01-01T00:00:50Z</time>
      </trkpt>
      <trkpt lat="50.47196200" lon="12.72051030">
        <ele>618.00000</ele>
        <time>2010-01-01T00:01:03Z</time>
      </trkpt>
      <trkpt lat="50.47179810" lon="12.72049960">
        <ele>618.00000</ele>
        <time>2010-01-01T00:01:10Z</time>
      </trkpt>
      <trkpt lat="50.47162050" lon="12.72057470">
        <ele>620.00000</ele>
        <time>2010-01-01T00:01:17Z</time>
      </trkpt>
      <trkpt lat="50.47140890" lon="12.72089660">
        <ele>625.00000</ele>
        <time>2010-01-01T00:01:29Z</time>
      </trkpt>
      <trkpt lat="50.47098550" lon="12.72159390">
        <ele>627.00000</ele>
        <time>2010-01-01T00:01:54Z</time>
      </trkpt>
      <trkpt lat="50.47097870" lon="12.72183000">
        <ele>632.00000</ele>
        <time>2010-01-01T00:02:00Z</time>
      </trkpt>
      <trkpt lat="50.47078750" lon="12.72202310">
        <ele>630.00000</ele>
        <time>2010-01-01T00:02:09Z</time>
      </trkpt>
      <trkpt lat="50.47077380" lon="12.72166900">
        <ele>621.00000</ele>
        <time>2010-01-01T00:02:18Z</time>
      </trkpt>
      <trkpt lat="50.47085570" lon="12.72141150">
        <ele>620.00000</ele>
        <time>2010-01-01T00:02:25Z</time>
      </trkpt>
      <trkpt lat="50.47084000" lon="12.72139000">
        <ele>619.00000</ele>
        <time>2010-01-01T00:02:26Z</time>
      </trkpt>
      <trkpt lat="50.47104000" lon="12.72112000">
        <ele>621.00000</ele>
        <time>2010-01-01T00:02:37Z</time>
      </trkpt>
      <trkpt lat="50.47112000" lon="12.72092000">
        <ele>620.00000</ele>
        <time>2010-01-01T00:02:43Z</time>
      </trkpt>
      <trkpt lat="50.47128000" lon="12.72047000">
        <ele>615.00000</ele>
        <time>2010-01-01T00:02:56Z</time>
      </trkpt>
      <trkpt lat="50.47139000" lon="12.72027000">
        <ele>612.00000</ele>
        <time>2010-01-01T00:03:02Z</time>
      </trkpt>
      <trkpt lat="50.47156000" lon="12.72008000">
        <ele>610.00000</ele>
        <time>2010-01-01T00:03:11Z</time>
      </trkpt>
      <trkpt lat="50.47172000" lon="12.71999000">
        <ele>610.00000</ele>
        <time>2010-01-01T00:03:18Z</time>
      </trkpt>
      <trkpt lat="50.47182000" lon="12.72000000">
        <ele>610.00000</ele>
        <time>2010-01-01T00:03:22Z</time>
      </trkpt>
      <trkpt lat="50.47212000" lon="12.72014000">
        <ele>610.00000</ele>
        <time>2010-01-01T00:03:34Z</time>
      </trkpt>
      <trkpt lat="50.47211000" lon="12.72014000">
        <ele>610.00000</ele>
        <time>2010-01-01T00:03:35Z</time>
      </trkpt>
      <trkpt lat="50.47222000" lon="12.72015000">
        <ele>608.00000</ele>
        <time>2010-01-01T00:03:39Z</time>
      </trkpt>
      <trkpt lat="50.47228000" lon="12.72011000">
        <ele>607.00000</ele>
        <time>2010-01-01T00:03:42Z</time>
      </trkpt>
      <trkpt lat="50.47233000" lon="12.72013000">
        <ele>607.00000</ele>
        <time>2010-01-01T00:03:44Z</time>
      </trkpt>
      <trkpt lat="50.47240000" lon="12.71930000">
        <ele>608.00000</ele>
        <time>2010-01-01T00:04:05Z</time>
      </trkpt>
      <trkpt lat="50.47247000" lon="12.71906000">
        <ele>608.00000</ele>
        <time>2010-01-01T00:04:12Z</time>
      </trkpt>
      <trkpt lat="50.47249000" lon="12.71888000">
        <ele>608.00000</ele>
        <time>2010-01-01T00:04:16Z</time>
      </trkpt>
    </trkseg>
  </trk>
</gpx>

