<?xml version="1.0" encoding="UTF-8" standalone="yes"?>
<gpx xmlns="http://www.topografix.com/GPX/1/1" creator="alpenkarte.eu">
    <metadata>
        <name>jermn ferrta</name>
        <link href="alpenkarte.eu">
            <text>Route von alpenkarte.eu</text>
        </link>
        <bounds minlat="46.4846270000000032496245694346725940704345703125" minlon="13.8418100000000006133404895081184804439544677734375" maxlat="46.4881510000000019999788491986691951751708984375" maxlon="13.8439859999999992368202583747915923595428466796875"/>
    </metadata>
    <trk>
        <name>jermn ferrta</name>
        <trkseg>
            <trkpt lat="46.48463699999999931833372102119028568267822265625" lon="13.8431820000000005421725290943868458271026611328125">
                <ele>744.73041983999837611918337643146514892578125</ele>
            </trkpt>
            <trkpt lat="46.4848640000000017380443750880658626556396484375" lon="13.8435229999999993566461853333748877048492431640625">
                <ele>747.5572556800076426952728070318698883056640625</ele>
            </trkpt>
            <trkpt lat="46.4849430000000012341843103058636188507080078125" lon="13.843787999999999982492226990871131420135498046875">
                <ele>749.3030809600078328003291971981525421142578125</ele>
            </trkpt>
            <trkpt lat="46.484972999999996545739122666418552398681640625" lon="13.8439859999999992368202583747915923595428466796875">
                <ele>750.44542431997206222149543464183807373046875</ele>
            </trkpt>
            <trkpt lat="46.48524400000000156296664499677717685699462890625" lon="13.8438230000000004338289727456867694854736328125">
                <ele>752.02075072001525768428109586238861083984375</ele>
            </trkpt>
            <trkpt lat="46.48533499999999918372850515879690647125244140625" lon="13.84371900000000010777512216009199619293212890625">
                <ele>752.381154399992510661832056939601898193359375</ele>
            </trkpt>
            <trkpt lat="46.48528300000000257341525866650044918060302734375" lon="13.8435000000000005826450433232821524143218994140625">
                <ele>750.948880000026065317797474563121795654296875</ele>
            </trkpt>
            <trkpt lat="46.48523200000000343834472005255520343780517578125" lon="13.842995999999999412466422654688358306884765625">
                <ele>747.9285926400326616203528828918933868408203125</ele>
            </trkpt>
            <trkpt lat="46.48538400000000336831362801603972911834716796875" lon="13.8430979999999994589643392828293144702911376953125">
                <ele>750.0346598400313951060525141656398773193359375</ele>
            </trkpt>
            <trkpt lat="46.48565099999999716828824602998793125152587890625" lon="13.8431270000000008479901225655339658260345458984375">
                <ele>752.8984502399740676992223598062992095947265625</ele>
            </trkpt>
            <trkpt lat="46.48573400000000077625372796319425106048583984375" lon="13.8431149999999991706545188208110630512237548828125">
                <ele>753.697939200004157100920565426349639892578125</ele>
            </trkpt>
            <trkpt lat="46.4858320000000020399966160766780376434326171875" lon="13.8430459999999992959374139900319278240203857421875">
                <ele>754.4516966400182127472362481057643890380859375</ele>
            </trkpt>
            <trkpt lat="46.48617200000000337922756443731486797332763671875" lon="13.8425799999999998846078597125597298145294189453125">
                <ele>767.5126848001467578797019086778163909912109375</ele>
            </trkpt>
            <trkpt lat="46.486254000000002406522980891168117523193359375" lon="13.8424980000000008573124432587064802646636962890625">
                <ele>771.1691654401101914118044078350067138671875</ele>
            </trkpt>
            <trkpt lat="46.4863179999999971414581523276865482330322265625" lon="13.842479000000000866066329763270914554595947265625">
                <ele>773.9248310398769490348058752715587615966796875</ele>
            </trkpt>
            <trkpt lat="46.48650500000000107547748484648764133453369140625" lon="13.8425220000000006592699719476513564586639404296875">
                <ele>782.2309728000445829820819199085235595703125</ele>
            </trkpt>
            <trkpt lat="46.48658300000000309637471218593418598175048828125" lon="13.8426139999999993079882187885232269763946533203125">
                <ele>785.2110777601368454270414076745510101318359375</ele>
            </trkpt>
            <trkpt lat="46.48665100000000194313543033786118030548095703125" lon="13.8426390000000001379021341563202440738677978515625">
                <ele>787.9954867200823400708031840622425079345703125</ele>
            </trkpt>
            <trkpt lat="46.48671999999999826513885636813938617706298828125" lon="13.84260199999999940700945444405078887939453125">
                <ele>792.606502399880582743207924067974090576171875</ele>
            </trkpt>
            <trkpt lat="46.4869580000000013342287275008857250213623046875" lon="13.84230600000000066529537434689700603485107421875">
                <ele>809.1584556800944483256898820400238037109375</ele>
            </trkpt>
            <trkpt lat="46.487110000000001264197635464370250701904296875" lon="13.84206999999999965211827657185494899749755859375">
                <ele>820.263632000093593887868337333202362060546875</ele>
            </trkpt>
            <trkpt lat="46.48718699999999870442479732446372509002685546875" lon="13.841870000000000118234311230480670928955078125">
                <ele>826.50331039989623604924418032169342041015625</ele>
            </trkpt>
            <trkpt lat="46.48727999999999838109943084418773651123046875" lon="13.84197999999999950659912428818643093109130859375">
                <ele>833.383903999875883528147824108600616455078125</ele>
            </trkpt>
            <trkpt lat="46.48745000000000260342858382500708103179931640625" lon="13.842040000000000787849785410799086093902587890625">
                <ele>846.0276800001901165160234086215496063232421875</ele>
            </trkpt>
            <trkpt lat="46.487560000000001991793396882712841033935546875" lon="13.8418100000000006133404895081184804439544677734375">
                <ele>854.9735360001096751147997565567493438720703125</ele>
            </trkpt>
            <trkpt lat="46.48774999999999835154085303656756877899169921875" lon="13.841860000000000496811480843462049961090087890625">
                <ele>865.7863999998977533323341049253940582275390625</ele>
            </trkpt>
            <trkpt lat="46.48792999999999864257915760390460491180419921875" lon="13.841870000000000118234311230480670928955078125">
                <ele>876.3076159999171750314417295157909393310546875</ele>
            </trkpt>
            <trkpt lat="46.48799999999999954525264911353588104248046875" lon="13.842079999999999273541106958873569965362548828125">
                <ele>879.51439999997319318936206400394439697265625</ele>
            </trkpt>
            <trkpt lat="46.48810999999999893361746217124164104461669921875" lon="13.842330000000000467252903035841882228851318359375">
                <ele>885.19068799993010543403215706348419189453125</ele>
            </trkpt>
            <trkpt lat="46.4881299999999981764631229452788829803466796875" lon="13.842729999999999535020833718590438365936279296875">
                <ele>888.16793599987477136892266571521759033203125</ele>
            </trkpt>
            <trkpt lat="46.4881510000000019999788491986691951751708984375" lon="13.84273999999999915644366410560905933380126953125">
                <ele>889.6243136001170341842225752770900726318359375</ele>
            </trkpt>
            <trkpt lat="46.48812099999999958299667923711240291595458984375" lon="13.842878999999999933834260446019470691680908203125">
                <ele>889.1031017599688084374065510928630828857421875</ele>
            </trkpt>
            <trkpt lat="46.48802400000000289992385660298168659210205078125" lon="13.84317300000000017234924598596990108489990234375">
                <ele>885.4749132801961195582407526671886444091796875</ele>
            </trkpt>
            <trkpt lat="46.488055000000002792148734442889690399169921875" lon="13.8429400000000004666844688472338020801544189453125">
                <ele>885.3538880001862025892478413879871368408203125</ele>
            </trkpt>
            <trkpt lat="46.488033999999998968633008189499378204345703125" lon="13.8426860000000004902176442556083202362060546875">
                <ele>881.5725593599355534024653024971485137939453125</ele>
            </trkpt>
            <trkpt lat="46.4879710000000017089405446313321590423583984375" lon="13.84259899999999987585397320799529552459716796875">
                <ele>876.7684745601039821849553845822811126708984375</ele>
            </trkpt>
            <trkpt lat="46.4879269999999991114236763678491115570068359375" lon="13.84240199999999987312548910267651081085205078125">
                <ele>873.609367039942981136846356093883514404296875</ele>
            </trkpt>
            <trkpt lat="46.4878580000000027894202503375709056854248046875" lon="13.842544000000000181671566679142415523529052734375">
                <ele>869.18649728017362576792947947978973388671875</ele>
            </trkpt>
            <trkpt lat="46.4878470000000021400410332717001438140869140625" lon="13.8422940000000007643166100024245679378509521484375">
                <ele>869.2242636801244088928797282278537750244140625</ele>
            </trkpt>
            <trkpt lat="46.4878149999999976671460899524390697479248046875" lon="13.8421900000000004382627594168297946453094482421875">
                <ele>867.825535999853627799893729388713836669921875</ele>
            </trkpt>
            <trkpt lat="46.48772100000000051522874855436384677886962890625" lon="13.842214999999999491819835384376347064971923828125">
                <ele>861.9796064000316846431815065443515777587890625</ele>
            </trkpt>
            <trkpt lat="46.48753599999999863712218939326703548431396484375" lon="13.842361000000000359477780875749886035919189453125">
                <ele>849.7183769599108700276701711118221282958984375</ele>
            </trkpt>
            <trkpt lat="46.48735500000000087084117694757878780364990234375" lon="13.8425869999999999748752088635228574275970458984375">
                <ele>836.8361096000586485388339497148990631103515625</ele>
            </trkpt>
            <trkpt lat="46.487223000000000183717929758131504058837890625" lon="13.8427140000000008512870408594608306884765625">
                <ele>827.8121571200123298694961704313755035400390625</ele>
            </trkpt>
            <trkpt lat="46.48710899999999668352756998501718044281005859375" lon="13.842878999999999933834260446019470691680908203125">
                <ele>819.6542705597549911544774658977985382080078125</ele>
            </trkpt>
            <trkpt lat="46.48695500000000180307324626483023166656494140625" lon="13.8429339999999996280166669748723506927490234375">
                <ele>808.23977120013250896590761840343475341796875</ele>
            </trkpt>
            <trkpt lat="46.48686699999999660803950973786413669586181640625" lon="13.8430710000000001258513293578289449214935302734375">
                <ele>801.259298719740627348073758184909820556640625</ele>
            </trkpt>
            <trkpt lat="46.4868120000000004665707820095121860504150390625" lon="13.843018000000000711224856786429882049560546875">
                <ele>797.3084633600302595368702895939350128173828125</ele>
            </trkpt>
            <trkpt lat="46.4869259999999968613337841816246509552001953125" lon="13.8426189999999991186996339820325374603271484375">
                <ele>806.9243542397811097544035874307155609130859375</ele>
            </trkpt>
            <trkpt lat="46.4869410000000016225385479629039764404296875" lon="13.8425110000000000098907548817805945873260498046875">
                <ele>808.2375089601094941826886497437953948974609375</ele>
            </trkpt>
            <trkpt lat="46.4869410000000016225385479629039764404296875" lon="13.8425110000000000098907548817805945873260498046875">
                <ele>808.2375089601094941826886497437953948974609375</ele>
            </trkpt>
            <trkpt lat="46.4869580000000013342287275008857250213623046875" lon="13.84230600000000066529537434689700603485107421875">
                <ele>809.1584556800944483256898820400238037109375</ele>
            </trkpt>
            <trkpt lat="46.48671999999999826513885636813938617706298828125" lon="13.84260199999999940700945444405078887939453125">
                <ele>792.606502399880582743207924067974090576171875</ele>
            </trkpt>
            <trkpt lat="46.48665100000000194313543033786118030548095703125" lon="13.8426390000000001379021341563202440738677978515625">
                <ele>787.9954867200823400708031840622425079345703125</ele>
            </trkpt>
            <trkpt lat="46.48658300000000309637471218593418598175048828125" lon="13.8426139999999993079882187885232269763946533203125">
                <ele>785.2110777601368454270414076745510101318359375</ele>
            </trkpt>
            <trkpt lat="46.48650500000000107547748484648764133453369140625" lon="13.8425220000000006592699719476513564586639404296875">
                <ele>782.2309728000445829820819199085235595703125</ele>
            </trkpt>
            <trkpt lat="46.4863179999999971414581523276865482330322265625" lon="13.842479000000000866066329763270914554595947265625">
                <ele>773.9248310398769490348058752715587615966796875</ele>
            </trkpt>
            <trkpt lat="46.486254000000002406522980891168117523193359375" lon="13.8424980000000008573124432587064802646636962890625">
                <ele>771.1691654401101914118044078350067138671875</ele>
            </trkpt>
            <trkpt lat="46.48617200000000337922756443731486797332763671875" lon="13.8425799999999998846078597125597298145294189453125">
                <ele>767.5126848001467578797019086778163909912109375</ele>
            </trkpt>
            <trkpt lat="46.4858320000000020399966160766780376434326171875" lon="13.8430459999999992959374139900319278240203857421875">
                <ele>754.4516966400182127472362481057643890380859375</ele>
            </trkpt>
            <trkpt lat="46.48573400000000077625372796319425106048583984375" lon="13.8431149999999991706545188208110630512237548828125">
                <ele>753.697939200004157100920565426349639892578125</ele>
            </trkpt>
            <trkpt lat="46.48565099999999716828824602998793125152587890625" lon="13.8431270000000008479901225655339658260345458984375">
                <ele>752.8984502399740676992223598062992095947265625</ele>
            </trkpt>
            <trkpt lat="46.48538400000000336831362801603972911834716796875" lon="13.8430979999999994589643392828293144702911376953125">
                <ele>750.0346598400313951060525141656398773193359375</ele>
            </trkpt>
            <trkpt lat="46.48523200000000343834472005255520343780517578125" lon="13.842995999999999412466422654688358306884765625">
                <ele>747.9285926400326616203528828918933868408203125</ele>
            </trkpt>
            <trkpt lat="46.4852690000000023928805603645741939544677734375" lon="13.8433299999999999130295691429637372493743896484375">
                <ele>750.0649824000219041408854536712169647216796875</ele>
            </trkpt>
            <trkpt lat="46.48528300000000257341525866650044918060302734375" lon="13.8435000000000005826450433232821524143218994140625">
                <ele>750.948880000026065317797474563121795654296875</ele>
            </trkpt>
            <trkpt lat="46.48533499999999918372850515879690647125244140625" lon="13.84371900000000010777512216009199619293212890625">
                <ele>752.381154399992510661832056939601898193359375</ele>
            </trkpt>
            <trkpt lat="46.48524400000000156296664499677717685699462890625" lon="13.8438230000000004338289727456867694854736328125">
                <ele>752.02075072001525768428109586238861083984375</ele>
            </trkpt>
            <trkpt lat="46.484972999999996545739122666418552398681640625" lon="13.8439859999999992368202583747915923595428466796875">
                <ele>750.44542431997206222149543464183807373046875</ele>
            </trkpt>
            <trkpt lat="46.4849430000000012341843103058636188507080078125" lon="13.843787999999999982492226990871131420135498046875">
                <ele>749.3030809600078328003291971981525421142578125</ele>
            </trkpt>
            <trkpt lat="46.4848640000000017380443750880658626556396484375" lon="13.8435229999999993566461853333748877048492431640625">
                <ele>747.5572556800076426952728070318698883056640625</ele>
            </trkpt>
            <trkpt lat="46.4846270000000032496245694346725940704345703125" lon="13.8431680000000003616378307924605906009674072265625">
                <ele>744.62521536001759159262292087078094482421875</ele>
            </trkpt>
        </trkseg>
    </trk>
</gpx>
