<?xml version="1.0" encoding="UTF-8" standalone="yes"?>
<gpx xmlns="http://www.topografix.com/GPX/1/1" creator="alpenkarte.eu">
    <metadata>
        <name>Via ferrata del Canalone</name>
        <link href="alpenkarte.eu">
            <text>Route von alpenkarte.eu</text>
        </link>
        <bounds minlat="46.220314000000001897205947898328304290771484375" minlon="11.8864820000000008803908713161945343017578125" maxlat="46.237583999999998241037246771156787872314453125" maxlon="11.904009999999999536157702095806598663330078125"/>
    </metadata>
    <trk>
        <name>Via ferrata del Canalone</name>
        <trkseg>
            <trkpt lat="46.22032899999999955298335407860577106475830078125" lon="11.886495000000000032969182939268648624420166015625">
                <ele>1269.3298167999937504646368324756622314453125</ele>
            </trkpt>
            <trkpt lat="46.22059300000000092722984845750033855438232421875" lon="11.8867039999999999366764313890598714351654052734375">
                <ele>1272.020682880009189830161631107330322265625</ele>
            </trkpt>
            <trkpt lat="46.2209509999999994533936842344701290130615234375" lon="11.886874999999999857891452847979962825775146484375">
                <ele>1277.14749999998775820131413638591766357421875</ele>
            </trkpt>
            <trkpt lat="46.22122300000000194586391444317996501922607421875" lon="11.8871739999999999071178535814397037029266357421875">
                <ele>1281.086426560033714849851094186305999755859375</ele>
            </trkpt>
            <trkpt lat="46.22130700000000302907210425473749637603759765625" lon="11.8874569999999994962536220555193722248077392578125">
                <ele>1279.996882720039820924284867942333221435546875</ele>
            </trkpt>
            <trkpt lat="46.2214689999999990277501638047397136688232421875" lon="11.88764499999999912915882305242121219635009765625">
                <ele>1280.651382399995554806082509458065032958984375</ele>
            </trkpt>
            <trkpt lat="46.22180800000000289173840428702533245086669921875" lon="11.887919000000000124828147818334400653839111328125">
                <ele>1284.295875840077087559620849788188934326171875</ele>
            </trkpt>
            <trkpt lat="46.22203300000000325553628499619662761688232421875" lon="11.8882770000000004273488229955546557903289794921875">
                <ele>1286.466018720071815550909377634525299072265625</ele>
            </trkpt>
            <trkpt lat="46.22216499999999683723217458464205265045166015625" lon="11.88857900000000000773070496506989002227783203125">
                <ele>1288.333128799931046160054393112659454345703125</ele>
            </trkpt>
            <trkpt lat="46.2224020000000024310793378390371799468994140625" lon="11.8892380000000006390337148332037031650543212890625">
                <ele>1291.844931840044637283426709473133087158203125</ele>
            </trkpt>
            <trkpt lat="46.222543999999999186911736615002155303955078125" lon="11.8897169999999992029415807337500154972076416015625">
                <ele>1294.990247039984069488127715885639190673828125</ele>
            </trkpt>
            <trkpt lat="46.222543999999999186911736615002155303955078125" lon="11.8897169999999992029415807337500154972076416015625">
                <ele>1294.990247039984069488127715885639190673828125</ele>
            </trkpt>
            <trkpt lat="46.22286199999999922738425084389746189117431640625" lon="11.8901740000000000208046913030557334423065185546875">
                <ele>1301.06458367998902758699841797351837158203125</ele>
            </trkpt>
            <trkpt lat="46.22398799999999852161636226810514926910400390625" lon="11.8909490000000008791403161012567579746246337890625">
                <ele>1320.024063359981710163992829620838165283203125</ele>
            </trkpt>
            <trkpt lat="46.22457399999999694273355999030172824859619140625" lon="11.8913770000000003079776433878578245639801025390625">
                <ele>1325.14944127998433032189495861530303955078125</ele>
            </trkpt>
            <trkpt lat="46.225064000000003261448000557720661163330078125" lon="11.8915039999999994080326359835453331470489501953125">
                <ele>1327.34893952004858874715864658355712890625</ele>
            </trkpt>
            <trkpt lat="46.2251609999999999445208231918513774871826171875" lon="11.891552000000000788304532761685550212860107421875">
                <ele>1328.30609023999340934096835553646087646484375</ele>
            </trkpt>
            <trkpt lat="46.2253419999999977108018356375396251678466796875" lon="11.891690000000000537738742423243820667266845703125">
                <ele>1329.52356159997134454897604882717132568359375</ele>
            </trkpt>
            <trkpt lat="46.2255109999999973524609231390058994293212890625" lon="11.891757999999999384499460575170814990997314453125">
                <ele>1331.161552959974187615443952381610870361328125</ele>
            </trkpt>
            <trkpt lat="46.2256100000000031968738767318427562713623046875" lon="11.891830999999999818328433320857584476470947265625">
                <ele>1331.80954720003455804544501006603240966796875</ele>
            </trkpt>
            <trkpt lat="46.225785999999999376086634583771228790283203125" lon="11.892089999999999605506673105992376804351806640625">
                <ele>1331.577980799998613292700611054897308349609375</ele>
            </trkpt>
            <trkpt lat="46.2259039999999998826751834712922573089599609375" lon="11.892193999999999931560523691587150096893310546875">
                <ele>1332.266215679998595078359358012676239013671875</ele>
            </trkpt>
            <trkpt lat="46.226168000000001256921677850186824798583984375" lon="11.89236700000000013233147910796105861663818359375">
                <ele>1335.030286080019095606985501945018768310546875</ele>
            </trkpt>
            <trkpt lat="46.22656299999999873762135393917560577392578125" lon="11.89253599999999977399056660942733287811279296875">
                <ele>1340.0770963199784091557376086711883544921875</ele>
            </trkpt>
            <trkpt lat="46.22696599999999733654476585797965526580810546875" lon="11.8927809999999993806341080926358699798583984375">
                <ele>1347.384777599959079452673904597759246826171875</ele>
            </trkpt>
            <trkpt lat="46.22725100000000253430698649026453495025634765625" lon="11.8928110000000000212594386539421975612640380859375">
                <ele>1351.595121600037373355007730424404144287109375</ele>
            </trkpt>
            <trkpt lat="46.2275819999999981746441335417330265045166015625" lon="11.892880999999999147576090763323009014129638671875">
                <ele>1356.319903679972640020423568785190582275390625</ele>
            </trkpt>
            <trkpt lat="46.22788899999999756573743070475757122039794921875" lon="11.8929829999999991940740073914639651775360107421875">
                <ele>1360.9233844799673533998429775238037109375</ele>
            </trkpt>
            <trkpt lat="46.22798800000000341015038429759442806243896484375" lon="11.8930869999999995201278579770587384700775146484375">
                <ele>1361.273130240063210294465534389019012451171875</ele>
            </trkpt>
            <trkpt lat="46.228082999999998037310433574020862579345703125" lon="11.8934119999999996508677213569171726703643798828125">
                <ele>1359.186273279974784600199200212955474853515625</ele>
            </trkpt>
            <trkpt lat="46.22847900000000009868017514236271381378173828125" lon="11.8937580000000000524096321896649897098541259765625">
                <ele>1364.698121920001312901149503886699676513671875</ele>
            </trkpt>
            <trkpt lat="46.22854300000000193904270417988300323486328125" lon="11.89377999999999957481122692115604877471923828125">
                <ele>1365.8547424000362298102118074893951416015625</ele>
            </trkpt>
            <trkpt lat="46.22871599999999858709998079575598239898681640625" lon="11.8937150000000002592059900052845478057861328125">
                <ele>1369.178886399972952858661301434040069580078125</ele>
            </trkpt>
            <trkpt lat="46.2289549999999991314325598068535327911376953125" lon="11.8937580000000000524096321896649897098541259765625">
                <ele>1373.54623839998339462908916175365447998046875</ele>
            </trkpt>
            <trkpt lat="46.2290619999999989886418916285037994384765625" lon="11.8937609999999995835651134257204830646514892578125">
                <ele>1375.52845791998197455541230738162994384765625</ele>
            </trkpt>
            <trkpt lat="46.22910499999999700548869441263377666473388671875" lon="11.8937439999999998718749338877387344837188720703125">
                <ele>1376.366867199944181265891529619693756103515625</ele>
            </trkpt>
            <trkpt lat="46.229139000000003534296411089599132537841796875" lon="11.8937150000000002592059900052845478057861328125">
                <ele>1377.06800560006513478583656251430511474609375</ele>
            </trkpt>
            <trkpt lat="46.2293039999999990641299518756568431854248046875" lon="11.8934270000000008593588063376955687999725341796875">
                <ele>1379.6121235199889270006678998470306396484375</ele>
            </trkpt>
            <trkpt lat="46.2293769999999994979589246213436126708984375" lon="11.8933669999999995781081452150829136371612548828125">
                <ele>1380.44859695999593895976431667804718017578125</ele>
            </trkpt>
            <trkpt lat="46.22948199999999729925548308528959751129150390625" lon="11.8933739999999996683754943660460412502288818359375">
                <ele>1381.448065919974624193855561316013336181640625</ele>
            </trkpt>
            <trkpt lat="46.22973499999999802412276039831340312957763671875" lon="11.8934569999999997236272974987514317035675048828125">
                <ele>1383.760408799980950789176858961582183837890625</ele>
            </trkpt>
            <trkpt lat="46.23015500000000344016370945610105991363525390625" lon="11.893499999999999516830939683131873607635498046875">
                <ele>1388.718000000054189513321034610271453857421875</ele>
            </trkpt>
            <trkpt lat="46.23034200000000026875568437390029430389404296875" lon="11.89355199999999967985786497592926025390625">
                <ele>1391.5728000000044630724005401134490966796875</ele>
            </trkpt>
            <trkpt lat="46.2306219999999967740222928114235401153564453125" lon="11.8937170000000005387619239627383649349212646484375">
                <ele>1395.742799999948829281493090093135833740234375</ele>
            </trkpt>
            <trkpt lat="46.23089900000000085356077761389315128326416015625" lon="11.8937989999999995660573404165916144847869873046875">
                <ele>1399.23786624000467782025225460529327392578125</ele>
            </trkpt>
            <trkpt lat="46.23124800000000078625816968269646167755126953125" lon="11.8940859999999997143049768055789172649383544921875">
                <ele>1399.784670720003532551345415413379669189453125</ele>
            </trkpt>
            <trkpt lat="46.2315200000000032787283998914062976837158203125" lon="11.894448000000000575937519897706806659698486328125">
                <ele>1400.207417600006692737224511802196502685546875</ele>
            </trkpt>
            <trkpt lat="46.23162599999999855526766623370349407196044921875" lon="11.894507000000000829231794341467320919036865234375">
                <ele>1400.422329919997309843893162906169891357421875</ele>
            </trkpt>
            <trkpt lat="46.23189099999999740475686849094927310943603515625" lon="11.894555000000000433146851719357073307037353515625">
                <ele>1400.643752799998082991805858910083770751953125</ele>
            </trkpt>
            <trkpt lat="46.23212000000000188038029591552913188934326171875" lon="11.894659000000000759200702304951846599578857421875">
                <ele>1400.722604800000453906250186264514923095703125</ele>
            </trkpt>
            <trkpt lat="46.23230499999999665305949747562408447265625" lon="11.8948949999999999960209606797434389591217041015625">
                <ele>1400.596515999999610357917845249176025390625</ele>
            </trkpt>
            <trkpt lat="46.23237199999999802457750774919986724853515625" lon="11.8950089999999999434976416523568332195281982421875">
                <ele>1400.509141119999867441947571933269500732421875</ele>
            </trkpt>
            <trkpt lat="46.2324229999999971596480463631451129913330078125" lon="11.895196999999999576402842649258673191070556640625">
                <ele>1400.714556639998818354797549545764923095703125</ele>
            </trkpt>
            <trkpt lat="46.2324109999999990350261214189231395721435546875" lon="11.89594100000000054251358960755169391632080078125">
                <ele>1403.787792800010720384307205677032470703125</ele>
            </trkpt>
            <trkpt lat="46.23238400000000325462679029442369937896728515625" lon="11.896174999999999499777914024889469146728515625">
                <ele>1409.026159999983747184160165488719940185546875</ele>
            </trkpt>
            <trkpt lat="46.23272800000000160025592776946723461151123046875" lon="11.8964079999999992054426911636255681514739990234375">
                <ele>1414.507278079988054741988889873027801513671875</ele>
            </trkpt>
            <trkpt lat="46.23308200000000312002157443203032016754150390625" lon="11.8965680000000002536353349569253623485565185546875">
                <ele>1417.947633920006410335190594196319580078125</ele>
            </trkpt>
            <trkpt lat="46.2334749999999985448084771633148193359375" lon="11.8966030000000007049720807117410004138946533203125">
                <ele>1419.247528000001921100192703306674957275390625</ele>
            </trkpt>
            <trkpt lat="46.23373600000000038789949030615389347076416015625" lon="11.8967130000000000933368937694467604160308837890625">
                <ele>1422.425802240002440157695673406124114990234375</ele>
            </trkpt>
            <trkpt lat="46.2338639999999969631971907801926136016845703125" lon="11.896713999999999344936441048048436641693115234375">
                <ele>1422.8922892799673718400299549102783203125</ele>
            </trkpt>
            <trkpt lat="46.23408400000000284535417449660599231719970703125" lon="11.89667299999999983128873282112181186676025390625">
                <ele>1422.394661760003145900554955005645751953125</ele>
            </trkpt>
            <trkpt lat="46.2341940000000022337189875543117523193359375" lon="11.8966370000000001283524397877044975757598876953125">
                <ele>1422.4309091200093462248332798480987548828125</ele>
            </trkpt>
            <trkpt lat="46.2343120000000027403075364418327808380126953125" lon="11.89656599999999997407940099947154521942138671875">
                <ele>1422.608807680013114804751239717006683349609375</ele>
            </trkpt>
            <trkpt lat="46.23453500000000104819264379329979419708251953125" lon="11.896561999999999414967533084563910961151123046875">
                <ele>1423.697636800004374890704639256000518798828125</ele>
            </trkpt>
            <trkpt lat="46.2346399999999988494892022572457790374755859375" lon="11.8966480000000007777316568535752594470977783203125">
                <ele>1424.2065087999953902908600866794586181640625</ele>
            </trkpt>
            <trkpt lat="46.23488499999999845613274374045431613922119140625" lon="11.8969819999999995019379639416001737117767333984375">
                <ele>1429.327107199998181386035867035388946533203125</ele>
            </trkpt>
            <trkpt lat="46.2351230000000015252226148732006549835205078125" lon="11.89723000000000041609382606111466884613037109375">
                <ele>1432.80022400001826099469326436519622802734375</ele>
            </trkpt>
            <trkpt lat="46.23538400000000336831362801603972911834716796875" lon="11.897546999999999428609953611157834529876708984375">
                <ele>1437.91097408000132418237626552581787109375</ele>
            </trkpt>
            <trkpt lat="46.23546400000000033969627111218869686126708984375" lon="11.89758499999999941110218060202896595001220703125">
                <ele>1439.1293023999869546969421207904815673828125</ele>
            </trkpt>
            <trkpt lat="46.235827999999997928171069361269474029541015625" lon="11.898047999999999291276253643445670604705810546875">
                <ele>1446.76893824000353561132214963436126708984375</ele>
            </trkpt>
            <trkpt lat="46.235895999999996774931787513196468353271484375" lon="11.8981169999999991659933584742248058319091796875">
                <ele>1447.970497279972050819196738302707672119140625</ele>
            </trkpt>
            <trkpt lat="46.235996999999997569830156862735748291015625" lon="11.8981809999999992299990481114946305751800537109375">
                <ele>1449.205117279979958766489289700984954833984375</ele>
            </trkpt>
            <trkpt lat="46.23623500000000063892002799548208713531494140625" lon="11.8984480000000001354010237264446914196014404296875">
                <ele>1454.658521600001449769479222595691680908203125</ele>
            </trkpt>
            <trkpt lat="46.23661899999999747024048701860010623931884765625" lon="11.898683999999999372221282101236283779144287109375">
                <ele>1459.82803711999395090970210731029510498046875</ele>
            </trkpt>
            <trkpt lat="46.23673600000000050158632802776992321014404296875" lon="11.898673999999999750798451714217662811279296875">
                <ele>1460.024678399997128508402965962886810302734375</ele>
            </trkpt>
            <trkpt lat="46.2369139999999987367118592374026775360107421875" lon="11.898770999999999986584953148849308490753173828125">
                <ele>1463.134406399989302371977828443050384521484375</ele>
            </trkpt>
            <trkpt lat="46.23696799999999740293787908740341663360595703125" lon="11.89883999999999986130205797962844371795654296875">
                <ele>1464.615071999980727923684753477573394775390625</ele>
            </trkpt>
            <trkpt lat="46.2369879999999966457835398614406585693359375" lon="11.8989270000000004756657290272414684295654296875">
                <ele>1466.10538559999031349434517323970794677734375</ele>
            </trkpt>
            <trkpt lat="46.2370489999999989549905876629054546356201171875" lon="11.899015999999999593228494632057845592498779296875">
                <ele>1467.714710399988916833535768091678619384765625</ele>
            </trkpt>
            <trkpt lat="46.23710899999999668352756998501718044281005859375" lon="11.89906500000000022509993868879973888397216796875">
                <ele>1468.6043759999929534387774765491485595703125</ele>
            </trkpt>
            <trkpt lat="46.2372280000000017707861843518912792205810546875" lon="11.89926200000000022782842279411852359771728515625">
                <ele>1472.489422080004487725091166794300079345703125</ele>
            </trkpt>
            <trkpt lat="46.2372859999999974434103933162987232208251953125" lon="11.8994049999999997879740476491861045360565185546875">
                <ele>1475.773982400003433212987147271633148193359375</ele>
            </trkpt>
            <trkpt lat="46.2373410000000006903064786456525325775146484375" lon="11.8996049999999993218580129905603826045989990234375">
                <ele>1480.029890399980331494589336216449737548828125</ele>
            </trkpt>
            <trkpt lat="46.23745699999999914098225417546927928924560546875" lon="11.89970699999999936835592961870133876800537109375">
                <ele>1481.257746719995111561729572713375091552734375</ele>
            </trkpt>
            <trkpt lat="46.23754999999999881765688769519329071044921875" lon="11.8999959999999997961594999651424586772918701171875">
                <ele>1487.206079999977418992784805595874786376953125</ele>
            </trkpt>
            <trkpt lat="46.237583999999998241037246771156787872314453125" lon="11.90019099999999951933205011300742626190185546875">
                <ele>1497.552316799944264857913367450237274169921875</ele>
            </trkpt>
            <trkpt lat="46.2375090000000028567228582687675952911376953125" lon="11.900197999999999609599399263970553874969482421875">
                <ele>1496.632430400027487849001772701740264892578125</ele>
            </trkpt>
            <trkpt lat="46.2373410000000006903064786456525325775146484375" lon="11.9001509999999992572838891646824777126312255859375">
                <ele>1496.0888433599548079655505716800689697265625</ele>
            </trkpt>
            <trkpt lat="46.2372280000000017707861843518912792205810546875" lon="11.900175000000000835598257253877818584442138671875">
                <ele>1498.61990400001695888931863009929656982421875</ele>
            </trkpt>
            <trkpt lat="46.23736900000000105137587524950504302978515625" lon="11.9006600000000002381739250267855823040008544921875">
                <ele>1520.529878400004463401273824274539947509765625</ele>
            </trkpt>
            <trkpt lat="46.23750700000000080081008491106331348419189453125" lon="11.9007459999999998245812093955464661121368408203125">
                <ele>1524.2451984000063021085225045680999755859375</ele>
            </trkpt>
            <trkpt lat="46.23748199999999997089616954326629638671875" lon="11.9007950000000004564526534522883594036102294921875">
                <ele>1526.6417424000219398294575512409210205078125</ele>
            </trkpt>
            <trkpt lat="46.23729300000000108639142126776278018951416015625" lon="11.9008669999999998623252395191229879856109619140625">
                <ele>1531.134740319986804024665616452693939208984375</ele>
            </trkpt>
            <trkpt lat="46.23718900000000076033757068216800689697265625" lon="11.9009429999999998273096935008652508258819580078125">
                <ele>1535.561129439987098521669395267963409423828125</ele>
            </trkpt>
            <trkpt lat="46.23709099999999949659468256868422031402587890625" lon="11.9009330000000002058868631138466298580169677734375">
                <ele>1535.189304160009442057344131171703338623046875</ele>
            </trkpt>
            <trkpt lat="46.23700000000000187583282240666449069976806640625" lon="11.90095600000000075624484452418982982635498046875">
                <ele>1536.511840000033771502785384654998779296875</ele>
            </trkpt>
            <trkpt lat="46.2373639999999994643076206557452678680419921875" lon="11.9012130000000002638671503518708050251007080078125">
                <ele>1550.802999040010718090343289077281951904296875</ele>
            </trkpt>
            <trkpt lat="46.237381999999996651240508072078227996826171875" lon="11.901256000000000057070792536251246929168701171875">
                <ele>1553.351146239986292130197398364543914794921875</ele>
            </trkpt>
            <trkpt lat="46.23726400000000325007931678555905818939208984375" lon="11.901281000000000886984707904048264026641845703125">
                <ele>1554.231844480062363800243474543094635009765625</ele>
            </trkpt>
            <trkpt lat="46.2370159999999970068529364652931690216064453125" lon="11.9013790000000003743707566172815859317779541015625">
                <ele>1558.0383980799970231601037085056304931640625</ele>
            </trkpt>
            <trkpt lat="46.23707399999999978490450303070247173309326171875" lon="11.90143499999999932015271042473614215850830078125">
                <ele>1561.335476799960588323301635682582855224609375</ele>
            </trkpt>
            <trkpt lat="46.23714700000000021873347577638924121856689453125" lon="11.9014649999999999607780409860424697399139404296875">
                <ele>1563.496645599997236786293797194957733154296875</ele>
            </trkpt>
            <trkpt lat="46.23722099999999812780515640042722225189208984375" lon="11.90158100000000018781065591610968112945556640625">
                <ele>1570.459426719988414333784021437168121337890625</ele>
            </trkpt>
            <trkpt lat="46.23715299999999928104443824850022792816162109375" lon="11.901616000000000639147401670925319194793701171875">
                <ele>1571.625122560023783080396242439746856689453125</ele>
            </trkpt>
            <trkpt lat="46.2370140000000020563675207085907459259033203125" lon="11.901600999999999430656316690146923065185546875">
                <ele>1569.325430079990837839432060718536376953125</ele>
            </trkpt>
            <trkpt lat="46.237155999999998812199919484555721282958984375" lon="11.9016789999999996751967046293430030345916748046875">
                <ele>1574.842332159971192595548927783966064453125</ele>
            </trkpt>
            <trkpt lat="46.237222000000002708475221879780292510986328125" lon="11.9017529999999993606252246536314487457275390625">
                <ele>1578.341453440001941999071277678012847900390625</ele>
            </trkpt>
            <trkpt lat="46.23722500000000223963070311583578586578369140625" lon="11.9017970000000001817852535168640315532684326171875">
                <ele>1579.988968000025352012016810476779937744140625</ele>
            </trkpt>
            <trkpt lat="46.23708599999999790952642797492444515228271484375" lon="11.9018169999999994246309142909012734889984130859375">
                <ele>1579.477118079955971552408300340175628662109375</ele>
            </trkpt>
            <trkpt lat="46.2369810000000001082298695109784603118896484375" lon="11.9018010000000007408971214317716658115386962890625">
                <ele>1577.86873504002915069577284157276153564453125</ele>
            </trkpt>
            <trkpt lat="46.23705700000000007321432349272072315216064453125" lon="11.901863999999999776946424390189349651336669921875">
                <ele>1581.1031603199890014366246759891510009765625</ele>
            </trkpt>
            <trkpt lat="46.23709999999999809006112627685070037841796875" lon="11.9019589999999997331769918673671782016754150390625">
                <ele>1585.17817599997533761779777705669403076171875</ele>
            </trkpt>
            <trkpt lat="46.23705799999999754845703137107193470001220703125" lon="11.9020589999999995001189745380543172359466552734375">
                <ele>1588.932772479967525214306078851222991943359375</ele>
            </trkpt>
            <trkpt lat="46.23684999999999689634933019988238811492919921875" lon="11.902193000000000466798155684955418109893798828125">
                <ele>1594.0186720000137938768602907657623291015625</ele>
            </trkpt>
            <trkpt lat="46.23702899999999971214492688886821269989013671875" lon="11.9022950000000005132960723130963742733001708984375">
                <ele>1598.418251200018630697741173207759857177734375</ele>
            </trkpt>
            <trkpt lat="46.23718600000000122918208944611251354217529296875" lon="11.902454999999999785131876706145703792572021484375">
                <ele>1604.31833919998507553827948868274688720703125</ele>
            </trkpt>
            <trkpt lat="46.23700999999999794454197399318218231201171875" lon="11.90253500000000030922819860279560089111328125">
                <ele>1608.393568000021105035557411611080169677734375</ele>
            </trkpt>
            <trkpt lat="46.2369910000000032823663786984980106353759765625" lon="11.90256600000000020145307644270360469818115234375">
                <ele>1609.864602879987387495930306613445281982421875</ele>
            </trkpt>
            <trkpt lat="46.23702300000000064983396441675722599029541015625" lon="11.902647999999999228748492896556854248046875">
                <ele>1613.2860659199586734757758677005767822265625</ele>
            </trkpt>
            <trkpt lat="46.23709800000000313957571052014827728271484375" lon="11.90270699999999948204276734031736850738525390625">
                <ele>1615.337025279952058554044924676418304443359375</ele>
            </trkpt>
            <trkpt lat="46.2370599999999996043698047287762165069580078125" lon="11.90280500000000074578565545380115509033203125">
                <ele>1619.869984000032445692340843379497528076171875</ele>
            </trkpt>
            <trkpt lat="46.2371959999999972978912410326302051544189453125" lon="11.9029399999999991877075444790534675121307373046875">
                <ele>1624.39611519998970834421925246715545654296875</ele>
            </trkpt>
            <trkpt lat="46.23712400000000144473233376629650592803955078125" lon="11.9029539999999993682422427809797227382659912109375">
                <ele>1625.70491007995542531716637313365936279296875</ele>
            </trkpt>
            <trkpt lat="46.23710200000000014597389963455498218536376953125" lon="11.9029910000000000991349224932491779327392578125">
                <ele>1627.516015359999755673925392329692840576171875</ele>
            </trkpt>
            <trkpt lat="46.23705700000000007321432349272072315216064453125" lon="11.9029749999999996390442902338691055774688720703125">
                <ele>1627.2904959999805214465595781803131103515625</ele>
            </trkpt>
            <trkpt lat="46.23705700000000007321432349272072315216064453125" lon="11.9029749999999996390442902338691055774688720703125">
                <ele>1627.2904959999805214465595781803131103515625</ele>
            </trkpt>
            <trkpt lat="46.2370149999999995316102285869419574737548828125" lon="11.90296599999999926922100712545216083526611328125">
                <ele>1627.326035199969510358641855418682098388671875</ele>
            </trkpt>
            <trkpt lat="46.23693300000000050431481213308870792388916015625" lon="11.90283600000000063801053329370915889739990234375">
                <ele>1622.318698240020921730319969356060028076171875</ele>
            </trkpt>
            <trkpt lat="46.23684999999999689634933019988238811492919921875" lon="11.90276000000000067302607931196689605712890625">
                <ele>1619.550880000051620299927890300750732421875</ele>
            </trkpt>
            <trkpt lat="46.23677699999999646252035745419561862945556640625" lon="11.9027539999999998343582774396054446697235107421875">
                <ele>1619.8395558400161462486721575260162353515625</ele>
            </trkpt>
            <trkpt lat="46.23676199999999880674295127391815185546875" lon="11.9027849999999997265831552795134484767913818359375">
                <ele>1621.409401599993316267500631511211395263671875</ele>
            </trkpt>
            <trkpt lat="46.23673800000000255749910138547420501708984375" lon="11.9029620000000004864659786107949912548065185546875">
                <ele>1629.953946879993736729375086724758148193359375</ele>
            </trkpt>
            <trkpt lat="46.2366999999999990222931955941021442413330078125" lon="11.9030789999999999650981408194638788700103759765625">
                <ele>1635.90966400000615976750850677490234375</ele>
            </trkpt>
            <trkpt lat="46.23653800000000302361513604409992694854736328125" lon="11.903226000000000084355633589439094066619873046875">
                <ele>1642.560807040018744373810477554798126220703125</ele>
            </trkpt>
            <trkpt lat="46.2364400000000017598722479306161403656005859375" lon="11.9034180000000002763727025012485682964324951171875">
                <ele>1651.69928320002463806304149329662322998046875</ele>
            </trkpt>
            <trkpt lat="46.2363739999999978635969455353915691375732421875" lon="11.903484999999999871533873374573886394500732421875">
                <ele>1654.9175343999677352258004248142242431640625</ele>
            </trkpt>
            <trkpt lat="46.23630899999999854799170861952006816864013671875" lon="11.903510000000000701447788742370903491973876953125">
                <ele>1655.70588640001960811787284910678863525390625</ele>
            </trkpt>
            <trkpt lat="46.236176999999997860868461430072784423828125" lon="11.903425999999999618239598930813372135162353515625">
                <ele>1649.946329919956269804970361292362213134765625</ele>
            </trkpt>
            <trkpt lat="46.23595999999999861529431655071675777435302734375" lon="11.9035799999999998277644408517517149448394775390625">
                <ele>1655.952927999971734607242979109287261962890625</ele>
            </trkpt>
            <trkpt lat="46.23593000000000330373950419016182422637939453125" lon="11.9039400000000004098410499864257872104644775390625">
                <ele>1673.804032000065262764110229909420013427734375</ele>
            </trkpt>
            <trkpt lat="46.2361700000000013233147910796105861663818359375" lon="11.904009999999999536157702095806598663330078125">
                <ele>1681.168431999991071279509924352169036865234375</ele>
            </trkpt>
            <trkpt lat="46.236299999999999954525264911353588104248046875" lon="11.90353999999999956571627990342676639556884765625">
                <ele>1657.27791999996998129063285887241363525390625</ele>
            </trkpt>
            <trkpt lat="46.23662999999999811961970408447086811065673828125" lon="11.9031099999999998573230186593718826770782470703125">
                <ele>1637.598543999980165608576498925685882568359375</ele>
            </trkpt>
            <trkpt lat="46.23664000000000129375621327199041843414306640625" lon="11.903133000000000407681000069715082645416259765625">
                <ele>1638.745849600022438607993535697460174560546875</ele>
            </trkpt>
            <trkpt lat="46.2366999999999990222931955941021442413330078125" lon="11.9030789999999999650981408194638788700103759765625">
                <ele>1635.90966400000615976750850677490234375</ele>
            </trkpt>
            <trkpt lat="46.23673800000000255749910138547420501708984375" lon="11.9029620000000004864659786107949912548065185546875">
                <ele>1629.953946879993736729375086724758148193359375</ele>
            </trkpt>
            <trkpt lat="46.23676199999999880674295127391815185546875" lon="11.9027849999999997265831552795134484767913818359375">
                <ele>1621.409401599993316267500631511211395263671875</ele>
            </trkpt>
            <trkpt lat="46.23677699999999646252035745419561862945556640625" lon="11.9027539999999998343582774396054446697235107421875">
                <ele>1619.8395558400161462486721575260162353515625</ele>
            </trkpt>
            <trkpt lat="46.23684999999999689634933019988238811492919921875" lon="11.90276000000000067302607931196689605712890625">
                <ele>1619.550880000051620299927890300750732421875</ele>
            </trkpt>
            <trkpt lat="46.23693300000000050431481213308870792388916015625" lon="11.90283600000000063801053329370915889739990234375">
                <ele>1622.318698240020921730319969356060028076171875</ele>
            </trkpt>
            <trkpt lat="46.2370149999999995316102285869419574737548828125" lon="11.90296599999999926922100712545216083526611328125">
                <ele>1627.326035199969510358641855418682098388671875</ele>
            </trkpt>
            <trkpt lat="46.23710200000000014597389963455498218536376953125" lon="11.9029910000000000991349224932491779327392578125">
                <ele>1627.516015359999755673925392329692840576171875</ele>
            </trkpt>
            <trkpt lat="46.23712400000000144473233376629650592803955078125" lon="11.9029539999999993682422427809797227382659912109375">
                <ele>1625.70491007995542531716637313365936279296875</ele>
            </trkpt>
            <trkpt lat="46.2371959999999972978912410326302051544189453125" lon="11.9029399999999991877075444790534675121307373046875">
                <ele>1624.39611519998970834421925246715545654296875</ele>
            </trkpt>
            <trkpt lat="46.2370599999999996043698047287762165069580078125" lon="11.90280500000000074578565545380115509033203125">
                <ele>1619.869984000032445692340843379497528076171875</ele>
            </trkpt>
            <trkpt lat="46.23709800000000313957571052014827728271484375" lon="11.90270699999999948204276734031736850738525390625">
                <ele>1615.337025279952058554044924676418304443359375</ele>
            </trkpt>
            <trkpt lat="46.23702300000000064983396441675722599029541015625" lon="11.902647999999999228748492896556854248046875">
                <ele>1613.2860659199586734757758677005767822265625</ele>
            </trkpt>
            <trkpt lat="46.2369910000000032823663786984980106353759765625" lon="11.90256600000000020145307644270360469818115234375">
                <ele>1609.864602879987387495930306613445281982421875</ele>
            </trkpt>
            <trkpt lat="46.23700999999999794454197399318218231201171875" lon="11.90253500000000030922819860279560089111328125">
                <ele>1608.393568000021105035557411611080169677734375</ele>
            </trkpt>
            <trkpt lat="46.23718600000000122918208944611251354217529296875" lon="11.902454999999999785131876706145703792572021484375">
                <ele>1604.31833919998507553827948868274688720703125</ele>
            </trkpt>
            <trkpt lat="46.23702899999999971214492688886821269989013671875" lon="11.9022950000000005132960723130963742733001708984375">
                <ele>1598.418251200018630697741173207759857177734375</ele>
            </trkpt>
            <trkpt lat="46.23684999999999689634933019988238811492919921875" lon="11.902193000000000466798155684955418109893798828125">
                <ele>1594.0186720000137938768602907657623291015625</ele>
            </trkpt>
            <trkpt lat="46.23705799999999754845703137107193470001220703125" lon="11.9020589999999995001189745380543172359466552734375">
                <ele>1588.932772479967525214306078851222991943359375</ele>
            </trkpt>
            <trkpt lat="46.23709999999999809006112627685070037841796875" lon="11.9019589999999997331769918673671782016754150390625">
                <ele>1585.17817599997533761779777705669403076171875</ele>
            </trkpt>
            <trkpt lat="46.23705700000000007321432349272072315216064453125" lon="11.901863999999999776946424390189349651336669921875">
                <ele>1581.1031603199890014366246759891510009765625</ele>
            </trkpt>
            <trkpt lat="46.2369810000000001082298695109784603118896484375" lon="11.9018010000000007408971214317716658115386962890625">
                <ele>1577.86873504002915069577284157276153564453125</ele>
            </trkpt>
            <trkpt lat="46.23708599999999790952642797492444515228271484375" lon="11.9018169999999994246309142909012734889984130859375">
                <ele>1579.477118079955971552408300340175628662109375</ele>
            </trkpt>
            <trkpt lat="46.23722500000000223963070311583578586578369140625" lon="11.9017970000000001817852535168640315532684326171875">
                <ele>1579.988968000025352012016810476779937744140625</ele>
            </trkpt>
            <trkpt lat="46.237222000000002708475221879780292510986328125" lon="11.9017529999999993606252246536314487457275390625">
                <ele>1578.341453440001941999071277678012847900390625</ele>
            </trkpt>
            <trkpt lat="46.237155999999998812199919484555721282958984375" lon="11.9016789999999996751967046293430030345916748046875">
                <ele>1574.842332159971192595548927783966064453125</ele>
            </trkpt>
            <trkpt lat="46.2370140000000020563675207085907459259033203125" lon="11.901600999999999430656316690146923065185546875">
                <ele>1569.325430079990837839432060718536376953125</ele>
            </trkpt>
            <trkpt lat="46.23715299999999928104443824850022792816162109375" lon="11.901616000000000639147401670925319194793701171875">
                <ele>1571.625122560023783080396242439746856689453125</ele>
            </trkpt>
            <trkpt lat="46.23722099999999812780515640042722225189208984375" lon="11.90158100000000018781065591610968112945556640625">
                <ele>1570.459426719988414333784021437168121337890625</ele>
            </trkpt>
            <trkpt lat="46.23714700000000021873347577638924121856689453125" lon="11.9014649999999999607780409860424697399139404296875">
                <ele>1563.496645599997236786293797194957733154296875</ele>
            </trkpt>
            <trkpt lat="46.23707399999999978490450303070247173309326171875" lon="11.90143499999999932015271042473614215850830078125">
                <ele>1561.335476799960588323301635682582855224609375</ele>
            </trkpt>
            <trkpt lat="46.2370159999999970068529364652931690216064453125" lon="11.9013790000000003743707566172815859317779541015625">
                <ele>1558.0383980799970231601037085056304931640625</ele>
            </trkpt>
            <trkpt lat="46.23726400000000325007931678555905818939208984375" lon="11.901281000000000886984707904048264026641845703125">
                <ele>1554.231844480062363800243474543094635009765625</ele>
            </trkpt>
            <trkpt lat="46.237381999999996651240508072078227996826171875" lon="11.901256000000000057070792536251246929168701171875">
                <ele>1553.351146239986292130197398364543914794921875</ele>
            </trkpt>
            <trkpt lat="46.2373639999999994643076206557452678680419921875" lon="11.9012130000000002638671503518708050251007080078125">
                <ele>1550.802999040010718090343289077281951904296875</ele>
            </trkpt>
            <trkpt lat="46.23700000000000187583282240666449069976806640625" lon="11.90095600000000075624484452418982982635498046875">
                <ele>1536.511840000033771502785384654998779296875</ele>
            </trkpt>
            <trkpt lat="46.23709099999999949659468256868422031402587890625" lon="11.9009330000000002058868631138466298580169677734375">
                <ele>1535.189304160009442057344131171703338623046875</ele>
            </trkpt>
            <trkpt lat="46.23718900000000076033757068216800689697265625" lon="11.9009429999999998273096935008652508258819580078125">
                <ele>1535.561129439987098521669395267963409423828125</ele>
            </trkpt>
            <trkpt lat="46.23729300000000108639142126776278018951416015625" lon="11.9008669999999998623252395191229879856109619140625">
                <ele>1531.134740319986804024665616452693939208984375</ele>
            </trkpt>
            <trkpt lat="46.23748199999999997089616954326629638671875" lon="11.9007950000000004564526534522883594036102294921875">
                <ele>1526.6417424000219398294575512409210205078125</ele>
            </trkpt>
            <trkpt lat="46.23750700000000080081008491106331348419189453125" lon="11.9007459999999998245812093955464661121368408203125">
                <ele>1524.2451984000063021085225045680999755859375</ele>
            </trkpt>
            <trkpt lat="46.23736900000000105137587524950504302978515625" lon="11.9006600000000002381739250267855823040008544921875">
                <ele>1520.529878400004463401273824274539947509765625</ele>
            </trkpt>
            <trkpt lat="46.2372280000000017707861843518912792205810546875" lon="11.900175000000000835598257253877818584442138671875">
                <ele>1498.61990400001695888931863009929656982421875</ele>
            </trkpt>
            <trkpt lat="46.2373410000000006903064786456525325775146484375" lon="11.9001509999999992572838891646824777126312255859375">
                <ele>1496.0888433599548079655505716800689697265625</ele>
            </trkpt>
            <trkpt lat="46.2375090000000028567228582687675952911376953125" lon="11.900197999999999609599399263970553874969482421875">
                <ele>1496.632430400027487849001772701740264892578125</ele>
            </trkpt>
            <trkpt lat="46.237583999999998241037246771156787872314453125" lon="11.90019099999999951933205011300742626190185546875">
                <ele>1497.552316799944264857913367450237274169921875</ele>
            </trkpt>
            <trkpt lat="46.23754999999999881765688769519329071044921875" lon="11.8999959999999997961594999651424586772918701171875">
                <ele>1487.206079999977418992784805595874786376953125</ele>
            </trkpt>
            <trkpt lat="46.23745699999999914098225417546927928924560546875" lon="11.89970699999999936835592961870133876800537109375">
                <ele>1481.257746719995111561729572713375091552734375</ele>
            </trkpt>
            <trkpt lat="46.2373410000000006903064786456525325775146484375" lon="11.8996049999999993218580129905603826045989990234375">
                <ele>1480.029890399980331494589336216449737548828125</ele>
            </trkpt>
            <trkpt lat="46.2372859999999974434103933162987232208251953125" lon="11.8994049999999997879740476491861045360565185546875">
                <ele>1475.773982400003433212987147271633148193359375</ele>
            </trkpt>
            <trkpt lat="46.2372280000000017707861843518912792205810546875" lon="11.89926200000000022782842279411852359771728515625">
                <ele>1472.489422080004487725091166794300079345703125</ele>
            </trkpt>
            <trkpt lat="46.23710899999999668352756998501718044281005859375" lon="11.89906500000000022509993868879973888397216796875">
                <ele>1468.6043759999929534387774765491485595703125</ele>
            </trkpt>
            <trkpt lat="46.2370489999999989549905876629054546356201171875" lon="11.899015999999999593228494632057845592498779296875">
                <ele>1467.714710399988916833535768091678619384765625</ele>
            </trkpt>
            <trkpt lat="46.2369879999999966457835398614406585693359375" lon="11.8989270000000004756657290272414684295654296875">
                <ele>1466.10538559999031349434517323970794677734375</ele>
            </trkpt>
            <trkpt lat="46.23696799999999740293787908740341663360595703125" lon="11.89883999999999986130205797962844371795654296875">
                <ele>1464.615071999980727923684753477573394775390625</ele>
            </trkpt>
            <trkpt lat="46.2369139999999987367118592374026775360107421875" lon="11.898770999999999986584953148849308490753173828125">
                <ele>1463.134406399989302371977828443050384521484375</ele>
            </trkpt>
            <trkpt lat="46.23673600000000050158632802776992321014404296875" lon="11.898673999999999750798451714217662811279296875">
                <ele>1460.024678399997128508402965962886810302734375</ele>
            </trkpt>
            <trkpt lat="46.23661899999999747024048701860010623931884765625" lon="11.898683999999999372221282101236283779144287109375">
                <ele>1459.82803711999395090970210731029510498046875</ele>
            </trkpt>
            <trkpt lat="46.23623500000000063892002799548208713531494140625" lon="11.8984480000000001354010237264446914196014404296875">
                <ele>1454.658521600001449769479222595691680908203125</ele>
            </trkpt>
            <trkpt lat="46.235996999999997569830156862735748291015625" lon="11.8981809999999992299990481114946305751800537109375">
                <ele>1449.205117279979958766489289700984954833984375</ele>
            </trkpt>
            <trkpt lat="46.235895999999996774931787513196468353271484375" lon="11.8981169999999991659933584742248058319091796875">
                <ele>1447.970497279972050819196738302707672119140625</ele>
            </trkpt>
            <trkpt lat="46.235827999999997928171069361269474029541015625" lon="11.898047999999999291276253643445670604705810546875">
                <ele>1446.76893824000353561132214963436126708984375</ele>
            </trkpt>
            <trkpt lat="46.23546400000000033969627111218869686126708984375" lon="11.89758499999999941110218060202896595001220703125">
                <ele>1439.1293023999869546969421207904815673828125</ele>
            </trkpt>
            <trkpt lat="46.23538400000000336831362801603972911834716796875" lon="11.897546999999999428609953611157834529876708984375">
                <ele>1437.91097408000132418237626552581787109375</ele>
            </trkpt>
            <trkpt lat="46.2351230000000015252226148732006549835205078125" lon="11.89723000000000041609382606111466884613037109375">
                <ele>1432.80022400001826099469326436519622802734375</ele>
            </trkpt>
            <trkpt lat="46.23488499999999845613274374045431613922119140625" lon="11.8969819999999995019379639416001737117767333984375">
                <ele>1429.327107199998181386035867035388946533203125</ele>
            </trkpt>
            <trkpt lat="46.2346399999999988494892022572457790374755859375" lon="11.8966480000000007777316568535752594470977783203125">
                <ele>1424.2065087999953902908600866794586181640625</ele>
            </trkpt>
            <trkpt lat="46.23453500000000104819264379329979419708251953125" lon="11.896561999999999414967533084563910961151123046875">
                <ele>1423.697636800004374890704639256000518798828125</ele>
            </trkpt>
            <trkpt lat="46.2343120000000027403075364418327808380126953125" lon="11.89656599999999997407940099947154521942138671875">
                <ele>1422.608807680013114804751239717006683349609375</ele>
            </trkpt>
            <trkpt lat="46.2341940000000022337189875543117523193359375" lon="11.8966370000000001283524397877044975757598876953125">
                <ele>1422.4309091200093462248332798480987548828125</ele>
            </trkpt>
            <trkpt lat="46.23408400000000284535417449660599231719970703125" lon="11.89667299999999983128873282112181186676025390625">
                <ele>1422.394661760003145900554955005645751953125</ele>
            </trkpt>
            <trkpt lat="46.2338639999999969631971907801926136016845703125" lon="11.896713999999999344936441048048436641693115234375">
                <ele>1422.8922892799673718400299549102783203125</ele>
            </trkpt>
            <trkpt lat="46.23373600000000038789949030615389347076416015625" lon="11.8967130000000000933368937694467604160308837890625">
                <ele>1422.425802240002440157695673406124114990234375</ele>
            </trkpt>
            <trkpt lat="46.2334749999999985448084771633148193359375" lon="11.8966030000000007049720807117410004138946533203125">
                <ele>1419.247528000001921100192703306674957275390625</ele>
            </trkpt>
            <trkpt lat="46.23308200000000312002157443203032016754150390625" lon="11.8965680000000002536353349569253623485565185546875">
                <ele>1417.947633920006410335190594196319580078125</ele>
            </trkpt>
            <trkpt lat="46.23272800000000160025592776946723461151123046875" lon="11.8964079999999992054426911636255681514739990234375">
                <ele>1414.507278079988054741988889873027801513671875</ele>
            </trkpt>
            <trkpt lat="46.23238400000000325462679029442369937896728515625" lon="11.896174999999999499777914024889469146728515625">
                <ele>1409.026159999983747184160165488719940185546875</ele>
            </trkpt>
            <trkpt lat="46.2324109999999990350261214189231395721435546875" lon="11.89594100000000054251358960755169391632080078125">
                <ele>1403.787792800010720384307205677032470703125</ele>
            </trkpt>
            <trkpt lat="46.2324229999999971596480463631451129913330078125" lon="11.895196999999999576402842649258673191070556640625">
                <ele>1400.714556639998818354797549545764923095703125</ele>
            </trkpt>
            <trkpt lat="46.23237199999999802457750774919986724853515625" lon="11.8950089999999999434976416523568332195281982421875">
                <ele>1400.509141119999867441947571933269500732421875</ele>
            </trkpt>
            <trkpt lat="46.23230499999999665305949747562408447265625" lon="11.8948949999999999960209606797434389591217041015625">
                <ele>1400.596515999999610357917845249176025390625</ele>
            </trkpt>
            <trkpt lat="46.23212000000000188038029591552913188934326171875" lon="11.894659000000000759200702304951846599578857421875">
                <ele>1400.722604800000453906250186264514923095703125</ele>
            </trkpt>
            <trkpt lat="46.23189099999999740475686849094927310943603515625" lon="11.894555000000000433146851719357073307037353515625">
                <ele>1400.643752799998082991805858910083770751953125</ele>
            </trkpt>
            <trkpt lat="46.23162599999999855526766623370349407196044921875" lon="11.894507000000000829231794341467320919036865234375">
                <ele>1400.422329919997309843893162906169891357421875</ele>
            </trkpt>
            <trkpt lat="46.2315200000000032787283998914062976837158203125" lon="11.894448000000000575937519897706806659698486328125">
                <ele>1400.207417600006692737224511802196502685546875</ele>
            </trkpt>
            <trkpt lat="46.23124800000000078625816968269646167755126953125" lon="11.8940859999999997143049768055789172649383544921875">
                <ele>1399.784670720003532551345415413379669189453125</ele>
            </trkpt>
            <trkpt lat="46.23089900000000085356077761389315128326416015625" lon="11.8937989999999995660573404165916144847869873046875">
                <ele>1399.23786624000467782025225460529327392578125</ele>
            </trkpt>
            <trkpt lat="46.2306219999999967740222928114235401153564453125" lon="11.8937170000000005387619239627383649349212646484375">
                <ele>1395.742799999948829281493090093135833740234375</ele>
            </trkpt>
            <trkpt lat="46.23034200000000026875568437390029430389404296875" lon="11.89355199999999967985786497592926025390625">
                <ele>1391.5728000000044630724005401134490966796875</ele>
            </trkpt>
            <trkpt lat="46.23015500000000344016370945610105991363525390625" lon="11.893499999999999516830939683131873607635498046875">
                <ele>1388.718000000054189513321034610271453857421875</ele>
            </trkpt>
            <trkpt lat="46.22973499999999802412276039831340312957763671875" lon="11.8934569999999997236272974987514317035675048828125">
                <ele>1383.760408799980950789176858961582183837890625</ele>
            </trkpt>
            <trkpt lat="46.22948199999999729925548308528959751129150390625" lon="11.8933739999999996683754943660460412502288818359375">
                <ele>1381.448065919974624193855561316013336181640625</ele>
            </trkpt>
            <trkpt lat="46.2293769999999994979589246213436126708984375" lon="11.8933669999999995781081452150829136371612548828125">
                <ele>1380.44859695999593895976431667804718017578125</ele>
            </trkpt>
            <trkpt lat="46.2293039999999990641299518756568431854248046875" lon="11.8934270000000008593588063376955687999725341796875">
                <ele>1379.6121235199889270006678998470306396484375</ele>
            </trkpt>
            <trkpt lat="46.229139000000003534296411089599132537841796875" lon="11.8937150000000002592059900052845478057861328125">
                <ele>1377.06800560006513478583656251430511474609375</ele>
            </trkpt>
            <trkpt lat="46.22910499999999700548869441263377666473388671875" lon="11.8937439999999998718749338877387344837188720703125">
                <ele>1376.366867199944181265891529619693756103515625</ele>
            </trkpt>
            <trkpt lat="46.2290619999999989886418916285037994384765625" lon="11.8937609999999995835651134257204830646514892578125">
                <ele>1375.52845791998197455541230738162994384765625</ele>
            </trkpt>
            <trkpt lat="46.2289549999999991314325598068535327911376953125" lon="11.8937580000000000524096321896649897098541259765625">
                <ele>1373.54623839998339462908916175365447998046875</ele>
            </trkpt>
            <trkpt lat="46.22871599999999858709998079575598239898681640625" lon="11.8937150000000002592059900052845478057861328125">
                <ele>1369.178886399972952858661301434040069580078125</ele>
            </trkpt>
            <trkpt lat="46.22854300000000193904270417988300323486328125" lon="11.89377999999999957481122692115604877471923828125">
                <ele>1365.8547424000362298102118074893951416015625</ele>
            </trkpt>
            <trkpt lat="46.22847900000000009868017514236271381378173828125" lon="11.8937580000000000524096321896649897098541259765625">
                <ele>1364.698121920001312901149503886699676513671875</ele>
            </trkpt>
            <trkpt lat="46.2284140000000007830749382264912128448486328125" lon="11.89370699999999914098225417546927928924560546875">
                <ele>1363.556994880015508897486142814159393310546875</ele>
            </trkpt>
            <trkpt lat="46.228082999999998037310433574020862579345703125" lon="11.8934119999999996508677213569171726703643798828125">
                <ele>1359.186273279974784600199200212955474853515625</ele>
            </trkpt>
            <trkpt lat="46.22798800000000341015038429759442806243896484375" lon="11.8930869999999995201278579770587384700775146484375">
                <ele>1361.273130240063210294465534389019012451171875</ele>
            </trkpt>
            <trkpt lat="46.22788899999999756573743070475757122039794921875" lon="11.8929829999999991940740073914639651775360107421875">
                <ele>1360.9233844799673533998429775238037109375</ele>
            </trkpt>
            <trkpt lat="46.2275819999999981746441335417330265045166015625" lon="11.892880999999999147576090763323009014129638671875">
                <ele>1356.319903679972640020423568785190582275390625</ele>
            </trkpt>
            <trkpt lat="46.22725100000000253430698649026453495025634765625" lon="11.8928110000000000212594386539421975612640380859375">
                <ele>1351.595121600037373355007730424404144287109375</ele>
            </trkpt>
            <trkpt lat="46.22696599999999733654476585797965526580810546875" lon="11.8927809999999993806341080926358699798583984375">
                <ele>1347.384777599959079452673904597759246826171875</ele>
            </trkpt>
            <trkpt lat="46.22656299999999873762135393917560577392578125" lon="11.89253599999999977399056660942733287811279296875">
                <ele>1340.0770963199784091557376086711883544921875</ele>
            </trkpt>
            <trkpt lat="46.2264449999999982310328050516545772552490234375" lon="11.8924859999999998905195752740837633609771728515625">
                <ele>1338.196593599973539312486536800861358642578125</ele>
            </trkpt>
            <trkpt lat="46.226168000000001256921677850186824798583984375" lon="11.89236700000000013233147910796105861663818359375">
                <ele>1335.030286080019095606985501945018768310546875</ele>
            </trkpt>
            <trkpt lat="46.2259039999999998826751834712922573089599609375" lon="11.892193999999999931560523691587150096893310546875">
                <ele>1332.266215679998595078359358012676239013671875</ele>
            </trkpt>
            <trkpt lat="46.225785999999999376086634583771228790283203125" lon="11.892089999999999605506673105992376804351806640625">
                <ele>1331.577980799998613292700611054897308349609375</ele>
            </trkpt>
            <trkpt lat="46.2256100000000031968738767318427562713623046875" lon="11.891830999999999818328433320857584476470947265625">
                <ele>1331.80954720003455804544501006603240966796875</ele>
            </trkpt>
            <trkpt lat="46.2255109999999973524609231390058994293212890625" lon="11.891757999999999384499460575170814990997314453125">
                <ele>1331.161552959974187615443952381610870361328125</ele>
            </trkpt>
            <trkpt lat="46.2253419999999977108018356375396251678466796875" lon="11.891690000000000537738742423243820667266845703125">
                <ele>1329.52356159997134454897604882717132568359375</ele>
            </trkpt>
            <trkpt lat="46.2251609999999999445208231918513774871826171875" lon="11.891552000000000788304532761685550212860107421875">
                <ele>1328.30609023999340934096835553646087646484375</ele>
            </trkpt>
            <trkpt lat="46.225064000000003261448000557720661163330078125" lon="11.8915039999999994080326359835453331470489501953125">
                <ele>1327.34893952004858874715864658355712890625</ele>
            </trkpt>
            <trkpt lat="46.22457399999999694273355999030172824859619140625" lon="11.8913770000000003079776433878578245639801025390625">
                <ele>1325.14944127998433032189495861530303955078125</ele>
            </trkpt>
            <trkpt lat="46.22398799999999852161636226810514926910400390625" lon="11.8909490000000008791403161012567579746246337890625">
                <ele>1320.024063359981710163992829620838165283203125</ele>
            </trkpt>
            <trkpt lat="46.22286199999999922738425084389746189117431640625" lon="11.8901740000000000208046913030557334423065185546875">
                <ele>1301.06458367998902758699841797351837158203125</ele>
            </trkpt>
            <trkpt lat="46.22255299999999778037818032316863536834716796875" lon="11.8897460000000005919673640164546668529510498046875">
                <ele>1295.17708223995896332780830562114715576171875</ele>
            </trkpt>
            <trkpt lat="46.2224020000000024310793378390371799468994140625" lon="11.8892380000000006390337148332037031650543212890625">
                <ele>1291.844931840044637283426709473133087158203125</ele>
            </trkpt>
            <trkpt lat="46.22216499999999683723217458464205265045166015625" lon="11.88857900000000000773070496506989002227783203125">
                <ele>1288.333128799931046160054393112659454345703125</ele>
            </trkpt>
            <trkpt lat="46.22203300000000325553628499619662761688232421875" lon="11.8882770000000004273488229955546557903289794921875">
                <ele>1286.466018720071815550909377634525299072265625</ele>
            </trkpt>
            <trkpt lat="46.22180800000000289173840428702533245086669921875" lon="11.887919000000000124828147818334400653839111328125">
                <ele>1284.295875840077087559620849788188934326171875</ele>
            </trkpt>
            <trkpt lat="46.2214689999999990277501638047397136688232421875" lon="11.88764499999999912915882305242121219635009765625">
                <ele>1280.651382399995554806082509458065032958984375</ele>
            </trkpt>
            <trkpt lat="46.22130700000000302907210425473749637603759765625" lon="11.8874569999999994962536220555193722248077392578125">
                <ele>1279.996882720039820924284867942333221435546875</ele>
            </trkpt>
            <trkpt lat="46.22122300000000194586391444317996501922607421875" lon="11.8871739999999999071178535814397037029266357421875">
                <ele>1281.086426560033714849851094186305999755859375</ele>
            </trkpt>
            <trkpt lat="46.2209509999999994533936842344701290130615234375" lon="11.886874999999999857891452847979962825775146484375">
                <ele>1277.14749999998775820131413638591766357421875</ele>
            </trkpt>
            <trkpt lat="46.22059300000000092722984845750033855438232421875" lon="11.8867039999999999366764313890598714351654052734375">
                <ele>1272.020682880009189830161631107330322265625</ele>
            </trkpt>
            <trkpt lat="46.220314000000001897205947898328304290771484375" lon="11.8864820000000008803908713161945343017578125">
                <ele>1269.144887680024794462951831519603729248046875</ele>
            </trkpt>
        </trkseg>
    </trk>
</gpx>
