<?xml version="1.0" encoding="UTF-8" standalone="yes"?>
<gpx xmlns="http://www.topografix.com/GPX/1/0" version="1.0" creator="RouteConverter 2.27.2">
    <name>2018-07-14 08:10</name>
    <wpt lat="47.5980933" lon="12.202005">
        <ele>593.3</ele>
        <time>2018-07-14T06:57:59.000Z</time>
        <name>0000044</name>
    </wpt>
    <trk>
        <name>2018-07-14 08:10</name>
        <desc>&lt;p&gt;Startzeit: 07/14/2018 07:10&lt;br/&gt;Zielzeit: 07/14/2018 13:47&lt;br/&gt;Strecke: 4,
4 km (06:36)&lt;br/&gt;Bewegungszeit: 00:59&lt;br/&gt;Ø-Geschwindigkeit: 0,
66 km/h&lt;br/&gt;Netto-Geschwindigkeit: 4,
38 km/h&lt;br/&gt;Max. Geschwindigkeit: 7,
86 km/h&lt;br/&gt;Minimale Höhe: 489 m&lt;br/&gt;Maximale Höhe: 948 m&lt;br/&gt;Steig-Geschw.: 80,
8 m/h&lt;br/&gt;Sink-Geschw.: -635,
3 m/h&lt;br/&gt;Aufstieg: 469 m&lt;br/&gt;Abstieg: -495 m&lt;br/&gt;Steigzeit: 05:48&lt;br/&gt;Sinkzeit: 00:46&lt;br/&gt;&lt;/p&gt;&lt;hr align="center" width="480" style="height: 2px; width: 517px"/&gt;</desc>
        <trkseg>
            <trkpt lat="47.5978607" lon="12.194723">
                <ele>539.5</ele>
                <time>2018-07-14T05:11:03.000Z</time>
                <name>Position 1</name>
            </trkpt>
            <trkpt lat="47.5980133" lon="12.194985">
                <ele>528.4</ele>
                <time>2018-07-14T05:13:07.000Z</time>
                <name>Position 2</name>
            </trkpt>
            <trkpt lat="47.5979267" lon="12.195035">
                <ele>528.2</ele>
                <time>2018-07-14T05:13:13.000Z</time>
                <name>Position 3</name>
            </trkpt>
            <trkpt lat="47.59784" lon="12.195115">
                <ele>527.9</ele>
                <time>2018-07-14T05:13:21.000Z</time>
                <name>Position 4</name>
            </trkpt>
            <trkpt lat="47.5977767" lon="12.195245">
                <ele>527.1</ele>
                <time>2018-07-14T05:13:29.000Z</time>
                <name>Position 5</name>
            </trkpt>
            <trkpt lat="47.597715" lon="12.1953783">
                <ele>525.9</ele>
                <time>2018-07-14T05:13:37.000Z</time>
                <name>Position 6</name>
            </trkpt>
            <trkpt lat="47.59766" lon="12.1955167">
                <ele>524.3</ele>
                <time>2018-07-14T05:13:45.000Z</time>
                <name>Position 7</name>
            </trkpt>
            <trkpt lat="47.5976083" lon="12.195645">
                <ele>522.6</ele>
                <time>2018-07-14T05:13:53.000Z</time>
                <name>Position 8</name>
            </trkpt>
            <trkpt lat="47.5975683" lon="12.1957833">
                <ele>521.1</ele>
                <time>2018-07-14T05:14:01.000Z</time>
                <name>Position 9</name>
            </trkpt>
            <trkpt lat="47.5975367" lon="12.195925">
                <ele>518.4</ele>
                <time>2018-07-14T05:14:07.000Z</time>
                <name>Position 10</name>
            </trkpt>
            <trkpt lat="47.5975517" lon="12.1960817">
                <ele>515.2</ele>
                <time>2018-07-14T05:14:15.000Z</time>
                <name>Position 11</name>
            </trkpt>
            <trkpt lat="47.597525" lon="12.196225">
                <ele>512.6</ele>
                <time>2018-07-14T05:14:21.000Z</time>
                <name>Position 12</name>
            </trkpt>
            <trkpt lat="47.5975233" lon="12.196405">
                <ele>508.5</ele>
                <time>2018-07-14T05:14:29.000Z</time>
                <name>Position 13</name>
            </trkpt>
            <trkpt lat="47.59754" lon="12.1965867">
                <ele>503.3</ele>
                <time>2018-07-14T05:14:37.000Z</time>
                <name>Position 14</name>
            </trkpt>
            <trkpt lat="47.5975733" lon="12.1967233">
                <ele>500.0</ele>
                <time>2018-07-14T05:14:43.000Z</time>
                <name>Position 15</name>
            </trkpt>
            <trkpt lat="47.5975833" lon="12.196865">
                <ele>497.4</ele>
                <time>2018-07-14T05:14:49.000Z</time>
                <name>Position 16</name>
            </trkpt>
            <trkpt lat="47.5976617" lon="12.196995">
                <ele>496.0</ele>
                <time>2018-07-14T05:14:59.000Z</time>
                <name>Position 17</name>
            </trkpt>
            <trkpt lat="47.5977233" lon="12.1971117">
                <ele>494.7</ele>
                <time>2018-07-14T05:15:07.000Z</time>
                <name>Position 18</name>
            </trkpt>
            <trkpt lat="47.5977917" lon="12.1972433">
                <ele>492.0</ele>
                <time>2018-07-14T05:15:17.000Z</time>
                <name>Position 19</name>
            </trkpt>
            <trkpt lat="47.5978167" lon="12.19739">
                <ele>490.9</ele>
                <time>2018-07-14T05:15:25.000Z</time>
                <name>Position 20</name>
            </trkpt>
            <trkpt lat="47.5978567" lon="12.19752">
                <ele>490.4</ele>
                <time>2018-07-14T05:15:31.000Z</time>
                <name>Position 21</name>
            </trkpt>
            <trkpt lat="47.5978983" lon="12.1976433">
                <ele>490.7</ele>
                <time>2018-07-14T05:15:39.000Z</time>
                <name>Position 22</name>
            </trkpt>
            <trkpt lat="47.5979467" lon="12.19779">
                <ele>490.0</ele>
                <time>2018-07-14T05:15:49.000Z</time>
                <name>Position 23</name>
            </trkpt>
            <trkpt lat="47.5980083" lon="12.197905">
                <ele>489.7</ele>
                <time>2018-07-14T05:15:57.000Z</time>
                <name>Position 24</name>
            </trkpt>
            <trkpt lat="47.5980533" lon="12.1980483">
                <ele>491.0</ele>
                <time>2018-07-14T05:16:05.000Z</time>
                <name>Position 25</name>
            </trkpt>
            <trkpt lat="47.59812" lon="12.1981833">
                <ele>493.6</ele>
                <time>2018-07-14T05:16:15.000Z</time>
                <name>Position 26</name>
            </trkpt>
            <trkpt lat="47.5981567" lon="12.1983367">
                <ele>494.1</ele>
                <time>2018-07-14T05:16:25.000Z</time>
                <name>Position 27</name>
            </trkpt>
            <trkpt lat="47.5982267" lon="12.1984467">
                <ele>493.6</ele>
                <time>2018-07-14T05:16:33.000Z</time>
                <name>Position 28</name>
            </trkpt>
            <trkpt lat="47.5982983" lon="12.1985667">
                <ele>496.1</ele>
                <time>2018-07-14T05:16:43.000Z</time>
                <name>Position 29</name>
            </trkpt>
            <trkpt lat="47.59834" lon="12.1986917">
                <ele>497.8</ele>
                <time>2018-07-14T05:16:51.000Z</time>
                <name>Position 30</name>
            </trkpt>
            <trkpt lat="47.5983917" lon="12.1988233">
                <ele>501.3</ele>
                <time>2018-07-14T05:17:01.000Z</time>
                <name>Position 31</name>
            </trkpt>
            <trkpt lat="47.5984267" lon="12.1989617">
                <ele>503.6</ele>
                <time>2018-07-14T05:17:09.000Z</time>
                <name>Position 32</name>
            </trkpt>
            <trkpt lat="47.5984433" lon="12.19912">
                <ele>506.2</ele>
                <time>2018-07-14T05:17:17.000Z</time>
                <name>Position 33</name>
            </trkpt>
            <trkpt lat="47.5984617" lon="12.1992533">
                <ele>508.8</ele>
                <time>2018-07-14T05:17:25.000Z</time>
                <name>Position 34</name>
            </trkpt>
            <trkpt lat="47.5984717" lon="12.1993933">
                <ele>511.4</ele>
                <time>2018-07-14T05:17:33.000Z</time>
                <name>Position 35</name>
            </trkpt>
            <trkpt lat="47.5984933" lon="12.1995417">
                <ele>516.7</ele>
                <time>2018-07-14T05:17:41.000Z</time>
                <name>Position 36</name>
            </trkpt>
            <trkpt lat="47.5985233" lon="12.1997017">
                <ele>521.3</ele>
                <time>2018-07-14T05:17:51.000Z</time>
                <name>Position 37</name>
            </trkpt>
            <trkpt lat="47.59856" lon="12.1998483">
                <ele>523.8</ele>
                <time>2018-07-14T05:17:59.000Z</time>
                <name>Position 38</name>
            </trkpt>
            <trkpt lat="47.59861" lon="12.1999717">
                <ele>523.8</ele>
                <time>2018-07-14T05:18:07.000Z</time>
                <name>Position 39</name>
            </trkpt>
            <trkpt lat="47.5986717" lon="12.2000983">
                <ele>522.7</ele>
                <time>2018-07-14T05:18:15.000Z</time>
                <name>Position 40</name>
            </trkpt>
            <trkpt lat="47.5987333" lon="12.200245">
                <ele>522.1</ele>
                <time>2018-07-14T05:18:25.000Z</time>
                <name>Position 41</name>
            </trkpt>
            <trkpt lat="47.598785" lon="12.2003617">
                <ele>523.1</ele>
                <time>2018-07-14T05:18:33.000Z</time>
                <name>Position 42</name>
            </trkpt>
            <trkpt lat="47.5988367" lon="12.2004883">
                <ele>523.4</ele>
                <time>2018-07-14T05:18:41.000Z</time>
                <name>Position 43</name>
            </trkpt>
            <trkpt lat="47.5988867" lon="12.20061">
                <ele>523.2</ele>
                <time>2018-07-14T05:18:49.000Z</time>
                <name>Position 44</name>
            </trkpt>
            <trkpt lat="47.5989417" lon="12.2007367">
                <ele>523.8</ele>
                <time>2018-07-14T05:18:57.000Z</time>
                <name>Position 45</name>
            </trkpt>
            <trkpt lat="47.598995" lon="12.2008617">
                <ele>525.6</ele>
                <time>2018-07-14T05:19:05.000Z</time>
                <name>Position 46</name>
            </trkpt>
            <trkpt lat="47.599025" lon="12.2009917">
                <ele>526.6</ele>
                <time>2018-07-14T05:19:13.000Z</time>
                <name>Position 47</name>
            </trkpt>
            <trkpt lat="47.599055" lon="12.2011217">
                <ele>528.3</ele>
                <time>2018-07-14T05:19:21.000Z</time>
                <name>Position 48</name>
            </trkpt>
            <trkpt lat="47.5991033" lon="12.2012683">
                <ele>530.1</ele>
                <time>2018-07-14T05:19:31.000Z</time>
                <name>Position 49</name>
            </trkpt>
            <trkpt lat="47.5991517" lon="12.2013967">
                <ele>531.8</ele>
                <time>2018-07-14T05:19:41.000Z</time>
                <name>Position 50</name>
            </trkpt>
            <trkpt lat="47.5992017" lon="12.2015567">
                <ele>534.5</ele>
                <time>2018-07-14T05:19:51.000Z</time>
                <name>Position 51</name>
            </trkpt>
            <trkpt lat="47.5992517" lon="12.2017117">
                <ele>535.4</ele>
                <time>2018-07-14T05:19:59.000Z</time>
                <name>Position 52</name>
            </trkpt>
            <trkpt lat="47.59932" lon="12.20181">
                <ele>536.6</ele>
                <time>2018-07-14T05:20:07.000Z</time>
                <name>Position 53</name>
            </trkpt>
            <trkpt lat="47.5994033" lon="12.2019017">
                <ele>540.6</ele>
                <time>2018-07-14T05:20:17.000Z</time>
                <name>Position 54</name>
            </trkpt>
            <trkpt lat="47.599445" lon="12.2020267">
                <ele>544.1</ele>
                <time>2018-07-14T05:20:41.000Z</time>
                <name>Position 55</name>
            </trkpt>
            <trkpt lat="47.59946" lon="12.2021817">
                <ele>542.9</ele>
                <time>2018-07-14T05:20:57.000Z</time>
                <name>Position 56</name>
            </trkpt>
            <trkpt lat="47.5995217" lon="12.2023">
                <ele>542.6</ele>
                <time>2018-07-14T05:21:11.000Z</time>
                <name>Position 57</name>
            </trkpt>
            <trkpt lat="47.5995217" lon="12.202445">
                <ele>543.3</ele>
                <time>2018-07-14T05:21:23.000Z</time>
                <name>Position 58</name>
            </trkpt>
            <trkpt lat="47.5994533" lon="12.202535">
                <ele>546.0</ele>
                <time>2018-07-14T05:21:55.000Z</time>
                <name>Position 59</name>
            </trkpt>
            <trkpt lat="47.5993633" lon="12.202565">
                <ele>549.6</ele>
                <time>2018-07-14T05:22:11.000Z</time>
                <name>Position 60</name>
            </trkpt>
            <trkpt lat="47.5992683" lon="12.2025417">
                <ele>552.1</ele>
                <time>2018-07-14T05:22:37.000Z</time>
                <name>Position 61</name>
            </trkpt>
            <trkpt lat="47.59918" lon="12.202495">
                <ele>554.4</ele>
                <time>2018-07-14T05:22:57.000Z</time>
                <name>Position 62</name>
            </trkpt>
            <trkpt lat="47.59908" lon="12.2024333">
                <ele>555.5</ele>
                <time>2018-07-14T05:23:27.000Z</time>
                <name>Position 63</name>
            </trkpt>
            <trkpt lat="47.5989867" lon="12.2023817">
                <ele>555.4</ele>
                <time>2018-07-14T05:23:43.000Z</time>
                <name>Position 64</name>
            </trkpt>
            <trkpt lat="47.5988867" lon="12.20232">
                <ele>556.7</ele>
                <time>2018-07-14T05:24:11.000Z</time>
                <name>Position 65</name>
            </trkpt>
            <trkpt lat="47.5987933" lon="12.202285">
                <ele>558.8</ele>
                <time>2018-07-14T05:24:37.000Z</time>
                <name>Position 66</name>
            </trkpt>
            <trkpt lat="47.5987017" lon="12.202245">
                <ele>561.6</ele>
                <time>2018-07-14T05:24:55.000Z</time>
                <name>Position 67</name>
            </trkpt>
            <trkpt lat="47.5986083" lon="12.2022283">
                <ele>563.7</ele>
                <time>2018-07-14T05:25:07.000Z</time>
                <name>Position 68</name>
            </trkpt>
            <trkpt lat="47.5985283" lon="12.2021367">
                <ele>567.5</ele>
                <time>2018-07-14T05:25:39.000Z</time>
                <name>Position 69</name>
            </trkpt>
            <trkpt lat="47.5984617" lon="12.202035">
                <ele>568.5</ele>
                <time>2018-07-14T05:25:57.000Z</time>
                <name>Position 70</name>
            </trkpt>
            <trkpt lat="47.5983817" lon="12.2019667">
                <ele>569.4</ele>
                <time>2018-07-14T05:26:09.000Z</time>
                <name>Position 71</name>
            </trkpt>
            <trkpt lat="47.598295" lon="12.20193">
                <ele>570.4</ele>
                <time>2018-07-14T05:26:21.000Z</time>
                <name>Position 72</name>
            </trkpt>
            <trkpt lat="47.5982617" lon="12.2017967">
                <ele>576.0</ele>
                <time>2018-07-14T05:27:03.000Z</time>
                <name>Position 73</name>
            </trkpt>
            <trkpt lat="47.5981183" lon="12.2019433">
                <ele>716.8</ele>
                <time>2018-07-14T07:14:15.000Z</time>
                <name>Position 74</name>
            </trkpt>
            <trkpt lat="47.598135" lon="12.2027533">
                <ele>905.2</ele>
                <time>2018-07-14T10:37:39.000Z</time>
                <name>Position 75</name>
            </trkpt>
            <trkpt lat="47.5981433" lon="12.2029033">
                <ele>905.3</ele>
                <time>2018-07-14T10:38:29.000Z</time>
                <name>Position 76</name>
            </trkpt>
            <trkpt lat="47.5980167" lon="12.2032833">
                <ele>931.0</ele>
                <time>2018-07-14T10:41:21.000Z</time>
                <name>Position 77</name>
            </trkpt>
            <trkpt lat="47.5979467" lon="12.2034017">
                <ele>938.5</ele>
                <time>2018-07-14T10:42:03.000Z</time>
                <name>Position 78</name>
            </trkpt>
            <trkpt lat="47.597935" lon="12.2035583">
                <ele>941.9</ele>
                <time>2018-07-14T10:42:53.000Z</time>
                <name>Position 79</name>
            </trkpt>
            <trkpt lat="47.5978417" lon="12.203585">
                <ele>945.1</ele>
                <time>2018-07-14T10:44:01.000Z</time>
                <name>Position 80</name>
            </trkpt>
            <trkpt lat="47.597745" lon="12.203535">
                <ele>948.4</ele>
                <time>2018-07-14T10:44:23.000Z</time>
                <name>Position 81</name>
            </trkpt>
            <trkpt lat="47.5976533" lon="12.2035567">
                <ele>941.8</ele>
                <time>2018-07-14T10:50:05.000Z</time>
                <name>Position 82</name>
            </trkpt>
            <trkpt lat="47.5976933" lon="12.20343">
                <ele>943.3</ele>
                <time>2018-07-14T10:51:03.000Z</time>
                <name>Position 83</name>
            </trkpt>
            <trkpt lat="47.5977467" lon="12.20354">
                <ele>937.6</ele>
                <time>2018-07-14T10:56:07.000Z</time>
                <name>Position 84</name>
            </trkpt>
            <trkpt lat="47.59772" lon="12.2036733">
                <ele>940.7</ele>
                <time>2018-07-14T10:56:27.000Z</time>
                <name>Position 85</name>
            </trkpt>
            <trkpt lat="47.5976933" lon="12.203805">
                <ele>942.2</ele>
                <time>2018-07-14T10:56:49.000Z</time>
                <name>Position 86</name>
            </trkpt>
            <trkpt lat="47.5975883" lon="12.20385">
                <ele>941.7</ele>
                <time>2018-07-14T10:56:59.000Z</time>
                <name>Position 87</name>
            </trkpt>
            <trkpt lat="47.5975583" lon="12.2039767">
                <ele>941.5</ele>
                <time>2018-07-14T10:57:15.000Z</time>
                <name>Position 88</name>
            </trkpt>
            <trkpt lat="47.5976233" lon="12.2041">
                <ele>940.5</ele>
                <time>2018-07-14T10:57:27.000Z</time>
                <name>Position 89</name>
            </trkpt>
            <trkpt lat="47.597535" lon="12.2041867">
                <ele>939.7</ele>
                <time>2018-07-14T10:57:55.000Z</time>
                <name>Position 90</name>
            </trkpt>
            <trkpt lat="47.59747" lon="12.2040533">
                <ele>939.1</ele>
                <time>2018-07-14T10:58:11.000Z</time>
                <name>Position 91</name>
            </trkpt>
            <trkpt lat="47.59743" lon="12.2039317">
                <ele>939.0</ele>
                <time>2018-07-14T10:58:29.000Z</time>
                <name>Position 92</name>
            </trkpt>
            <trkpt lat="47.5973617" lon="12.203835">
                <ele>940.5</ele>
                <time>2018-07-14T10:58:43.000Z</time>
                <name>Position 93</name>
            </trkpt>
            <trkpt lat="47.5972767" lon="12.2037267">
                <ele>939.3</ele>
                <time>2018-07-14T10:58:51.000Z</time>
                <name>Position 94</name>
            </trkpt>
            <trkpt lat="47.5972" lon="12.2036483">
                <ele>937.6</ele>
                <time>2018-07-14T10:58:57.000Z</time>
                <name>Position 95</name>
            </trkpt>
            <trkpt lat="47.5971083" lon="12.20359">
                <ele>934.5</ele>
                <time>2018-07-14T10:59:37.000Z</time>
                <name>Position 96</name>
            </trkpt>
            <trkpt lat="47.5970217" lon="12.2035433">
                <ele>935.0</ele>
                <time>2018-07-14T10:59:45.000Z</time>
                <name>Position 97</name>
            </trkpt>
            <trkpt lat="47.5969033" lon="12.2035333">
                <ele>934.4</ele>
                <time>2018-07-14T10:59:55.000Z</time>
                <name>Position 98</name>
            </trkpt>
            <trkpt lat="47.5968117" lon="12.2034583">
                <ele>933.9</ele>
                <time>2018-07-14T11:00:03.000Z</time>
                <name>Position 99</name>
            </trkpt>
            <trkpt lat="47.5967217" lon="12.203465">
                <ele>931.8</ele>
                <time>2018-07-14T11:00:25.000Z</time>
                <name>Position 100</name>
            </trkpt>
            <trkpt lat="47.5965817" lon="12.203475">
                <ele>931.0</ele>
                <time>2018-07-14T11:00:31.000Z</time>
                <name>Position 101</name>
            </trkpt>
            <trkpt lat="47.5964867" lon="12.2034883">
                <ele>930.0</ele>
                <time>2018-07-14T11:00:37.000Z</time>
                <name>Position 102</name>
            </trkpt>
            <trkpt lat="47.5964167" lon="12.20333">
                <ele>923.3</ele>
                <time>2018-07-14T11:01:19.000Z</time>
                <name>Position 103</name>
            </trkpt>
            <trkpt lat="47.596375" lon="12.2032117">
                <ele>919.1</ele>
                <time>2018-07-14T11:01:37.000Z</time>
                <name>Position 104</name>
            </trkpt>
            <trkpt lat="47.5962833" lon="12.2031667">
                <ele>917.6</ele>
                <time>2018-07-14T11:01:43.000Z</time>
                <name>Position 105</name>
            </trkpt>
            <trkpt lat="47.5962517" lon="12.2030267">
                <ele>911.8</ele>
                <time>2018-07-14T11:02:19.000Z</time>
                <name>Position 106</name>
            </trkpt>
            <trkpt lat="47.5961867" lon="12.2028567">
                <ele>895.0</ele>
                <time>2018-07-14T11:03:11.000Z</time>
                <name>Position 107</name>
            </trkpt>
            <trkpt lat="47.5961083" lon="12.202775">
                <ele>876.6</ele>
                <time>2018-07-14T11:04:23.000Z</time>
                <name>Position 108</name>
            </trkpt>
            <trkpt lat="47.5960517" lon="12.2026367">
                <ele>874.5</ele>
                <time>2018-07-14T11:04:37.000Z</time>
                <name>Position 109</name>
            </trkpt>
            <trkpt lat="47.59596" lon="12.2026767">
                <ele>868.8</ele>
                <time>2018-07-14T11:05:23.000Z</time>
                <name>Position 110</name>
            </trkpt>
            <trkpt lat="47.5959283" lon="12.2026783">
                <ele>857.2</ele>
                <time>2018-07-14T11:06:17.000Z</time>
                <name>Position 111</name>
            </trkpt>
            <trkpt lat="47.5958483" lon="12.2026033">
                <ele>852.6</ele>
                <time>2018-07-14T11:06:31.000Z</time>
                <name>Position 112</name>
            </trkpt>
            <trkpt lat="47.5957833" lon="12.202475">
                <ele>851.1</ele>
                <time>2018-07-14T11:06:57.000Z</time>
                <name>Position 113</name>
            </trkpt>
            <trkpt lat="47.5957" lon="12.2023567">
                <ele>853.0</ele>
                <time>2018-07-14T11:07:53.000Z</time>
                <name>Position 114</name>
            </trkpt>
            <trkpt lat="47.5956733" lon="12.202215">
                <ele>850.6</ele>
                <time>2018-07-14T11:08:15.000Z</time>
                <name>Position 115</name>
            </trkpt>
            <trkpt lat="47.59566" lon="12.20206">
                <ele>847.1</ele>
                <time>2018-07-14T11:08:27.000Z</time>
                <name>Position 116</name>
            </trkpt>
            <trkpt lat="47.595575" lon="12.2021333">
                <ele>837.1</ele>
                <time>2018-07-14T11:08:49.000Z</time>
                <name>Position 117</name>
            </trkpt>
            <trkpt lat="47.5954517" lon="12.2022367">
                <ele>833.4</ele>
                <time>2018-07-14T11:09:25.000Z</time>
                <name>Position 118</name>
            </trkpt>
            <trkpt lat="47.5953783" lon="12.20236">
                <ele>832.9</ele>
                <time>2018-07-14T11:09:33.000Z</time>
                <name>Position 119</name>
            </trkpt>
            <trkpt lat="47.5952867" lon="12.20246">
                <ele>831.9</ele>
                <time>2018-07-14T11:09:55.000Z</time>
                <name>Position 120</name>
            </trkpt>
            <trkpt lat="47.5952983" lon="12.202625">
                <ele>829.2</ele>
                <time>2018-07-14T11:10:07.000Z</time>
                <name>Position 121</name>
            </trkpt>
            <trkpt lat="47.5952333" lon="12.2027383">
                <ele>826.5</ele>
                <time>2018-07-14T11:10:19.000Z</time>
                <name>Position 122</name>
            </trkpt>
            <trkpt lat="47.5951833" lon="12.2028867">
                <ele>825.0</ele>
                <time>2018-07-14T11:10:29.000Z</time>
                <name>Position 123</name>
            </trkpt>
            <trkpt lat="47.5951467" lon="12.2030283">
                <ele>822.7</ele>
                <time>2018-07-14T11:10:45.000Z</time>
                <name>Position 124</name>
            </trkpt>
            <trkpt lat="47.59512" lon="12.203165">
                <ele>819.5</ele>
                <time>2018-07-14T11:11:01.000Z</time>
                <name>Position 125</name>
            </trkpt>
            <trkpt lat="47.59503" lon="12.2031667">
                <ele>820.3</ele>
                <time>2018-07-14T11:11:09.000Z</time>
                <name>Position 126</name>
            </trkpt>
            <trkpt lat="47.594925" lon="12.2031217">
                <ele>820.0</ele>
                <time>2018-07-14T11:11:19.000Z</time>
                <name>Position 127</name>
            </trkpt>
            <trkpt lat="47.5948183" lon="12.203125">
                <ele>819.8</ele>
                <time>2018-07-14T11:11:25.000Z</time>
                <name>Position 128</name>
            </trkpt>
            <trkpt lat="47.5947217" lon="12.2031717">
                <ele>819.5</ele>
                <time>2018-07-14T11:11:31.000Z</time>
                <name>Position 129</name>
            </trkpt>
            <trkpt lat="47.59469" lon="12.2033133">
                <ele>817.6</ele>
                <time>2018-07-14T11:11:47.000Z</time>
                <name>Position 130</name>
            </trkpt>
            <trkpt lat="47.5946083" lon="12.20338">
                <ele>814.9</ele>
                <time>2018-07-14T11:11:55.000Z</time>
                <name>Position 131</name>
            </trkpt>
            <trkpt lat="47.5945717" lon="12.2035033">
                <ele>808.8</ele>
                <time>2018-07-14T11:12:13.000Z</time>
                <name>Position 132</name>
            </trkpt>
            <trkpt lat="47.59448" lon="12.2035833">
                <ele>803.8</ele>
                <time>2018-07-14T11:12:31.000Z</time>
                <name>Position 133</name>
            </trkpt>
            <trkpt lat="47.594375" lon="12.2035967">
                <ele>800.8</ele>
                <time>2018-07-14T11:12:57.000Z</time>
                <name>Position 134</name>
            </trkpt>
            <trkpt lat="47.5942767" lon="12.2036317">
                <ele>796.7</ele>
                <time>2018-07-14T11:13:11.000Z</time>
                <name>Position 135</name>
            </trkpt>
            <trkpt lat="47.5942" lon="12.2037333">
                <ele>794.0</ele>
                <time>2018-07-14T11:13:23.000Z</time>
                <name>Position 136</name>
            </trkpt>
            <trkpt lat="47.5941133" lon="12.2038067">
                <ele>784.9</ele>
                <time>2018-07-14T11:13:43.000Z</time>
                <name>Position 137</name>
            </trkpt>
            <trkpt lat="47.59402" lon="12.2038333">
                <ele>778.6</ele>
                <time>2018-07-14T11:13:59.000Z</time>
                <name>Position 138</name>
            </trkpt>
            <trkpt lat="47.59393" lon="12.2038733">
                <ele>775.9</ele>
                <time>2018-07-14T11:14:11.000Z</time>
                <name>Position 139</name>
            </trkpt>
            <trkpt lat="47.5938417" lon="12.2039183">
                <ele>773.1</ele>
                <time>2018-07-14T11:14:23.000Z</time>
                <name>Position 140</name>
            </trkpt>
            <trkpt lat="47.5937917" lon="12.2040367">
                <ele>770.3</ele>
                <time>2018-07-14T11:14:33.000Z</time>
                <name>Position 141</name>
            </trkpt>
            <trkpt lat="47.59372" lon="12.2041233">
                <ele>766.6</ele>
                <time>2018-07-14T11:14:47.000Z</time>
                <name>Position 142</name>
            </trkpt>
            <trkpt lat="47.59368" lon="12.204265">
                <ele>762.3</ele>
                <time>2018-07-14T11:15:01.000Z</time>
                <name>Position 143</name>
            </trkpt>
            <trkpt lat="47.5936967" lon="12.204425">
                <ele>754.7</ele>
                <time>2018-07-14T11:15:09.000Z</time>
                <name>Position 144</name>
            </trkpt>
            <trkpt lat="47.59369" lon="12.2045783">
                <ele>752.3</ele>
                <time>2018-07-14T11:15:17.000Z</time>
                <name>Position 145</name>
            </trkpt>
            <trkpt lat="47.5936517" lon="12.2047033">
                <ele>749.8</ele>
                <time>2018-07-14T11:15:25.000Z</time>
                <name>Position 146</name>
            </trkpt>
            <trkpt lat="47.5935783" lon="12.2047833">
                <ele>747.7</ele>
                <time>2018-07-14T11:15:35.000Z</time>
                <name>Position 147</name>
            </trkpt>
            <trkpt lat="47.593475" lon="12.2048383">
                <ele>740.1</ele>
                <time>2018-07-14T11:15:47.000Z</time>
                <name>Position 148</name>
            </trkpt>
            <trkpt lat="47.5934717" lon="12.204685">
                <ele>731.2</ele>
                <time>2018-07-14T11:16:07.000Z</time>
                <name>Position 149</name>
            </trkpt>
            <trkpt lat="47.5934817" lon="12.2045383">
                <ele>728.4</ele>
                <time>2018-07-14T11:16:17.000Z</time>
                <name>Position 150</name>
            </trkpt>
            <trkpt lat="47.5934933" lon="12.2043683">
                <ele>726.3</ele>
                <time>2018-07-14T11:16:25.000Z</time>
                <name>Position 151</name>
            </trkpt>
            <trkpt lat="47.5934883" lon="12.20421">
                <ele>723.7</ele>
                <time>2018-07-14T11:16:33.000Z</time>
                <name>Position 152</name>
            </trkpt>
            <trkpt lat="47.5934683" lon="12.20407">
                <ele>721.9</ele>
                <time>2018-07-14T11:16:41.000Z</time>
                <name>Position 153</name>
            </trkpt>
            <trkpt lat="47.5934417" lon="12.2039317">
                <ele>720.3</ele>
                <time>2018-07-14T11:16:49.000Z</time>
                <name>Position 154</name>
            </trkpt>
            <trkpt lat="47.593405" lon="12.2038033">
                <ele>720.4</ele>
                <time>2018-07-14T11:16:57.000Z</time>
                <name>Position 155</name>
            </trkpt>
            <trkpt lat="47.5933867" lon="12.20364">
                <ele>720.1</ele>
                <time>2018-07-14T11:17:05.000Z</time>
                <name>Position 156</name>
            </trkpt>
            <trkpt lat="47.5933717" lon="12.203495">
                <ele>718.9</ele>
                <time>2018-07-14T11:17:13.000Z</time>
                <name>Position 157</name>
            </trkpt>
            <trkpt lat="47.5933467" lon="12.2033633">
                <ele>718.1</ele>
                <time>2018-07-14T11:17:21.000Z</time>
                <name>Position 158</name>
            </trkpt>
            <trkpt lat="47.593325" lon="12.2032283">
                <ele>718.5</ele>
                <time>2018-07-14T11:17:31.000Z</time>
                <name>Position 159</name>
            </trkpt>
            <trkpt lat="47.5932967" lon="12.2030817">
                <ele>721.6</ele>
                <time>2018-07-14T11:17:43.000Z</time>
                <name>Position 160</name>
            </trkpt>
            <trkpt lat="47.5932683" lon="12.20293">
                <ele>720.6</ele>
                <time>2018-07-14T11:17:53.000Z</time>
                <name>Position 161</name>
            </trkpt>
            <trkpt lat="47.5932117" lon="12.2027883">
                <ele>722.7</ele>
                <time>2018-07-14T11:18:03.000Z</time>
                <name>Position 162</name>
            </trkpt>
            <trkpt lat="47.5931933" lon="12.2026533">
                <ele>722.6</ele>
                <time>2018-07-14T11:18:13.000Z</time>
                <name>Position 163</name>
            </trkpt>
            <trkpt lat="47.5932017" lon="12.2025183">
                <ele>722.2</ele>
                <time>2018-07-14T11:18:21.000Z</time>
                <name>Position 164</name>
            </trkpt>
            <trkpt lat="47.5932483" lon="12.202375">
                <ele>722.4</ele>
                <time>2018-07-14T11:18:29.000Z</time>
                <name>Position 165</name>
            </trkpt>
            <trkpt lat="47.593315" lon="12.2022317">
                <ele>722.9</ele>
                <time>2018-07-14T11:18:37.000Z</time>
                <name>Position 166</name>
            </trkpt>
            <trkpt lat="47.593375" lon="12.2020917">
                <ele>722.4</ele>
                <time>2018-07-14T11:18:45.000Z</time>
                <name>Position 167</name>
            </trkpt>
            <trkpt lat="47.5933717" lon="12.2019433">
                <ele>722.6</ele>
                <time>2018-07-14T11:18:55.000Z</time>
                <name>Position 168</name>
            </trkpt>
            <trkpt lat="47.593375" lon="12.201775">
                <ele>723.0</ele>
                <time>2018-07-14T11:19:03.000Z</time>
                <name>Position 169</name>
            </trkpt>
            <trkpt lat="47.5934483" lon="12.2016467">
                <ele>721.8</ele>
                <time>2018-07-14T11:19:11.000Z</time>
                <name>Position 170</name>
            </trkpt>
            <trkpt lat="47.59352" lon="12.2015517">
                <ele>721.6</ele>
                <time>2018-07-14T11:19:17.000Z</time>
                <name>Position 171</name>
            </trkpt>
            <trkpt lat="47.593595" lon="12.201465">
                <ele>721.5</ele>
                <time>2018-07-14T11:19:25.000Z</time>
                <name>Position 172</name>
            </trkpt>
            <trkpt lat="47.593675" lon="12.201365">
                <ele>718.1</ele>
                <time>2018-07-14T11:19:37.000Z</time>
                <name>Position 173</name>
            </trkpt>
            <trkpt lat="47.593685" lon="12.2012117">
                <ele>716.2</ele>
                <time>2018-07-14T11:19:47.000Z</time>
                <name>Position 174</name>
            </trkpt>
            <trkpt lat="47.5937033" lon="12.2010283">
                <ele>714.0</ele>
                <time>2018-07-14T11:19:55.000Z</time>
                <name>Position 175</name>
            </trkpt>
            <trkpt lat="47.5937033" lon="12.2008467">
                <ele>711.8</ele>
                <time>2018-07-14T11:20:01.000Z</time>
                <name>Position 176</name>
            </trkpt>
            <trkpt lat="47.5937167" lon="12.20068">
                <ele>707.1</ele>
                <time>2018-07-14T11:20:09.000Z</time>
                <name>Position 177</name>
            </trkpt>
            <trkpt lat="47.593715" lon="12.2005167">
                <ele>692.7</ele>
                <time>2018-07-14T11:20:19.000Z</time>
                <name>Position 178</name>
            </trkpt>
            <trkpt lat="47.5936867" lon="12.2003667">
                <ele>687.9</ele>
                <time>2018-07-14T11:20:27.000Z</time>
                <name>Position 179</name>
            </trkpt>
            <trkpt lat="47.593645" lon="12.2002217">
                <ele>687.6</ele>
                <time>2018-07-14T11:20:39.000Z</time>
                <name>Position 180</name>
            </trkpt>
            <trkpt lat="47.59362" lon="12.200065">
                <ele>689.2</ele>
                <time>2018-07-14T11:20:49.000Z</time>
                <name>Position 181</name>
            </trkpt>
            <trkpt lat="47.593585" lon="12.1999383">
                <ele>692.5</ele>
                <time>2018-07-14T11:20:57.000Z</time>
                <name>Position 182</name>
            </trkpt>
            <trkpt lat="47.593585" lon="12.1998">
                <ele>693.9</ele>
                <time>2018-07-14T11:21:05.000Z</time>
                <name>Position 183</name>
            </trkpt>
            <trkpt lat="47.5935983" lon="12.1996633">
                <ele>693.6</ele>
                <time>2018-07-14T11:21:13.000Z</time>
                <name>Position 184</name>
            </trkpt>
            <trkpt lat="47.5936367" lon="12.1995333">
                <ele>692.4</ele>
                <time>2018-07-14T11:21:21.000Z</time>
                <name>Position 185</name>
            </trkpt>
            <trkpt lat="47.5936083" lon="12.1994067">
                <ele>692.0</ele>
                <time>2018-07-14T11:21:29.000Z</time>
                <name>Position 186</name>
            </trkpt>
            <trkpt lat="47.59358" lon="12.199265">
                <ele>691.0</ele>
                <time>2018-07-14T11:21:37.000Z</time>
                <name>Position 187</name>
            </trkpt>
            <trkpt lat="47.5935383" lon="12.199135">
                <ele>690.3</ele>
                <time>2018-07-14T11:21:45.000Z</time>
                <name>Position 188</name>
            </trkpt>
            <trkpt lat="47.5935" lon="12.19901">
                <ele>690.3</ele>
                <time>2018-07-14T11:21:55.000Z</time>
                <name>Position 189</name>
            </trkpt>
            <trkpt lat="47.5935017" lon="12.1988567">
                <ele>687.4</ele>
                <time>2018-07-14T11:22:03.000Z</time>
                <name>Position 190</name>
            </trkpt>
            <trkpt lat="47.5934917" lon="12.1987083">
                <ele>683.6</ele>
                <time>2018-07-14T11:22:11.000Z</time>
                <name>Position 191</name>
            </trkpt>
            <trkpt lat="47.593485" lon="12.1985367">
                <ele>677.0</ele>
                <time>2018-07-14T11:22:19.000Z</time>
                <name>Position 192</name>
            </trkpt>
            <trkpt lat="47.5934583" lon="12.1983967">
                <ele>671.0</ele>
                <time>2018-07-14T11:22:27.000Z</time>
                <name>Position 193</name>
            </trkpt>
            <trkpt lat="47.593415" lon="12.1982733">
                <ele>666.4</ele>
                <time>2018-07-14T11:22:35.000Z</time>
                <name>Position 194</name>
            </trkpt>
            <trkpt lat="47.5933717" lon="12.19815">
                <ele>665.0</ele>
                <time>2018-07-14T11:22:45.000Z</time>
                <name>Position 195</name>
            </trkpt>
            <trkpt lat="47.5933217" lon="12.198015">
                <ele>666.0</ele>
                <time>2018-07-14T11:22:55.000Z</time>
                <name>Position 196</name>
            </trkpt>
            <trkpt lat="47.5932733" lon="12.197895">
                <ele>665.8</ele>
                <time>2018-07-14T11:23:05.000Z</time>
                <name>Position 197</name>
            </trkpt>
            <trkpt lat="47.5932217" lon="12.1977583">
                <ele>665.6</ele>
                <time>2018-07-14T11:23:17.000Z</time>
                <name>Position 198</name>
            </trkpt>
            <trkpt lat="47.5931767" lon="12.1976183">
                <ele>665.4</ele>
                <time>2018-07-14T11:23:29.000Z</time>
                <name>Position 199</name>
            </trkpt>
            <trkpt lat="47.59316" lon="12.1974817">
                <ele>665.1</ele>
                <time>2018-07-14T11:23:39.000Z</time>
                <name>Position 200</name>
            </trkpt>
            <trkpt lat="47.5931383" lon="12.1973167">
                <ele>669.0</ele>
                <time>2018-07-14T11:24:05.000Z</time>
                <name>Position 201</name>
            </trkpt>
            <trkpt lat="47.5931033" lon="12.1971667">
                <ele>668.0</ele>
                <time>2018-07-14T11:24:13.000Z</time>
                <name>Position 202</name>
            </trkpt>
            <trkpt lat="47.593095" lon="12.1970017">
                <ele>666.1</ele>
                <time>2018-07-14T11:24:21.000Z</time>
                <name>Position 203</name>
            </trkpt>
            <trkpt lat="47.5930333" lon="12.196895">
                <ele>663.6</ele>
                <time>2018-07-14T11:24:29.000Z</time>
                <name>Position 204</name>
            </trkpt>
            <trkpt lat="47.5929617" lon="12.1967833">
                <ele>662.5</ele>
                <time>2018-07-14T11:24:37.000Z</time>
                <name>Position 205</name>
            </trkpt>
            <trkpt lat="47.59291" lon="12.1966617">
                <ele>663.4</ele>
                <time>2018-07-14T11:24:45.000Z</time>
                <name>Position 206</name>
            </trkpt>
            <trkpt lat="47.5929333" lon="12.196515">
                <ele>663.0</ele>
                <time>2018-07-14T11:24:55.000Z</time>
                <name>Position 207</name>
            </trkpt>
            <trkpt lat="47.593005" lon="12.196395">
                <ele>663.0</ele>
                <time>2018-07-14T11:25:03.000Z</time>
                <name>Position 208</name>
            </trkpt>
            <trkpt lat="47.593045" lon="12.19625">
                <ele>663.3</ele>
                <time>2018-07-14T11:25:11.000Z</time>
                <name>Position 209</name>
            </trkpt>
            <trkpt lat="47.5930583" lon="12.196115">
                <ele>664.3</ele>
                <time>2018-07-14T11:25:21.000Z</time>
                <name>Position 210</name>
            </trkpt>
            <trkpt lat="47.5930483" lon="12.1959533">
                <ele>665.0</ele>
                <time>2018-07-14T11:25:29.000Z</time>
                <name>Position 211</name>
            </trkpt>
            <trkpt lat="47.593035" lon="12.195805">
                <ele>665.0</ele>
                <time>2018-07-14T11:25:37.000Z</time>
                <name>Position 212</name>
            </trkpt>
            <trkpt lat="47.59305" lon="12.1956433">
                <ele>665.6</ele>
                <time>2018-07-14T11:25:43.000Z</time>
                <name>Position 213</name>
            </trkpt>
            <trkpt lat="47.59308" lon="12.1954883">
                <ele>666.6</ele>
                <time>2018-07-14T11:25:51.000Z</time>
                <name>Position 214</name>
            </trkpt>
            <trkpt lat="47.5930917" lon="12.1953417">
                <ele>667.4</ele>
                <time>2018-07-14T11:26:01.000Z</time>
                <name>Position 215</name>
            </trkpt>
            <trkpt lat="47.5931283" lon="12.1951783">
                <ele>667.8</ele>
                <time>2018-07-14T11:26:11.000Z</time>
                <name>Position 216</name>
            </trkpt>
            <trkpt lat="47.593165" lon="12.1950467">
                <ele>667.3</ele>
                <time>2018-07-14T11:26:17.000Z</time>
                <name>Position 217</name>
            </trkpt>
            <trkpt lat="47.5932217" lon="12.1949333">
                <ele>666.8</ele>
                <time>2018-07-14T11:26:23.000Z</time>
                <name>Position 218</name>
            </trkpt>
            <trkpt lat="47.5933033" lon="12.1948567">
                <ele>666.5</ele>
                <time>2018-07-14T11:26:31.000Z</time>
                <name>Position 219</name>
            </trkpt>
            <trkpt lat="47.5933383" lon="12.1947117">
                <ele>667.1</ele>
                <time>2018-07-14T11:26:47.000Z</time>
                <name>Position 220</name>
            </trkpt>
            <trkpt lat="47.5933333" lon="12.1945767">
                <ele>668.2</ele>
                <time>2018-07-14T11:26:53.000Z</time>
                <name>Position 221</name>
            </trkpt>
            <trkpt lat="47.5933883" lon="12.1944317">
                <ele>668.3</ele>
                <time>2018-07-14T11:27:01.000Z</time>
                <name>Position 222</name>
            </trkpt>
            <trkpt lat="47.593445" lon="12.1943117">
                <ele>667.6</ele>
                <time>2018-07-14T11:27:09.000Z</time>
                <name>Position 223</name>
            </trkpt>
            <trkpt lat="47.5934667" lon="12.1941783">
                <ele>666.6</ele>
                <time>2018-07-14T11:27:19.000Z</time>
                <name>Position 224</name>
            </trkpt>
            <trkpt lat="47.5934667" lon="12.19403">
                <ele>665.4</ele>
                <time>2018-07-14T11:27:27.000Z</time>
                <name>Position 225</name>
            </trkpt>
            <trkpt lat="47.5934383" lon="12.1938783">
                <ele>664.7</ele>
                <time>2018-07-14T11:27:35.000Z</time>
                <name>Position 226</name>
            </trkpt>
            <trkpt lat="47.5934367" lon="12.1937383">
                <ele>663.4</ele>
                <time>2018-07-14T11:27:41.000Z</time>
                <name>Position 227</name>
            </trkpt>
            <trkpt lat="47.593445" lon="12.1935917">
                <ele>662.0</ele>
                <time>2018-07-14T11:27:51.000Z</time>
                <name>Position 228</name>
            </trkpt>
            <trkpt lat="47.5935033" lon="12.1934583">
                <ele>660.3</ele>
                <time>2018-07-14T11:28:05.000Z</time>
                <name>Position 229</name>
            </trkpt>
            <trkpt lat="47.59349" lon="12.1933217">
                <ele>659.1</ele>
                <time>2018-07-14T11:28:15.000Z</time>
                <name>Position 230</name>
            </trkpt>
            <trkpt lat="47.5934683" lon="12.1931767">
                <ele>657.4</ele>
                <time>2018-07-14T11:28:29.000Z</time>
                <name>Position 231</name>
            </trkpt>
            <trkpt lat="47.59345" lon="12.19304">
                <ele>656.6</ele>
                <time>2018-07-14T11:28:39.000Z</time>
                <name>Position 232</name>
            </trkpt>
            <trkpt lat="47.5934367" lon="12.1928533">
                <ele>655.4</ele>
                <time>2018-07-14T11:28:47.000Z</time>
                <name>Position 233</name>
            </trkpt>
            <trkpt lat="47.593435" lon="12.192705">
                <ele>653.3</ele>
                <time>2018-07-14T11:28:55.000Z</time>
                <name>Position 234</name>
            </trkpt>
            <trkpt lat="47.593465" lon="12.19256">
                <ele>647.8</ele>
                <time>2018-07-14T11:29:09.000Z</time>
                <name>Position 235</name>
            </trkpt>
            <trkpt lat="47.5934517" lon="12.1924083">
                <ele>643.8</ele>
                <time>2018-07-14T11:29:19.000Z</time>
                <name>Position 236</name>
            </trkpt>
            <trkpt lat="47.5933967" lon="12.1922567">
                <ele>641.3</ele>
                <time>2018-07-14T11:29:31.000Z</time>
                <name>Position 237</name>
            </trkpt>
            <trkpt lat="47.5933733" lon="12.1921083">
                <ele>638.8</ele>
                <time>2018-07-14T11:29:39.000Z</time>
                <name>Position 238</name>
            </trkpt>
            <trkpt lat="47.5933533" lon="12.1919683">
                <ele>636.1</ele>
                <time>2018-07-14T11:29:47.000Z</time>
                <name>Position 239</name>
            </trkpt>
            <trkpt lat="47.59338" lon="12.1918217">
                <ele>633.9</ele>
                <time>2018-07-14T11:29:57.000Z</time>
                <name>Position 240</name>
            </trkpt>
            <trkpt lat="47.5933833" lon="12.1916733">
                <ele>631.4</ele>
                <time>2018-07-14T11:30:07.000Z</time>
                <name>Position 241</name>
            </trkpt>
            <trkpt lat="47.5933683" lon="12.1915233">
                <ele>630.4</ele>
                <time>2018-07-14T11:30:17.000Z</time>
                <name>Position 242</name>
            </trkpt>
            <trkpt lat="47.5934067" lon="12.191355">
                <ele>629.5</ele>
                <time>2018-07-14T11:30:23.000Z</time>
                <name>Position 243</name>
            </trkpt>
            <trkpt lat="47.5934467" lon="12.1912333">
                <ele>627.7</ele>
                <time>2018-07-14T11:30:33.000Z</time>
                <name>Position 244</name>
            </trkpt>
            <trkpt lat="47.5934067" lon="12.1910933">
                <ele>626.1</ele>
                <time>2018-07-14T11:30:41.000Z</time>
                <name>Position 245</name>
            </trkpt>
            <trkpt lat="47.593375" lon="12.1909267">
                <ele>621.5</ele>
                <time>2018-07-14T11:30:47.000Z</time>
                <name>Position 246</name>
            </trkpt>
            <trkpt lat="47.5933733" lon="12.1907917">
                <ele>619.6</ele>
                <time>2018-07-14T11:30:53.000Z</time>
                <name>Position 247</name>
            </trkpt>
            <trkpt lat="47.5934333" lon="12.19066">
                <ele>618.9</ele>
                <time>2018-07-14T11:31:01.000Z</time>
                <name>Position 248</name>
            </trkpt>
            <trkpt lat="47.593485" lon="12.1905417">
                <ele>618.8</ele>
                <time>2018-07-14T11:31:09.000Z</time>
                <name>Position 249</name>
            </trkpt>
            <trkpt lat="47.5935783" lon="12.1905117">
                <ele>617.5</ele>
                <time>2018-07-14T11:31:17.000Z</time>
                <name>Position 250</name>
            </trkpt>
            <trkpt lat="47.5936783" lon="12.1904933">
                <ele>613.4</ele>
                <time>2018-07-14T11:31:27.000Z</time>
                <name>Position 251</name>
            </trkpt>
            <trkpt lat="47.5937717" lon="12.1904433">
                <ele>609.2</ele>
                <time>2018-07-14T11:31:41.000Z</time>
                <name>Position 252</name>
            </trkpt>
            <trkpt lat="47.59387" lon="12.1904567">
                <ele>605.4</ele>
                <time>2018-07-14T11:31:51.000Z</time>
                <name>Position 253</name>
            </trkpt>
            <trkpt lat="47.5939467" lon="12.1903833">
                <ele>600.4</ele>
                <time>2018-07-14T11:32:13.000Z</time>
                <name>Position 254</name>
            </trkpt>
            <trkpt lat="47.594035" lon="12.1904483">
                <ele>597.7</ele>
                <time>2018-07-14T11:32:29.000Z</time>
                <name>Position 255</name>
            </trkpt>
            <trkpt lat="47.59411" lon="12.1905317">
                <ele>596.9</ele>
                <time>2018-07-14T11:32:45.000Z</time>
                <name>Position 256</name>
            </trkpt>
            <trkpt lat="47.5941667" lon="12.1904267">
                <ele>593.1</ele>
                <time>2018-07-14T11:33:03.000Z</time>
                <name>Position 257</name>
            </trkpt>
            <trkpt lat="47.5940783" lon="12.19032">
                <ele>590.8</ele>
                <time>2018-07-14T11:33:23.000Z</time>
                <name>Position 258</name>
            </trkpt>
            <trkpt lat="47.5940317" lon="12.19019">
                <ele>587.1</ele>
                <time>2018-07-14T11:33:35.000Z</time>
                <name>Position 259</name>
            </trkpt>
            <trkpt lat="47.593995" lon="12.1900517">
                <ele>583.1</ele>
                <time>2018-07-14T11:33:53.000Z</time>
                <name>Position 260</name>
            </trkpt>
            <trkpt lat="47.5939567" lon="12.189925">
                <ele>580.8</ele>
                <time>2018-07-14T11:34:05.000Z</time>
                <name>Position 261</name>
            </trkpt>
            <trkpt lat="47.5938683" lon="12.1898567">
                <ele>577.1</ele>
                <time>2018-07-14T11:34:17.000Z</time>
                <name>Position 262</name>
            </trkpt>
            <trkpt lat="47.5937783" lon="12.189825">
                <ele>573.7</ele>
                <time>2018-07-14T11:34:29.000Z</time>
                <name>Position 263</name>
            </trkpt>
            <trkpt lat="47.593735" lon="12.1896967">
                <ele>561.7</ele>
                <time>2018-07-14T11:35:05.000Z</time>
                <name>Position 264</name>
            </trkpt>
            <trkpt lat="47.5936633" lon="12.18961">
                <ele>555.3</ele>
                <time>2018-07-14T11:35:21.000Z</time>
                <name>Position 265</name>
            </trkpt>
            <trkpt lat="47.5935683" lon="12.1895467">
                <ele>555.9</ele>
                <time>2018-07-14T11:35:35.000Z</time>
                <name>Position 266</name>
            </trkpt>
            <trkpt lat="47.59347" lon="12.189535">
                <ele>556.1</ele>
                <time>2018-07-14T11:35:45.000Z</time>
                <name>Position 267</name>
            </trkpt>
            <trkpt lat="47.5934167" lon="12.189645">
                <ele>552.5</ele>
                <time>2018-07-14T11:35:55.000Z</time>
                <name>Position 268</name>
            </trkpt>
            <trkpt lat="47.5934517" lon="12.1895167">
                <ele>550.1</ele>
                <time>2018-07-14T11:36:21.000Z</time>
                <name>Position 269</name>
            </trkpt>
            <trkpt lat="47.593495" lon="12.1893883">
                <ele>548.7</ele>
                <time>2018-07-14T11:36:33.000Z</time>
                <name>Position 270</name>
            </trkpt>
            <trkpt lat="47.5935733" lon="12.18928">
                <ele>547.0</ele>
                <time>2018-07-14T11:36:43.000Z</time>
                <name>Position 271</name>
            </trkpt>
            <trkpt lat="47.5935717" lon="12.18914">
                <ele>543.9</ele>
                <time>2018-07-14T11:36:55.000Z</time>
                <name>Position 272</name>
            </trkpt>
            <trkpt lat="47.59363" lon="12.189035">
                <ele>541.1</ele>
                <time>2018-07-14T11:37:07.000Z</time>
                <name>Position 273</name>
            </trkpt>
            <trkpt lat="47.5936817" lon="12.188925">
                <ele>538.8</ele>
                <time>2018-07-14T11:37:15.000Z</time>
                <name>Position 274</name>
            </trkpt>
            <trkpt lat="47.5937817" lon="12.1889033">
                <ele>535.9</ele>
                <time>2018-07-14T11:37:27.000Z</time>
                <name>Position 275</name>
            </trkpt>
            <trkpt lat="47.5938817" lon="12.18894">
                <ele>532.1</ele>
                <time>2018-07-14T11:37:47.000Z</time>
                <name>Position 276</name>
            </trkpt>
            <trkpt lat="47.5939767" lon="12.1890333">
                <ele>530.8</ele>
                <time>2018-07-14T11:37:59.000Z</time>
                <name>Position 277</name>
            </trkpt>
            <trkpt lat="47.59406" lon="12.189155">
                <ele>530.3</ele>
                <time>2018-07-14T11:38:11.000Z</time>
                <name>Position 278</name>
            </trkpt>
            <trkpt lat="47.594155" lon="12.18922">
                <ele>528.6</ele>
                <time>2018-07-14T11:38:23.000Z</time>
                <name>Position 279</name>
            </trkpt>
            <trkpt lat="47.5942417" lon="12.189295">
                <ele>527.2</ele>
                <time>2018-07-14T11:38:31.000Z</time>
                <name>Position 280</name>
            </trkpt>
            <trkpt lat="47.5943083" lon="12.1894117">
                <ele>527.5</ele>
                <time>2018-07-14T11:38:41.000Z</time>
                <name>Position 281</name>
            </trkpt>
            <trkpt lat="47.5943917" lon="12.189495">
                <ele>526.7</ele>
                <time>2018-07-14T11:38:59.000Z</time>
                <name>Position 282</name>
            </trkpt>
            <trkpt lat="47.5944583" lon="12.1895867">
                <ele>527.6</ele>
                <time>2018-07-14T11:39:07.000Z</time>
                <name>Position 283</name>
            </trkpt>
            <trkpt lat="47.594505" lon="12.1897083">
                <ele>528.9</ele>
                <time>2018-07-14T11:39:13.000Z</time>
                <name>Position 284</name>
            </trkpt>
            <trkpt lat="47.5945383" lon="12.1898683">
                <ele>529.9</ele>
                <time>2018-07-14T11:39:21.000Z</time>
                <name>Position 285</name>
            </trkpt>
            <trkpt lat="47.5946133" lon="12.1899633">
                <ele>529.9</ele>
                <time>2018-07-14T11:39:27.000Z</time>
                <name>Position 286</name>
            </trkpt>
            <trkpt lat="47.5946733" lon="12.1900933">
                <ele>530.2</ele>
                <time>2018-07-14T11:39:35.000Z</time>
                <name>Position 287</name>
            </trkpt>
            <trkpt lat="47.59474" lon="12.1902133">
                <ele>531.1</ele>
                <time>2018-07-14T11:39:43.000Z</time>
                <name>Position 288</name>
            </trkpt>
            <trkpt lat="47.594795" lon="12.190325">
                <ele>532.1</ele>
                <time>2018-07-14T11:39:49.000Z</time>
                <name>Position 289</name>
            </trkpt>
            <trkpt lat="47.5948433" lon="12.1905083">
                <ele>532.9</ele>
                <time>2018-07-14T11:39:55.000Z</time>
                <name>Position 290</name>
            </trkpt>
            <trkpt lat="47.59485" lon="12.1906967">
                <ele>533.6</ele>
                <time>2018-07-14T11:40:01.000Z</time>
                <name>Position 291</name>
            </trkpt>
            <trkpt lat="47.5949417" lon="12.1906883">
                <ele>535.8</ele>
                <time>2018-07-14T11:40:17.000Z</time>
                <name>Position 292</name>
            </trkpt>
            <trkpt lat="47.5950183" lon="12.1907933">
                <ele>536.3</ele>
                <time>2018-07-14T11:40:29.000Z</time>
                <name>Position 293</name>
            </trkpt>
            <trkpt lat="47.5951017" lon="12.19095">
                <ele>536.3</ele>
                <time>2018-07-14T11:40:37.000Z</time>
                <name>Position 294</name>
            </trkpt>
            <trkpt lat="47.5951517" lon="12.19111">
                <ele>535.3</ele>
                <time>2018-07-14T11:40:43.000Z</time>
                <name>Position 295</name>
            </trkpt>
            <trkpt lat="47.5951967" lon="12.19125">
                <ele>534.4</ele>
                <time>2018-07-14T11:40:53.000Z</time>
                <name>Position 296</name>
            </trkpt>
            <trkpt lat="47.5952517" lon="12.1913783">
                <ele>533.5</ele>
                <time>2018-07-14T11:41:03.000Z</time>
                <name>Position 297</name>
            </trkpt>
            <trkpt lat="47.595335" lon="12.1915433">
                <ele>533.3</ele>
                <time>2018-07-14T11:41:11.000Z</time>
                <name>Position 298</name>
            </trkpt>
            <trkpt lat="47.59539" lon="12.19165">
                <ele>532.7</ele>
                <time>2018-07-14T11:41:17.000Z</time>
                <name>Position 299</name>
            </trkpt>
            <trkpt lat="47.59548" lon="12.191725">
                <ele>532.3</ele>
                <time>2018-07-14T11:41:23.000Z</time>
                <name>Position 300</name>
            </trkpt>
            <trkpt lat="47.5955817" lon="12.1917283">
                <ele>532.0</ele>
                <time>2018-07-14T11:41:37.000Z</time>
                <name>Position 301</name>
            </trkpt>
            <trkpt lat="47.5956567" lon="12.1918117">
                <ele>532.0</ele>
                <time>2018-07-14T11:41:43.000Z</time>
                <name>Position 302</name>
            </trkpt>
            <trkpt lat="47.5957233" lon="12.1919333">
                <ele>529.8</ele>
                <time>2018-07-14T11:42:03.000Z</time>
                <name>Position 303</name>
            </trkpt>
            <trkpt lat="47.5958133" lon="12.1919883">
                <ele>528.4</ele>
                <time>2018-07-14T11:42:15.000Z</time>
                <name>Position 304</name>
            </trkpt>
            <trkpt lat="47.5958933" lon="12.1920767">
                <ele>527.8</ele>
                <time>2018-07-14T11:42:25.000Z</time>
                <name>Position 305</name>
            </trkpt>
            <trkpt lat="47.595915" lon="12.1922233">
                <ele>526.8</ele>
                <time>2018-07-14T11:42:35.000Z</time>
                <name>Position 306</name>
            </trkpt>
            <trkpt lat="47.5959483" lon="12.1923533">
                <ele>525.3</ele>
                <time>2018-07-14T11:42:43.000Z</time>
                <name>Position 307</name>
            </trkpt>
            <trkpt lat="47.5959983" lon="12.1925">
                <ele>523.5</ele>
                <time>2018-07-14T11:42:53.000Z</time>
                <name>Position 308</name>
            </trkpt>
            <trkpt lat="47.5960533" lon="12.1926217">
                <ele>520.0</ele>
                <time>2018-07-14T11:43:09.000Z</time>
                <name>Position 309</name>
            </trkpt>
            <trkpt lat="47.5960633" lon="12.19278">
                <ele>517.1</ele>
                <time>2018-07-14T11:43:21.000Z</time>
                <name>Position 310</name>
            </trkpt>
            <trkpt lat="47.5961267" lon="12.1928767">
                <ele>514.0</ele>
                <time>2018-07-14T11:43:33.000Z</time>
                <name>Position 311</name>
            </trkpt>
            <trkpt lat="47.5962217" lon="12.1929">
                <ele>511.8</ele>
                <time>2018-07-14T11:43:41.000Z</time>
                <name>Position 312</name>
            </trkpt>
            <trkpt lat="47.5961867" lon="12.193025">
                <ele>508.9</ele>
                <time>2018-07-14T11:43:53.000Z</time>
                <name>Position 313</name>
            </trkpt>
            <trkpt lat="47.596275" lon="12.19312">
                <ele>507.8</ele>
                <time>2018-07-14T11:44:07.000Z</time>
                <name>Position 314</name>
            </trkpt>
            <trkpt lat="47.5963683" lon="12.193205">
                <ele>507.8</ele>
                <time>2018-07-14T11:44:17.000Z</time>
                <name>Position 315</name>
            </trkpt>
            <trkpt lat="47.59643" lon="12.1933217">
                <ele>505.9</ele>
                <time>2018-07-14T11:44:27.000Z</time>
                <name>Position 316</name>
            </trkpt>
            <trkpt lat="47.59652" lon="12.19341">
                <ele>504.9</ele>
                <time>2018-07-14T11:44:35.000Z</time>
                <name>Position 317</name>
            </trkpt>
            <trkpt lat="47.5966133" lon="12.1934833">
                <ele>503.8</ele>
                <time>2018-07-14T11:44:43.000Z</time>
                <name>Position 318</name>
            </trkpt>
            <trkpt lat="47.5967083" lon="12.1935433">
                <ele>500.5</ele>
                <time>2018-07-14T11:44:47.000Z</time>
                <name>Position 319</name>
            </trkpt>
            <trkpt lat="47.59681" lon="12.1935967">
                <ele>497.7</ele>
                <time>2018-07-14T11:44:55.000Z</time>
                <name>Position 320</name>
            </trkpt>
            <trkpt lat="47.596905" lon="12.193605">
                <ele>496.9</ele>
                <time>2018-07-14T11:45:07.000Z</time>
                <name>Position 321</name>
            </trkpt>
            <trkpt lat="47.5969967" lon="12.1935733">
                <ele>497.5</ele>
                <time>2018-07-14T11:45:17.000Z</time>
                <name>Position 322</name>
            </trkpt>
            <trkpt lat="47.5970983" lon="12.19364">
                <ele>498.7</ele>
                <time>2018-07-14T11:45:27.000Z</time>
                <name>Position 323</name>
            </trkpt>
            <trkpt lat="47.597175" lon="12.1937617">
                <ele>498.8</ele>
                <time>2018-07-14T11:45:33.000Z</time>
                <name>Position 324</name>
            </trkpt>
            <trkpt lat="47.5972583" lon="12.1938617">
                <ele>499.0</ele>
                <time>2018-07-14T11:45:39.000Z</time>
                <name>Position 325</name>
            </trkpt>
            <trkpt lat="47.597345" lon="12.19396">
                <ele>500.2</ele>
                <time>2018-07-14T11:45:49.000Z</time>
                <name>Position 326</name>
            </trkpt>
            <trkpt lat="47.5974283" lon="12.194045">
                <ele>501.7</ele>
                <time>2018-07-14T11:45:57.000Z</time>
                <name>Position 327</name>
            </trkpt>
            <trkpt lat="47.5974883" lon="12.194145">
                <ele>501.5</ele>
                <time>2018-07-14T11:46:03.000Z</time>
                <name>Position 328</name>
            </trkpt>
            <trkpt lat="47.5975633" lon="12.1942517">
                <ele>501.8</ele>
                <time>2018-07-14T11:46:11.000Z</time>
                <name>Position 329</name>
            </trkpt>
            <trkpt lat="47.5976183" lon="12.1943733">
                <ele>501.8</ele>
                <time>2018-07-14T11:46:19.000Z</time>
                <name>Position 330</name>
            </trkpt>
            <trkpt lat="47.5977067" lon="12.194475">
                <ele>503.1</ele>
                <time>2018-07-14T11:46:27.000Z</time>
                <name>Position 331</name>
            </trkpt>
            <trkpt lat="47.597805" lon="12.1944767">
                <ele>503.2</ele>
                <time>2018-07-14T11:46:37.000Z</time>
                <name>Position 332</name>
            </trkpt>
            <trkpt lat="47.59776" lon="12.1946017">
                <ele>502.1</ele>
                <time>2018-07-14T11:46:55.000Z</time>
                <name>Position 333</name>
            </trkpt>
            <trkpt lat="47.5978249" lon="12.194652">
                <ele>500.6</ele>
                <time>2018-07-14T11:47:11.000Z</time>
                <name>Position 334</name>
            </trkpt>
        </trkseg>
    </trk>
</gpx>
