<?xml version="1.0" encoding="UTF-8" standalone="yes"?>
<gpx xmlns:gpxtpx1="http://www.garmin.com/xmlschemas/TrackPointExtension/v1" xmlns="http://www.topografix.com/GPX/1/1" xmlns:trp="http://www.garmin.com/xmlschemas/TripExtensions/v1" xmlns:gpxx="http://www.garmin.com/xmlschemas/GpxExtensions/v3" xmlns:gpxtpx="http://www.garmin.com/xmlschemas/TrackPointExtension/v2" version="1.1" creator="Generated by Christian Pesch's RouteConverter. See http://www.routeconverter.com">
    <metadata>
        <name>2020-04-26 09:38</name>
        <link href="https://www.oruxmaps.com">
            <text>OruxMaps</text>
        </link>
        <time>2020-04-26T07:38:29Z</time>
        <bounds minlat="48.3035208" minlon="15.5161371" maxlat="48.4127146" maxlon="16.3750003"/>
    </metadata>
    <wpt lat="48.401912" lon="15.5220942">
        <ele>253.7</ele>
        <time>2020-04-26T07:39:05.000Z</time>
        <name>0000350</name>
        <sym>Waypoint</sym>
        <type>Startpunkt</type>
        <extensions>
            <om:oruxmapsextensions xmlns:om="http://www.oruxmaps.com/oruxmapsextensions/1/0" xmlns:gpxtpx="http://www.garmin.com/xmlschemas/TrackPointExtension/v1" xmlns:xsi="http://www.w3.org/2001/XMLSchema-instance">
                <om:ext subtype="0" type="ICON">38</om:ext>
</om:oruxmapsextensions>
        </extensions>
    </wpt>
    <wpt lat="48.3035208" lon="16.3749302">
        <ele>180.1</ele>
        <time>2020-04-26T13:00:35.000Z</time>
        <name>0000351</name>
        <desc>&lt;p&gt;&lt;br /&gt;&lt;h3&gt;Name: Segment: 1&lt;/h3&gt;&lt;br /&gt;Startzeit: 04/26/2020 09:39&lt;br/&gt;Zielzeit: 04/26/2020 14:58&lt;br/&gt;Strecke: 76,6km (05:19)&lt;br/&gt;Bewegungszeit: 01:45&lt;br/&gt;Ø-Geschwindigkeit: 14,41 km/h&lt;br/&gt;Netto-Geschwindigkeit: 42,82 km/h&lt;br/&gt;Max. Geschwindigkeit: 142,17 km/h&lt;br/&gt;Minimale Höhe: 169 m&lt;br/&gt;Maximale Höhe: 502 m&lt;br/&gt;Steig-Geschw.: 128,7 m/h&lt;br/&gt;Sink-Geschw.: -1012,6 m/h&lt;br/&gt;Aufstieg: 576 m&lt;br/&gt;Abstieg: -649 m&lt;br/&gt;Steigzeit: 04:28&lt;br/&gt;Sinkzeit: 00:38&lt;br/&gt;&lt;/p&gt;</desc>
        <sym>Waypoint</sym>
        <type>Endpunkt</type>
        <extensions>
            <om:oruxmapsextensions xmlns:om="http://www.oruxmaps.com/oruxmapsextensions/1/0" xmlns:gpxtpx="http://www.garmin.com/xmlschemas/TrackPointExtension/v1" xmlns:xsi="http://www.w3.org/2001/XMLSchema-instance">
                <om:ext subtype="0" type="ICON">15</om:ext>
</om:oruxmapsextensions>
        </extensions>
    </wpt>
    <trk>
        <name>2020-04-26 09:38</name>
        <desc>&lt;p&gt;Startzeit: 04/26/2020 09:39&lt;br/&gt;Zielzeit: 04/26/2020 14:58&lt;br/&gt;Strecke: 76,
6 km (05:19)&lt;br/&gt;Bewegungszeit: 01:45&lt;br/&gt;Ø-Geschwindigkeit: 14,
41 km/h&lt;br/&gt;Netto-Geschwindigkeit: 43,
74 km/h&lt;br/&gt;Max. Geschwindigkeit: 142,
17 km/h&lt;br/&gt;Minimale Höhe: 169 m&lt;br/&gt;Maximale Höhe: 502 m&lt;br/&gt;Steig-Geschw.: 70,
4 m/h&lt;br/&gt;Sink-Geschw.: -658,
7 m/h&lt;br/&gt;Aufstieg: 317 m&lt;br/&gt;Abstieg: -412 m&lt;br/&gt;Steigzeit: 04:30&lt;br/&gt;Sinkzeit: 00:37&lt;br/&gt;&lt;/p&gt;&lt;hr align="center" width="480" style="height: 2px; width: 517px"/&gt;</desc>
        <type>Unbestimmt</type>
        <extensions>
            <om:oruxmapsextensions xmlns:om="http://www.oruxmaps.com/oruxmapsextensions/1/0" xmlns:gpxtpx="http://www.garmin.com/xmlschemas/TrackPointExtension/v1" xmlns:xsi="http://www.w3.org/2001/XMLSchema-instance">
                <om:ext subtype="0" type="TYPE">0</om:ext>
                <om:ext type="DIFFICULTY">0</om:ext>
</om:oruxmapsextensions>
        </extensions>
        <trkseg>
            <trkpt lat="48.3997893" lon="15.5178509">
                <ele>253.7</ele>
                <time>2020-04-26T07:39:08.000Z</time>
                <name>Position 1</name>
            </trkpt>
            <trkpt lat="48.3987208" lon="15.5187093">
                <ele>220.0</ele>
                <time>2020-04-26T07:39:08.707Z</time>
                <name>Position 2</name>
            </trkpt>
            <trkpt lat="48.398614" lon="15.5189989">
                <ele>212.0</ele>
                <time>2020-04-26T07:39:09.056Z</time>
                <name>Position 3</name>
            </trkpt>
            <trkpt lat="48.3986781" lon="15.5192832">
                <ele>218.0</ele>
                <time>2020-04-26T07:39:09.563Z</time>
                <name>Position 4</name>
            </trkpt>
            <trkpt lat="48.3992088" lon="15.5196212">
                <ele>229.0</ele>
                <time>2020-04-26T07:39:13.046Z</time>
                <name>Position 5</name>
            </trkpt>
            <trkpt lat="48.3997288" lon="15.5197553">
                <ele>237.0</ele>
                <time>2020-04-26T07:39:15.810Z</time>
                <name>Position 6</name>
            </trkpt>
            <trkpt lat="48.401965" lon="15.5222061">
                <ele>274.5</ele>
                <time>2020-04-26T07:39:30.000Z</time>
                <name>Position 7</name>
            </trkpt>
            <trkpt lat="48.4019843" lon="15.522343">
                <ele>279.3</ele>
                <time>2020-04-26T07:40:29.000Z</time>
                <name>Position 8</name>
            </trkpt>
            <trkpt lat="48.4020652" lon="15.5224031">
                <ele>286.2</ele>
                <time>2020-04-26T07:41:03.000Z</time>
                <name>Position 9</name>
            </trkpt>
            <trkpt lat="48.4020556" lon="15.5225415">
                <ele>287.8</ele>
                <time>2020-04-26T07:41:14.000Z</time>
                <name>Position 10</name>
            </trkpt>
            <trkpt lat="48.4021455" lon="15.522562">
                <ele>298.9</ele>
                <time>2020-04-26T07:42:12.000Z</time>
                <name>Position 11</name>
            </trkpt>
            <trkpt lat="48.4022308" lon="15.5225173">
                <ele>301.3</ele>
                <time>2020-04-26T07:42:39.000Z</time>
                <name>Position 12</name>
            </trkpt>
            <trkpt lat="48.4023311" lon="15.5224987">
                <ele>306.6</ele>
                <time>2020-04-26T07:42:57.000Z</time>
                <name>Position 13</name>
            </trkpt>
            <trkpt lat="48.4024233" lon="15.5224829">
                <ele>309.5</ele>
                <time>2020-04-26T07:43:14.000Z</time>
                <name>Position 14</name>
            </trkpt>
            <trkpt lat="48.402498" lon="15.5223877">
                <ele>311.2</ele>
                <time>2020-04-26T07:43:23.000Z</time>
                <name>Position 15</name>
            </trkpt>
            <trkpt lat="48.4025234" lon="15.5222558">
                <ele>314.5</ele>
                <time>2020-04-26T07:43:40.000Z</time>
                <name>Position 16</name>
            </trkpt>
            <trkpt lat="48.4024562" lon="15.5221632">
                <ele>320.0</ele>
                <time>2020-04-26T07:44:10.000Z</time>
                <name>Position 17</name>
            </trkpt>
            <trkpt lat="48.4023931" lon="15.5220396">
                <ele>318.3</ele>
                <time>2020-04-26T07:44:46.000Z</time>
                <name>Position 18</name>
            </trkpt>
            <trkpt lat="48.4023757" lon="15.5219003">
                <ele>317.3</ele>
                <time>2020-04-26T07:45:23.000Z</time>
                <name>Position 19</name>
            </trkpt>
            <trkpt lat="48.4023389" lon="15.5217636">
                <ele>318.7</ele>
                <time>2020-04-26T07:45:56.000Z</time>
                <name>Position 20</name>
            </trkpt>
            <trkpt lat="48.4023153" lon="15.5216252">
                <ele>319.6</ele>
                <time>2020-04-26T07:46:30.000Z</time>
                <name>Position 21</name>
            </trkpt>
            <trkpt lat="48.4023213" lon="15.5217605">
                <ele>316.8</ele>
                <time>2020-04-26T07:53:29.000Z</time>
                <name>Position 22</name>
            </trkpt>
            <trkpt lat="48.4023223" lon="15.5218961">
                <ele>315.2</ele>
                <time>2020-04-26T07:53:40.000Z</time>
                <name>Position 23</name>
            </trkpt>
            <trkpt lat="48.402357" lon="15.5220245">
                <ele>316.1</ele>
                <time>2020-04-26T07:54:51.000Z</time>
                <name>Position 24</name>
            </trkpt>
            <trkpt lat="48.4023648" lon="15.5221684">
                <ele>316.8</ele>
                <time>2020-04-26T07:55:12.000Z</time>
                <name>Position 25</name>
            </trkpt>
            <trkpt lat="48.4023578" lon="15.5220266">
                <ele>315.7</ele>
                <time>2020-04-26T07:56:21.000Z</time>
                <name>Position 26</name>
            </trkpt>
            <trkpt lat="48.4023373" lon="15.5218896">
                <ele>315.0</ele>
                <time>2020-04-26T07:56:53.000Z</time>
                <name>Position 27</name>
            </trkpt>
            <trkpt lat="48.4023089" lon="15.5217495">
                <ele>317.2</ele>
                <time>2020-04-26T07:57:08.000Z</time>
                <name>Position 28</name>
            </trkpt>
            <trkpt lat="48.402305" lon="15.5216137">
                <ele>316.2</ele>
                <time>2020-04-26T07:59:25.000Z</time>
                <name>Position 29</name>
            </trkpt>
            <trkpt lat="48.4023274" lon="15.5217452">
                <ele>308.3</ele>
                <time>2020-04-26T08:31:37.000Z</time>
                <name>Position 30</name>
            </trkpt>
            <trkpt lat="48.4023766" lon="15.5216297">
                <ele>307.6</ele>
                <time>2020-04-26T08:34:02.000Z</time>
                <name>Position 31</name>
            </trkpt>
            <trkpt lat="48.4023011" lon="15.5217093">
                <ele>305.7</ele>
                <time>2020-04-26T08:58:10.000Z</time>
                <name>Position 32</name>
            </trkpt>
            <trkpt lat="48.4022636" lon="15.521834">
                <ele>305.4</ele>
                <time>2020-04-26T08:59:37.000Z</time>
                <name>Position 33</name>
            </trkpt>
            <trkpt lat="48.4023068" lon="15.5217134">
                <ele>305.4</ele>
                <time>2020-04-26T09:02:23.000Z</time>
                <name>Position 34</name>
            </trkpt>
            <trkpt lat="48.4023281" lon="15.5218477">
                <ele>304.1</ele>
                <time>2020-04-26T09:19:05.000Z</time>
                <name>Position 35</name>
            </trkpt>
            <trkpt lat="48.4023634" lon="15.5219779">
                <ele>304.5</ele>
                <time>2020-04-26T09:19:17.000Z</time>
                <name>Position 36</name>
            </trkpt>
            <trkpt lat="48.4023487" lon="15.5221267">
                <ele>305.9</ele>
                <time>2020-04-26T09:19:31.000Z</time>
                <name>Position 37</name>
            </trkpt>
            <trkpt lat="48.4023011" lon="15.5222436">
                <ele>305.9</ele>
                <time>2020-04-26T09:26:24.000Z</time>
                <name>Position 38</name>
            </trkpt>
            <trkpt lat="48.4023206" lon="15.5221004">
                <ele>304.8</ele>
                <time>2020-04-26T09:30:35.000Z</time>
                <name>Position 39</name>
            </trkpt>
            <trkpt lat="48.402301" lon="15.5219586">
                <ele>303.9</ele>
                <time>2020-04-26T09:30:45.000Z</time>
                <name>Position 40</name>
            </trkpt>
            <trkpt lat="48.4023208" lon="15.5218212">
                <ele>305.5</ele>
                <time>2020-04-26T09:30:56.000Z</time>
                <name>Position 41</name>
            </trkpt>
            <trkpt lat="48.4022845" lon="15.5216957">
                <ele>305.9</ele>
                <time>2020-04-26T09:31:18.000Z</time>
                <name>Position 42</name>
            </trkpt>
            <trkpt lat="48.4023541" lon="15.5216063">
                <ele>305.3</ele>
                <time>2020-04-26T09:38:54.000Z</time>
                <name>Position 43</name>
            </trkpt>
            <trkpt lat="48.4022809" lon="15.5216858">
                <ele>309.7</ele>
                <time>2020-04-26T09:40:58.000Z</time>
                <name>Position 44</name>
            </trkpt>
            <trkpt lat="48.4023143" lon="15.5215594">
                <ele>333.4</ele>
                <time>2020-04-26T09:53:09.000Z</time>
                <name>Position 45</name>
            </trkpt>
            <trkpt lat="48.4022759" lon="15.5216826">
                <ele>373.1</ele>
                <time>2020-04-26T10:12:27.000Z</time>
                <name>Position 46</name>
            </trkpt>
            <trkpt lat="48.4023235" lon="15.5215515">
                <ele>456.4</ele>
                <time>2020-04-26T10:54:09.000Z</time>
                <name>Position 47</name>
            </trkpt>
            <trkpt lat="48.4022995" lon="15.5214191">
                <ele>466.2</ele>
                <time>2020-04-26T10:55:49.000Z</time>
                <name>Position 48</name>
            </trkpt>
            <trkpt lat="48.4023718" lon="15.5213369">
                <ele>409.6</ele>
                <time>2020-04-26T11:21:00.000Z</time>
                <name>Position 49</name>
            </trkpt>
            <trkpt lat="48.4022822" lon="15.5213549">
                <ele>400.1</ele>
                <time>2020-04-26T11:25:28.000Z</time>
                <name>Position 50</name>
            </trkpt>
            <trkpt lat="48.4022177" lon="15.5212544">
                <ele>382.1</ele>
                <time>2020-04-26T11:33:35.000Z</time>
                <name>Position 51</name>
            </trkpt>
            <trkpt lat="48.4021516" lon="15.5211571">
                <ele>380.2</ele>
                <time>2020-04-26T11:33:45.000Z</time>
                <name>Position 52</name>
            </trkpt>
            <trkpt lat="48.4021725" lon="15.5210236">
                <ele>376.2</ele>
                <time>2020-04-26T11:34:06.000Z</time>
                <name>Position 53</name>
            </trkpt>
            <trkpt lat="48.4020828" lon="15.5209979">
                <ele>367.3</ele>
                <time>2020-04-26T11:34:52.000Z</time>
                <name>Position 54</name>
            </trkpt>
            <trkpt lat="48.4020179" lon="15.5211085">
                <ele>365.9</ele>
                <time>2020-04-26T11:35:05.000Z</time>
                <name>Position 55</name>
            </trkpt>
            <trkpt lat="48.4020273" lon="15.5212507">
                <ele>362.9</ele>
                <time>2020-04-26T11:35:29.000Z</time>
                <name>Position 56</name>
            </trkpt>
            <trkpt lat="48.4021029" lon="15.52133">
                <ele>361.9</ele>
                <time>2020-04-26T11:35:47.000Z</time>
                <name>Position 57</name>
            </trkpt>
            <trkpt lat="48.4021668" lon="15.5214322">
                <ele>362.3</ele>
                <time>2020-04-26T11:35:59.000Z</time>
                <name>Position 58</name>
            </trkpt>
            <trkpt lat="48.4022105" lon="15.5215595">
                <ele>362.2</ele>
                <time>2020-04-26T11:36:12.000Z</time>
                <name>Position 59</name>
            </trkpt>
            <trkpt lat="48.4022501" lon="15.5216812">
                <ele>362.3</ele>
                <time>2020-04-26T11:36:24.000Z</time>
                <name>Position 60</name>
            </trkpt>
            <trkpt lat="48.4022846" lon="15.5218159">
                <ele>360.3</ele>
                <time>2020-04-26T11:36:49.000Z</time>
                <name>Position 61</name>
            </trkpt>
            <trkpt lat="48.4022867" lon="15.5219518">
                <ele>358.9</ele>
                <time>2020-04-26T11:37:03.000Z</time>
                <name>Position 62</name>
            </trkpt>
            <trkpt lat="48.4023293" lon="15.5220724">
                <ele>358.6</ele>
                <time>2020-04-26T11:37:21.000Z</time>
                <name>Position 63</name>
            </trkpt>
            <trkpt lat="48.4024554" lon="15.5223456">
                <ele>325.6</ele>
                <time>2020-04-26T11:49:41.000Z</time>
                <name>Position 64</name>
            </trkpt>
            <trkpt lat="48.402374" lon="15.522404">
                <ele>312.4</ele>
                <time>2020-04-26T11:50:17.000Z</time>
                <name>Position 65</name>
            </trkpt>
            <trkpt lat="48.4022818" lon="15.5224436">
                <ele>304.8</ele>
                <time>2020-04-26T11:50:32.000Z</time>
                <name>Position 66</name>
            </trkpt>
            <trkpt lat="48.4021874" lon="15.5224811">
                <ele>302.5</ele>
                <time>2020-04-26T11:50:38.000Z</time>
                <name>Position 67</name>
            </trkpt>
            <trkpt lat="48.4020788" lon="15.5224825">
                <ele>299.0</ele>
                <time>2020-04-26T11:50:45.000Z</time>
                <name>Position 68</name>
            </trkpt>
            <trkpt lat="48.4019847" lon="15.5224465">
                <ele>291.1</ele>
                <time>2020-04-26T11:51:00.000Z</time>
                <name>Position 69</name>
            </trkpt>
            <trkpt lat="48.4019752" lon="15.5222984">
                <ele>287.6</ele>
                <time>2020-04-26T11:51:09.000Z</time>
                <name>Position 70</name>
            </trkpt>
            <trkpt lat="48.4019264" lon="15.5221752">
                <ele>282.4</ele>
                <time>2020-04-26T11:51:18.000Z</time>
                <name>Position 71</name>
            </trkpt>
            <trkpt lat="48.401863" lon="15.5220628">
                <ele>278.4</ele>
                <time>2020-04-26T11:51:24.000Z</time>
                <name>Position 72</name>
            </trkpt>
            <trkpt lat="48.4017844" lon="15.521996">
                <ele>274.1</ele>
                <time>2020-04-26T11:51:31.000Z</time>
                <name>Position 73</name>
            </trkpt>
            <trkpt lat="48.4016912" lon="15.5219232">
                <ele>271.1</ele>
                <time>2020-04-26T11:51:39.000Z</time>
                <name>Position 74</name>
            </trkpt>
            <trkpt lat="48.4016055" lon="15.5218532">
                <ele>268.8</ele>
                <time>2020-04-26T11:51:47.000Z</time>
                <name>Position 75</name>
            </trkpt>
            <trkpt lat="48.4015159" lon="15.5218064">
                <ele>266.0</ele>
                <time>2020-04-26T11:51:55.000Z</time>
                <name>Position 76</name>
            </trkpt>
            <trkpt lat="48.4014228" lon="15.5217397">
                <ele>263.9</ele>
                <time>2020-04-26T11:52:02.000Z</time>
                <name>Position 77</name>
            </trkpt>
            <trkpt lat="48.4013435" lon="15.5216697">
                <ele>262.2</ele>
                <time>2020-04-26T11:52:08.000Z</time>
                <name>Position 78</name>
            </trkpt>
            <trkpt lat="48.4012568" lon="15.5215964">
                <ele>260.2</ele>
                <time>2020-04-26T11:52:15.000Z</time>
                <name>Position 79</name>
            </trkpt>
            <trkpt lat="48.4011749" lon="15.521531">
                <ele>258.8</ele>
                <time>2020-04-26T11:52:22.000Z</time>
                <name>Position 80</name>
            </trkpt>
            <trkpt lat="48.4010883" lon="15.5214371">
                <ele>257.1</ele>
                <time>2020-04-26T11:52:31.000Z</time>
                <name>Position 81</name>
            </trkpt>
            <trkpt lat="48.4010197" lon="15.5213411">
                <ele>256.8</ele>
                <time>2020-04-26T11:52:37.000Z</time>
                <name>Position 82</name>
            </trkpt>
            <trkpt lat="48.4009534" lon="15.521248">
                <ele>255.4</ele>
                <time>2020-04-26T11:52:43.000Z</time>
                <name>Position 83</name>
            </trkpt>
            <trkpt lat="48.400907" lon="15.5211137">
                <ele>253.8</ele>
                <time>2020-04-26T11:52:51.000Z</time>
                <name>Position 84</name>
            </trkpt>
            <trkpt lat="48.4008521" lon="15.5209958">
                <ele>252.3</ele>
                <time>2020-04-26T11:52:58.000Z</time>
                <name>Position 85</name>
            </trkpt>
            <trkpt lat="48.4007832" lon="15.5208952">
                <ele>250.7</ele>
                <time>2020-04-26T11:53:04.000Z</time>
                <name>Position 86</name>
            </trkpt>
            <trkpt lat="48.4007108" lon="15.5208021">
                <ele>249.2</ele>
                <time>2020-04-26T11:53:10.000Z</time>
                <name>Position 87</name>
            </trkpt>
            <trkpt lat="48.400633" lon="15.5207178">
                <ele>247.9</ele>
                <time>2020-04-26T11:53:17.000Z</time>
                <name>Position 88</name>
            </trkpt>
            <trkpt lat="48.4005483" lon="15.5206414">
                <ele>246.0</ele>
                <time>2020-04-26T11:53:24.000Z</time>
                <name>Position 89</name>
            </trkpt>
            <trkpt lat="48.40047" lon="15.5205606">
                <ele>244.3</ele>
                <time>2020-04-26T11:53:31.000Z</time>
                <name>Position 90</name>
            </trkpt>
            <trkpt lat="48.4003839" lon="15.5204898">
                <ele>242.7</ele>
                <time>2020-04-26T11:53:38.000Z</time>
                <name>Position 91</name>
            </trkpt>
            <trkpt lat="48.4003105" lon="15.5204078">
                <ele>239.1</ele>
                <time>2020-04-26T11:53:47.000Z</time>
                <name>Position 92</name>
            </trkpt>
            <trkpt lat="48.400227" lon="15.5203127">
                <ele>236.3</ele>
                <time>2020-04-26T11:53:53.000Z</time>
                <name>Position 93</name>
            </trkpt>
            <trkpt lat="48.4001342" lon="15.5202554">
                <ele>235.6</ele>
                <time>2020-04-26T11:53:59.000Z</time>
                <name>Position 94</name>
            </trkpt>
            <trkpt lat="48.4000459" lon="15.5201946">
                <ele>234.1</ele>
                <time>2020-04-26T11:54:06.000Z</time>
                <name>Position 95</name>
            </trkpt>
            <trkpt lat="48.3999675" lon="15.5201077">
                <ele>231.6</ele>
                <time>2020-04-26T11:54:13.000Z</time>
                <name>Position 96</name>
            </trkpt>
            <trkpt lat="48.399898" lon="15.5200178">
                <ele>229.2</ele>
                <time>2020-04-26T11:54:20.000Z</time>
                <name>Position 97</name>
            </trkpt>
            <trkpt lat="48.3998318" lon="15.5198921">
                <ele>226.7</ele>
                <time>2020-04-26T11:54:28.000Z</time>
                <name>Position 98</name>
            </trkpt>
            <trkpt lat="48.3997555" lon="15.5197856">
                <ele>225.2</ele>
                <time>2020-04-26T11:54:35.000Z</time>
                <name>Position 99</name>
            </trkpt>
            <trkpt lat="48.3996722" lon="15.5197046">
                <ele>224.5</ele>
                <time>2020-04-26T11:54:42.000Z</time>
                <name>Position 100</name>
            </trkpt>
            <trkpt lat="48.3995799" lon="15.5196883">
                <ele>223.5</ele>
                <time>2020-04-26T11:54:49.000Z</time>
                <name>Position 101</name>
            </trkpt>
            <trkpt lat="48.3994786" lon="15.5196548">
                <ele>222.1</ele>
                <time>2020-04-26T11:54:56.000Z</time>
                <name>Position 102</name>
            </trkpt>
            <trkpt lat="48.3993815" lon="15.519649">
                <ele>221.3</ele>
                <time>2020-04-26T11:55:02.000Z</time>
                <name>Position 103</name>
            </trkpt>
            <trkpt lat="48.3992894" lon="15.5196446">
                <ele>220.4</ele>
                <time>2020-04-26T11:55:09.000Z</time>
                <name>Position 104</name>
            </trkpt>
            <trkpt lat="48.3991944" lon="15.5196102">
                <ele>218.6</ele>
                <time>2020-04-26T11:55:16.000Z</time>
                <name>Position 105</name>
            </trkpt>
            <trkpt lat="48.3991059" lon="15.5195358">
                <ele>217.3</ele>
                <time>2020-04-26T11:55:23.000Z</time>
                <name>Position 106</name>
            </trkpt>
            <trkpt lat="48.3990225" lon="15.5194594">
                <ele>217.2</ele>
                <time>2020-04-26T11:55:31.000Z</time>
                <name>Position 107</name>
            </trkpt>
            <trkpt lat="48.3989293" lon="15.5194202">
                <ele>216.8</ele>
                <time>2020-04-26T11:55:41.000Z</time>
                <name>Position 108</name>
            </trkpt>
            <trkpt lat="48.3988422" lon="15.5193691">
                <ele>216.3</ele>
                <time>2020-04-26T11:55:50.000Z</time>
                <name>Position 109</name>
            </trkpt>
            <trkpt lat="48.3987501" lon="15.519338">
                <ele>215.9</ele>
                <time>2020-04-26T11:55:58.000Z</time>
                <name>Position 110</name>
            </trkpt>
            <trkpt lat="48.3986627" lon="15.5192836">
                <ele>215.0</ele>
                <time>2020-04-26T11:56:07.000Z</time>
                <name>Position 111</name>
            </trkpt>
            <trkpt lat="48.3986183" lon="15.5191524">
                <ele>213.8</ele>
                <time>2020-04-26T11:56:16.000Z</time>
                <name>Position 112</name>
            </trkpt>
            <trkpt lat="48.3985871" lon="15.5190101">
                <ele>213.3</ele>
                <time>2020-04-26T11:56:25.000Z</time>
                <name>Position 113</name>
            </trkpt>
            <trkpt lat="48.3986091" lon="15.5188682">
                <ele>213.4</ele>
                <time>2020-04-26T11:56:34.000Z</time>
                <name>Position 114</name>
            </trkpt>
            <trkpt lat="48.3986802" lon="15.5187728">
                <ele>212.8</ele>
                <time>2020-04-26T11:56:41.000Z</time>
                <name>Position 115</name>
            </trkpt>
            <trkpt lat="48.3987315" lon="15.5186518">
                <ele>212.0</ele>
                <time>2020-04-26T11:56:50.000Z</time>
                <name>Position 116</name>
            </trkpt>
            <trkpt lat="48.3988019" lon="15.5185576">
                <ele>211.5</ele>
                <time>2020-04-26T11:56:57.000Z</time>
                <name>Position 117</name>
            </trkpt>
            <trkpt lat="48.3988886" lon="15.5184928">
                <ele>210.6</ele>
                <time>2020-04-26T11:57:05.000Z</time>
                <name>Position 118</name>
            </trkpt>
            <trkpt lat="48.3989693" lon="15.5184087">
                <ele>210.0</ele>
                <time>2020-04-26T11:57:13.000Z</time>
                <name>Position 119</name>
            </trkpt>
            <trkpt lat="48.3990466" lon="15.5183393">
                <ele>209.6</ele>
                <time>2020-04-26T11:57:20.000Z</time>
                <name>Position 120</name>
            </trkpt>
            <trkpt lat="48.3991279" lon="15.5182729">
                <ele>209.3</ele>
                <time>2020-04-26T11:57:28.000Z</time>
                <name>Position 121</name>
            </trkpt>
            <trkpt lat="48.3992122" lon="15.5181981">
                <ele>209.2</ele>
                <time>2020-04-26T11:57:36.000Z</time>
                <name>Position 122</name>
            </trkpt>
            <trkpt lat="48.3992988" lon="15.5181603">
                <ele>209.1</ele>
                <time>2020-04-26T11:57:44.000Z</time>
                <name>Position 123</name>
            </trkpt>
            <trkpt lat="48.3993868" lon="15.5181088">
                <ele>208.9</ele>
                <time>2020-04-26T11:57:52.000Z</time>
                <name>Position 124</name>
            </trkpt>
            <trkpt lat="48.3994797" lon="15.5180593">
                <ele>209.0</ele>
                <time>2020-04-26T11:58:00.000Z</time>
                <name>Position 125</name>
            </trkpt>
            <trkpt lat="48.3995642" lon="15.5179946">
                <ele>209.0</ele>
                <time>2020-04-26T11:58:07.000Z</time>
                <name>Position 126</name>
            </trkpt>
            <trkpt lat="48.3996555" lon="15.5179386">
                <ele>209.2</ele>
                <time>2020-04-26T11:58:15.000Z</time>
                <name>Position 127</name>
            </trkpt>
            <trkpt lat="48.4026347" lon="15.5162391">
                <ele>209.4</ele>
                <time>2020-04-26T11:58:23.000Z</time>
                <name>Position 128</name>
            </trkpt>
            <trkpt lat="48.3998426" lon="15.5178553">
                <ele>209.5</ele>
                <time>2020-04-26T11:58:36.000Z</time>
                <name>Position 129</name>
            </trkpt>
            <trkpt lat="48.3999352" lon="15.5178117">
                <ele>209.6</ele>
                <time>2020-04-26T11:58:44.000Z</time>
                <name>Position 130</name>
            </trkpt>
            <trkpt lat="48.4000285" lon="15.5177814">
                <ele>209.6</ele>
                <time>2020-04-26T11:58:52.000Z</time>
                <name>Position 131</name>
            </trkpt>
            <trkpt lat="48.4001254" lon="15.5177445">
                <ele>209.6</ele>
                <time>2020-04-26T11:59:00.000Z</time>
                <name>Position 132</name>
            </trkpt>
            <trkpt lat="48.4002193" lon="15.5176982">
                <ele>209.8</ele>
                <time>2020-04-26T11:59:08.000Z</time>
                <name>Position 133</name>
            </trkpt>
            <trkpt lat="48.400313" lon="15.5176741">
                <ele>210.0</ele>
                <time>2020-04-26T11:59:16.000Z</time>
                <name>Position 134</name>
            </trkpt>
            <trkpt lat="48.4004011" lon="15.5176211">
                <ele>209.9</ele>
                <time>2020-04-26T11:59:24.000Z</time>
                <name>Position 135</name>
            </trkpt>
            <trkpt lat="48.4004923" lon="15.5175714">
                <ele>210.0</ele>
                <time>2020-04-26T11:59:32.000Z</time>
                <name>Position 136</name>
            </trkpt>
            <trkpt lat="48.4005814" lon="15.5175323">
                <ele>210.0</ele>
                <time>2020-04-26T11:59:40.000Z</time>
                <name>Position 137</name>
            </trkpt>
            <trkpt lat="48.4006673" lon="15.5174828">
                <ele>210.0</ele>
                <time>2020-04-26T11:59:48.000Z</time>
                <name>Position 138</name>
            </trkpt>
            <trkpt lat="48.4007585" lon="15.5174274">
                <ele>210.0</ele>
                <time>2020-04-26T11:59:57.000Z</time>
                <name>Position 139</name>
            </trkpt>
            <trkpt lat="48.4008456" lon="15.517387">
                <ele>210.1</ele>
                <time>2020-04-26T12:00:05.000Z</time>
                <name>Position 140</name>
            </trkpt>
            <trkpt lat="48.4009349" lon="15.517348">
                <ele>210.1</ele>
                <time>2020-04-26T12:00:13.000Z</time>
                <name>Position 141</name>
            </trkpt>
            <trkpt lat="48.401025" lon="15.5173083">
                <ele>210.1</ele>
                <time>2020-04-26T12:00:21.000Z</time>
                <name>Position 142</name>
            </trkpt>
            <trkpt lat="48.4011088" lon="15.5172544">
                <ele>210.1</ele>
                <time>2020-04-26T12:00:29.000Z</time>
                <name>Position 143</name>
            </trkpt>
            <trkpt lat="48.4012046" lon="15.5172088">
                <ele>210.1</ele>
                <time>2020-04-26T12:00:37.000Z</time>
                <name>Position 144</name>
            </trkpt>
            <trkpt lat="48.4012926" lon="15.5171595">
                <ele>210.0</ele>
                <time>2020-04-26T12:00:45.000Z</time>
                <name>Position 145</name>
            </trkpt>
            <trkpt lat="48.4013786" lon="15.5171093">
                <ele>210.0</ele>
                <time>2020-04-26T12:00:53.000Z</time>
                <name>Position 146</name>
            </trkpt>
            <trkpt lat="48.4014667" lon="15.5170588">
                <ele>210.3</ele>
                <time>2020-04-26T12:01:01.000Z</time>
                <name>Position 147</name>
            </trkpt>
            <trkpt lat="48.401558" lon="15.5170023">
                <ele>210.0</ele>
                <time>2020-04-26T12:01:09.000Z</time>
                <name>Position 148</name>
            </trkpt>
            <trkpt lat="48.401654" lon="15.5169454">
                <ele>210.2</ele>
                <time>2020-04-26T12:01:18.000Z</time>
                <name>Position 149</name>
            </trkpt>
            <trkpt lat="48.4017447" lon="15.516882">
                <ele>210.1</ele>
                <time>2020-04-26T12:01:26.000Z</time>
                <name>Position 150</name>
            </trkpt>
            <trkpt lat="48.4018252" lon="15.5168176">
                <ele>210.2</ele>
                <time>2020-04-26T12:01:34.000Z</time>
                <name>Position 151</name>
            </trkpt>
            <trkpt lat="48.401918" lon="15.5167563">
                <ele>210.1</ele>
                <time>2020-04-26T12:01:42.000Z</time>
                <name>Position 152</name>
            </trkpt>
            <trkpt lat="48.4020097" lon="15.5167141">
                <ele>210.1</ele>
                <time>2020-04-26T12:01:50.000Z</time>
                <name>Position 153</name>
            </trkpt>
            <trkpt lat="48.4020981" lon="15.5166594">
                <ele>210.1</ele>
                <time>2020-04-26T12:01:58.000Z</time>
                <name>Position 154</name>
            </trkpt>
            <trkpt lat="48.4021851" lon="15.516601">
                <ele>210.2</ele>
                <time>2020-04-26T12:02:06.000Z</time>
                <name>Position 155</name>
            </trkpt>
            <trkpt lat="48.4022693" lon="15.5165474">
                <ele>210.1</ele>
                <time>2020-04-26T12:02:14.000Z</time>
                <name>Position 156</name>
            </trkpt>
            <trkpt lat="48.4023579" lon="15.5164815">
                <ele>210.2</ele>
                <time>2020-04-26T12:02:22.000Z</time>
                <name>Position 157</name>
            </trkpt>
            <trkpt lat="48.4024385" lon="15.5164069">
                <ele>210.2</ele>
                <time>2020-04-26T12:02:30.000Z</time>
                <name>Position 158</name>
            </trkpt>
            <trkpt lat="48.4025229" lon="15.5163417">
                <ele>210.3</ele>
                <time>2020-04-26T12:02:38.000Z</time>
                <name>Position 159</name>
            </trkpt>
            <trkpt lat="48.4026056" lon="15.5162711">
                <ele>210.2</ele>
                <time>2020-04-26T12:02:46.000Z</time>
                <name>Position 160</name>
            </trkpt>
            <trkpt lat="48.4026864" lon="15.5161962">
                <ele>210.3</ele>
                <time>2020-04-26T12:02:54.000Z</time>
                <name>Position 161</name>
            </trkpt>
        </trkseg>
    </trk>
</gpx>
