<?xml version="1.0" encoding="UTF-8" standalone="yes"?>
<gpx xmlns:gpxtpx1="http://www.garmin.com/xmlschemas/TrackPointExtension/v1" xmlns="http://www.topografix.com/GPX/1/1" xmlns:trp="http://www.garmin.com/xmlschemas/TripExtensions/v1" xmlns:gpxx="http://www.garmin.com/xmlschemas/GpxExtensions/v3" xmlns:gpxtpx="http://www.garmin.com/xmlschemas/TrackPointExtension/v2" version="1.1" creator="RouteConverter 2.29">
    <metadata>
        <name>2021-08-09 08:29</name>
        <link href="https://www.oruxmaps.com">
            <text>OruxMaps</text>
        </link>
        <time>2021-08-10T04:59:14.378Z</time>
        <bounds minlat="47.2644683" minlon="15.5776177" maxlat="47.2723110" maxlon="15.5849966"/>
    </metadata>
    <wpt lat="47.2647183" lon="15.5828451">
        <ele>595.0</ele>
        <time>2021-08-09T12:05:10.000Z</time>
        <name>0000593</name>
        <desc>&lt;p&gt;&lt;br /&gt;&lt;h3&gt;Name: Segment: 1&lt;/h3&gt;&lt;br /&gt;Startzeit: 08/09/2021 08:29&lt;br/&gt;Zielzeit: 08/09/2021 14:04&lt;br/&gt;Strecke: 3,4km (05:35)&lt;br/&gt;Bewegungszeit: 01:01&lt;br/&gt;Ø-Geschwindigkeit: 0,6 km/h&lt;br/&gt;Netto-Geschwindigkeit: 3,28 km/h&lt;br/&gt;Max. Geschwindigkeit: 50,86 km/h&lt;br/&gt;Minimale Höhe: 594 m&lt;br/&gt;Maximale Höhe: 864 m&lt;br/&gt;Steig-Geschw.: 90,4 m/h&lt;br/&gt;Sink-Geschw.: -145,3 m/h&lt;br/&gt;Aufstieg: 280 m&lt;br/&gt;Abstieg: -333 m&lt;br/&gt;Steigzeit: 03:05&lt;br/&gt;Sinkzeit: 02:17&lt;br/&gt;&lt;/p&gt;</desc>
        <sym>Waypoint</sym>
        <type>Endpunkt</type>
        <extensions>
            <om:oruxmapsextensions xmlns:om="http://www.oruxmaps.com/oruxmapsextensions/1/0" xmlns:gpxtpx="http://www.garmin.com/xmlschemas/TrackPointExtension/v1" xmlns:xsi="http://www.w3.org/2001/XMLSchema-instance">
                <om:ext subtype="0" type="ICON">15</om:ext>
</om:oruxmapsextensions>
        </extensions>
    </wpt>
    <trk>
        <name>2021-08-09 08:29</name>
        <desc>&lt;p&gt;Startzeit: 08/09/2021 08:29&lt;br/&gt;Zielzeit: 08/09/2021 14:04&lt;br/&gt;Strecke: 3,
4 km (05:35)&lt;br/&gt;Bewegungszeit: 01:01&lt;br/&gt;Ø-Geschwindigkeit: 0,
6 km/h&lt;br/&gt;Netto-Geschwindigkeit: 3,
3 km/h&lt;br/&gt;Max. Geschwindigkeit: 50,
86 km/h&lt;br/&gt;Minimale Höhe: 594 m&lt;br/&gt;Maximale Höhe: 864 m&lt;br/&gt;Steig-Geschw.: 82,
5 m/h&lt;br/&gt;Sink-Geschw.: -139,
4 m/h&lt;br/&gt;Aufstieg: 271 m&lt;br/&gt;Abstieg: -320 m&lt;br/&gt;Steigzeit: 03:17&lt;br/&gt;Sinkzeit: 02:17&lt;br/&gt;&lt;/p&gt;&lt;hr align="center" width="480" style="height: 2px; width: 517px"/&gt;</desc>
        <type>Unbestimmt</type>
        <extensions>
            <om:oruxmapsextensions xmlns:om="http://www.oruxmaps.com/oruxmapsextensions/1/0" xmlns:gpxtpx="http://www.garmin.com/xmlschemas/TrackPointExtension/v1" xmlns:xsi="http://www.w3.org/2001/XMLSchema-instance">
                <om:ext subtype="0" type="TYPE">0</om:ext>
                <om:ext type="DIFFICULTY">0</om:ext>
</om:oruxmapsextensions>
        </extensions>
        <trkseg>
            <trkpt lat="47.2721717" lon="15.5776719">
                <ele>647.2</ele>
                <time>2021-08-09T06:29:37.000Z</time>
                <name>Position 1</name>
            </trkpt>
            <trkpt lat="47.2721635" lon="15.5779766">
                <ele>647.3</ele>
                <time>2021-08-09T06:29:48.000Z</time>
                <name>Position 2</name>
            </trkpt>
            <trkpt lat="47.2722525" lon="15.5779989">
                <ele>653.3</ele>
                <time>2021-08-09T06:30:25.000Z</time>
                <name>Position 3</name>
            </trkpt>
            <trkpt lat="47.2721955" lon="15.5781063">
                <ele>655.3</ele>
                <time>2021-08-09T06:30:38.000Z</time>
                <name>Position 4</name>
            </trkpt>
            <trkpt lat="47.2721574" lon="15.5782286">
                <ele>654.9</ele>
                <time>2021-08-09T06:30:47.000Z</time>
                <name>Position 5</name>
            </trkpt>
            <trkpt lat="47.2720967" lon="15.5783357">
                <ele>655.7</ele>
                <time>2021-08-09T06:30:55.000Z</time>
                <name>Position 6</name>
            </trkpt>
            <trkpt lat="47.2720615" lon="15.5784632">
                <ele>656.1</ele>
                <time>2021-08-09T06:31:04.000Z</time>
                <name>Position 7</name>
            </trkpt>
            <trkpt lat="47.2719934" lon="15.5785625">
                <ele>659.7</ele>
                <time>2021-08-09T06:31:20.000Z</time>
                <name>Position 8</name>
            </trkpt>
            <trkpt lat="47.2719004" lon="15.5786155">
                <ele>664.5</ele>
                <time>2021-08-09T06:31:42.000Z</time>
                <name>Position 9</name>
            </trkpt>
            <trkpt lat="47.271807" lon="15.578634">
                <ele>665.2</ele>
                <time>2021-08-09T06:31:55.000Z</time>
                <name>Position 10</name>
            </trkpt>
            <trkpt lat="47.271728" lon="15.5787092">
                <ele>666.6</ele>
                <time>2021-08-09T06:32:11.000Z</time>
                <name>Position 11</name>
            </trkpt>
            <trkpt lat="47.271684" lon="15.5788267">
                <ele>668.0</ele>
                <time>2021-08-09T06:32:21.000Z</time>
                <name>Position 12</name>
            </trkpt>
            <trkpt lat="47.2716112" lon="15.5789141">
                <ele>669.7</ele>
                <time>2021-08-09T06:32:33.000Z</time>
                <name>Position 13</name>
            </trkpt>
            <trkpt lat="47.2715591" lon="15.5790302">
                <ele>671.9</ele>
                <time>2021-08-09T06:32:46.000Z</time>
                <name>Position 14</name>
            </trkpt>
            <trkpt lat="47.2714881" lon="15.5791143">
                <ele>676.1</ele>
                <time>2021-08-09T06:33:08.000Z</time>
                <name>Position 15</name>
            </trkpt>
            <trkpt lat="47.2714473" lon="15.5792357">
                <ele>678.4</ele>
                <time>2021-08-09T06:33:21.000Z</time>
                <name>Position 16</name>
            </trkpt>
            <trkpt lat="47.2714365" lon="15.5793743">
                <ele>681.8</ele>
                <time>2021-08-09T06:33:38.000Z</time>
                <name>Position 17</name>
            </trkpt>
            <trkpt lat="47.2714251" lon="15.5795205">
                <ele>684.4</ele>
                <time>2021-08-09T06:33:53.000Z</time>
                <name>Position 18</name>
            </trkpt>
            <trkpt lat="47.2713351" lon="15.5795848">
                <ele>687.1</ele>
                <time>2021-08-09T06:34:11.000Z</time>
                <name>Position 19</name>
            </trkpt>
            <trkpt lat="47.2712504" lon="15.5796666">
                <ele>687.1</ele>
                <time>2021-08-09T06:34:24.000Z</time>
                <name>Position 20</name>
            </trkpt>
            <trkpt lat="47.2712252" lon="15.5798086">
                <ele>688.8</ele>
                <time>2021-08-09T06:34:36.000Z</time>
                <name>Position 21</name>
            </trkpt>
            <trkpt lat="47.271159" lon="15.5799076">
                <ele>691.1</ele>
                <time>2021-08-09T06:34:49.000Z</time>
                <name>Position 22</name>
            </trkpt>
            <trkpt lat="47.271129" lon="15.5800361">
                <ele>693.4</ele>
                <time>2021-08-09T06:35:03.000Z</time>
                <name>Position 23</name>
            </trkpt>
            <trkpt lat="47.2711527" lon="15.5801759">
                <ele>694.4</ele>
                <time>2021-08-09T06:35:16.000Z</time>
                <name>Position 24</name>
            </trkpt>
            <trkpt lat="47.2710965" lon="15.5802801">
                <ele>695.6</ele>
                <time>2021-08-09T06:35:30.000Z</time>
                <name>Position 25</name>
            </trkpt>
            <trkpt lat="47.2710205" lon="15.5803703">
                <ele>697.7</ele>
                <time>2021-08-09T06:35:41.000Z</time>
                <name>Position 26</name>
            </trkpt>
            <trkpt lat="47.2709785" lon="15.5804991">
                <ele>698.1</ele>
                <time>2021-08-09T06:35:57.000Z</time>
                <name>Position 27</name>
            </trkpt>
            <trkpt lat="47.2709185" lon="15.5806083">
                <ele>698.9</ele>
                <time>2021-08-09T06:36:07.000Z</time>
                <name>Position 28</name>
            </trkpt>
            <trkpt lat="47.2708724" lon="15.5807339">
                <ele>700.0</ele>
                <time>2021-08-09T06:36:22.000Z</time>
                <name>Position 29</name>
            </trkpt>
            <trkpt lat="47.2708549" lon="15.580867">
                <ele>701.1</ele>
                <time>2021-08-09T06:36:33.000Z</time>
                <name>Position 30</name>
            </trkpt>
            <trkpt lat="47.2708619" lon="15.5810056">
                <ele>702.5</ele>
                <time>2021-08-09T06:36:42.000Z</time>
                <name>Position 31</name>
            </trkpt>
            <trkpt lat="47.2709005" lon="15.5811255">
                <ele>704.1</ele>
                <time>2021-08-09T06:36:52.000Z</time>
                <name>Position 32</name>
            </trkpt>
            <trkpt lat="47.2709405" lon="15.5812464">
                <ele>704.2</ele>
                <time>2021-08-09T06:37:05.000Z</time>
                <name>Position 33</name>
            </trkpt>
            <trkpt lat="47.270852" lon="15.5813086">
                <ele>705.1</ele>
                <time>2021-08-09T06:37:25.000Z</time>
                <name>Position 34</name>
            </trkpt>
            <trkpt lat="47.2707583" lon="15.5812515">
                <ele>706.2</ele>
                <time>2021-08-09T06:37:35.000Z</time>
                <name>Position 35</name>
            </trkpt>
            <trkpt lat="47.2706636" lon="15.5813116">
                <ele>706.6</ele>
                <time>2021-08-09T06:37:41.000Z</time>
                <name>Position 36</name>
            </trkpt>
            <trkpt lat="47.2706105" lon="15.5814347">
                <ele>707.6</ele>
                <time>2021-08-09T06:37:52.000Z</time>
                <name>Position 37</name>
            </trkpt>
            <trkpt lat="47.2706242" lon="15.5815697">
                <ele>709.9</ele>
                <time>2021-08-09T06:38:04.000Z</time>
                <name>Position 38</name>
            </trkpt>
            <trkpt lat="47.2706171" lon="15.5817055">
                <ele>710.9</ele>
                <time>2021-08-09T06:38:11.000Z</time>
                <name>Position 39</name>
            </trkpt>
            <trkpt lat="47.2706446" lon="15.5818338">
                <ele>710.7</ele>
                <time>2021-08-09T06:38:21.000Z</time>
                <name>Position 40</name>
            </trkpt>
            <trkpt lat="47.2706625" lon="15.5819703">
                <ele>713.0</ele>
                <time>2021-08-09T06:38:35.000Z</time>
                <name>Position 41</name>
            </trkpt>
            <trkpt lat="47.2705956" lon="15.5820749">
                <ele>715.1</ele>
                <time>2021-08-09T06:38:53.000Z</time>
                <name>Position 42</name>
            </trkpt>
            <trkpt lat="47.270511" lon="15.5821342">
                <ele>716.6</ele>
                <time>2021-08-09T06:39:05.000Z</time>
                <name>Position 43</name>
            </trkpt>
            <trkpt lat="47.2704161" lon="15.5821546">
                <ele>718.9</ele>
                <time>2021-08-09T06:39:21.000Z</time>
                <name>Position 44</name>
            </trkpt>
            <trkpt lat="47.2703472" lon="15.5822469">
                <ele>720.3</ele>
                <time>2021-08-09T06:39:32.000Z</time>
                <name>Position 45</name>
            </trkpt>
            <trkpt lat="47.2703472" lon="15.5823803">
                <ele>720.5</ele>
                <time>2021-08-09T06:39:39.000Z</time>
                <name>Position 46</name>
            </trkpt>
            <trkpt lat="47.2703249" lon="15.5825173">
                <ele>724.4</ele>
                <time>2021-08-09T06:40:03.000Z</time>
                <name>Position 47</name>
            </trkpt>
            <trkpt lat="47.2702793" lon="15.5826404">
                <ele>726.4</ele>
                <time>2021-08-09T06:40:16.000Z</time>
                <name>Position 48</name>
            </trkpt>
            <trkpt lat="47.2702845" lon="15.582775">
                <ele>729.3</ele>
                <time>2021-08-09T06:40:35.000Z</time>
                <name>Position 49</name>
            </trkpt>
            <trkpt lat="47.2703447" lon="15.5828982">
                <ele>733.6</ele>
                <time>2021-08-09T06:40:55.000Z</time>
                <name>Position 50</name>
            </trkpt>
            <trkpt lat="47.2703772" lon="15.5830351">
                <ele>736.1</ele>
                <time>2021-08-09T06:41:13.000Z</time>
                <name>Position 51</name>
            </trkpt>
            <trkpt lat="47.2703372" lon="15.5831559">
                <ele>736.9</ele>
                <time>2021-08-09T06:41:26.000Z</time>
                <name>Position 52</name>
            </trkpt>
            <trkpt lat="47.2702811" lon="15.5832622">
                <ele>734.4</ele>
                <time>2021-08-09T06:41:44.000Z</time>
                <name>Position 53</name>
            </trkpt>
            <trkpt lat="47.270201" lon="15.5833533">
                <ele>736.6</ele>
                <time>2021-08-09T06:42:04.000Z</time>
                <name>Position 54</name>
            </trkpt>
            <trkpt lat="47.2702193" lon="15.5834885">
                <ele>743.3</ele>
                <time>2021-08-09T06:42:43.000Z</time>
                <name>Position 55</name>
            </trkpt>
            <trkpt lat="47.2701411" lon="15.5835575">
                <ele>751.4</ele>
                <time>2021-08-09T06:43:36.000Z</time>
                <name>Position 56</name>
            </trkpt>
            <trkpt lat="47.2701074" lon="15.5837204">
                <ele>751.1</ele>
                <time>2021-08-09T09:37:30.000Z</time>
                <name>Position 57</name>
            </trkpt>
            <trkpt lat="47.2700538" lon="15.5836108">
                <ele>750.8</ele>
                <time>2021-08-09T09:37:39.000Z</time>
                <name>Position 58</name>
            </trkpt>
            <trkpt lat="47.2699688" lon="15.5836651">
                <ele>740.1</ele>
                <time>2021-08-09T09:42:46.000Z</time>
                <name>Position 59</name>
            </trkpt>
            <trkpt lat="47.2699473" lon="15.5835347">
                <ele>737.8</ele>
                <time>2021-08-09T09:42:56.000Z</time>
                <name>Position 60</name>
            </trkpt>
            <trkpt lat="47.2698707" lon="15.5834639">
                <ele>733.2</ele>
                <time>2021-08-09T09:43:20.000Z</time>
                <name>Position 61</name>
            </trkpt>
            <trkpt lat="47.2697945" lon="15.5833811">
                <ele>727.2</ele>
                <time>2021-08-09T09:43:44.000Z</time>
                <name>Position 62</name>
            </trkpt>
            <trkpt lat="47.2697243" lon="15.583296">
                <ele>716.3</ele>
                <time>2021-08-09T09:44:24.000Z</time>
                <name>Position 63</name>
            </trkpt>
            <trkpt lat="47.2696766" lon="15.583177">
                <ele>713.1</ele>
                <time>2021-08-09T09:44:44.000Z</time>
                <name>Position 64</name>
            </trkpt>
            <trkpt lat="47.269598" lon="15.5831036">
                <ele>706.3</ele>
                <time>2021-08-09T09:45:31.000Z</time>
                <name>Position 65</name>
            </trkpt>
            <trkpt lat="47.2695125" lon="15.5830628">
                <ele>701.7</ele>
                <time>2021-08-09T09:45:50.000Z</time>
                <name>Position 66</name>
            </trkpt>
            <trkpt lat="47.2694311" lon="15.5830006">
                <ele>692.4</ele>
                <time>2021-08-09T09:46:46.000Z</time>
                <name>Position 67</name>
            </trkpt>
            <trkpt lat="47.2693671" lon="15.5829073">
                <ele>685.6</ele>
                <time>2021-08-09T09:47:16.000Z</time>
                <name>Position 68</name>
            </trkpt>
            <trkpt lat="47.2692788" lon="15.5828456">
                <ele>675.5</ele>
                <time>2021-08-09T09:48:06.000Z</time>
                <name>Position 69</name>
            </trkpt>
            <trkpt lat="47.2692081" lon="15.5827605">
                <ele>671.0</ele>
                <time>2021-08-09T09:48:26.000Z</time>
                <name>Position 70</name>
            </trkpt>
            <trkpt lat="47.2691269" lon="15.582697">
                <ele>665.5</ele>
                <time>2021-08-09T09:49:21.000Z</time>
                <name>Position 71</name>
            </trkpt>
            <trkpt lat="47.2692013" lon="15.5826212">
                <ele>648.5</ele>
                <time>2021-08-09T09:50:31.000Z</time>
                <name>Position 72</name>
            </trkpt>
            <trkpt lat="47.2692236" lon="15.5824887">
                <ele>645.3</ele>
                <time>2021-08-09T09:50:47.000Z</time>
                <name>Position 73</name>
            </trkpt>
            <trkpt lat="47.2693109" lon="15.5824487">
                <ele>646.7</ele>
                <time>2021-08-09T09:52:30.000Z</time>
                <name>Position 74</name>
            </trkpt>
            <trkpt lat="47.2692492" lon="15.5825457">
                <ele>646.4</ele>
                <time>2021-08-09T09:55:29.000Z</time>
                <name>Position 75</name>
            </trkpt>
            <trkpt lat="47.2693411" lon="15.5825647">
                <ele>645.8</ele>
                <time>2021-08-09T10:04:13.000Z</time>
                <name>Position 76</name>
            </trkpt>
            <trkpt lat="47.2692536" lon="15.5825293">
                <ele>655.4</ele>
                <time>2021-08-09T10:08:29.000Z</time>
                <name>Position 77</name>
            </trkpt>
            <trkpt lat="47.2693415" lon="15.582566">
                <ele>656.5</ele>
                <time>2021-08-09T10:20:24.000Z</time>
                <name>Position 78</name>
            </trkpt>
            <trkpt lat="47.2694085" lon="15.582475">
                <ele>657.0</ele>
                <time>2021-08-09T10:31:16.000Z</time>
                <name>Position 79</name>
            </trkpt>
            <trkpt lat="47.2694586" lon="15.5825939">
                <ele>668.3</ele>
                <time>2021-08-09T10:55:41.000Z</time>
                <name>Position 80</name>
            </trkpt>
            <trkpt lat="47.2695411" lon="15.5826495">
                <ele>674.3</ele>
                <time>2021-08-09T10:58:48.000Z</time>
                <name>Position 81</name>
            </trkpt>
            <trkpt lat="47.2695969" lon="15.5827534">
                <ele>688.5</ele>
                <time>2021-08-09T11:08:03.000Z</time>
                <name>Position 82</name>
            </trkpt>
            <trkpt lat="47.2696253" lon="15.5828827">
                <ele>693.4</ele>
                <time>2021-08-09T11:09:48.000Z</time>
                <name>Position 83</name>
            </trkpt>
            <trkpt lat="47.2696467" lon="15.5830205">
                <ele>694.3</ele>
                <time>2021-08-09T11:10:30.000Z</time>
                <name>Position 84</name>
            </trkpt>
            <trkpt lat="47.2696894" lon="15.5831374">
                <ele>695.5</ele>
                <time>2021-08-09T11:20:06.000Z</time>
                <name>Position 85</name>
            </trkpt>
            <trkpt lat="47.2696752" lon="15.5832842">
                <ele>700.2</ele>
                <time>2021-08-09T11:26:01.000Z</time>
                <name>Position 86</name>
            </trkpt>
            <trkpt lat="47.2697091" lon="15.5834165">
                <ele>706.0</ele>
                <time>2021-08-09T11:26:31.000Z</time>
                <name>Position 87</name>
            </trkpt>
            <trkpt lat="47.2697703" lon="15.5835203">
                <ele>708.2</ele>
                <time>2021-08-09T11:26:43.000Z</time>
                <name>Position 88</name>
            </trkpt>
            <trkpt lat="47.2698518" lon="15.5835776">
                <ele>714.1</ele>
                <time>2021-08-09T11:27:14.000Z</time>
                <name>Position 89</name>
            </trkpt>
            <trkpt lat="47.2698493" lon="15.5837133">
                <ele>718.5</ele>
                <time>2021-08-09T11:27:32.000Z</time>
                <name>Position 90</name>
            </trkpt>
            <trkpt lat="47.2699181" lon="15.5838083">
                <ele>722.2</ele>
                <time>2021-08-09T11:27:48.000Z</time>
                <name>Position 91</name>
            </trkpt>
            <trkpt lat="47.2700089" lon="15.5837622">
                <ele>728.3</ele>
                <time>2021-08-09T11:28:20.000Z</time>
                <name>Position 92</name>
            </trkpt>
            <trkpt lat="47.270103" lon="15.583723">
                <ele>730.9</ele>
                <time>2021-08-09T11:28:34.000Z</time>
                <name>Position 93</name>
            </trkpt>
            <trkpt lat="47.2700635" lon="15.5836012">
                <ele>730.0</ele>
                <time>2021-08-09T11:29:26.000Z</time>
                <name>Position 94</name>
            </trkpt>
            <trkpt lat="47.2701286" lon="15.5837001">
                <ele>727.5</ele>
                <time>2021-08-09T11:34:58.000Z</time>
                <name>Position 95</name>
            </trkpt>
            <trkpt lat="47.2702061" lon="15.5836197">
                <ele>724.2</ele>
                <time>2021-08-09T11:35:11.000Z</time>
                <name>Position 96</name>
            </trkpt>
            <trkpt lat="47.2702885" lon="15.5835606">
                <ele>721.4</ele>
                <time>2021-08-09T11:35:25.000Z</time>
                <name>Position 97</name>
            </trkpt>
            <trkpt lat="47.2703499" lon="15.5834501">
                <ele>718.2</ele>
                <time>2021-08-09T11:35:54.000Z</time>
                <name>Position 98</name>
            </trkpt>
            <trkpt lat="47.2704012" lon="15.5833293">
                <ele>716.5</ele>
                <time>2021-08-09T11:36:14.000Z</time>
                <name>Position 99</name>
            </trkpt>
            <trkpt lat="47.270378" lon="15.5831868">
                <ele>715.5</ele>
                <time>2021-08-09T11:36:25.000Z</time>
                <name>Position 100</name>
            </trkpt>
            <trkpt lat="47.2703778" lon="15.5830424">
                <ele>710.6</ele>
                <time>2021-08-09T11:36:47.000Z</time>
                <name>Position 101</name>
            </trkpt>
            <trkpt lat="47.2703723" lon="15.5829044">
                <ele>707.2</ele>
                <time>2021-08-09T11:37:05.000Z</time>
                <name>Position 102</name>
            </trkpt>
            <trkpt lat="47.2703248" lon="15.5827906">
                <ele>704.7</ele>
                <time>2021-08-09T11:37:15.000Z</time>
                <name>Position 103</name>
            </trkpt>
            <trkpt lat="47.2703252" lon="15.5826393">
                <ele>699.4</ele>
                <time>2021-08-09T11:37:41.000Z</time>
                <name>Position 104</name>
            </trkpt>
            <trkpt lat="47.2703636" lon="15.5825151">
                <ele>698.0</ele>
                <time>2021-08-09T11:37:49.000Z</time>
                <name>Position 105</name>
            </trkpt>
            <trkpt lat="47.2703779" lon="15.5823664">
                <ele>693.0</ele>
                <time>2021-08-09T11:38:11.000Z</time>
                <name>Position 106</name>
            </trkpt>
            <trkpt lat="47.2704198" lon="15.5822489">
                <ele>693.5</ele>
                <time>2021-08-09T11:38:17.000Z</time>
                <name>Position 107</name>
            </trkpt>
            <trkpt lat="47.2704989" lon="15.5821555">
                <ele>691.4</ele>
                <time>2021-08-09T11:38:30.000Z</time>
                <name>Position 108</name>
            </trkpt>
            <trkpt lat="47.2705752" lon="15.5820688">
                <ele>689.5</ele>
                <time>2021-08-09T11:38:42.000Z</time>
                <name>Position 109</name>
            </trkpt>
            <trkpt lat="47.2706476" lon="15.5819875">
                <ele>687.1</ele>
                <time>2021-08-09T11:38:56.000Z</time>
                <name>Position 110</name>
            </trkpt>
            <trkpt lat="47.2706505" lon="15.5818385">
                <ele>684.3</ele>
                <time>2021-08-09T11:39:13.000Z</time>
                <name>Position 111</name>
            </trkpt>
            <trkpt lat="47.2706291" lon="15.5816947">
                <ele>683.2</ele>
                <time>2021-08-09T11:39:28.000Z</time>
                <name>Position 112</name>
            </trkpt>
            <trkpt lat="47.2706578" lon="15.5815652">
                <ele>679.7</ele>
                <time>2021-08-09T11:39:45.000Z</time>
                <name>Position 113</name>
            </trkpt>
            <trkpt lat="47.2706754" lon="15.5814256">
                <ele>678.7</ele>
                <time>2021-08-09T11:39:51.000Z</time>
                <name>Position 114</name>
            </trkpt>
            <trkpt lat="47.2707143" lon="15.5812887">
                <ele>678.4</ele>
                <time>2021-08-09T11:40:00.000Z</time>
                <name>Position 115</name>
            </trkpt>
            <trkpt lat="47.2707972" lon="15.5812268">
                <ele>675.7</ele>
                <time>2021-08-09T11:40:18.000Z</time>
                <name>Position 116</name>
            </trkpt>
            <trkpt lat="47.2708593" lon="15.5811226">
                <ele>675.4</ele>
                <time>2021-08-09T11:40:40.000Z</time>
                <name>Position 117</name>
            </trkpt>
            <trkpt lat="47.2708509" lon="15.5809784">
                <ele>673.2</ele>
                <time>2021-08-09T11:40:58.000Z</time>
                <name>Position 118</name>
            </trkpt>
            <trkpt lat="47.2708335" lon="15.580841">
                <ele>671.3</ele>
                <time>2021-08-09T11:41:10.000Z</time>
                <name>Position 119</name>
            </trkpt>
            <trkpt lat="47.2708733" lon="15.5807077">
                <ele>670.7</ele>
                <time>2021-08-09T11:41:18.000Z</time>
                <name>Position 120</name>
            </trkpt>
            <trkpt lat="47.2709429" lon="15.5806203">
                <ele>669.2</ele>
                <time>2021-08-09T11:41:28.000Z</time>
                <name>Position 121</name>
            </trkpt>
            <trkpt lat="47.2709756" lon="15.5804793">
                <ele>668.4</ele>
                <time>2021-08-09T11:41:35.000Z</time>
                <name>Position 122</name>
            </trkpt>
            <trkpt lat="47.2710237" lon="15.5803627">
                <ele>667.9</ele>
                <time>2021-08-09T11:41:44.000Z</time>
                <name>Position 123</name>
            </trkpt>
            <trkpt lat="47.2710938" lon="15.5802616">
                <ele>667.4</ele>
                <time>2021-08-09T11:41:52.000Z</time>
                <name>Position 124</name>
            </trkpt>
            <trkpt lat="47.2711257" lon="15.5801258">
                <ele>664.8</ele>
                <time>2021-08-09T11:42:14.000Z</time>
                <name>Position 125</name>
            </trkpt>
            <trkpt lat="47.2711238" lon="15.5799909">
                <ele>663.3</ele>
                <time>2021-08-09T11:42:23.000Z</time>
                <name>Position 126</name>
            </trkpt>
            <trkpt lat="47.2711619" lon="15.5798518">
                <ele>661.1</ele>
                <time>2021-08-09T11:42:33.000Z</time>
                <name>Position 127</name>
            </trkpt>
            <trkpt lat="47.2712333" lon="15.5797578">
                <ele>659.6</ele>
                <time>2021-08-09T11:42:41.000Z</time>
                <name>Position 128</name>
            </trkpt>
            <trkpt lat="47.2712608" lon="15.5796291">
                <ele>658.1</ele>
                <time>2021-08-09T11:42:50.000Z</time>
                <name>Position 129</name>
            </trkpt>
            <trkpt lat="47.2712963" lon="15.5794963">
                <ele>657.7</ele>
                <time>2021-08-09T11:43:03.000Z</time>
                <name>Position 130</name>
            </trkpt>
            <trkpt lat="47.2713885" lon="15.5794252">
                <ele>655.7</ele>
                <time>2021-08-09T11:43:13.000Z</time>
                <name>Position 131</name>
            </trkpt>
            <trkpt lat="47.2714457" lon="15.5793155">
                <ele>652.8</ele>
                <time>2021-08-09T11:43:25.000Z</time>
                <name>Position 132</name>
            </trkpt>
            <trkpt lat="47.271473" lon="15.5791874">
                <ele>649.4</ele>
                <time>2021-08-09T11:43:40.000Z</time>
                <name>Position 133</name>
            </trkpt>
            <trkpt lat="47.2715192" lon="15.579071">
                <ele>646.6</ele>
                <time>2021-08-09T11:43:52.000Z</time>
                <name>Position 134</name>
            </trkpt>
            <trkpt lat="47.2715723" lon="15.5789594">
                <ele>642.5</ele>
                <time>2021-08-09T11:44:11.000Z</time>
                <name>Position 135</name>
            </trkpt>
            <trkpt lat="47.2716387" lon="15.578868">
                <ele>639.7</ele>
                <time>2021-08-09T11:44:26.000Z</time>
                <name>Position 136</name>
            </trkpt>
            <trkpt lat="47.2717025" lon="15.5787732">
                <ele>637.8</ele>
                <time>2021-08-09T11:44:38.000Z</time>
                <name>Position 137</name>
            </trkpt>
            <trkpt lat="47.2717582" lon="15.5786677">
                <ele>636.4</ele>
                <time>2021-08-09T11:44:48.000Z</time>
                <name>Position 138</name>
            </trkpt>
            <trkpt lat="47.2718343" lon="15.5785971">
                <ele>634.2</ele>
                <time>2021-08-09T11:45:01.000Z</time>
                <name>Position 139</name>
            </trkpt>
            <trkpt lat="47.2719142" lon="15.5785347">
                <ele>633.5</ele>
                <time>2021-08-09T11:45:15.000Z</time>
                <name>Position 140</name>
            </trkpt>
            <trkpt lat="47.2720021" lon="15.578479">
                <ele>629.1</ele>
                <time>2021-08-09T11:45:32.000Z</time>
                <name>Position 141</name>
            </trkpt>
            <trkpt lat="47.2720703" lon="15.5783876">
                <ele>625.2</ele>
                <time>2021-08-09T11:45:50.000Z</time>
                <name>Position 142</name>
            </trkpt>
            <trkpt lat="47.2721413" lon="15.5783032">
                <ele>624.8</ele>
                <time>2021-08-09T11:46:01.000Z</time>
                <name>Position 143</name>
            </trkpt>
            <trkpt lat="47.2722259" lon="15.5782571">
                <ele>623.9</ele>
                <time>2021-08-09T11:46:16.000Z</time>
                <name>Position 144</name>
            </trkpt>
            <trkpt lat="47.272311" lon="15.5781972">
                <ele>623.1</ele>
                <time>2021-08-09T11:46:25.000Z</time>
                <name>Position 145</name>
            </trkpt>
            <trkpt lat="47.2722224" lon="15.5781448">
                <ele>620.3</ele>
                <time>2021-08-09T11:46:39.000Z</time>
                <name>Position 146</name>
            </trkpt>
            <trkpt lat="47.2721425" lon="15.5780798">
                <ele>615.4</ele>
                <time>2021-08-09T11:47:04.000Z</time>
                <name>Position 147</name>
            </trkpt>
            <trkpt lat="47.2721707" lon="15.577952">
                <ele>615.3</ele>
                <time>2021-08-09T11:47:10.000Z</time>
                <name>Position 148</name>
            </trkpt>
            <trkpt lat="47.2722336" lon="15.5778512">
                <ele>615.4</ele>
                <time>2021-08-09T11:47:18.000Z</time>
                <name>Position 149</name>
            </trkpt>
            <trkpt lat="47.2722923" lon="15.5777444">
                <ele>615.3</ele>
                <time>2021-08-09T11:47:29.000Z</time>
                <name>Position 150</name>
            </trkpt>
            <trkpt lat="47.2722645" lon="15.5778708">
                <ele>615.2</ele>
                <time>2021-08-09T11:51:25.000Z</time>
                <name>Position 151</name>
            </trkpt>
            <trkpt lat="47.272205" lon="15.5780116">
                <ele>615.9</ele>
                <time>2021-08-09T11:51:33.000Z</time>
                <name>Position 152</name>
            </trkpt>
            <trkpt lat="47.2721063" lon="15.5781192">
                <ele>616.6</ele>
                <time>2021-08-09T11:51:35.000Z</time>
                <name>Position 153</name>
            </trkpt>
            <trkpt lat="47.27203" lon="15.5781956">
                <ele>617.1</ele>
                <time>2021-08-09T11:51:36.000Z</time>
                <name>Position 154</name>
            </trkpt>
        </trkseg>
    </trk>
</gpx>
